{
"type": "FeatureCollection",
"name": "patch_27928_features",
"crs": { "type": "name", "properties": { "name": "urn:ogc:def:crs:OGC:1.3:CRS84" } },
"features": [
{ "type": "Feature", "properties": { "@type": "way", "@id": 28139987, "alt_name:bg": null, "alt_name:el": null, "amenity": null, "bath:type": null, "boat": "no", "bridge": null, "ele": null, "highway": null, "historic": null, "layer": null, "lit": null, "name": "Ρέμα Θερμιών", "name:bg": null, "name:el": null, "name:en": null, "name:mk": null, "name:tr": null, "natural": null, "place": null, "population": null, "ruins": null, "source": null, "surface": null, "trail_visibility": null, "waterway": "stream", "wikidata": null, "wikipedia": null, "label": "waterway:stream" }, "geometry": { "type": "LineString", "coordinates": [ [ 24.445100233358591, 41.468652629916363 ], [ 24.4453587, 41.4685086 ], [ 24.4465968, 41.4678221 ], [ 24.4474543, 41.4674713 ], [ 24.4477895, 41.46719 ], [ 24.4484143, 41.4666656 ], [ 24.4494212, 41.4657953 ], [ 24.4499426, 41.4654609 ], [ 24.4506255, 41.4651264 ], [ 24.4513347, 41.4647728 ], [ 24.4514168, 41.4646697 ], [ 24.4512966, 41.4641443 ], [ 24.450802, 41.4636808 ], [ 24.451192, 41.4634501 ], [ 24.4522075, 41.4634501 ], [ 24.4526393, 41.4633612 ], [ 24.453371, 41.4633862 ], [ 24.4533785, 41.4625966 ], [ 24.4537015, 41.4625331 ], [ 24.4539439, 41.462716 ], [ 24.4540791, 41.4632306 ], [ 24.4542787, 41.4634827 ], [ 24.4546268, 41.4634284 ], [ 24.4548363, 41.4632654 ], [ 24.4551428, 41.4628904 ], [ 24.4550861, 41.4623462 ], [ 24.4549028, 41.4620215 ], [ 24.454873, 41.4617892 ], [ 24.4550426, 41.4614835 ], [ 24.455447, 41.4612881 ], [ 24.4561101, 41.4610658 ], [ 24.4568574, 41.4610007 ], [ 24.4571417, 41.4608702 ], [ 24.4579256, 41.4609107 ], [ 24.4579339, 41.4606985 ], [ 24.4575823, 41.4603674 ], [ 24.4572125, 41.4598597 ], [ 24.4574508, 41.4596471 ], [ 24.4577924, 41.4596642 ], [ 24.4582268, 41.4599011 ], [ 24.4585034, 41.460036 ], [ 24.458932, 41.459907 ], [ 24.4594253, 41.4594161 ], [ 24.4594195, 41.4589724 ], [ 24.4593115, 41.4587374 ], [ 24.4594984, 41.4585193 ], [ 24.459405, 41.4580341 ], [ 24.4601036, 41.4575826 ], [ 24.460682, 41.45675 ], [ 24.4603553, 41.4561229 ], [ 24.4605417, 41.4558765 ], [ 24.4604429, 41.4555516 ], [ 24.4600245, 41.4549252 ], [ 24.4606082, 41.4548689 ], [ 24.4618892, 41.4551262 ], [ 24.4629567, 41.4551125 ], [ 24.4636852, 41.4548182 ], [ 24.4645016, 41.4542891 ], [ 24.4645102, 41.453686 ], [ 24.4646701, 41.4530942 ], [ 24.4654029, 41.4529334 ], [ 24.4658631, 41.4525345 ], [ 24.4664092, 41.4527991 ], [ 24.466832, 41.4528988 ], [ 24.4672627, 41.4528244 ], [ 24.4670374, 41.4524336 ], [ 24.46698266928524, 41.452078768198348 ] ] } },
{ "type": "Feature", "properties": { "@type": "way", "@id": 28139992, "alt_name:bg": null, "alt_name:el": null, "amenity": null, "bath:type": null, "boat": "no", "bridge": null, "ele": null, "highway": null, "historic": null, "layer": null, "lit": null, "name": "Agroktimatos rema", "name:bg": null, "name:el": null, "name:en": null, "name:mk": null, "name:tr": null, "natural": null, "place": null, "population": null, "ruins": null, "source": null, "surface": null, "trail_visibility": null, "waterway": "stream", "wikidata": null, "wikipedia": null, "label": "waterway:stream" }, "geometry": { "type": "LineString", "coordinates": [ [ 24.465406921118969, 41.475791961093996 ], [ 24.4651354, 41.4753173 ], [ 24.4646204, 41.4748028 ], [ 24.4637621, 41.4739025 ], [ 24.4640176, 41.473136 ], [ 24.4640492, 41.4722475 ], [ 24.4641645, 41.4717103 ], [ 24.4640455, 41.4715455 ], [ 24.4636061, 41.4714784 ], [ 24.4631568, 41.4714905 ], [ 24.4628428, 41.4713365 ], [ 24.4626807, 41.4709973 ], [ 24.4625605, 41.4700438 ], [ 24.4620455, 41.4692721 ], [ 24.4618739, 41.4685003 ], [ 24.4625605, 41.4674713 ], [ 24.4622172, 41.4666995 ], [ 24.4615305, 41.4659277 ], [ 24.4605006, 41.4651558 ], [ 24.4605006, 41.4641268 ], [ 24.4596423, 41.4634836 ], [ 24.4590253, 41.4624283 ], [ 24.4584728, 41.4618112 ], [ 24.4585954, 41.461164 ], [ 24.4586646, 41.4609507 ], [ 24.4587869, 41.4608279 ], [ 24.4585034, 41.460036 ] ] } },
{ "type": "Feature", "properties": { "@type": "node", "@id": 9049228294, "alt_name:bg": null, "alt_name:el": null, "amenity": null, "bath:type": null, "boat": null, "bridge": null, "ele": null, "highway": null, "historic": null, "layer": null, "lit": null, "name": null, "name:bg": null, "name:el": null, "name:en": null, "name:mk": null, "name:tr": null, "natural": "hot_spring", "place": null, "population": null, "ruins": null, "source": null, "surface": null, "trail_visibility": null, "waterway": null, "wikidata": null, "wikipedia": null, "label": "natural:hot_spring" }, "geometry": { "type": "Point", "coordinates": [ 24.4507317, 41.4654078 ] } },
{ "type": "Feature", "properties": { "@type": "node", "@id": 9084410114, "alt_name:bg": null, "alt_name:el": null, "amenity": null, "bath:type": null, "boat": null, "bridge": null, "ele": "524", "highway": null, "historic": null, "layer": null, "lit": null, "name": "Πηγή", "name:bg": null, "name:el": null, "name:en": null, "name:mk": null, "name:tr": null, "natural": "spring", "place": null, "population": null, "ruins": null, "source": null, "surface": null, "trail_visibility": null, "waterway": null, "wikidata": null, "wikipedia": null, "label": "natural:spring" }, "geometry": { "type": "Point", "coordinates": [ 24.4599378, 41.4592277 ] } },
{ "type": "Feature", "properties": { "@type": "node", "@id": 13265840018, "alt_name:bg": "Авго", "alt_name:el": "Τόμαλ", "amenity": null, "bath:type": null, "boat": null, "bridge": null, "ele": null, "highway": null, "historic": "ruins", "layer": null, "lit": null, "name": "Αυγό", "name:bg": "Томал", "name:el": "Αυγό", "name:en": "Avgo (Tomal)", "name:mk": null, "name:tr": null, "natural": null, "place": null, "population": null, "ruins": "village", "source": null, "surface": null, "trail_visibility": null, "waterway": null, "wikidata": "Q12296699", "wikipedia": "bg:Томал", "label": "historic:ruins" }, "geometry": { "type": "Point", "coordinates": [ 24.4598094, 41.4554187 ] } },
{ "type": "Feature", "properties": { "@type": "way", "@id": 509767059, "alt_name:bg": null, "alt_name:el": null, "amenity": "public_bath", "bath:type": "hot_spring", "boat": null, "bridge": null, "ele": null, "highway": null, "historic": null, "layer": null, "lit": null, "name": "Θέρμια", "name:bg": null, "name:el": "Θέρμια", "name:en": null, "name:mk": "Топли бањи", "name:tr": null, "natural": null, "place": null, "population": null, "ruins": null, "source": null, "surface": null, "trail_visibility": null, "waterway": null, "wikidata": null, "wikipedia": null, "label": "amenity:public_bath" }, "geometry": { "type": "Polygon", "coordinates": [ [ [ 24.4501925, 41.4665345 ], [ 24.4508264, 41.4663661 ], [ 24.4521012, 41.4656993 ], [ 24.4509234, 41.4651379 ], [ 24.4500747, 41.4655264 ], [ 24.4492958, 41.4660395 ], [ 24.4501925, 41.4665345 ] ] ] } }
]
}
