{
"type": "FeatureCollection",
"name": "patch_27928_point",
"crs": { "type": "name", "properties": { "name": "urn:ogc:def:crs:OGC:1.3:CRS84" } },
"features": [
{ "type": "Feature", "properties": { "@type": "node", "@id": 9049228294, "alt_name:bg": null, "alt_name:el": null, "amenity": null, "bath:type": null, "boat": null, "bridge": null, "ele": null, "highway": null, "historic": null, "layer": null, "lit": null, "name": null, "name:bg": null, "name:el": null, "name:en": null, "name:mk": null, "name:tr": null, "natural": "hot_spring", "place": null, "population": null, "ruins": null, "source": null, "surface": null, "trail_visibility": null, "waterway": null, "wikidata": null, "wikipedia": null, "label": "natural:hot_spring" }, "geometry": { "type": "Point", "coordinates": [ 24.4507317, 41.4654078 ] } },
{ "type": "Feature", "properties": { "@type": "node", "@id": 9084410114, "alt_name:bg": null, "alt_name:el": null, "amenity": null, "bath:type": null, "boat": null, "bridge": null, "ele": "524", "highway": null, "historic": null, "layer": null, "lit": null, "name": "Πηγή", "name:bg": null, "name:el": null, "name:en": null, "name:mk": null, "name:tr": null, "natural": "spring", "place": null, "population": null, "ruins": null, "source": null, "surface": null, "trail_visibility": null, "waterway": null, "wikidata": null, "wikipedia": null, "label": "natural:spring" }, "geometry": { "type": "Point", "coordinates": [ 24.4599378, 41.4592277 ] } },
{ "type": "Feature", "properties": { "@type": "node", "@id": 13265840018, "alt_name:bg": "Авго", "alt_name:el": "Τόμαλ", "amenity": null, "bath:type": null, "boat": null, "bridge": null, "ele": null, "highway": null, "historic": "ruins", "layer": null, "lit": null, "name": "Αυγό", "name:bg": "Томал", "name:el": "Αυγό", "name:en": "Avgo (Tomal)", "name:mk": null, "name:tr": null, "natural": null, "place": null, "population": null, "ruins": "village", "source": null, "surface": null, "trail_visibility": null, "waterway": null, "wikidata": "Q12296699", "wikipedia": "bg:Томал", "label": "historic:ruins" }, "geometry": { "type": "Point", "coordinates": [ 24.4598094, 41.4554187 ] } }
]
}
