{
"type": "FeatureCollection",
"name": "patch_82949_features",
"crs": { "type": "name", "properties": { "name": "urn:ogc:def:crs:OGC:1.3:CRS84" } },
"features": [
{ "type": "Feature", "properties": { "element": "node", "id": 12174980507, "ele": "257", "name": "Goritsa Neromyloi", "natural": "peak", "boat": null, "waterway": null, "wikidata": null, "name:mk": null, "old_name": null, "source": null, "landuse": null, "denomination": null, "religion": null, "leisure": null, "sport": null, "amenity": null, "building": null, "type": null, "leaf_cycle": null, "leaf_type": null, "label": "natural:peak" }, "geometry": { "type": "Point", "coordinates": [ 22.1935777, 41.026748 ] } },
{ "type": "Feature", "properties": { "element": "relation", "id": 1842455, "ele": null, "name": null, "natural": "wood", "boat": null, "waterway": null, "wikidata": null, "name:mk": null, "old_name": null, "source": "Bing (2019-04-06)", "landuse": null, "denomination": null, "religion": null, "leisure": null, "sport": null, "amenity": null, "building": null, "type": "multipolygon", "leaf_cycle": "mixed", "leaf_type": "mixed", "label": "natural:wood" }, "geometry": { "type": "MultiPolygon", "coordinates": [ [ [ [ 22.183627, 41.012816 ], [ 22.183754, 41.013182 ], [ 22.184209, 41.013542 ], [ 22.184291, 41.013606 ], [ 22.184336, 41.01384 ], [ 22.184418, 41.013972 ], [ 22.1851149, 41.0146815 ], [ 22.1854598, 41.0148133 ], [ 22.1859409, 41.0150253 ], [ 22.1863305, 41.015112 ], [ 22.1867541, 41.0151297 ], [ 22.1870885, 41.0151002 ], [ 22.1876055, 41.0149906 ], [ 22.1880381, 41.0147993 ], [ 22.1883693, 41.0146234 ], [ 22.1886599, 41.0144424 ], [ 22.1890329, 41.0136762 ], [ 22.1899068, 41.012977 ], [ 22.190749856759606, 41.012557275476325 ], [ 22.183503526475487, 41.012557275476325 ], [ 22.183627, 41.012816 ] ] ], [ [ [ 22.1910585, 41.0127824 ], [ 22.1905229, 41.0131554 ], [ 22.1900092, 41.0141271 ], [ 22.1897864, 41.0148574 ], [ 22.1889952, 41.015746 ], [ 22.1881869, 41.0165677 ], [ 22.1878707, 41.0168892 ], [ 22.1873594, 41.0177778 ], [ 22.1872818, 41.0181104 ], [ 22.1872883, 41.0181306 ], [ 22.1874963, 41.0187793 ], [ 22.187707, 41.019115 ], [ 22.188927, 41.019654 ], [ 22.190083, 41.020036 ], [ 22.191327, 41.020055 ], [ 22.1913364, 41.0200514 ], [ 22.191577, 41.019958 ], [ 22.19188, 41.019821 ], [ 22.1922851, 41.0197727 ], [ 22.1929382, 41.0195165 ], [ 22.1931231, 41.0196066 ], [ 22.1931081, 41.0197455 ], [ 22.1927876, 41.020011 ], [ 22.192669, 41.0203001 ], [ 22.1928316, 41.0205508 ], [ 22.1930445, 41.0207 ], [ 22.1934788, 41.0209853 ], [ 22.1931319, 41.0212361 ], [ 22.1928676, 41.0214017 ], [ 22.1925627, 41.0215581 ], [ 22.1925334, 41.0217149 ], [ 22.1927552, 41.0218172 ], [ 22.193597, 41.021864 ], [ 22.1943944, 41.0222847 ], [ 22.1947547, 41.0224748 ], [ 22.1956576, 41.0225843 ], [ 22.1960212, 41.0229329 ], [ 22.19614551894044, 41.023054322432962 ], [ 22.19614551894044, 41.012557275476325 ], [ 22.191518930934688, 41.012557275476325 ], [ 22.1910585, 41.0127824 ] ] ] ] } },
{ "type": "Feature", "properties": { "element": "way", "id": 37300426, "ele": null, "name": null, "natural": "scrub", "boat": null, "waterway": null, "wikidata": null, "name:mk": null, "old_name": null, "source": null, "landuse": null, "denomination": null, "religion": null, "leisure": null, "sport": null, "amenity": null, "building": null, "type": null, "leaf_cycle": null, "leaf_type": null, "label": "natural:scrub" }, "geometry": { "type": "Polygon", "coordinates": [ [ [ 22.1740977, 41.0273568 ], [ 22.1739899, 41.0282518 ], [ 22.1741615, 41.0292878 ], [ 22.1743332, 41.0304533 ], [ 22.1741492, 41.0318884 ], [ 22.1740076, 41.0325358 ], [ 22.1737315, 41.0333154 ], [ 22.1736819, 41.0338967 ], [ 22.1737263, 41.0342405 ], [ 22.174011627654778, 41.035301459341717 ], [ 22.176973743404126, 41.035301459341717 ], [ 22.1770532, 41.035199 ], [ 22.17777, 41.035215 ], [ 22.1801194, 41.0349568 ], [ 22.1803677, 41.0348674 ], [ 22.180658, 41.0346704 ], [ 22.1807491, 41.034487 ], [ 22.1807403, 41.03431 ], [ 22.1805254, 41.0341565 ], [ 22.1801632, 41.0339754 ], [ 22.180198, 41.0336722 ], [ 22.17998, 41.0334973 ], [ 22.1800935, 41.0331382 ], [ 22.1796713, 41.0330507 ], [ 22.1793316, 41.0332217 ], [ 22.1790442, 41.0336535 ], [ 22.1774613, 41.033261 ], [ 22.1773277, 41.0327528 ], [ 22.1766763, 41.0326323 ], [ 22.1769086, 41.0319209 ], [ 22.1776208, 41.0318902 ], [ 22.1778865, 41.0319226 ], [ 22.1803366, 41.0322214 ], [ 22.1807695, 41.0323046 ], [ 22.1813077, 41.0323474 ], [ 22.1818963, 41.0323498 ], [ 22.1820685, 41.0323985 ], [ 22.1824031, 41.0325347 ], [ 22.1828855, 41.0324099 ], [ 22.1834369, 41.0322144 ], [ 22.1839676, 41.031915 ], [ 22.1843118, 41.0316725 ], [ 22.1847133, 41.0313815 ], [ 22.1849733, 41.0311199 ], [ 22.1849923, 41.0311008 ], [ 22.1852027, 41.030781 ], [ 22.1853067, 41.0304488 ], [ 22.1853512, 41.0299345 ], [ 22.1851653, 41.0295319 ], [ 22.1845283, 41.0281257 ], [ 22.1846657, 41.0272288 ], [ 22.184706, 41.0269073 ], [ 22.1838696, 41.0254473 ], [ 22.1826918, 41.0253716 ], [ 22.181675, 41.0266667 ], [ 22.181087, 41.0271766 ], [ 22.1806847, 41.0273453 ], [ 22.1796547, 41.0270863 ], [ 22.1787964, 41.0274748 ], [ 22.1772514, 41.0279928 ], [ 22.1767373, 41.0282996 ], [ 22.1761283, 41.0285745 ], [ 22.1758439, 41.0285277 ], [ 22.1756846, 41.0283976 ], [ 22.1756167, 41.0280891 ], [ 22.1767365, 41.0266978 ], [ 22.1769803, 41.0258192 ], [ 22.1768841, 41.0254737 ], [ 22.1765167, 41.0252781 ], [ 22.1747165, 41.0254607 ], [ 22.1744173, 41.0256489 ], [ 22.1741615, 41.0268273 ], [ 22.1740977, 41.0273568 ] ] ] } },
{ "type": "Feature", "properties": { "element": "way", "id": 37300563, "ele": null, "name": "Κρύο Ρέμα", "natural": null, "boat": "no", "waterway": "stream", "wikidata": "Q25160088", "name:mk": null, "old_name": null, "source": null, "landuse": null, "denomination": null, "religion": null, "leisure": null, "sport": null, "amenity": null, "building": null, "type": null, "leaf_cycle": null, "leaf_type": null, "label": "waterway:stream" }, "geometry": { "type": "LineString", "coordinates": [ [ 22.194396313360468, 41.035301459341717 ], [ 22.194102, 41.0349676 ], [ 22.1939507, 41.0344028 ], [ 22.1939167, 41.0334886 ], [ 22.1938699, 41.0328585 ], [ 22.193484, 41.0319785 ], [ 22.193316, 41.0316312 ], [ 22.193383, 41.0314676 ], [ 22.1934911, 41.0313823 ], [ 22.1936605, 41.0312486 ], [ 22.1937995, 41.0310192 ], [ 22.1936712, 41.030617 ], [ 22.1936357, 41.0305057 ], [ 22.1928132, 41.029401 ] ] } },
{ "type": "Feature", "properties": { "element": "way", "id": 177954941, "ele": null, "name": "Megalo Potami", "natural": null, "boat": "no", "waterway": "river", "wikidata": null, "name:mk": "Голема Река", "old_name": "Golema", "source": null, "landuse": null, "denomination": null, "religion": null, "leisure": null, "sport": null, "amenity": null, "building": null, "type": null, "leaf_cycle": null, "leaf_type": null, "label": "waterway:river" }, "geometry": { "type": "LineString", "coordinates": [ [ 22.1928132, 41.029401 ], [ 22.1924164, 41.0292113 ], [ 22.1920825, 41.028979 ], [ 22.1915769, 41.0287473 ], [ 22.1912735, 41.0286356 ], [ 22.1909639, 41.0284228 ], [ 22.1905876, 41.0280579 ], [ 22.1903254, 41.0277948 ], [ 22.1902164, 41.0275451 ], [ 22.1900483, 41.0271042 ], [ 22.1897986, 41.0268365 ], [ 22.1893354, 41.0265925 ], [ 22.1887544, 41.0264225 ], [ 22.1882322, 41.0261474 ], [ 22.1867224, 41.0255725 ], [ 22.185768, 41.0250829 ], [ 22.1849125, 41.0249528 ], [ 22.1841853, 41.0248098 ], [ 22.1839735, 41.0247904 ], [ 22.1837146, 41.0248115 ], [ 22.1834545, 41.0247226 ], [ 22.1833661, 41.0246536 ], [ 22.1832184, 41.0245731 ], [ 22.1831187, 41.0245593 ], [ 22.1827611, 41.0245827 ], [ 22.1819755, 41.024737 ], [ 22.18128, 41.0247818 ], [ 22.1804491, 41.0247236 ], [ 22.1801451, 41.024681 ], [ 22.1799853, 41.0245644 ], [ 22.1798494, 41.0244711 ], [ 22.1797017, 41.0241645 ], [ 22.1796432, 41.02398 ], [ 22.1796248, 41.023719 ], [ 22.1795031, 41.0236088 ], [ 22.1793929, 41.0235546 ], [ 22.1791573, 41.0235044 ], [ 22.1788979, 41.0234674 ], [ 22.1777068, 41.0235432 ], [ 22.1773479, 41.0235509 ], [ 22.1769709, 41.0234468 ], [ 22.1766088, 41.0232719 ], [ 22.1764893, 41.0231909 ], [ 22.1761291, 41.0227167 ], [ 22.1756888, 41.0223768 ], [ 22.1752594, 41.0221109 ], [ 22.1747853, 41.0219659 ], [ 22.1741671, 41.0219016 ], [ 22.1738543, 41.021891 ], [ 22.1724135, 41.0220261 ], [ 22.1708108, 41.0222187 ], [ 22.1701203, 41.022245 ], [ 22.1699383, 41.0222335 ], [ 22.1691927, 41.0221429 ], [ 22.1685122, 41.0220032 ], [ 22.1657949, 41.0207889 ], [ 22.165289735449054, 41.020600286593556 ] ] } },
{ "type": "Feature", "properties": { "element": "way", "id": 303739437, "ele": null, "name": null, "natural": null, "boat": null, "waterway": "stream", "wikidata": "Q25155331", "name:mk": null, "old_name": null, "source": null, "landuse": null, "denomination": null, "religion": null, "leisure": null, "sport": null, "amenity": null, "building": null, "type": null, "leaf_cycle": null, "leaf_type": null, "label": "waterway:stream" }, "geometry": { "type": "LineString", "coordinates": [ [ 22.19614551894044, 41.030671781146744 ], [ 22.1957084, 41.0306864 ], [ 22.195517, 41.030672 ], [ 22.1953384, 41.0306383 ], [ 22.1946048, 41.0306768 ], [ 22.1939925, 41.0306335 ], [ 22.1936712, 41.030617 ] ] } },
{ "type": "Feature", "properties": { "element": "way", "id": 492220386, "ele": null, "name": null, "natural": "wood", "boat": null, "waterway": null, "wikidata": null, "name:mk": null, "old_name": null, "source": "Bing", "landuse": null, "denomination": null, "religion": null, "leisure": null, "sport": null, "amenity": null, "building": null, "type": null, "leaf_cycle": null, "leaf_type": null, "label": "natural:wood" }, "geometry": { "type": "Polygon", "coordinates": [ [ [ 22.1718684, 41.0237023 ], [ 22.1710959, 41.0236092 ], [ 22.1705809, 41.0239127 ], [ 22.170538, 41.0241434 ], [ 22.1717826, 41.0242689 ], [ 22.1718684, 41.0237023 ] ] ] } },
{ "type": "Feature", "properties": { "element": "way", "id": 492220400, "ele": null, "name": null, "natural": "wood", "boat": null, "waterway": null, "wikidata": null, "name:mk": null, "old_name": null, "source": "Bing", "landuse": null, "denomination": null, "religion": null, "leisure": null, "sport": null, "amenity": null, "building": null, "type": null, "leaf_cycle": null, "leaf_type": null, "label": "natural:wood" }, "geometry": { "type": "Polygon", "coordinates": [ [ [ 22.1695939, 41.0331112 ], [ 22.169272, 41.0331233 ], [ 22.1693793, 41.033791 ], [ 22.1697226, 41.0337546 ], [ 22.1695939, 41.0331112 ] ] ] } },
{ "type": "Feature", "properties": { "element": "way", "id": 492220403, "ele": null, "name": null, "natural": "wood", "boat": null, "waterway": null, "wikidata": null, "name:mk": null, "old_name": null, "source": "Bing", "landuse": null, "denomination": null, "religion": null, "leisure": null, "sport": null, "amenity": null, "building": null, "type": null, "leaf_cycle": null, "leaf_type": null, "label": "natural:wood" }, "geometry": { "type": "Polygon", "coordinates": [ [ [ 22.1722332, 41.0336615 ], [ 22.1721688, 41.0332568 ], [ 22.171568, 41.0333216 ], [ 22.1716538, 41.033706 ], [ 22.1722332, 41.0336615 ] ] ] } },
{ "type": "Feature", "properties": { "element": "way", "id": 492220405, "ele": null, "name": null, "natural": null, "boat": null, "waterway": null, "wikidata": null, "name:mk": null, "old_name": null, "source": "Bing", "landuse": "forest", "denomination": null, "religion": null, "leisure": null, "sport": null, "amenity": null, "building": null, "type": null, "leaf_cycle": null, "leaf_type": null, "label": "landuse:forest" }, "geometry": { "type": "Polygon", "coordinates": [ [ [ 22.1678987, 41.0352113 ], [ 22.1668688, 41.0351789 ], [ 22.166896408033029, 41.035301459341717 ], [ 22.16790369079775, 41.035301459341717 ], [ 22.1678987, 41.0352113 ] ] ] } },
{ "type": "Feature", "properties": { "element": "way", "id": 533625240, "ele": null, "name": null, "natural": null, "boat": null, "waterway": null, "wikidata": null, "name:mk": null, "old_name": null, "source": null, "landuse": "cemetery", "denomination": "orthodox", "religion": "christian", "leisure": null, "sport": null, "amenity": null, "building": null, "type": null, "leaf_cycle": null, "leaf_type": null, "label": "landuse:cemetery" }, "geometry": { "type": "Polygon", "coordinates": [ [ [ 22.1878728, 41.0277167 ], [ 22.1881997, 41.0277061 ], [ 22.1883819, 41.0276568 ], [ 22.1882698, 41.0274031 ], [ 22.1878121, 41.0274172 ], [ 22.1878728, 41.0277167 ] ] ] } },
{ "type": "Feature", "properties": { "element": "way", "id": 533625778, "ele": null, "name": null, "natural": null, "boat": null, "waterway": null, "wikidata": null, "name:mk": null, "old_name": null, "source": null, "landuse": null, "denomination": null, "religion": null, "leisure": "pitch", "sport": "basketball", "amenity": null, "building": null, "type": null, "leaf_cycle": null, "leaf_type": null, "label": "sport:basketball;leisure:pitch" }, "geometry": { "type": "Polygon", "coordinates": [ [ [ 22.1874372, 41.0286393 ], [ 22.1874722, 41.0283522 ], [ 22.1872177, 41.0283364 ], [ 22.187185, 41.0286252 ], [ 22.1874372, 41.0286393 ] ] ] } },
{ "type": "Feature", "properties": { "element": "way", "id": 533625847, "ele": null, "name": null, "natural": null, "boat": null, "waterway": null, "wikidata": null, "name:mk": null, "old_name": null, "source": null, "landuse": null, "denomination": null, "religion": "christian", "leisure": null, "sport": null, "amenity": "place_of_worship", "building": "yes", "type": null, "leaf_cycle": null, "leaf_type": null, "label": "building:yes;amenity:place_of_worship" }, "geometry": { "type": "Polygon", "coordinates": [ [ [ 22.1875246, 41.0277582 ], [ 22.1875647, 41.0277582 ], [ 22.1875678, 41.0277303 ], [ 22.1877649, 41.027721 ], [ 22.1877557, 41.0275815 ], [ 22.1875123, 41.0275955 ], [ 22.1875246, 41.0277582 ] ] ] } },
{ "type": "Feature", "properties": { "element": "way", "id": 533630256, "ele": null, "name": null, "natural": null, "boat": null, "waterway": null, "wikidata": null, "name:mk": null, "old_name": null, "source": null, "landuse": "cemetery", "denomination": "orthodox", "religion": "christian", "leisure": null, "sport": null, "amenity": null, "building": null, "type": null, "leaf_cycle": null, "leaf_type": null, "label": "landuse:cemetery" }, "geometry": { "type": "Polygon", "coordinates": [ [ [ 22.1858161, 41.022234 ], [ 22.1860638, 41.0222126 ], [ 22.1860107, 41.0219376 ], [ 22.1857807, 41.021967 ], [ 22.1858161, 41.022234 ] ] ] } },
{ "type": "Feature", "properties": { "element": "way", "id": 1092723498, "ele": null, "name": null, "natural": null, "boat": null, "waterway": "stream", "wikidata": null, "name:mk": null, "old_name": null, "source": null, "landuse": null, "denomination": null, "religion": null, "leisure": null, "sport": null, "amenity": null, "building": null, "type": null, "leaf_cycle": null, "leaf_type": null, "label": "waterway:stream" }, "geometry": { "type": "LineString", "coordinates": [ [ 22.165289735449054, 41.033432082347495 ], [ 22.1658424, 41.0329064 ], [ 22.1663949, 41.0325161 ], [ 22.1672423, 41.0320423 ], [ 22.1684963, 41.0315068 ], [ 22.1704554, 41.0307117 ], [ 22.1715141, 41.0303036 ], [ 22.1717059, 41.0301982 ], [ 22.1719352, 41.0300105 ], [ 22.1726258, 41.0295065 ], [ 22.1728672, 41.0291904 ], [ 22.1734568, 41.0283561 ], [ 22.173878, 41.0274497 ], [ 22.1740739, 41.026608 ], [ 22.1740542, 41.0259735 ], [ 22.17397, 41.0254118 ], [ 22.1738921, 41.0252563 ], [ 22.1735921, 41.0246571 ], [ 22.1726767, 41.0226328 ], [ 22.1724135, 41.0220261 ] ] } },
{ "type": "Feature", "properties": { "element": "way", "id": 1196779454, "ele": null, "name": null, "natural": null, "boat": null, "waterway": null, "wikidata": null, "name:mk": null, "old_name": null, "source": null, "landuse": "residential", "denomination": null, "religion": null, "leisure": null, "sport": null, "amenity": null, "building": null, "type": null, "leaf_cycle": null, "leaf_type": null, "label": "landuse:residential" }, "geometry": { "type": "MultiPolygon", "coordinates": [ [ [ [ 22.1735701, 41.0127808 ], [ 22.1745156, 41.0128017 ], [ 22.1746048, 41.0127832 ], [ 22.1746605, 41.0127529 ], [ 22.174651803405293, 41.012557275476325 ], [ 22.173367114310853, 41.012557275476325 ], [ 22.1735701, 41.0127808 ] ] ], [ [ [ 22.1755323, 41.0125813 ], [ 22.1758511, 41.0125813 ], [ 22.176054457724479, 41.012557275476325 ], [ 22.175296307753243, 41.012557275476325 ], [ 22.1755323, 41.0125813 ] ] ], [ [ [ 22.1769195, 41.0126202 ], [ 22.1774351, 41.0126124 ], [ 22.1785931, 41.0127661 ], [ 22.178788189220398, 41.012557275476325 ], [ 22.176664667375128, 41.012557275476325 ], [ 22.1769195, 41.0126202 ] ] ], [ [ [ 22.1795222, 41.0127281 ], [ 22.180493182553917, 41.012557275476325 ], [ 22.179506874141193, 41.012557275476325 ], [ 22.1795222, 41.0127281 ] ] ] ] } },
{ "type": "Feature", "properties": { "element": "way", "id": 1196779456, "ele": null, "name": null, "natural": null, "boat": null, "waterway": null, "wikidata": null, "name:mk": null, "old_name": null, "source": null, "landuse": "residential", "denomination": null, "religion": null, "leisure": null, "sport": null, "amenity": null, "building": null, "type": null, "leaf_cycle": null, "leaf_type": null, "label": "landuse:residential" }, "geometry": { "type": "Polygon", "coordinates": [ [ [ 22.1847808, 41.0226187 ], [ 22.1844359, 41.0232547 ], [ 22.1845937, 41.0233989 ], [ 22.1849638, 41.023403 ], [ 22.1853098, 41.0233929 ], [ 22.1856451, 41.0233747 ], [ 22.1858019, 41.0233487 ], [ 22.1858724, 41.0234544 ], [ 22.1860219, 41.0235816 ], [ 22.1867502, 41.0242815 ], [ 22.1867823, 41.0243417 ], [ 22.1873984, 41.0245108 ], [ 22.1896697, 41.0238384 ], [ 22.1892542, 41.0231368 ], [ 22.1895891, 41.0230161 ], [ 22.189523, 41.0227972 ], [ 22.1894536, 41.0222615 ], [ 22.1887726, 41.0217111 ], [ 22.1869908, 41.0218017 ], [ 22.1857316, 41.0225332 ], [ 22.1847808, 41.0226187 ] ] ] } },
{ "type": "Feature", "properties": { "element": "way", "id": 1196779459, "ele": null, "name": null, "natural": null, "boat": null, "waterway": null, "wikidata": null, "name:mk": null, "old_name": null, "source": null, "landuse": "residential", "denomination": null, "religion": null, "leisure": null, "sport": null, "amenity": null, "building": null, "type": null, "leaf_cycle": null, "leaf_type": null, "label": "landuse:residential" }, "geometry": { "type": "Polygon", "coordinates": [ [ [ 22.1891162, 41.0285285 ], [ 22.1878894, 41.0290695 ], [ 22.1872399, 41.0294777 ], [ 22.1873296, 41.0296971 ], [ 22.1875673, 41.0302263 ], [ 22.1876976, 41.0303882 ], [ 22.1879084, 41.0305935 ], [ 22.1883723, 41.030874 ], [ 22.1884949, 41.0310186 ], [ 22.1885044, 41.0310758 ], [ 22.1885333, 41.03125 ], [ 22.1889926, 41.0312715 ], [ 22.190143, 41.0304009 ], [ 22.1912127, 41.0309282 ], [ 22.1915637, 41.0311011 ], [ 22.1922514, 41.0314401 ], [ 22.1932336, 41.0305242 ], [ 22.1933505, 41.0304152 ], [ 22.1931528, 41.0303021 ], [ 22.1930507, 41.0302419 ], [ 22.1928848, 41.0302131 ], [ 22.1928818, 41.0297047 ], [ 22.1906265, 41.0287405 ], [ 22.1897362, 41.0284953 ], [ 22.1891162, 41.0285285 ] ] ] } },
{ "type": "Feature", "properties": { "element": "way", "id": 1228214285, "ele": null, "name": null, "natural": "scrub", "boat": null, "waterway": null, "wikidata": null, "name:mk": null, "old_name": null, "source": null, "landuse": null, "denomination": null, "religion": null, "leisure": null, "sport": null, "amenity": null, "building": null, "type": null, "leaf_cycle": null, "leaf_type": null, "label": "natural:scrub" }, "geometry": { "type": "Polygon", "coordinates": [ [ [ 22.1892021, 41.0318022 ], [ 22.1891274, 41.0324152 ], [ 22.1880626, 41.0334227 ], [ 22.187138, 41.034557 ], [ 22.186670488431322, 41.035301459341717 ], [ 22.192868857292861, 41.035301459341717 ], [ 22.192826, 41.0345641 ], [ 22.1929007, 41.0335918 ], [ 22.1926019, 41.0327252 ], [ 22.1920868, 41.0321428 ], [ 22.1915184, 41.0321404 ], [ 22.1913644, 41.0318978 ], [ 22.1912956, 41.0315967 ], [ 22.1914404, 41.031387 ], [ 22.1915637, 41.0311011 ], [ 22.1912127, 41.0309282 ], [ 22.190143, 41.0304009 ], [ 22.1889926, 41.0312715 ], [ 22.1892021, 41.0318022 ] ] ] } },
{ "type": "Feature", "properties": { "element": "way", "id": 1228216546, "ele": null, "name": null, "natural": null, "boat": null, "waterway": null, "wikidata": null, "name:mk": null, "old_name": null, "source": null, "landuse": "farmland", "denomination": null, "religion": null, "leisure": null, "sport": null, "amenity": null, "building": null, "type": null, "leaf_cycle": null, "leaf_type": null, "label": "landuse:farmland" }, "geometry": { "type": "MultiPolygon", "coordinates": [ [ [ [ 22.1653568, 41.0345239 ], [ 22.165289735449054, 41.034531869386711 ], [ 22.165289735449054, 41.035301459341717 ], [ 22.174011627654778, 41.035301459341717 ], [ 22.1737263, 41.0342405 ], [ 22.1736819, 41.0338967 ], [ 22.1737315, 41.0333154 ], [ 22.1740076, 41.0325358 ], [ 22.1741492, 41.0318884 ], [ 22.1743332, 41.0304533 ], [ 22.1741615, 41.0292878 ], [ 22.1739899, 41.0282518 ], [ 22.1740977, 41.0273568 ], [ 22.1740102, 41.0273422 ], [ 22.1737019, 41.0281771 ], [ 22.173291, 41.0289522 ], [ 22.1728193, 41.0295934 ], [ 22.1722449, 41.0300161 ], [ 22.1717125, 41.0303825 ], [ 22.1707692, 41.0307806 ], [ 22.1709513, 41.0316683 ], [ 22.1703442, 41.0317212 ], [ 22.1701714, 41.0310272 ], [ 22.1696904, 41.0312139 ], [ 22.167771, 41.0319783 ], [ 22.1665662, 41.0326089 ], [ 22.1659871, 41.0330176 ], [ 22.165289735449054, 41.033610438242412 ], [ 22.165289735449054, 41.034384600154013 ], [ 22.1653568, 41.0345239 ] ] ], [ [ [ 22.187138, 41.034557 ], [ 22.1880626, 41.0334227 ], [ 22.1891274, 41.0324152 ], [ 22.1892021, 41.0318022 ], [ 22.1889926, 41.0312715 ], [ 22.1885333, 41.03125 ], [ 22.1885044, 41.0310758 ], [ 22.1884949, 41.0310186 ], [ 22.1883723, 41.030874 ], [ 22.1879084, 41.0305935 ], [ 22.1876976, 41.0303882 ], [ 22.1875673, 41.0302263 ], [ 22.1873296, 41.0296971 ], [ 22.1872399, 41.0294777 ], [ 22.1871724, 41.0293125 ], [ 22.1870691, 41.0290018 ], [ 22.1869218, 41.0286581 ], [ 22.1869032, 41.0286146 ], [ 22.1868681, 41.0284961 ], [ 22.1868505, 41.0283861 ], [ 22.1868421, 41.0283076 ], [ 22.1868509, 41.0282371 ], [ 22.1868787, 41.0281577 ], [ 22.186915, 41.0280864 ], [ 22.1870031, 41.0279494 ], [ 22.1867513, 41.0278943 ], [ 22.1863082, 41.0278269 ], [ 22.1860724, 41.027787 ], [ 22.1858447, 41.0277134 ], [ 22.1855764, 41.0275999 ], [ 22.1853691, 41.0275263 ], [ 22.1851495, 41.027465 ], [ 22.1849097, 41.0273975 ], [ 22.1847633, 41.027327 ], [ 22.1846657, 41.0272288 ], [ 22.1845283, 41.0281257 ], [ 22.1851653, 41.0295319 ], [ 22.1853512, 41.0299345 ], [ 22.1853067, 41.0304488 ], [ 22.1852027, 41.030781 ], [ 22.1849733, 41.0311199 ], [ 22.1847133, 41.0313815 ], [ 22.1843118, 41.0316725 ], [ 22.1839676, 41.031915 ], [ 22.1834369, 41.0322144 ], [ 22.1828855, 41.0324099 ], [ 22.1824031, 41.0325347 ], [ 22.1820685, 41.0323985 ], [ 22.1818963, 41.0323498 ], [ 22.1813077, 41.0323474 ], [ 22.1807695, 41.0323046 ], [ 22.1803366, 41.0322214 ], [ 22.1783329, 41.0325231 ], [ 22.1778865, 41.0319226 ], [ 22.1776208, 41.0318902 ], [ 22.1769086, 41.0319209 ], [ 22.1766763, 41.0326323 ], [ 22.1773277, 41.0327528 ], [ 22.1774613, 41.033261 ], [ 22.1790442, 41.0336535 ], [ 22.1793316, 41.0332217 ], [ 22.1796713, 41.0330507 ], [ 22.1800935, 41.0331382 ], [ 22.17998, 41.0334973 ], [ 22.180198, 41.0336722 ], [ 22.1801632, 41.0339754 ], [ 22.1805254, 41.0341565 ], [ 22.1807403, 41.03431 ], [ 22.1807491, 41.034487 ], [ 22.180658, 41.0346704 ], [ 22.1803677, 41.0348674 ], [ 22.1801194, 41.0349568 ], [ 22.17777, 41.035215 ], [ 22.1770532, 41.035199 ], [ 22.176973743404126, 41.035301459341717 ], [ 22.186670488431322, 41.035301459341717 ], [ 22.187138, 41.034557 ] ] ] ] } },
{ "type": "Feature", "properties": { "element": "way", "id": 1228216547, "ele": null, "name": null, "natural": null, "boat": null, "waterway": null, "wikidata": null, "name:mk": null, "old_name": null, "source": null, "landuse": "farmland", "denomination": null, "religion": null, "leisure": null, "sport": null, "amenity": null, "building": null, "type": null, "leaf_cycle": null, "leaf_type": null, "label": "landuse:farmland" }, "geometry": { "type": "Polygon", "coordinates": [ [ [ 22.1747165, 41.0254607 ], [ 22.1765167, 41.0252781 ], [ 22.1768841, 41.0254737 ], [ 22.1769803, 41.0258192 ], [ 22.1767365, 41.0266978 ], [ 22.1756167, 41.0280891 ], [ 22.1756846, 41.0283976 ], [ 22.1758439, 41.0285277 ], [ 22.1761283, 41.0285745 ], [ 22.1767373, 41.0282996 ], [ 22.1772514, 41.0279928 ], [ 22.1787964, 41.0274748 ], [ 22.1796547, 41.0270863 ], [ 22.1806847, 41.0273453 ], [ 22.181087, 41.0271766 ], [ 22.181675, 41.0266667 ], [ 22.1826918, 41.0253716 ], [ 22.1838696, 41.0254473 ], [ 22.184706, 41.0269073 ], [ 22.1846657, 41.0272288 ], [ 22.1847633, 41.027327 ], [ 22.1849097, 41.0273975 ], [ 22.1851495, 41.027465 ], [ 22.1853691, 41.0275263 ], [ 22.1855764, 41.0275999 ], [ 22.1858447, 41.0277134 ], [ 22.1860724, 41.027787 ], [ 22.1863082, 41.0278269 ], [ 22.1867513, 41.0278943 ], [ 22.1870031, 41.0279494 ], [ 22.1870685, 41.027858 ], [ 22.1871814, 41.0276861 ], [ 22.1874363, 41.0273442 ], [ 22.1874667, 41.0272818 ], [ 22.1875778, 41.027096 ], [ 22.1876073, 41.0270078 ], [ 22.1876315, 41.0269011 ], [ 22.1876401, 41.0268024 ], [ 22.1870312, 41.0266019 ], [ 22.1867837, 41.0259396 ], [ 22.1862233, 41.0255309 ], [ 22.1857516, 41.0253724 ], [ 22.184925, 41.0253019 ], [ 22.1837809, 41.0250518 ], [ 22.1827383, 41.0246515 ], [ 22.1819495, 41.0248328 ], [ 22.1806863, 41.0249212 ], [ 22.1800393, 41.0247538 ], [ 22.1798051, 41.0244795 ], [ 22.1793676, 41.0236892 ], [ 22.1792382, 41.0236334 ], [ 22.1787576, 41.023666 ], [ 22.1775991, 41.023745 ], [ 22.177063, 41.0236055 ], [ 22.176416, 41.0232197 ], [ 22.175621, 41.0224758 ], [ 22.1751959, 41.0222108 ], [ 22.1747584, 41.0221318 ], [ 22.1742038, 41.022248 ], [ 22.1734089, 41.0221364 ], [ 22.1726756, 41.0222062 ], [ 22.1731624, 41.0232522 ], [ 22.1739819, 41.0248793 ], [ 22.1742223, 41.0255487 ], [ 22.1744173, 41.0256489 ], [ 22.1747165, 41.0254607 ] ] ] } },
{ "type": "Feature", "properties": { "element": "way", "id": 1228218625, "ele": null, "name": null, "natural": "scrub", "boat": null, "waterway": null, "wikidata": null, "name:mk": null, "old_name": null, "source": null, "landuse": null, "denomination": null, "religion": null, "leisure": null, "sport": null, "amenity": null, "building": null, "type": null, "leaf_cycle": null, "leaf_type": null, "label": "natural:scrub" }, "geometry": { "type": "MultiPolygon", "coordinates": [ [ [ [ 22.1660579, 41.0214899 ], [ 22.1663303, 41.0216955 ], [ 22.1667937, 41.021674 ], [ 22.1672003, 41.0218427 ], [ 22.1674773, 41.0219014 ], [ 22.1677415, 41.0220118 ], [ 22.1679326, 41.0220793 ], [ 22.1680708, 41.0221651 ], [ 22.1681684, 41.0222234 ], [ 22.1684083, 41.0223185 ], [ 22.1687132, 41.022389 ], [ 22.1688427, 41.0224377 ], [ 22.1702738, 41.0225757 ], [ 22.1708267, 41.0225696 ], [ 22.1715585, 41.0224592 ], [ 22.1718593, 41.0226678 ], [ 22.1723228, 41.0228457 ], [ 22.1724366, 41.0229315 ], [ 22.172831, 41.0237137 ], [ 22.1735058, 41.0250295 ], [ 22.1736237, 41.025465 ], [ 22.1738148, 41.0258913 ], [ 22.1738229, 41.0265446 ], [ 22.1737376, 41.0269648 ], [ 22.1735424, 41.0275751 ], [ 22.1732822, 41.0281087 ], [ 22.1729854, 41.0287221 ], [ 22.1725911, 41.0292098 ], [ 22.172274, 41.0295072 ], [ 22.1715544, 41.0299765 ], [ 22.17066, 41.0303752 ], [ 22.1681923, 41.0313535 ], [ 22.1665986, 41.0320006 ], [ 22.166308, 41.0322 ], [ 22.1659506, 41.0322814 ], [ 22.1657041, 41.0322581 ], [ 22.1656887, 41.0324975 ], [ 22.165289735449054, 41.032534457991808 ], [ 22.165289735449054, 41.033610438242412 ], [ 22.1659871, 41.0330176 ], [ 22.1665662, 41.0326089 ], [ 22.167771, 41.0319783 ], [ 22.1696904, 41.0312139 ], [ 22.1701714, 41.0310272 ], [ 22.1703442, 41.0317212 ], [ 22.1709513, 41.0316683 ], [ 22.1707692, 41.0307806 ], [ 22.1717125, 41.0303825 ], [ 22.1722449, 41.0300161 ], [ 22.1728193, 41.0295934 ], [ 22.173291, 41.0289522 ], [ 22.1737019, 41.0281771 ], [ 22.1740102, 41.0273422 ], [ 22.1740977, 41.0273568 ], [ 22.1741615, 41.0268273 ], [ 22.1744173, 41.0256489 ], [ 22.1742223, 41.0255487 ], [ 22.1739819, 41.0248793 ], [ 22.1731624, 41.0232522 ], [ 22.1726756, 41.0222062 ], [ 22.1734089, 41.0221364 ], [ 22.1742038, 41.022248 ], [ 22.1747584, 41.0221318 ], [ 22.1751959, 41.0222108 ], [ 22.175621, 41.0224758 ], [ 22.176416, 41.0232197 ], [ 22.177063, 41.0236055 ], [ 22.1775991, 41.023745 ], [ 22.1787576, 41.023666 ], [ 22.1792382, 41.0236334 ], [ 22.1793676, 41.0236892 ], [ 22.1798051, 41.0244795 ], [ 22.1800393, 41.0247538 ], [ 22.1806863, 41.0249212 ], [ 22.1819495, 41.0248328 ], [ 22.1827383, 41.0246515 ], [ 22.1837809, 41.0250518 ], [ 22.184925, 41.0253019 ], [ 22.1857516, 41.0253724 ], [ 22.1862233, 41.0255309 ], [ 22.1867837, 41.0259396 ], [ 22.1870312, 41.0266019 ], [ 22.1876401, 41.0268024 ], [ 22.1876209, 41.0266723 ], [ 22.187821, 41.0263738 ], [ 22.1881214, 41.0264547 ], [ 22.189028, 41.0268554 ], [ 22.1899024, 41.0273046 ], [ 22.1900633, 41.0277295 ], [ 22.1904871, 41.0280735 ], [ 22.1897362, 41.0284953 ], [ 22.1906265, 41.0287405 ], [ 22.1928818, 41.0297047 ], [ 22.1931532, 41.0300321 ], [ 22.1933505, 41.0304152 ], [ 22.1939081, 41.0302377 ], [ 22.1938227, 41.0301517 ], [ 22.1937522, 41.0300855 ], [ 22.1932511, 41.0293454 ], [ 22.1925506, 41.0284717 ], [ 22.1920556, 41.0279996 ], [ 22.1914204, 41.0277601 ], [ 22.1910935, 41.0274571 ], [ 22.190748, 41.0270273 ], [ 22.1904584, 41.0268229 ], [ 22.1900568, 41.026682 ], [ 22.1896178, 41.0263931 ], [ 22.188856, 41.0257531 ], [ 22.188795, 41.0254095 ], [ 22.1886161, 41.0251274 ], [ 22.1882624, 41.0249096 ], [ 22.1877786, 41.0247471 ], [ 22.1873984, 41.0245108 ], [ 22.1867823, 41.0243417 ], [ 22.1867502, 41.0242815 ], [ 22.1860219, 41.0235816 ], [ 22.1858724, 41.0234544 ], [ 22.1858019, 41.0233487 ], [ 22.1856451, 41.0233747 ], [ 22.1853098, 41.0233929 ], [ 22.1849638, 41.023403 ], [ 22.1845937, 41.0233989 ], [ 22.1836308, 41.0235735 ], [ 22.1834538, 41.0235755 ], [ 22.1830185, 41.0232843 ], [ 22.1824346, 41.0229326 ], [ 22.1814284, 41.0231859 ], [ 22.1812861, 41.0236153 ], [ 22.1810299, 41.0236582 ], [ 22.1803795, 41.0237594 ], [ 22.1797707, 41.0237719 ], [ 22.1796935, 41.0236124 ], [ 22.1795512, 41.0235327 ], [ 22.1793682, 41.0234744 ], [ 22.1787869, 41.0233977 ], [ 22.1782177, 41.0233977 ], [ 22.1775713, 41.0234407 ], [ 22.177303, 41.0234162 ], [ 22.1766281, 41.0231156 ], [ 22.1762785, 41.0226402 ], [ 22.1757689, 41.0221639 ], [ 22.1749497, 41.021792 ], [ 22.1741565, 41.0217053 ], [ 22.1737191, 41.0217137 ], [ 22.1717611, 41.0219315 ], [ 22.1715323, 41.0219569 ], [ 22.1704311, 41.0220838 ], [ 22.1699818, 41.0220636 ], [ 22.1694908, 41.0220768 ], [ 22.1685308, 41.021824 ], [ 22.1669657, 41.0211714 ], [ 22.1662223, 41.0207082 ], [ 22.1660102, 41.0206986 ], [ 22.165289735449054, 41.02038330262161 ], [ 22.165289735449054, 41.021128624709498 ], [ 22.1660579, 41.0214899 ] ] ], [ [ [ 22.1653568, 41.0345239 ], [ 22.165289735449054, 41.034384600154013 ], [ 22.165289735449054, 41.034531869386711 ], [ 22.1653568, 41.0345239 ] ] ] ] } },
{ "type": "Feature", "properties": { "element": "way", "id": 1228222356, "ele": null, "name": null, "natural": null, "boat": null, "waterway": null, "wikidata": null, "name:mk": null, "old_name": null, "source": null, "landuse": "farmland", "denomination": null, "religion": null, "leisure": null, "sport": null, "amenity": null, "building": null, "type": null, "leaf_cycle": null, "leaf_type": null, "label": "landuse:farmland" }, "geometry": { "type": "Polygon", "coordinates": [ [ [ 22.1656887, 41.0324975 ], [ 22.1657041, 41.0322581 ], [ 22.1659506, 41.0322814 ], [ 22.166308, 41.0322 ], [ 22.1665986, 41.0320006 ], [ 22.1681923, 41.0313535 ], [ 22.17066, 41.0303752 ], [ 22.1715544, 41.0299765 ], [ 22.172274, 41.0295072 ], [ 22.1725911, 41.0292098 ], [ 22.1729854, 41.0287221 ], [ 22.1732822, 41.0281087 ], [ 22.1735424, 41.0275751 ], [ 22.1737376, 41.0269648 ], [ 22.1738229, 41.0265446 ], [ 22.1738148, 41.0258913 ], [ 22.1736237, 41.025465 ], [ 22.1735058, 41.0250295 ], [ 22.172831, 41.0237137 ], [ 22.1724366, 41.0229315 ], [ 22.1723228, 41.0228457 ], [ 22.1718593, 41.0226678 ], [ 22.1715585, 41.0224592 ], [ 22.1708267, 41.0225696 ], [ 22.1702738, 41.0225757 ], [ 22.1688427, 41.0224377 ], [ 22.1687132, 41.022389 ], [ 22.1684083, 41.0223185 ], [ 22.1681684, 41.0222234 ], [ 22.1680708, 41.0221651 ], [ 22.1679326, 41.0220793 ], [ 22.1677415, 41.0220118 ], [ 22.1674773, 41.0219014 ], [ 22.1672003, 41.0218427 ], [ 22.1667937, 41.021674 ], [ 22.1663303, 41.0216955 ], [ 22.1660579, 41.0214899 ], [ 22.165289735449054, 41.021128624709498 ], [ 22.165289735449054, 41.032534457991808 ], [ 22.1656887, 41.0324975 ] ] ] } },
{ "type": "Feature", "properties": { "element": "way", "id": 1228232144, "ele": null, "name": null, "natural": "scrub", "boat": null, "waterway": null, "wikidata": null, "name:mk": null, "old_name": null, "source": null, "landuse": null, "denomination": null, "religion": null, "leisure": null, "sport": null, "amenity": null, "building": null, "type": null, "leaf_cycle": null, "leaf_type": null, "label": "natural:scrub" }, "geometry": { "type": "Polygon", "coordinates": [ [ [ 22.1959598, 41.0305253 ], [ 22.1956218, 41.0304403 ], [ 22.1950585, 41.030501 ], [ 22.1946991, 41.0304686 ], [ 22.1943987, 41.0304282 ], [ 22.19429, 41.0304214 ], [ 22.1941729, 41.0303973 ], [ 22.1939993, 41.030334 ], [ 22.1939081, 41.0302377 ], [ 22.1933505, 41.0304152 ], [ 22.1932336, 41.0305242 ], [ 22.1933395, 41.0306075 ], [ 22.1934414, 41.0309677 ], [ 22.1932751, 41.0312469 ], [ 22.1929908, 41.0315585 ], [ 22.1926958, 41.0321169 ], [ 22.1928782, 41.0324487 ], [ 22.1931518, 41.0328858 ], [ 22.1932108, 41.0330962 ], [ 22.1932161, 41.033343 ], [ 22.1932805, 41.0335939 ], [ 22.19342, 41.0339662 ], [ 22.1934843, 41.0341766 ], [ 22.193597, 41.0344558 ], [ 22.193715, 41.034731 ], [ 22.1938223, 41.0347714 ], [ 22.1938974, 41.0350102 ], [ 22.194019621203136, 41.035301459341717 ], [ 22.194655621217454, 41.035301459341717 ], [ 22.1945974, 41.0352735 ], [ 22.1944365, 41.0350024 ], [ 22.1942594, 41.034444 ], [ 22.194179, 41.0342416 ], [ 22.1940609, 41.0340555 ], [ 22.1940608, 41.0335845 ], [ 22.1941466, 41.0331111 ], [ 22.193991, 41.0326903 ], [ 22.1938784, 41.0322815 ], [ 22.1939629, 41.0319454 ], [ 22.1941296, 41.0318501 ], [ 22.1941424, 41.0317154 ], [ 22.1940786, 41.0315325 ], [ 22.1941296, 41.0313208 ], [ 22.1941251, 41.0312699 ], [ 22.1940715, 41.0311566 ], [ 22.1940393, 41.0308774 ], [ 22.1943719, 41.0308248 ], [ 22.195021, 41.0308531 ], [ 22.1958149, 41.0308531 ], [ 22.19614551894044, 41.030926419825335 ], [ 22.19614551894044, 41.030510918322967 ], [ 22.1959598, 41.0305253 ] ] ] } },
{ "type": "Feature", "properties": { "element": "way", "id": 1228232146, "ele": null, "name": null, "natural": null, "boat": null, "waterway": null, "wikidata": null, "name:mk": null, "old_name": null, "source": null, "landuse": "farmland", "denomination": null, "religion": null, "leisure": null, "sport": null, "amenity": null, "building": null, "type": null, "leaf_cycle": null, "leaf_type": null, "label": "landuse:farmland" }, "geometry": { "type": "Polygon", "coordinates": [ [ [ 22.1958149, 41.0308531 ], [ 22.195021, 41.0308531 ], [ 22.1943719, 41.0308248 ], [ 22.1940393, 41.0308774 ], [ 22.1940715, 41.0311566 ], [ 22.1941251, 41.0312699 ], [ 22.1941296, 41.0313208 ], [ 22.1940786, 41.0315325 ], [ 22.1941424, 41.0317154 ], [ 22.1941296, 41.0318501 ], [ 22.1939629, 41.0319454 ], [ 22.1938784, 41.0322815 ], [ 22.193991, 41.0326903 ], [ 22.1941466, 41.0331111 ], [ 22.1940608, 41.0335845 ], [ 22.1940609, 41.0340555 ], [ 22.194179, 41.0342416 ], [ 22.1942594, 41.034444 ], [ 22.1944365, 41.0350024 ], [ 22.1945974, 41.0352735 ], [ 22.194655621217454, 41.035301459341717 ], [ 22.19614551894044, 41.035301459341717 ], [ 22.19614551894044, 41.030926419825335 ], [ 22.1958149, 41.0308531 ] ] ] } },
{ "type": "Feature", "properties": { "element": "way", "id": 1228232576, "ele": null, "name": null, "natural": "scrub", "boat": null, "waterway": null, "wikidata": null, "name:mk": null, "old_name": null, "source": null, "landuse": null, "denomination": null, "religion": null, "leisure": null, "sport": null, "amenity": null, "building": null, "type": null, "leaf_cycle": null, "leaf_type": null, "label": "natural:scrub" }, "geometry": { "type": "MultiPolygon", "coordinates": [ [ [ [ 22.1959779, 41.0266301 ], [ 22.1956822, 41.0266115 ], [ 22.1954172, 41.0266069 ], [ 22.195146, 41.0266905 ], [ 22.194955, 41.0268068 ], [ 22.1949181, 41.0266673 ], [ 22.1949119, 41.0263512 ], [ 22.1948872, 41.0259328 ], [ 22.1948256, 41.0256446 ], [ 22.1947394, 41.0255191 ], [ 22.1944867, 41.0254075 ], [ 22.1942402, 41.0253145 ], [ 22.1937349, 41.0252913 ], [ 22.1933775, 41.0252634 ], [ 22.1929277, 41.0253006 ], [ 22.1924594, 41.025268 ], [ 22.1919541, 41.0253145 ], [ 22.191572, 41.025361 ], [ 22.1913995, 41.0252448 ], [ 22.1912454, 41.0250635 ], [ 22.1907217, 41.0249287 ], [ 22.1903951, 41.0249565 ], [ 22.1899083, 41.0250588 ], [ 22.1898097, 41.0251379 ], [ 22.1896248, 41.0253238 ], [ 22.1894523, 41.0254075 ], [ 22.1893413, 41.0255237 ], [ 22.1893598, 41.0257422 ], [ 22.1895077, 41.0260769 ], [ 22.1897912, 41.0262815 ], [ 22.1901239, 41.0263698 ], [ 22.1908264, 41.0266487 ], [ 22.1912886, 41.0267556 ], [ 22.1919233, 41.027016 ], [ 22.1923053, 41.0272995 ], [ 22.1928353, 41.0278155 ], [ 22.193131, 41.028299 ], [ 22.1931636, 41.0285014 ], [ 22.1928221, 41.0284585 ], [ 22.1925506, 41.0284717 ], [ 22.1932511, 41.0293454 ], [ 22.1931473, 41.0291179 ], [ 22.1932245, 41.0290136 ], [ 22.1933628, 41.0289185 ], [ 22.1936108, 41.0289093 ], [ 22.1941352, 41.0290197 ], [ 22.1945174, 41.0291087 ], [ 22.1945133, 41.0290381 ], [ 22.1944198, 41.0289891 ], [ 22.1940092, 41.0288081 ], [ 22.1940498, 41.0286118 ], [ 22.1942043, 41.0283849 ], [ 22.1947816, 41.0281272 ], [ 22.1950906, 41.0280168 ], [ 22.1952126, 41.0276795 ], [ 22.1955947, 41.0275323 ], [ 22.1958874, 41.0275629 ], [ 22.19614551894044, 41.027540313670066 ], [ 22.19614551894044, 41.026518175674248 ], [ 22.1959779, 41.0266301 ] ] ], [ [ [ 22.1959656, 41.0240686 ], [ 22.1958732, 41.0241058 ], [ 22.1958793, 41.0241523 ], [ 22.19614551894044, 41.024194273487581 ], [ 22.19614551894044, 41.024070405720735 ], [ 22.1959656, 41.0240686 ] ] ] ] } },
{ "type": "Feature", "properties": { "element": "way", "id": 1228232577, "ele": null, "name": null, "natural": null, "boat": null, "waterway": null, "wikidata": null, "name:mk": null, "old_name": null, "source": null, "landuse": "farmland", "denomination": null, "religion": null, "leisure": null, "sport": null, "amenity": null, "building": null, "type": null, "leaf_cycle": null, "leaf_type": null, "label": "landuse:farmland" }, "geometry": { "type": "Polygon", "coordinates": [ [ [ 22.1958874, 41.0275629 ], [ 22.1955947, 41.0275323 ], [ 22.1952126, 41.0276795 ], [ 22.1950906, 41.0280168 ], [ 22.1947816, 41.0281272 ], [ 22.1942043, 41.0283849 ], [ 22.1940498, 41.0286118 ], [ 22.1940092, 41.0288081 ], [ 22.1944198, 41.0289891 ], [ 22.1945133, 41.0290381 ], [ 22.1945174, 41.0291087 ], [ 22.1941352, 41.0290197 ], [ 22.1936108, 41.0289093 ], [ 22.1933628, 41.0289185 ], [ 22.1932245, 41.0290136 ], [ 22.1931473, 41.0291179 ], [ 22.1932511, 41.0293454 ], [ 22.1937522, 41.0300855 ], [ 22.1938227, 41.0301517 ], [ 22.1939081, 41.0302377 ], [ 22.1939993, 41.030334 ], [ 22.1941729, 41.0303973 ], [ 22.19429, 41.0304214 ], [ 22.1943987, 41.0304282 ], [ 22.1946991, 41.0304686 ], [ 22.1950585, 41.030501 ], [ 22.1956218, 41.0304403 ], [ 22.1959598, 41.0305253 ], [ 22.19614551894044, 41.030510918322967 ], [ 22.19614551894044, 41.027540313670066 ], [ 22.1958874, 41.0275629 ] ] ] } },
{ "type": "Feature", "properties": { "element": "way", "id": 1228234370, "ele": null, "name": null, "natural": null, "boat": null, "waterway": null, "wikidata": null, "name:mk": null, "old_name": null, "source": null, "landuse": "farmland", "denomination": null, "religion": null, "leisure": null, "sport": null, "amenity": null, "building": null, "type": null, "leaf_cycle": null, "leaf_type": null, "label": "landuse:farmland" }, "geometry": { "type": "Polygon", "coordinates": [ [ [ 22.1746605, 41.0127529 ], [ 22.1746048, 41.0127832 ], [ 22.1745156, 41.0128017 ], [ 22.1735701, 41.0127808 ], [ 22.173367114310853, 41.012557275476325 ], [ 22.169114369013574, 41.012557275476325 ], [ 22.1689079, 41.0127118 ], [ 22.1688797, 41.0127305 ], [ 22.1687097, 41.0128432 ], [ 22.1684888, 41.012972 ], [ 22.1683556, 41.0130496 ], [ 22.1678514, 41.0133329 ], [ 22.1673793, 41.0136082 ], [ 22.1669984, 41.0138146 ], [ 22.1665478, 41.0140696 ], [ 22.1663386, 41.0141951 ], [ 22.1660221, 41.0144015 ], [ 22.1658397, 41.014527 ], [ 22.1657539, 41.0145675 ], [ 22.1655661, 41.0146282 ], [ 22.165289735449054, 41.014708835043542 ], [ 22.165289735449054, 41.02038330262161 ], [ 22.1660102, 41.0206986 ], [ 22.1662223, 41.0207082 ], [ 22.1669657, 41.0211714 ], [ 22.1685308, 41.021824 ], [ 22.1694908, 41.0220768 ], [ 22.1699818, 41.0220636 ], [ 22.1704311, 41.0220838 ], [ 22.1715323, 41.0219569 ], [ 22.1717611, 41.0219315 ], [ 22.1737191, 41.0217137 ], [ 22.1741565, 41.0217053 ], [ 22.1749497, 41.021792 ], [ 22.1757689, 41.0221639 ], [ 22.1762785, 41.0226402 ], [ 22.1766281, 41.0231156 ], [ 22.177303, 41.0234162 ], [ 22.1775713, 41.0234407 ], [ 22.1782177, 41.0233977 ], [ 22.1787869, 41.0233977 ], [ 22.1793682, 41.0234744 ], [ 22.1795512, 41.0235327 ], [ 22.1796935, 41.0236124 ], [ 22.1797707, 41.0237719 ], [ 22.1803795, 41.0237594 ], [ 22.1810299, 41.0236582 ], [ 22.1812861, 41.0236153 ], [ 22.1814284, 41.0231859 ], [ 22.1824346, 41.0229326 ], [ 22.1830185, 41.0232843 ], [ 22.1834538, 41.0235755 ], [ 22.1836308, 41.0235735 ], [ 22.1845937, 41.0233989 ], [ 22.1844359, 41.0232547 ], [ 22.1847808, 41.0226187 ], [ 22.1857316, 41.0225332 ], [ 22.1869908, 41.0218017 ], [ 22.1887726, 41.0217111 ], [ 22.1894536, 41.0222615 ], [ 22.189523, 41.0227972 ], [ 22.1895891, 41.0230161 ], [ 22.1892542, 41.0231368 ], [ 22.1896697, 41.0238384 ], [ 22.1873984, 41.0245108 ], [ 22.1877786, 41.0247471 ], [ 22.1882624, 41.0249096 ], [ 22.1886161, 41.0251274 ], [ 22.188795, 41.0254095 ], [ 22.188856, 41.0257531 ], [ 22.1895077, 41.0260769 ], [ 22.1893598, 41.0257422 ], [ 22.1893413, 41.0255237 ], [ 22.1894523, 41.0254075 ], [ 22.1896248, 41.0253238 ], [ 22.1898097, 41.0251379 ], [ 22.1899083, 41.0250588 ], [ 22.1903951, 41.0249565 ], [ 22.1907217, 41.0249287 ], [ 22.1912454, 41.0250635 ], [ 22.1913995, 41.0252448 ], [ 22.191572, 41.025361 ], [ 22.1919541, 41.0253145 ], [ 22.1924594, 41.025268 ], [ 22.1929277, 41.0253006 ], [ 22.1933775, 41.0252634 ], [ 22.1937349, 41.0252913 ], [ 22.1942402, 41.0253145 ], [ 22.1944867, 41.0254075 ], [ 22.1947394, 41.0255191 ], [ 22.1948256, 41.0256446 ], [ 22.1948872, 41.0259328 ], [ 22.1949119, 41.0263512 ], [ 22.1949181, 41.0266673 ], [ 22.194955, 41.0268068 ], [ 22.195146, 41.0266905 ], [ 22.1954172, 41.0266069 ], [ 22.1956822, 41.0266115 ], [ 22.1959779, 41.0266301 ], [ 22.19614551894044, 41.026518175674248 ], [ 22.19614551894044, 41.024194273487581 ], [ 22.1958793, 41.0241523 ], [ 22.1958732, 41.0241058 ], [ 22.1959656, 41.0240686 ], [ 22.19614551894044, 41.024070405720735 ], [ 22.19614551894044, 41.023054322432962 ], [ 22.1960212, 41.0229329 ], [ 22.1956576, 41.0225843 ], [ 22.1951893, 41.0225285 ], [ 22.1947547, 41.0224748 ], [ 22.1943944, 41.0222847 ], [ 22.193597, 41.021864 ], [ 22.1927552, 41.0218172 ], [ 22.1925334, 41.0217149 ], [ 22.1925627, 41.0215581 ], [ 22.1928676, 41.0214017 ], [ 22.1931319, 41.0212361 ], [ 22.1934788, 41.0209853 ], [ 22.1930445, 41.0207 ], [ 22.1928316, 41.0205508 ], [ 22.192669, 41.0203001 ], [ 22.1927876, 41.020011 ], [ 22.1931081, 41.0197455 ], [ 22.1931231, 41.0196066 ], [ 22.1929382, 41.0195165 ], [ 22.1922851, 41.0197727 ], [ 22.19188, 41.019821 ], [ 22.191577, 41.019958 ], [ 22.1913364, 41.0200514 ], [ 22.190083, 41.020036 ], [ 22.188927, 41.019654 ], [ 22.187707, 41.019115 ], [ 22.1874963, 41.0187793 ], [ 22.1872883, 41.0181306 ], [ 22.1873594, 41.0177778 ], [ 22.1878707, 41.0168892 ], [ 22.1875768, 41.0165044 ], [ 22.187711, 41.0164891 ], [ 22.1878451, 41.0164891 ], [ 22.1879996, 41.0165289 ], [ 22.1881094, 41.0165811 ], [ 22.1881869, 41.0165677 ], [ 22.1889952, 41.015746 ], [ 22.1897864, 41.0148574 ], [ 22.1900092, 41.0141271 ], [ 22.1905229, 41.0131554 ], [ 22.1903185, 41.0131054 ], [ 22.1901028, 41.0133274 ], [ 22.1894408, 41.0139121 ], [ 22.1890978, 41.0142265 ], [ 22.1889824, 41.0143373 ], [ 22.1888785, 41.0143899 ], [ 22.1887524, 41.0144223 ], [ 22.1886599, 41.0144424 ], [ 22.1883693, 41.0146234 ], [ 22.1880381, 41.0147993 ], [ 22.1876055, 41.0149906 ], [ 22.1870885, 41.0151002 ], [ 22.1867541, 41.0151297 ], [ 22.1863305, 41.015112 ], [ 22.1859409, 41.0150253 ], [ 22.1854598, 41.0148133 ], [ 22.1851149, 41.0146815 ], [ 22.1849787, 41.0145787 ], [ 22.1846998, 41.014349 ], [ 22.1843932, 41.0141257 ], [ 22.1836694, 41.0135089 ], [ 22.183514, 41.0134254 ], [ 22.1833969, 41.0134061 ], [ 22.182590036804523, 41.012557275476325 ], [ 22.180493182553917, 41.012557275476325 ], [ 22.1795222, 41.0127281 ], [ 22.179506874141193, 41.012557275476325 ], [ 22.178788189220398, 41.012557275476325 ], [ 22.1785931, 41.0127661 ], [ 22.1774351, 41.0126124 ], [ 22.1769195, 41.0126202 ], [ 22.176664667375128, 41.012557275476325 ], [ 22.176054457724479, 41.012557275476325 ], [ 22.1758511, 41.0125813 ], [ 22.1755323, 41.0125813 ], [ 22.175296307753243, 41.012557275476325 ], [ 22.174651803405293, 41.012557275476325 ], [ 22.1746605, 41.0127529 ] ] ] } },
{ "type": "Feature", "properties": { "element": "way", "id": 1228234371, "ele": null, "name": null, "natural": null, "boat": null, "waterway": null, "wikidata": null, "name:mk": null, "old_name": null, "source": null, "landuse": null, "denomination": null, "religion": null, "leisure": "pitch", "sport": "soccer", "amenity": null, "building": null, "type": null, "leaf_cycle": null, "leaf_type": null, "label": "sport:soccer;leisure:pitch" }, "geometry": { "type": "Polygon", "coordinates": [ [ [ 22.1812175, 41.0142028 ], [ 22.1813825, 41.0132815 ], [ 22.1805599, 41.0131976 ], [ 22.1803947, 41.0141188 ], [ 22.1812175, 41.0142028 ] ] ] } },
{ "type": "Feature", "properties": { "element": "way", "id": 1228236750, "ele": null, "name": null, "natural": null, "boat": null, "waterway": null, "wikidata": null, "name:mk": null, "old_name": null, "source": null, "landuse": "farmland", "denomination": null, "religion": null, "leisure": null, "sport": null, "amenity": null, "building": null, "type": null, "leaf_cycle": null, "leaf_type": null, "label": "landuse:farmland" }, "geometry": { "type": "Polygon", "coordinates": [ [ [ 22.1655661, 41.0146282 ], [ 22.1657539, 41.0145675 ], [ 22.1658397, 41.014527 ], [ 22.1660221, 41.0144015 ], [ 22.1663386, 41.0141951 ], [ 22.1665478, 41.0140696 ], [ 22.1669984, 41.0138146 ], [ 22.1673793, 41.0136082 ], [ 22.1678514, 41.0133329 ], [ 22.1683556, 41.0130496 ], [ 22.1684888, 41.012972 ], [ 22.1687097, 41.0128432 ], [ 22.1688797, 41.0127305 ], [ 22.1689079, 41.0127118 ], [ 22.169114369013574, 41.012557275476325 ], [ 22.165289735449054, 41.012557275476325 ], [ 22.165289735449054, 41.01470718273773 ], [ 22.1655661, 41.0146282 ] ] ] } }
]
}
