{
"type": "FeatureCollection",
"name": "patch_33488_polygon",
"crs": { "type": "name", "properties": { "name": "urn:ogc:def:crs:OGC:1.3:CRS84" } },
"features": [
{ "type": "Feature", "properties": { "osm_id": 607947956, "name": null, "label": "natural:bare_rock", "natural": "bare_rock" }, "geometry": { "type": "Polygon", "coordinates": [ [ [ 27.4133856, 36.381954799775571 ], [ 27.4134421, 36.381990999775567 ], [ 27.4135094, 36.381912799775563 ], [ 27.4136014, 36.381856099775554 ], [ 27.4136124, 36.381819099775555 ], [ 27.4136423, 36.381792999775548 ], [ 27.4136449, 36.381738999775543 ], [ 27.4135911, 36.381702199775546 ], [ 27.413578, 36.381642799775527 ], [ 27.4135071, 36.381628199775541 ], [ 27.4134395, 36.381668399775542 ], [ 27.4133933, 36.381727999775556 ], [ 27.4133572, 36.381815499775556 ], [ 27.4133499, 36.381882999775563 ], [ 27.4133856, 36.381954799775571 ] ] ] } },
{ "type": "Feature", "properties": { "osm_id": 607947957, "name": null, "label": "natural:bare_rock", "natural": "bare_rock" }, "geometry": { "type": "Polygon", "coordinates": [ [ [ 27.4135018, 36.3821706997756 ], [ 27.4135555, 36.382166399775585 ], [ 27.4135903, 36.382140499775595 ], [ 27.4135903, 36.382088599775592 ], [ 27.4135742, 36.382032499775576 ], [ 27.413526, 36.382002299775571 ], [ 27.4134857, 36.382038999775574 ], [ 27.4134535, 36.382099399775583 ], [ 27.4134509, 36.382157699775597 ], [ 27.4135018, 36.3821706997756 ] ] ] } },
{ "type": "Feature", "properties": { "osm_id": 607947958, "name": null, "label": "natural:bare_rock", "natural": "bare_rock" }, "geometry": { "type": "Polygon", "coordinates": [ [ [ 27.4136779, 36.382848599775663 ], [ 27.4137168, 36.382859999775668 ], [ 27.4137327, 36.38284009977567 ], [ 27.4137186, 36.382822999775669 ], [ 27.4136938, 36.382818699775662 ], [ 27.4136708, 36.382812999775666 ], [ 27.4136637, 36.382832999775658 ], [ 27.4136779, 36.382848599775663 ] ] ] } },
{ "type": "Feature", "properties": { "osm_id": 607947955, "name": null, "label": "natural:bare_rock", "natural": "bare_rock" }, "geometry": { "type": "Polygon", "coordinates": [ [ [ 27.412867, 36.382151999775594 ], [ 27.412895, 36.382135099775596 ], [ 27.412895, 36.382108799775587 ], [ 27.4128927, 36.382091799775587 ], [ 27.4128693, 36.382095599775582 ], [ 27.4128577, 36.382127599775579 ], [ 27.412867, 36.382151999775594 ] ] ] } },
{ "type": "Feature", "properties": { "osm_id": 607947954, "name": null, "label": "natural:bare_rock", "natural": "bare_rock" }, "geometry": { "type": "Polygon", "coordinates": [ [ [ 27.4127526, 36.382168899775607 ], [ 27.4127923, 36.382138799775596 ], [ 27.4127853, 36.382121899775591 ], [ 27.4127643, 36.382121899775591 ], [ 27.4127362, 36.382121899775591 ], [ 27.4127176, 36.382142599775584 ], [ 27.4127526, 36.382168899775607 ] ] ] } },
{ "type": "Feature", "properties": { "osm_id": 607947953, "name": null, "label": "natural:bare_rock", "natural": "bare_rock" }, "geometry": { "type": "Polygon", "coordinates": [ [ [ 27.4122926, 36.38187569977557 ], [ 27.4123299, 36.381881299775564 ], [ 27.4123533, 36.381838099775557 ], [ 27.4123486, 36.381821099775557 ], [ 27.4123136, 36.381821099775557 ], [ 27.4122832, 36.381851199775561 ], [ 27.4122926, 36.38187569977557 ] ] ] } },
{ "type": "Feature", "properties": { "osm_id": 607947960, "name": null, "label": "natural:bare_rock", "natural": "bare_rock" }, "geometry": { "type": "Polygon", "coordinates": [ [ [ 27.4154815, 36.383468499775738 ], [ 27.4155405, 36.38349789977574 ], [ 27.415575, 36.383492999775733 ], [ 27.4155832, 36.383471699775733 ], [ 27.4155568, 36.383442299775737 ], [ 27.4155385, 36.383419399775732 ], [ 27.4154897, 36.383411199775722 ], [ 27.4154714, 36.383435699775731 ], [ 27.4154815, 36.383468499775738 ] ] ] } },
{ "type": "Feature", "properties": { "osm_id": 607947959, "name": null, "label": "natural:bare_rock", "natural": "bare_rock" }, "geometry": { "type": "Polygon", "coordinates": [ [ [ 27.4154191, 36.383583999775745 ], [ 27.4154495, 36.383578399775736 ], [ 27.4154472, 36.383553999775728 ], [ 27.4154238, 36.383550199775748 ], [ 27.4154005, 36.383568999775754 ], [ 27.4154191, 36.383583999775745 ] ] ] } },
{ "type": "Feature", "properties": { "osm_id": 607947963, "name": null, "label": "natural:bare_rock", "natural": "bare_rock" }, "geometry": { "type": "Polygon", "coordinates": [ [ [ 27.4185637, 36.385408599775943 ], [ 27.4185921, 36.385421699775961 ], [ 27.4186247, 36.385418399775943 ], [ 27.418645, 36.385410199775961 ], [ 27.4186165, 36.38538729977595 ], [ 27.4185901, 36.385382399775956 ], [ 27.4185616, 36.38538729977595 ], [ 27.4185637, 36.385408599775943 ] ] ] } },
{ "type": "Feature", "properties": { "osm_id": 607947962, "name": null, "label": "natural:bare_rock", "natural": "bare_rock" }, "geometry": { "type": "Polygon", "coordinates": [ [ [ 27.4193036, 36.385666699775989 ], [ 27.419332, 36.38567239977597 ], [ 27.4193585, 36.38566389977597 ], [ 27.4193585, 36.385648199775979 ], [ 27.4193443, 36.385635399775971 ], [ 27.419316, 36.385616899775975 ], [ 27.4192877, 36.385613999775963 ], [ 27.4192842, 36.385642499775976 ], [ 27.4193036, 36.385666699775989 ] ] ] } },
{ "type": "Feature", "properties": { "osm_id": 607947961, "name": null, "label": "natural:bare_rock", "natural": "bare_rock" }, "geometry": { "type": "Polygon", "coordinates": [ [ [ 27.419451, 36.385573499775973 ], [ 27.4194696, 36.385587599775974 ], [ 27.4194825, 36.385596099775974 ], [ 27.4195023, 36.385586699775963 ], [ 27.4195105, 36.385570699775961 ], [ 27.4195047, 36.385555699775963 ], [ 27.4194825, 36.38553779977596 ], [ 27.4194638, 36.385540599775965 ], [ 27.4194486, 36.385560399775962 ], [ 27.419451, 36.385573499775973 ] ] ] } },
{ "type": "Feature", "properties": { "osm_id": 607947964, "name": null, "label": "natural:bare_rock", "natural": "bare_rock" }, "geometry": { "type": "Polygon", "coordinates": [ [ [ 27.4211627, 36.387243799776158 ], [ 27.4211882, 36.387251399776147 ], [ 27.4212097, 36.387249199776157 ], [ 27.4212244, 36.387228699776152 ], [ 27.4212177, 36.387202799776148 ], [ 27.4211962, 36.387178999776154 ], [ 27.4211681, 36.387178999776154 ], [ 27.421148, 36.387197399776149 ], [ 27.4211426, 36.38722549977615 ], [ 27.4211627, 36.387243799776158 ] ] ] } },
{ "type": "Feature", "properties": { "osm_id": -542968, "name": null, "label": "natural:beach", "natural": "beach" }, "geometry": { "type": "Polygon", "coordinates": [ [ [ 27.4264123, 36.401232699777694 ], [ 27.4266262, 36.401041699777686 ], [ 27.4268816, 36.400953499777671 ], [ 27.4271654, 36.400886999777654 ], [ 27.4273965, 36.400855199777659 ], [ 27.4274887, 36.400842499777653 ], [ 27.4274848, 36.400782699777643 ], [ 27.427339, 36.400789899777642 ], [ 27.4272312, 36.400787599777651 ], [ 27.4268264, 36.400880199777653 ], [ 27.4265631, 36.400992399777671 ], [ 27.4263436, 36.401187499777691 ], [ 27.426323405328965, 36.401253158374999 ], [ 27.426408679169366, 36.401253158374999 ], [ 27.4264123, 36.401232699777694 ] ] ] } },
{ "type": "Feature", "properties": { "osm_id": 607947972, "name": null, "label": "natural:bare_rock", "natural": "bare_rock" }, "geometry": { "type": "Polygon", "coordinates": [ [ [ 27.4263028, 36.388954999776345 ], [ 27.4263222, 36.388958499776344 ], [ 27.4263355, 36.388952099776347 ], [ 27.4263479, 36.388942099776344 ], [ 27.4263559, 36.388927899776334 ], [ 27.4263541, 36.388914399776333 ], [ 27.4263355, 36.388905799776339 ], [ 27.4263205, 36.388912199776335 ], [ 27.4263045, 36.388922199776339 ], [ 27.426286, 36.388931499776334 ], [ 27.4262851, 36.388944999776349 ], [ 27.4263028, 36.388954999776345 ] ] ] } },
{ "type": "Feature", "properties": { "osm_id": 607947971, "name": null, "label": "natural:bare_rock", "natural": "bare_rock" }, "geometry": { "type": "Polygon", "coordinates": [ [ [ 27.4238936, 36.387509699776189 ], [ 27.4239135, 36.387508699776184 ], [ 27.4239065, 36.38753509977618 ], [ 27.4239123, 36.387552899776196 ], [ 27.4239245, 36.387553399776188 ], [ 27.4239403, 36.387547299776188 ], [ 27.4239438, 36.387520999776186 ], [ 27.4239345, 36.387505899776194 ], [ 27.4239497, 36.387493699776179 ], [ 27.4239602, 36.387471199776179 ], [ 27.4239497, 36.38745239977618 ], [ 27.4239298, 36.387449499776181 ], [ 27.4239088, 36.387457999776181 ], [ 27.4239006, 36.387473999776176 ], [ 27.4238901, 36.387492799776176 ], [ 27.4238936, 36.387509699776189 ] ] ] } },
{ "type": "Feature", "properties": { "osm_id": 607947970, "name": null, "label": "natural:bare_rock", "natural": "bare_rock" }, "geometry": { "type": "Polygon", "coordinates": [ [ [ 27.4238248, 36.387601799776192 ], [ 27.4238516, 36.387609299776194 ], [ 27.423868, 36.387605599776194 ], [ 27.4238738, 36.387585799776183 ], [ 27.423875, 36.387564199776193 ], [ 27.423861, 36.387547299776188 ], [ 27.4238353, 36.387557599776194 ], [ 27.4238236, 36.387573599776196 ], [ 27.4238189, 36.387587699776191 ], [ 27.4238248, 36.387601799776192 ] ] ] } },
{ "type": "Feature", "properties": { "osm_id": 607947969, "name": null, "label": "natural:bare_rock", "natural": "bare_rock" }, "geometry": { "type": "Polygon", "coordinates": [ [ [ 27.4231735, 36.387931399776228 ], [ 27.4231875, 36.387963399776233 ], [ 27.4232062, 36.387981199776227 ], [ 27.4232272, 36.387982199776239 ], [ 27.4232529, 36.387959999776214 ], [ 27.4232716, 36.387909799776224 ], [ 27.4232494, 36.387897599776224 ], [ 27.4232156, 36.387890099776222 ], [ 27.4231875, 36.387889099776224 ], [ 27.4231689, 36.387908899776221 ], [ 27.4231735, 36.387931399776228 ] ] ] } },
{ "type": "Feature", "properties": { "osm_id": 607947966, "name": null, "label": "natural:bare_rock", "natural": "bare_rock" }, "geometry": { "type": "Polygon", "coordinates": [ [ [ 27.4229704, 36.387937099776224 ], [ 27.4229797, 36.387954899776233 ], [ 27.4230031, 36.387962399776221 ], [ 27.4230206, 36.387951199776232 ], [ 27.4230182, 36.387930499776225 ], [ 27.4230019, 36.387915499776227 ], [ 27.4229786, 36.387912599776229 ], [ 27.4229645, 36.387923899776226 ], [ 27.4229704, 36.387937099776224 ] ] ] } },
{ "type": "Feature", "properties": { "osm_id": 607947967, "name": null, "label": "natural:bare_rock", "natural": "bare_rock" }, "geometry": { "type": "Polygon", "coordinates": [ [ [ 27.4230101, 36.38790419977623 ], [ 27.4230381, 36.387921999776225 ], [ 27.4230568, 36.387908899776221 ], [ 27.4230556, 36.387893799776229 ], [ 27.4230404, 36.387880699776225 ], [ 27.4230147, 36.387874099776226 ], [ 27.4230007, 36.387885399776223 ], [ 27.4230101, 36.38790419977623 ] ] ] } },
{ "type": "Feature", "properties": { "osm_id": 607947968, "name": null, "label": "natural:bare_rock", "natural": "bare_rock" }, "geometry": { "type": "Polygon", "coordinates": [ [ [ 27.4230708, 36.387946499776227 ], [ 27.4230743, 36.387968099776231 ], [ 27.4231093, 36.387969999776246 ], [ 27.4231303, 36.387953999776222 ], [ 27.4231292, 36.38793519977623 ], [ 27.4231128, 36.387917299776227 ], [ 27.423093, 36.387905099776212 ], [ 27.4230685, 36.387921999776225 ], [ 27.4230708, 36.387946499776227 ] ] ] } },
{ "type": "Feature", "properties": { "osm_id": 607947965, "name": null, "label": "natural:bare_rock", "natural": "bare_rock" }, "geometry": { "type": "Polygon", "coordinates": [ [ [ 27.4220624, 36.387782799776218 ], [ 27.4220752, 36.387802499776214 ], [ 27.4221102, 36.387802499776214 ], [ 27.4221242, 36.387786499776205 ], [ 27.4221149, 36.387769599776206 ], [ 27.4220962, 36.387753599776211 ], [ 27.4220682, 36.387750799776207 ], [ 27.4220542, 36.387762999776207 ], [ 27.4220624, 36.387782799776218 ] ] ] } }
]
}
