{
"type": "FeatureCollection",
"name": "patch_18551_polygon",
"crs": { "type": "name", "properties": { "name": "urn:ogc:def:crs:OGC:1.3:CRS84" } },
"features": [
{ "type": "Feature", "properties": { "element": "way", "id": 136704912, "boat": null, "waterway": null, "leaf_type": "broadleaved", "natural": "wood", "source": "http://geodata.gov.gr", "landuse": null, "residential": null, "amenity": null, "building": null, "denomination": null, "religion": null, "layer": null, "tunnel": null, "addr:city": null, "alt_name:en": null, "full_name": null, "name": null, "name:el": null, "name:en": null, "wikidata": null, "label": "natural:wood" }, "geometry": { "type": "Polygon", "coordinates": [ [ [ 21.235896, 40.414653 ], [ 21.237914, 40.4159 ], [ 21.238838, 40.416306 ], [ 21.240391, 40.416678 ], [ 21.241339, 40.416509 ], [ 21.241493, 40.415794 ], [ 21.240975, 40.414679 ], [ 21.239569750514168, 40.413658423145989 ], [ 21.234969585606475, 40.413658423145989 ], [ 21.235896, 40.414653 ] ] ] } },
{ "type": "Feature", "properties": { "element": "way", "id": 187798305, "boat": null, "waterway": null, "leaf_type": null, "natural": null, "source": null, "landuse": "residential", "residential": null, "amenity": null, "building": null, "denomination": null, "religion": null, "layer": null, "tunnel": null, "addr:city": null, "alt_name:en": null, "full_name": null, "name": null, "name:el": null, "name:en": null, "wikidata": null, "label": "landuse:residential" }, "geometry": { "type": "Polygon", "coordinates": [ [ [ 21.2472083, 40.4366098 ], [ 21.2472267, 40.4365019 ], [ 21.2465797, 40.4365535 ], [ 21.246505846308303, 40.436659229492946 ], [ 21.247202394590975, 40.436659229492946 ], [ 21.2472083, 40.4366098 ] ] ] } },
{ "type": "Feature", "properties": { "element": "way", "id": 187798309, "boat": null, "waterway": null, "leaf_type": null, "natural": null, "source": null, "landuse": "residential", "residential": "rural", "amenity": null, "building": null, "denomination": null, "religion": null, "layer": null, "tunnel": null, "addr:city": null, "alt_name:en": null, "full_name": null, "name": null, "name:el": null, "name:en": null, "wikidata": null, "label": "landuse:residential" }, "geometry": { "type": "Polygon", "coordinates": [ [ [ 21.2359042, 40.4268338 ], [ 21.2364094, 40.4269449 ], [ 21.2371167, 40.4267996 ], [ 21.2378464, 40.4264834 ], [ 21.2380148, 40.4261074 ], [ 21.2375208, 40.4253639 ], [ 21.2371054, 40.4250904 ], [ 21.2364431, 40.4248341 ], [ 21.2353654, 40.4247828 ], [ 21.2347479, 40.4249366 ], [ 21.2342876, 40.4252272 ], [ 21.2336926, 40.4256801 ], [ 21.2332885, 40.4263382 ], [ 21.2334457, 40.426774 ], [ 21.23376, 40.4271757 ], [ 21.2343438, 40.427244 ], [ 21.2349612, 40.4270731 ], [ 21.2354439, 40.4268338 ], [ 21.2359042, 40.4268338 ] ] ] } },
{ "type": "Feature", "properties": { "element": "way", "id": 509514548, "boat": null, "waterway": null, "leaf_type": "broadleaved", "natural": "wood", "source": "http://geodata.gov.gr", "landuse": null, "residential": null, "amenity": null, "building": null, "denomination": null, "religion": null, "layer": null, "tunnel": null, "addr:city": null, "alt_name:en": null, "full_name": null, "name": null, "name:el": null, "name:en": null, "wikidata": null, "label": "natural:wood" }, "geometry": { "type": "Polygon", "coordinates": [ [ [ 21.234761, 40.420906 ], [ 21.234425, 40.419939 ], [ 21.2339, 40.418968 ], [ 21.232672, 40.418315 ], [ 21.231548, 40.418193 ], [ 21.229395, 40.417182 ], [ 21.228803, 40.416305 ], [ 21.228731, 40.415009 ], [ 21.228902, 40.413911 ], [ 21.228760293644321, 40.413658423145989 ], [ 21.223885624560083, 40.413658423145989 ], [ 21.223885624560083, 40.415887925057042 ], [ 21.224164, 40.415948 ], [ 21.224789, 40.416139 ], [ 21.225263, 40.41642 ], [ 21.225791, 40.416994 ], [ 21.226289, 40.417594 ], [ 21.226871, 40.418425 ], [ 21.227283, 40.418817 ], [ 21.227604, 40.41921 ], [ 21.228072, 40.41981 ], [ 21.228687, 40.420525 ], [ 21.229189, 40.420896 ], [ 21.22978, 40.421337 ], [ 21.230191, 40.421751 ], [ 21.230991, 40.422242 ], [ 21.231524, 40.422565 ], [ 21.232086, 40.422938 ], [ 21.233454, 40.423502 ], [ 21.233959, 40.423762 ], [ 21.234126, 40.423811 ], [ 21.234913, 40.424046 ], [ 21.2356, 40.424189 ], [ 21.236318, 40.424288 ], [ 21.2369698, 40.4241509 ], [ 21.237384, 40.4242749 ], [ 21.2375235, 40.4243811 ], [ 21.2375127, 40.4246261 ], [ 21.2373196, 40.4248875 ], [ 21.2370943, 40.4252959 ], [ 21.236751, 40.4256961 ], [ 21.2364184, 40.4261371 ], [ 21.2361395, 40.4264148 ], [ 21.2357961, 40.4265455 ], [ 21.2354421, 40.426668 ], [ 21.2351631, 40.4268558 ], [ 21.2349915, 40.427011 ], [ 21.2350108, 40.4272221 ], [ 21.2353026, 40.4270682 ], [ 21.2354936, 40.4269444 ], [ 21.2357747, 40.4267496 ], [ 21.2359249, 40.4267496 ], [ 21.2357961, 40.4269783 ], [ 21.235397, 40.4273119 ], [ 21.2350773, 40.427599 ], [ 21.2347104, 40.4278673 ], [ 21.2342297, 40.4281625 ], [ 21.2339057, 40.4283165 ], [ 21.2335629, 40.4284962 ], [ 21.2332319, 40.4287097 ], [ 21.2329836, 40.4287085 ], [ 21.2328779, 40.4285872 ], [ 21.2328779, 40.4283259 ], [ 21.2327261, 40.4286922 ], [ 21.2326848, 40.4289221 ], [ 21.232717, 40.4291916 ], [ 21.2327046, 40.4294762 ], [ 21.2325882, 40.4296653 ], [ 21.2324487, 40.4298858 ], [ 21.2323828, 40.4300724 ], [ 21.2324917, 40.4301308 ], [ 21.2324487, 40.4304003 ], [ 21.2325882, 40.4302614 ], [ 21.2327368, 40.4299254 ], [ 21.2328993, 40.4296734 ], [ 21.233123, 40.429517 ], [ 21.2333929, 40.4294529 ], [ 21.2336611, 40.4295264 ], [ 21.2338542, 40.4297143 ], [ 21.2339272, 40.4300234 ], [ 21.2339272, 40.43035 ], [ 21.2340902, 40.4306698 ], [ 21.2343027, 40.4308237 ], [ 21.2346567, 40.4315914 ], [ 21.2348842, 40.4313721 ], [ 21.2350108, 40.4311749 ], [ 21.2350988, 40.4309883 ], [ 21.2348413, 40.4308494 ], [ 21.2346138, 40.4305787 ], [ 21.2347426, 40.4304562 ], [ 21.2347426, 40.4303255 ], [ 21.2346696, 40.4301553 ], [ 21.2344422, 40.4300152 ], [ 21.2343477, 40.4298939 ], [ 21.2347125, 40.4298613 ], [ 21.234925, 40.4301377 ], [ 21.235043, 40.4300479 ], [ 21.235043, 40.4298274 ], [ 21.2349486, 40.4296734 ], [ 21.2347232, 40.4295183 ], [ 21.2345816, 40.429713 ], [ 21.2343156, 40.4296816 ], [ 21.2342405, 40.4295509 ], [ 21.2341224, 40.4293631 ], [ 21.2341224, 40.4291344 ], [ 21.2342705, 40.4291904 ], [ 21.2343585, 40.4289629 ], [ 21.2345387, 40.4287412 ], [ 21.2348305, 40.4286444 ], [ 21.2349893, 40.428782 ], [ 21.2351202, 40.4289547 ], [ 21.235161, 40.428733 ], [ 21.2350966, 40.4285778 ], [ 21.2349679, 40.4284553 ], [ 21.23497, 40.4282442 ], [ 21.2350558, 40.4281299 ], [ 21.2351524, 40.4283504 ], [ 21.2353563, 40.4281789 ], [ 21.2355901, 40.4280552 ], [ 21.2356996, 40.4281789 ], [ 21.235882, 40.4281544 ], [ 21.2358605, 40.4278522 ], [ 21.2359227, 40.4277775 ], [ 21.2360729, 40.4276713 ], [ 21.2364184, 40.4276235 ], [ 21.2364399, 40.4275255 ], [ 21.2362897, 40.4275092 ], [ 21.2359034, 40.4276072 ], [ 21.2359463, 40.4274357 ], [ 21.2361502, 40.427305 ], [ 21.2364184, 40.4273377 ], [ 21.2365686, 40.4272642 ], [ 21.2366652, 40.4271008 ], [ 21.2368797, 40.426913 ], [ 21.2369441, 40.4266353 ], [ 21.2370621, 40.4264556 ], [ 21.237266, 40.4261453 ], [ 21.2374269, 40.4258186 ], [ 21.2376522, 40.4253775 ], [ 21.2377273, 40.4250835 ], [ 21.2379097, 40.424814 ], [ 21.2379183, 40.4244048 ], [ 21.2382831, 40.4241434 ], [ 21.2385835, 40.4241434 ], [ 21.2389826, 40.4243076 ], [ 21.2393688, 40.4243484 ], [ 21.2397122, 40.4241769 ], [ 21.2401284, 40.4241271 ], [ 21.2405705, 40.4241688 ], [ 21.2408709, 40.4243076 ], [ 21.2412357, 40.4243239 ], [ 21.241491, 40.4243068 ], [ 21.2411691, 40.4241026 ], [ 21.2406027, 40.4239237 ], [ 21.2402894, 40.4236697 ], [ 21.2405898, 40.4235717 ], [ 21.2410082, 40.4235799 ], [ 21.2414695, 40.4235145 ], [ 21.2416627, 40.4234165 ], [ 21.2415468, 40.423303 ], [ 21.2411391, 40.4231968 ], [ 21.2407936, 40.4230082 ], [ 21.2404396, 40.4228366 ], [ 21.2400126, 40.4226823 ], [ 21.2397207, 40.4226814 ], [ 21.239519, 40.4229763 ], [ 21.2393881, 40.4227386 ], [ 21.2393152, 40.4225352 ], [ 21.2393667, 40.4223466 ], [ 21.2394547, 40.4222575 ], [ 21.2391113, 40.422184 ], [ 21.2389826, 40.4221269 ], [ 21.2387551, 40.4223956 ], [ 21.2386178, 40.422862 ], [ 21.2384247, 40.4231968 ], [ 21.2382938, 40.4230735 ], [ 21.2382316, 40.4228701 ], [ 21.238253, 40.4226741 ], [ 21.2383281, 40.4223719 ], [ 21.2384226, 40.4222322 ], [ 21.2381565, 40.4222575 ], [ 21.2379097, 40.4221677 ], [ 21.2377488, 40.422037 ], [ 21.2376522, 40.4219553 ], [ 21.2378453, 40.4218165 ], [ 21.2380149, 40.421685 ], [ 21.2378432, 40.4216033 ], [ 21.2378561, 40.4214244 ], [ 21.2378775, 40.4212284 ], [ 21.2377381, 40.4210896 ], [ 21.2374462, 40.4212194 ], [ 21.2372767, 40.4212366 ], [ 21.2368132, 40.4212276 ], [ 21.2364399, 40.4213591 ], [ 21.2358798, 40.421587 ], [ 21.2354507, 40.4219382 ], [ 21.2350988, 40.4219472 ], [ 21.2346481, 40.4219472 ], [ 21.2343563, 40.4219709 ], [ 21.2338649, 40.4219717 ], [ 21.2335737, 40.4218973 ], [ 21.2333821, 40.4220043 ], [ 21.2332518, 40.4221669 ], [ 21.233005, 40.4221505 ], [ 21.2329423, 40.4220615 ], [ 21.2330496, 40.4219145 ], [ 21.2333376, 40.4217748 ], [ 21.233756, 40.4215543 ], [ 21.2344014, 40.4214898 ], [ 21.2351095, 40.4215061 ], [ 21.235279, 40.4214236 ], [ 21.2353348, 40.4212202 ], [ 21.235344, 40.4211004 ], [ 21.234761, 40.420906 ] ] ] } },
{ "type": "Feature", "properties": { "element": "way", "id": 540286430, "boat": null, "waterway": null, "leaf_type": null, "natural": null, "source": "DigitalGlobe-Premium", "landuse": "forest", "residential": null, "amenity": null, "building": null, "denomination": null, "religion": null, "layer": null, "tunnel": null, "addr:city": null, "alt_name:en": null, "full_name": null, "name": null, "name:el": null, "name:en": null, "wikidata": null, "label": "landuse:forest" }, "geometry": { "type": "Polygon", "coordinates": [ [ [ 21.2343477, 40.4166379 ], [ 21.2343263, 40.4167441 ], [ 21.2346481, 40.4166543 ], [ 21.2349271, 40.4166216 ], [ 21.235206, 40.4165236 ], [ 21.2354635, 40.416401 ], [ 21.2358069, 40.4162458 ], [ 21.235839, 40.4160008 ], [ 21.2357318, 40.4157721 ], [ 21.2359249, 40.4156659 ], [ 21.2359764, 40.4154935 ], [ 21.2358798, 40.4152485 ], [ 21.2352811, 40.4155433 ], [ 21.2347769, 40.4157312 ], [ 21.2342941, 40.4158946 ], [ 21.2343585, 40.4162295 ], [ 21.2344422, 40.4165636 ], [ 21.2343477, 40.4166379 ] ] ] } },
{ "type": "Feature", "properties": { "element": "way", "id": 540286431, "boat": null, "waterway": null, "leaf_type": null, "natural": null, "source": "DigitalGlobe-Premium", "landuse": "forest", "residential": null, "amenity": null, "building": null, "denomination": null, "religion": null, "layer": null, "tunnel": null, "addr:city": null, "alt_name:en": null, "full_name": null, "name": null, "name:el": null, "name:en": null, "wikidata": null, "label": "landuse:forest" }, "geometry": { "type": "Polygon", "coordinates": [ [ [ 21.2390556, 40.4179359 ], [ 21.2393152, 40.4177733 ], [ 21.2394118, 40.4175528 ], [ 21.2394096, 40.4173723 ], [ 21.2392079, 40.4173894 ], [ 21.2390234, 40.4174294 ], [ 21.2388217, 40.4173731 ], [ 21.2384762, 40.4173069 ], [ 21.2381972, 40.4173069 ], [ 21.238017, 40.417177 ], [ 21.2377595, 40.4171199 ], [ 21.2375535, 40.416972 ], [ 21.2355043, 40.4183116 ], [ 21.236663, 40.419447 ], [ 21.2390556, 40.4179359 ] ] ] } },
{ "type": "Feature", "properties": { "element": "way", "id": 540286432, "boat": null, "waterway": null, "leaf_type": null, "natural": null, "source": "DigitalGlobe-Premium", "landuse": "forest", "residential": null, "amenity": null, "building": null, "denomination": null, "religion": null, "layer": null, "tunnel": null, "addr:city": null, "alt_name:en": null, "full_name": null, "name": null, "name:el": null, "name:en": null, "wikidata": null, "label": "landuse:forest" }, "geometry": { "type": "Polygon", "coordinates": [ [ [ 21.2241124, 40.4285464 ], [ 21.2238979, 40.4282524 ], [ 21.223885624560083, 40.428236238918508 ], [ 21.223885624560083, 40.428611473636934 ], [ 21.2241124, 40.4285464 ] ] ] } },
{ "type": "Feature", "properties": { "element": "way", "id": 540286460, "boat": null, "waterway": null, "leaf_type": null, "natural": null, "source": "DigitalGlobe-Premium", "landuse": "forest", "residential": null, "amenity": null, "building": null, "denomination": null, "religion": null, "layer": null, "tunnel": null, "addr:city": null, "alt_name:en": null, "full_name": null, "name": null, "name:el": null, "name:en": null, "wikidata": null, "label": "landuse:forest" }, "geometry": { "type": "Polygon", "coordinates": [ [ [ 21.2311811, 40.4319589 ], [ 21.2305819, 40.4321479 ], [ 21.2301635, 40.4323194 ], [ 21.2296791, 40.4325142 ], [ 21.2294125, 40.4325807 ], [ 21.2291443, 40.4325807 ], [ 21.2283932, 40.4327767 ], [ 21.2300133, 40.4325399 ], [ 21.2306999, 40.4324828 ], [ 21.2309682, 40.4324419 ], [ 21.2313206, 40.4323672 ], [ 21.2311811, 40.4319589 ] ] ] } },
{ "type": "Feature", "properties": { "element": "way", "id": 540286461, "boat": null, "waterway": null, "leaf_type": null, "natural": null, "source": "DigitalGlobe-Premium", "landuse": "forest", "residential": null, "amenity": null, "building": null, "denomination": null, "religion": null, "layer": null, "tunnel": null, "addr:city": null, "alt_name:en": null, "full_name": null, "name": null, "name:el": null, "name:en": null, "wikidata": null, "label": "landuse:forest" }, "geometry": { "type": "Polygon", "coordinates": [ [ [ 21.2282951, 40.4320242 ], [ 21.2280054, 40.432261 ], [ 21.2277908, 40.432408 ], [ 21.2275655, 40.4324897 ], [ 21.2275242, 40.4326052 ], [ 21.2277495, 40.4327114 ], [ 21.2279748, 40.4327114 ], [ 21.2282752, 40.4325073 ], [ 21.2285311, 40.4322855 ], [ 21.2282951, 40.4320242 ] ] ] } },
{ "type": "Feature", "properties": { "element": "way", "id": 540286462, "boat": null, "waterway": null, "leaf_type": null, "natural": null, "source": "DigitalGlobe-Premium", "landuse": "forest", "residential": null, "amenity": null, "building": null, "denomination": null, "religion": null, "layer": null, "tunnel": null, "addr:city": null, "alt_name:en": null, "full_name": null, "name": null, "name:el": null, "name:en": null, "wikidata": null, "label": "landuse:forest" }, "geometry": { "type": "Polygon", "coordinates": [ [ [ 21.2320518, 40.4314374 ], [ 21.2317728, 40.4315354 ], [ 21.2316103, 40.4316485 ], [ 21.2316961, 40.4322937 ], [ 21.2320823, 40.4323019 ], [ 21.2320518, 40.4314374 ] ] ] } },
{ "type": "Feature", "properties": { "element": "way", "id": 540286463, "boat": null, "waterway": null, "leaf_type": null, "natural": null, "source": "DigitalGlobe-Premium", "landuse": "forest", "residential": null, "amenity": null, "building": null, "denomination": null, "religion": null, "layer": null, "tunnel": null, "addr:city": null, "alt_name:en": null, "full_name": null, "name": null, "name:el": null, "name:en": null, "wikidata": null, "label": "landuse:forest" }, "geometry": { "type": "Polygon", "coordinates": [ [ [ 21.2297451, 40.4314864 ], [ 21.2296362, 40.4311014 ], [ 21.2295611, 40.4309217 ], [ 21.2293399, 40.4308376 ], [ 21.2289517, 40.4313537 ], [ 21.2293894, 40.4316404 ], [ 21.2297451, 40.4314864 ] ] ] } },
{ "type": "Feature", "properties": { "element": "way", "id": 540286810, "boat": null, "waterway": null, "leaf_type": null, "natural": null, "source": "DigitalGlobe-Premium", "landuse": "forest", "residential": null, "amenity": null, "building": null, "denomination": null, "religion": null, "layer": null, "tunnel": null, "addr:city": null, "alt_name:en": null, "full_name": null, "name": null, "name:el": null, "name:en": null, "wikidata": null, "label": "landuse:forest" }, "geometry": { "type": "Polygon", "coordinates": [ [ [ 21.2316333, 40.4287342 ], [ 21.2319536, 40.4286105 ], [ 21.2322326, 40.4284798 ], [ 21.2326955, 40.4280155 ], [ 21.2322663, 40.4276889 ], [ 21.2314617, 40.4282442 ], [ 21.2311827, 40.4285056 ], [ 21.231224, 40.4287167 ], [ 21.2313206, 40.4288963 ], [ 21.2316333, 40.4287342 ] ] ] } },
{ "type": "Feature", "properties": { "element": "way", "id": 968168301, "boat": null, "waterway": null, "leaf_type": null, "natural": null, "source": null, "landuse": null, "residential": null, "amenity": "place_of_worship", "building": "church", "denomination": "greek_orthodox", "religion": "christian", "layer": null, "tunnel": null, "addr:city": null, "alt_name:en": null, "full_name": null, "name": null, "name:el": null, "name:en": null, "wikidata": null, "label": "building:church;amenity:place_of_worship" }, "geometry": { "type": "Polygon", "coordinates": [ [ [ 21.2345657, 40.4262237 ], [ 21.2345845, 40.4261981 ], [ 21.2345745, 40.4261864 ], [ 21.2345744, 40.4261619 ], [ 21.2344884, 40.4261621 ], [ 21.2344883, 40.4261402 ], [ 21.2344453, 40.4261402 ], [ 21.2344454, 40.4261555 ], [ 21.2344025, 40.4261556 ], [ 21.2344025, 40.4261765 ], [ 21.2343731, 40.4261765 ], [ 21.2343732, 40.4262115 ], [ 21.2343906, 40.4262114 ], [ 21.2343907, 40.4262237 ], [ 21.2345657, 40.4262237 ] ] ] } },
{ "type": "Feature", "properties": { "element": "way", "id": 1302258516, "boat": null, "waterway": null, "leaf_type": null, "natural": null, "source": null, "landuse": null, "residential": null, "amenity": "place_of_worship", "building": "chapel", "denomination": "greek_orthodox", "religion": "christian", "layer": null, "tunnel": null, "addr:city": "Ασπρονέρι", "alt_name:en": "Prophet Elijah Church", "full_name": "Ιερός Ναός Προφήτη Ηλία", "name": "Ναός Προφήτη Ηλία", "name:el": "Ναός Προφήτη Ηλία", "name:en": "Saint Elijah Church", "wikidata": "Q20498718", "label": "building:chapel;amenity:place_of_worship" }, "geometry": { "type": "Polygon", "coordinates": [ [ [ 21.23578, 40.4254639 ], [ 21.2357607, 40.4255436 ], [ 21.2358958, 40.4255626 ], [ 21.2359151, 40.4254828 ], [ 21.23578, 40.4254639 ] ] ] } },
{ "type": "Feature", "properties": { "element": "way", "id": 1302258517, "boat": null, "waterway": null, "leaf_type": null, "natural": null, "source": null, "landuse": "cemetery", "residential": null, "amenity": null, "building": null, "denomination": null, "religion": null, "layer": null, "tunnel": null, "addr:city": null, "alt_name:en": null, "full_name": null, "name": null, "name:el": null, "name:en": null, "wikidata": null, "label": "landuse:cemetery" }, "geometry": { "type": "Polygon", "coordinates": [ [ [ 21.2364949, 40.4252683 ], [ 21.2363605, 40.4252252 ], [ 21.2362124, 40.4254927 ], [ 21.2363467, 40.4255358 ], [ 21.2364949, 40.4252683 ] ] ] } }
]
}
