{
"type": "FeatureCollection",
"name": "patch_56154_linestring",
"crs": { "type": "name", "properties": { "name": "urn:ogc:def:crs:OGC:1.3:CRS84" } },
"features": [
{ "type": "Feature", "properties": { "osm_id": 865684958, "name": "Λήλας", "label": "waterway:river", "waterway": "river" }, "geometry": { "type": "LineString", "coordinates": [ [ 23.682402037943138, 38.456968419028875 ], [ 23.6823542, 38.45690460004721 ], [ 23.681453, 38.455560400047013 ], [ 23.6808951, 38.454720200046886 ], [ 23.6804231, 38.45377920004676 ], [ 23.6797364, 38.452838200046614 ], [ 23.6789648, 38.451613300046439 ], [ 23.6781093, 38.450697100046305 ], [ 23.6778911, 38.450351200046256 ], [ 23.6772314, 38.449556700046145 ], [ 23.6767894, 38.448962500046065 ], [ 23.6762633, 38.448390600045983 ], [ 23.6755739, 38.447954100045912 ], [ 23.6748192, 38.447244500045805 ], [ 23.6745049, 38.446856800045751 ], [ 23.6743177, 38.446620900045716 ], [ 23.674098, 38.445876800045617 ], [ 23.6740771, 38.444873300045465 ], [ 23.6739832, 38.444400800045386 ], [ 23.6738114, 38.443975100045343 ], [ 23.6735398, 38.443545000045283 ], [ 23.6734708, 38.443477800045258 ], [ 23.6729129, 38.442956800045195 ], [ 23.67268971374768, 38.442741693375325 ] ] } }
]
}
