{
"type": "FeatureCollection",
"name": "patch_56154_features",
"crs": { "type": "name", "properties": { "name": "urn:ogc:def:crs:OGC:1.3:CRS84" } },
"features": [
{ "type": "Feature", "properties": { "osm_id": 1293426015, "name": null, "label": "leisure:swimming_pool", "leisure": "swimming_pool", "sport": null, "building": null, "historic": null, "landuse": null, "amenity": null, "waterway": null, "natural": null, "tourism": null }, "geometry": { "type": "Polygon", "coordinates": [ [ [ 23.6534872, 38.445869600045626 ], [ 23.6534891, 38.445879700045616 ], [ 23.6534971, 38.445884400045614 ], [ 23.653506, 38.445882100045615 ], [ 23.653509, 38.445876600045601 ], [ 23.65352, 38.445879700045616 ], [ 23.6535548, 38.445787100045592 ], [ 23.653513, 38.44577770004561 ], [ 23.6534772, 38.445865700045601 ], [ 23.6534872, 38.445869600045626 ] ] ] } },
{ "type": "Feature", "properties": { "osm_id": 1293426014, "name": null, "label": "leisure:swimming_pool", "leisure": "swimming_pool", "sport": null, "building": null, "historic": null, "landuse": null, "amenity": null, "waterway": null, "natural": null, "tourism": null }, "geometry": { "type": "Polygon", "coordinates": [ [ [ 23.6536007, 38.447359700045823 ], [ 23.6536261, 38.447347900045827 ], [ 23.6536642, 38.447263800045818 ], [ 23.6536018, 38.447244800045809 ], [ 23.6535602, 38.447349700045834 ], [ 23.6536007, 38.447359700045823 ] ] ] } },
{ "type": "Feature", "properties": { "osm_id": 327626735, "name": null, "label": "sport:soccer;leisure:pitch", "leisure": "pitch", "sport": "soccer", "building": null, "historic": null, "landuse": null, "amenity": null, "waterway": null, "natural": null, "tourism": null }, "geometry": { "type": "Polygon", "coordinates": [ [ [ 23.675973, 38.447762300045895 ], [ 23.6766201, 38.447340000045813 ], [ 23.6758855, 38.44665050004572 ], [ 23.6752617, 38.44704780004578 ], [ 23.675973, 38.447762300045895 ] ] ] } },
{ "type": "Feature", "properties": { "osm_id": 329078828, "name": "Ενετικός Πύργος", "label": "building:yes;historic:castle", "leisure": null, "sport": null, "building": "yes", "historic": "castle", "landuse": null, "amenity": null, "waterway": null, "natural": null, "tourism": null }, "geometry": { "type": "Polygon", "coordinates": [ [ [ 23.671326, 38.445104600045504 ], [ 23.6713828, 38.445067800045486 ], [ 23.6713409, 38.44502800004549 ], [ 23.6712841, 38.445064800045486 ], [ 23.671326, 38.445104600045504 ] ] ] } },
{ "type": "Feature", "properties": { "osm_id": 329078623, "name": "Κοιμητήριο Μύτικα", "label": "landuse:cemetery", "leisure": null, "sport": null, "building": null, "historic": null, "landuse": "cemetery", "amenity": null, "waterway": null, "natural": null, "tourism": null }, "geometry": { "type": "Polygon", "coordinates": [ [ [ 23.6705157, 38.445184100045509 ], [ 23.6706746, 38.445079300045499 ], [ 23.6708, 38.445009000045488 ], [ 23.6709463, 38.444925500045471 ], [ 23.6710654, 38.444866600045458 ], [ 23.6711385, 38.444815800045461 ], [ 23.6710675, 38.444761800045455 ], [ 23.6708083, 38.444612900045435 ], [ 23.6707623, 38.444606300045436 ], [ 23.6706181, 38.444742200045454 ], [ 23.6705366, 38.444869800045467 ], [ 23.670336, 38.445043300045498 ], [ 23.6705157, 38.445184100045509 ] ] ] } },
{ "type": "Feature", "properties": { "osm_id": 1103642837, "name": "Άγιος Αθανάσιος", "label": "amenity:place_of_worship;building:yes", "leisure": null, "sport": null, "building": "yes", "historic": null, "landuse": null, "amenity": "place_of_worship", "waterway": null, "natural": null, "tourism": null }, "geometry": { "type": "Polygon", "coordinates": [ [ [ 23.670888, 38.444836200045444 ], [ 23.6709313, 38.444798000045459 ], [ 23.6708224, 38.444722600045438 ], [ 23.6707792, 38.444760900045452 ], [ 23.670888, 38.444836200045444 ] ] ] } },
{ "type": "Feature", "properties": { "osm_id": 1103642839, "name": null, "label": "building:yes", "leisure": null, "sport": null, "building": "yes", "historic": null, "landuse": null, "amenity": null, "waterway": null, "natural": null, "tourism": null }, "geometry": { "type": "Polygon", "coordinates": [ [ [ 23.6711605, 38.445144800045504 ], [ 23.6712079, 38.445120200045501 ], [ 23.6711622, 38.445066200045488 ], [ 23.6711148, 38.445090800045499 ], [ 23.6711605, 38.445144800045504 ] ] ] } },
{ "type": "Feature", "properties": { "osm_id": 1103642840, "name": null, "label": "building:yes", "leisure": null, "sport": null, "building": "yes", "historic": null, "landuse": null, "amenity": null, "waterway": null, "natural": null, "tourism": null }, "geometry": { "type": "Polygon", "coordinates": [ [ [ 23.6693605, 38.444508700045418 ], [ 23.6695482, 38.444390200045397 ], [ 23.6695165, 38.444357300045397 ], [ 23.6694288, 38.444413300045404 ], [ 23.6694109, 38.444397800045394 ], [ 23.6693659, 38.444427900045405 ], [ 23.6693827, 38.444442400045396 ], [ 23.6693241, 38.44448090004542 ], [ 23.6693605, 38.444508700045418 ] ] ] } },
{ "type": "Feature", "properties": { "osm_id": 329078827, "name": "Ενετικός Πύργος", "label": "building:yes;historic:castle", "leisure": null, "sport": null, "building": "yes", "historic": "castle", "landuse": null, "amenity": null, "waterway": null, "natural": null, "tourism": null }, "geometry": { "type": "Polygon", "coordinates": [ [ [ 23.6705294, 38.444378500045396 ], [ 23.6705964, 38.44432880004539 ], [ 23.670546, 38.444287100045379 ], [ 23.670479, 38.4443369000454 ], [ 23.6705294, 38.444378500045396 ] ] ] } },
{ "type": "Feature", "properties": { "osm_id": 327739999, "name": null, "label": "landuse:residential", "leisure": null, "sport": null, "building": null, "historic": null, "landuse": "residential", "amenity": null, "waterway": null, "natural": null, "tourism": null }, "geometry": { "type": "Polygon", "coordinates": [ [ [ 23.6774678, 38.443224200045229 ], [ 23.6785117, 38.443422400045264 ], [ 23.6791919, 38.443298600045232 ], [ 23.6798088, 38.444091400045345 ], [ 23.6802675, 38.444326800045395 ], [ 23.6813747, 38.443979900045349 ], [ 23.6819757, 38.44428960004538 ], [ 23.682402037943138, 38.444786154240859 ], [ 23.682402037943138, 38.442741693375325 ], [ 23.676961319193051, 38.442741693375325 ], [ 23.6774678, 38.443224200045229 ] ] ] } },
{ "type": "Feature", "properties": { "osm_id": 1436283638, "name": null, "label": "building:yes", "leisure": null, "sport": null, "building": "yes", "historic": null, "landuse": null, "amenity": null, "waterway": null, "natural": null, "tourism": null }, "geometry": { "type": "Polygon", "coordinates": [ [ [ 23.678955, 38.453020600046649 ], [ 23.6790426, 38.452986800046645 ], [ 23.6791337, 38.453110200046659 ], [ 23.6792224, 38.453079100046651 ], [ 23.6792306, 38.453099300046652 ], [ 23.6793146, 38.453060900046651 ], [ 23.679115, 38.452795700046607 ], [ 23.6790636, 38.452824100046612 ], [ 23.6790181, 38.452787500046611 ], [ 23.6789002, 38.45283690004662 ], [ 23.678906, 38.452850600046609 ], [ 23.6788196, 38.452895400046614 ], [ 23.678955, 38.453020600046649 ] ] ] } },
{ "type": "Feature", "properties": { "osm_id": 327630172, "name": null, "label": "landuse:cemetery", "leisure": null, "sport": null, "building": null, "historic": null, "landuse": "cemetery", "amenity": null, "waterway": null, "natural": null, "tourism": null }, "geometry": { "type": "Polygon", "coordinates": [ [ [ 23.682326, 38.448766700046022 ], [ 23.6820611, 38.448780700046029 ], [ 23.6819049, 38.448799300046048 ], [ 23.6819524, 38.44891380004605 ], [ 23.6820255, 38.449054700046062 ], [ 23.6820927, 38.449175500046096 ], [ 23.6822311, 38.449313300046107 ], [ 23.682402037943138, 38.449239971188206 ], [ 23.682402037943138, 38.448760102496976 ], [ 23.682326, 38.448766700046022 ] ] ] } },
{ "type": "Feature", "properties": { "osm_id": 327739998, "name": null, "label": "landuse:residential", "leisure": null, "sport": null, "building": null, "historic": null, "landuse": "residential", "amenity": null, "waterway": null, "natural": null, "tourism": null }, "geometry": { "type": "Polygon", "coordinates": [ [ [ 23.6821023, 38.447002600045785 ], [ 23.6821813, 38.447820200045896 ], [ 23.6808052, 38.447721100045889 ], [ 23.6801409, 38.448761600046026 ], [ 23.6790021, 38.449839300046172 ], [ 23.6787016, 38.450495900046285 ], [ 23.6793659, 38.451301000046406 ], [ 23.6805996, 38.45149920004642 ], [ 23.6807894, 38.451982300046488 ], [ 23.6811849, 38.452502600046564 ], [ 23.6821339, 38.452168100046521 ], [ 23.682402037943138, 38.45218376272841 ], [ 23.682402037943138, 38.446420678738114 ], [ 23.6821023, 38.447002600045785 ] ] ] } },
{ "type": "Feature", "properties": { "osm_id": 865684958, "name": "Λήλας", "label": "waterway:river", "leisure": null, "sport": null, "building": null, "historic": null, "landuse": null, "amenity": null, "waterway": "river", "natural": null, "tourism": null }, "geometry": { "type": "LineString", "coordinates": [ [ 23.682402037943138, 38.456968419028875 ], [ 23.6823542, 38.45690460004721 ], [ 23.681453, 38.455560400047013 ], [ 23.6808951, 38.454720200046886 ], [ 23.6804231, 38.45377920004676 ], [ 23.6797364, 38.452838200046614 ], [ 23.6789648, 38.451613300046439 ], [ 23.6781093, 38.450697100046305 ], [ 23.6778911, 38.450351200046256 ], [ 23.6772314, 38.449556700046145 ], [ 23.6767894, 38.448962500046065 ], [ 23.6762633, 38.448390600045983 ], [ 23.6755739, 38.447954100045912 ], [ 23.6748192, 38.447244500045805 ], [ 23.6745049, 38.446856800045751 ], [ 23.6743177, 38.446620900045716 ], [ 23.674098, 38.445876800045617 ], [ 23.6740771, 38.444873300045465 ], [ 23.6739832, 38.444400800045386 ], [ 23.6738114, 38.443975100045343 ], [ 23.6735398, 38.443545000045283 ], [ 23.6734708, 38.443477800045258 ], [ 23.6729129, 38.442956800045195 ], [ 23.67268971374768, 38.442741693375325 ] ] } },
{ "type": "Feature", "properties": { "osm_id": 8767014714, "name": "Γιδοτόπι", "label": "natural:peak", "leisure": null, "sport": null, "building": null, "historic": null, "landuse": null, "amenity": null, "waterway": null, "natural": "peak", "tourism": null }, "geometry": { "type": "Point", "coordinates": [ 23.67495, 38.463160100048107 ] } },
{ "type": "Feature", "properties": { "osm_id": 5632987391, "name": "Κτήμα ΑΜΠΕΛΙΣ", "label": "amenity:restaurant", "leisure": null, "sport": null, "building": null, "historic": null, "landuse": null, "amenity": "restaurant", "waterway": null, "natural": null, "tourism": null }, "geometry": { "type": "Point", "coordinates": [ 23.663848, 38.449002400046062 ] } },
{ "type": "Feature", "properties": { "osm_id": 5632432115, "name": "Ιερός ναός Ευαγγελίστριας", "label": "amenity:place_of_worship", "leisure": null, "sport": null, "building": null, "historic": null, "landuse": null, "amenity": "place_of_worship", "waterway": null, "natural": null, "tourism": null }, "geometry": { "type": "Point", "coordinates": [ 23.6684569, 38.444071700045342 ] } },
{ "type": "Feature", "properties": { "osm_id": 9099177491, "name": null, "label": "amenity:pharmacy", "leisure": null, "sport": null, "building": null, "historic": null, "landuse": null, "amenity": "pharmacy", "waterway": null, "natural": null, "tourism": null }, "geometry": { "type": "Point", "coordinates": [ 23.6819997, 38.443144000045216 ] } },
{ "type": "Feature", "properties": { "osm_id": 6046828217, "name": "Madcat Farm", "label": "tourism:guest_house", "leisure": null, "sport": null, "building": null, "historic": null, "landuse": null, "amenity": null, "waterway": null, "natural": null, "tourism": "guest_house" }, "geometry": { "type": "Point", "coordinates": [ 23.6794156, 38.447164100045796 ] } }
]
}
