{
"type": "FeatureCollection",
"name": "patch_78860_features",
"crs": { "type": "name", "properties": { "name": "urn:ogc:def:crs:OGC:1.3:CRS84" } },
"features": [
{ "type": "Feature", "properties": { "osm_id": -9331758, "name": "Λακωνικός Κόλπος", "label": "natural:bay", "natural": "bay" }, "geometry": { "type": "Polygon", "coordinates": [ [ [ 22.695698791496575, 36.486962963685585 ], [ 22.724769790026421, 36.486962963685585 ], [ 22.724769790026421, 36.464303766539679 ], [ 22.695698791496575, 36.464303766539679 ], [ 22.695698791496575, 36.486962963685585 ] ] ] } }
]
}
