{
"type": "FeatureCollection",
"name": "patch_19932_polygon",
"crs": { "type": "name", "properties": { "name": "urn:ogc:def:crs:OGC:1.3:CRS84" } },
"features": [
{ "type": "Feature", "properties": { "@type": "way", "@id": 136648154, "admin_level": null, "boat": null, "boundary": null, "ele": null, "highway": null, "int_name": null, "intermittent": null, "leaf_type": "broadleaved", "lit": null, "name": null, "name:bg": null, "name:el": null, "name:mk": null, "natural": "wood", "source": "http://geodata.gov.gr/", "summit": null, "waterway": null, "wikidata": null, "label": "natural:wood" }, "geometry": { "type": "Polygon", "coordinates": [ [ [ 20.749926, 40.302588 ], [ 20.749758, 40.302241 ], [ 20.749588, 40.30194 ], [ 20.749249, 40.301319 ], [ 20.74902, 40.300993 ], [ 20.748937, 40.300761 ], [ 20.748624, 40.300276 ], [ 20.748453, 40.300024 ], [ 20.748349, 40.299517 ], [ 20.748334771054701, 40.299479627589456 ], [ 20.732727878544971, 40.299479627589456 ], [ 20.732856, 40.299938 ], [ 20.732805, 40.300373 ], [ 20.733595, 40.301137 ], [ 20.733858, 40.301346 ], [ 20.73403, 40.301581 ], [ 20.734321, 40.301836 ], [ 20.734701, 40.302094 ], [ 20.73499, 40.302399 ], [ 20.735251, 40.302653 ], [ 20.735481, 40.30293 ], [ 20.735782, 40.303423 ], [ 20.73554, 40.303918 ], [ 20.735597, 40.305004 ], [ 20.737338, 40.305053 ], [ 20.739567, 40.306283 ], [ 20.740401, 40.307058 ], [ 20.740699, 40.30765 ], [ 20.740901, 40.307989 ], [ 20.741429, 40.308338 ], [ 20.74261, 40.308705 ], [ 20.744024, 40.308745 ], [ 20.745548, 40.308788 ], [ 20.746551, 40.308315 ], [ 20.746658, 40.307562 ], [ 20.746836, 40.307501 ], [ 20.746943, 40.307202 ], [ 20.747014, 40.306836 ], [ 20.746937, 40.306447 ], [ 20.746919, 40.306055 ], [ 20.746869, 40.305734 ], [ 20.746853, 40.305302 ], [ 20.746834, 40.304959 ], [ 20.746783, 40.304661 ], [ 20.746762, 40.304386 ], [ 20.746712, 40.304088 ], [ 20.746665, 40.303673 ], [ 20.746793, 40.303402 ], [ 20.746921, 40.303131 ], [ 20.747314, 40.302998 ], [ 20.747762, 40.302983 ], [ 20.748024, 40.303219 ], [ 20.748343, 40.303521 ], [ 20.748746, 40.304008 ], [ 20.749094, 40.304355 ], [ 20.749328, 40.304519 ], [ 20.749626, 40.304527 ], [ 20.749986, 40.304488 ], [ 20.750166787456084, 40.304328930517535 ], [ 20.750166787456084, 40.303039689944214 ], [ 20.749926, 40.302588 ] ] ] } },
{ "type": "Feature", "properties": { "@type": "way", "@id": 432058573, "admin_level": null, "boat": null, "boundary": null, "ele": null, "highway": null, "int_name": null, "intermittent": null, "leaf_type": null, "lit": null, "name": null, "name:bg": null, "name:el": null, "name:mk": null, "natural": "wood", "source": null, "summit": null, "waterway": null, "wikidata": null, "label": "natural:wood" }, "geometry": { "type": "Polygon", "coordinates": [ [ [ 20.7213292, 40.2998541 ], [ 20.7222694, 40.2999279 ], [ 20.7227883, 40.2999687 ], [ 20.724226, 40.3002632 ], [ 20.725492, 40.3008196 ], [ 20.725945, 40.3015261 ], [ 20.7269296, 40.3030616 ], [ 20.7273588, 40.3032907 ], [ 20.7281742, 40.3033234 ], [ 20.7294617, 40.3031598 ], [ 20.7305775, 40.3027507 ], [ 20.7307277, 40.3022106 ], [ 20.730041, 40.3012124 ], [ 20.7297942, 40.3008933 ], [ 20.72929, 40.3007051 ], [ 20.7287428, 40.3006642 ], [ 20.7281957, 40.3005251 ], [ 20.7277987, 40.3001405 ], [ 20.7281742, 40.2996741 ], [ 20.728568330752033, 40.299479627589456 ], [ 20.720417338760086, 40.299479627589456 ], [ 20.7213292, 40.2998541 ] ] ] } },
{ "type": "Feature", "properties": { "@type": "way", "@id": 1189573304, "admin_level": null, "boat": null, "boundary": null, "ele": null, "highway": null, "int_name": null, "intermittent": null, "leaf_type": null, "lit": null, "name": null, "name:bg": null, "name:el": null, "name:mk": null, "natural": "heath", "source": "Bing", "summit": null, "waterway": null, "wikidata": null, "label": "natural:heath" }, "geometry": { "type": "Polygon", "coordinates": [ [ [ 20.7355691, 40.3099436 ], [ 20.7355691, 40.3100295 ], [ 20.7355732, 40.3101267 ], [ 20.7356429, 40.3102085 ], [ 20.7356496, 40.3102954 ], [ 20.7356027, 40.3103844 ], [ 20.7356027, 40.3104928 ], [ 20.7355276, 40.3105767 ], [ 20.7355745, 40.3106329 ], [ 20.7356711, 40.3106329 ], [ 20.7357918, 40.3106738 ], [ 20.7359393, 40.3107577 ], [ 20.736119, 40.3108497 ], [ 20.7362719, 40.3108538 ], [ 20.736406, 40.3108763 ], [ 20.736528, 40.3109346 ], [ 20.7366742, 40.3109765 ], [ 20.7368593, 40.3110461 ], [ 20.73698, 40.3111483 ], [ 20.7371624, 40.3112711 ], [ 20.7372911, 40.311404 ], [ 20.7372925, 40.3114827 ], [ 20.7373729, 40.3115318 ], [ 20.7374829, 40.3116505 ], [ 20.7375057, 40.3117681 ], [ 20.7375701, 40.311856 ], [ 20.7376398, 40.3119828 ], [ 20.7377592, 40.3120472 ], [ 20.7379067, 40.3121065 ], [ 20.7380274, 40.3121331 ], [ 20.7381414, 40.3122119 ], [ 20.7381521, 40.3123326 ], [ 20.7381789, 40.3124471 ], [ 20.7381655, 40.3125657 ], [ 20.7381414, 40.3126864 ], [ 20.7380663, 40.3127518 ], [ 20.7381213, 40.3127999 ], [ 20.7382165, 40.3127559 ], [ 20.7384029, 40.3127324 ], [ 20.7385598, 40.3127191 ], [ 20.7386845, 40.3127201 ], [ 20.7388012, 40.312713 ], [ 20.73893, 40.3126864 ], [ 20.7389809, 40.3126128 ], [ 20.7389823, 40.3125504 ], [ 20.7389313, 40.3124563 ], [ 20.738938, 40.3123694 ], [ 20.7389984, 40.3122722 ], [ 20.7391056, 40.3121986 ], [ 20.7392478, 40.3121659 ], [ 20.7394195, 40.3121659 ], [ 20.739567, 40.3121045 ], [ 20.7396863, 40.3120564 ], [ 20.7398848, 40.3120421 ], [ 20.7400739, 40.3120616 ], [ 20.7401852, 40.3121096 ], [ 20.7403113, 40.312126 ], [ 20.7402965, 40.3120309 ], [ 20.7403046, 40.3119552 ], [ 20.7403596, 40.311899 ], [ 20.7404883, 40.3119194 ], [ 20.7406063, 40.3119378 ], [ 20.7407163, 40.3119153 ], [ 20.7407163, 40.3118458 ], [ 20.7407498, 40.3117732 ], [ 20.740727, 40.3116903 ], [ 20.7405902, 40.3116862 ], [ 20.7404937, 40.3116822 ], [ 20.7403743, 40.3116198 ], [ 20.7403609, 40.3115686 ], [ 20.7403596, 40.3114654 ], [ 20.7402724, 40.3114091 ], [ 20.7401396, 40.3114081 ], [ 20.7399841, 40.311404 ], [ 20.7398432, 40.3114132 ], [ 20.7396944, 40.3113856 ], [ 20.7395723, 40.3113784 ], [ 20.7393819, 40.3112823 ], [ 20.7392693, 40.3111862 ], [ 20.7391593, 40.3110512 ], [ 20.7389823, 40.3109735 ], [ 20.7389152, 40.3108753 ], [ 20.7388535, 40.3107669 ], [ 20.738773, 40.3106728 ], [ 20.7387275, 40.3106033 ], [ 20.7386523, 40.3105317 ], [ 20.7386523, 40.310409 ], [ 20.738584, 40.3103384 ], [ 20.7385504, 40.3102515 ], [ 20.7384619, 40.3101656 ], [ 20.7383305, 40.310139 ], [ 20.7381722, 40.310094 ], [ 20.738081, 40.3099958 ], [ 20.7379496, 40.3099222 ], [ 20.737794, 40.3098894 ], [ 20.7375942, 40.3098884 ], [ 20.7374159, 40.3099222 ], [ 20.7372388, 40.3099426 ], [ 20.7371235, 40.3099038 ], [ 20.7369411, 40.3098833 ], [ 20.7367091, 40.3098393 ], [ 20.7365227, 40.3098281 ], [ 20.7363899, 40.3098148 ], [ 20.7362249, 40.309826 ], [ 20.7360882, 40.3098035 ], [ 20.7358387, 40.3097994 ], [ 20.7357207, 40.3098342 ], [ 20.7355665, 40.3098332 ], [ 20.7355088, 40.3098751 ], [ 20.7355691, 40.3099436 ] ] ] } }
]
}
