{
"type": "FeatureCollection",
"name": "patch_82948_linestring",
"crs": { "type": "name", "properties": { "name": "urn:ogc:def:crs:OGC:1.3:CRS84" } },
"features": [
{ "type": "Feature", "properties": { "osm_id": 27060176, "name": "Αλιάκμονας", "label": "waterway:river", "waterway": "river" }, "geometry": { "type": "LineString", "coordinates": [ [ 21.584362175876091, 40.001696655903231 ], [ 21.5844119, 40.001585000267525 ], [ 21.5845057, 40.001418600267506 ], [ 21.5847471, 40.001110400267457 ], [ 21.5849805, 40.000884400267424 ], [ 21.5854284, 40.000494000267373 ], [ 21.58571, 40.000204300267335 ], [ 21.5859649, 39.999889900267299 ], [ 21.586284, 39.999324900267212 ], [ 21.5865844, 39.99886870026716 ], [ 21.5868205, 39.998611900267122 ], [ 21.5870351, 39.998433100267093 ], [ 21.5873006, 39.998328300267076 ], [ 21.5875715, 39.99829130026707 ], [ 21.5879497, 39.998305700267082 ], [ 21.5882903, 39.998326300267088 ], [ 21.5884888, 39.998277000267066 ], [ 21.5886337, 39.998180400267067 ], [ 21.589103, 39.997734500267001 ], [ 21.5894383, 39.997467400266956 ], [ 21.5898004, 39.997224900266929 ], [ 21.5904012, 39.996818100266879 ], [ 21.5907848, 39.996514000266821 ], [ 21.5912783, 39.996148200266781 ], [ 21.5915948, 39.995874900266749 ], [ 21.5918496, 39.995650900266725 ], [ 21.5920883, 39.995363300266675 ], [ 21.5922761, 39.99507760026664 ], [ 21.5925604, 39.994740700266597 ], [ 21.5928581, 39.994356400266533 ], [ 21.5931076, 39.994048200266505 ], [ 21.5932444, 39.99381600026647 ], [ 21.5934214, 39.993481000266428 ], [ 21.5936547, 39.993045400266354 ], [ 21.5939364, 39.992558400266297 ], [ 21.5941483, 39.992120700266248 ], [ 21.5942743, 39.991672700266179 ], [ 21.594446, 39.991019200266095 ], [ 21.594505, 39.990618500266038 ], [ 21.5945801, 39.990388300266005 ], [ 21.5947115, 39.990131500265974 ], [ 21.594848583917013, 39.989922547391629 ] ] } }
]
}
