{
"type": "FeatureCollection",
"name": "patch_82948_point",
"crs": { "type": "name", "properties": { "name": "urn:ogc:def:crs:OGC:1.3:CRS84" } },
"features": [
{ "type": "Feature", "properties": { "osm_id": 9091849331, "name": null, "label": "natural:peak", "natural": "peak", "historic": null }, "geometry": { "type": "Point", "coordinates": [ 21.5685426, 39.98392890026512 ] } },
{ "type": "Feature", "properties": { "osm_id": 9091848929, "name": "Ερείπια Ελαφιού", "label": "historic:ruins", "natural": null, "historic": "ruins" }, "geometry": { "type": "Point", "coordinates": [ 21.5654795, 39.979402700264522 ] } }
]
}
