{
"type": "FeatureCollection",
"name": "patch_39426_point",
"crs": { "type": "name", "properties": { "name": "urn:ogc:def:crs:OGC:1.3:CRS84" } },
"features": [
{ "type": "Feature", "properties": { "@type": "node", "@id": 7591389404, "admin_level": null, "amenity": "place_of_worship", "archaeological_site": null, "boundary": null, "building": "chapel", "crop": null, "denomination": "greek_orthodox", "ele": null, "highway": null, "historic": null, "historic:civilization": null, "informal": null, "landuse": null, "lanes": null, "name": null, "natural": null, "reg_ref": null, "religion": "christian", "source": null, "source:reg_ref": null, "surface": null, "tracktype": null, "wikidata": null, "label": "building:chapel;amenity:place_of_worship" }, "geometry": { "type": "Point", "coordinates": [ 25.3285906, 35.1011412 ] } },
{ "type": "Feature", "properties": { "@type": "node", "@id": 7591389675, "admin_level": null, "amenity": "place_of_worship", "archaeological_site": null, "boundary": null, "building": "chapel", "crop": null, "denomination": "greek_orthodox", "ele": null, "highway": null, "historic": null, "historic:civilization": null, "informal": null, "landuse": null, "lanes": null, "name": "Άγιος Κωνσταντίνος", "natural": null, "reg_ref": null, "religion": "christian", "source": null, "source:reg_ref": null, "surface": null, "tracktype": null, "wikidata": null, "label": "building:chapel;amenity:place_of_worship" }, "geometry": { "type": "Point", "coordinates": [ 25.3400553, 35.1096115 ] } },
{ "type": "Feature", "properties": { "@type": "node", "@id": 7591598879, "admin_level": null, "amenity": "place_of_worship", "archaeological_site": null, "boundary": null, "building": "chapel", "crop": null, "denomination": "greek_orthodox", "ele": null, "highway": null, "historic": null, "historic:civilization": null, "informal": null, "landuse": null, "lanes": null, "name": "Προφητης Ηλίας", "natural": null, "reg_ref": null, "religion": "christian", "source": null, "source:reg_ref": null, "surface": null, "tracktype": null, "wikidata": null, "label": "building:chapel;amenity:place_of_worship" }, "geometry": { "type": "Point", "coordinates": [ 25.3406736, 35.1027833 ] } },
{ "type": "Feature", "properties": { "@type": "node", "@id": 7592186656, "admin_level": null, "amenity": "place_of_worship", "archaeological_site": null, "boundary": null, "building": "chapel", "crop": null, "denomination": "greek_orthodox", "ele": null, "highway": null, "historic": null, "historic:civilization": null, "informal": null, "landuse": null, "lanes": null, "name": null, "natural": null, "reg_ref": null, "religion": "christian", "source": null, "source:reg_ref": null, "surface": null, "tracktype": null, "wikidata": null, "label": "building:chapel;amenity:place_of_worship" }, "geometry": { "type": "Point", "coordinates": [ 25.3181644, 35.1105769 ] } },
{ "type": "Feature", "properties": { "@type": "node", "@id": 7995750039, "admin_level": null, "amenity": null, "archaeological_site": null, "boundary": null, "building": null, "crop": null, "denomination": null, "ele": "675", "highway": null, "historic": null, "historic:civilization": null, "informal": null, "landuse": null, "lanes": null, "name": null, "natural": "peak", "reg_ref": null, "religion": null, "source": null, "source:reg_ref": null, "surface": null, "tracktype": null, "wikidata": null, "label": "natural:peak" }, "geometry": { "type": "Point", "coordinates": [ 25.340552, 35.1025849 ] } }
]
}
