{
"type": "FeatureCollection",
"name": "patch_39426_features",
"crs": { "type": "name", "properties": { "name": "urn:ogc:def:crs:OGC:1.3:CRS84" } },
"features": [
{ "type": "Feature", "properties": { "@type": "node", "@id": 7591389404, "admin_level": null, "amenity": "place_of_worship", "archaeological_site": null, "boundary": null, "building": "chapel", "crop": null, "denomination": "greek_orthodox", "ele": null, "highway": null, "historic": null, "historic:civilization": null, "informal": null, "landuse": null, "lanes": null, "name": null, "natural": null, "reg_ref": null, "religion": "christian", "source": null, "source:reg_ref": null, "surface": null, "tracktype": null, "wikidata": null, "label": "building:chapel;amenity:place_of_worship" }, "geometry": { "type": "Point", "coordinates": [ 25.3285906, 35.1011412 ] } },
{ "type": "Feature", "properties": { "@type": "node", "@id": 7591389675, "admin_level": null, "amenity": "place_of_worship", "archaeological_site": null, "boundary": null, "building": "chapel", "crop": null, "denomination": "greek_orthodox", "ele": null, "highway": null, "historic": null, "historic:civilization": null, "informal": null, "landuse": null, "lanes": null, "name": "Άγιος Κωνσταντίνος", "natural": null, "reg_ref": null, "religion": "christian", "source": null, "source:reg_ref": null, "surface": null, "tracktype": null, "wikidata": null, "label": "building:chapel;amenity:place_of_worship" }, "geometry": { "type": "Point", "coordinates": [ 25.3400553, 35.1096115 ] } },
{ "type": "Feature", "properties": { "@type": "node", "@id": 7591598879, "admin_level": null, "amenity": "place_of_worship", "archaeological_site": null, "boundary": null, "building": "chapel", "crop": null, "denomination": "greek_orthodox", "ele": null, "highway": null, "historic": null, "historic:civilization": null, "informal": null, "landuse": null, "lanes": null, "name": "Προφητης Ηλίας", "natural": null, "reg_ref": null, "religion": "christian", "source": null, "source:reg_ref": null, "surface": null, "tracktype": null, "wikidata": null, "label": "building:chapel;amenity:place_of_worship" }, "geometry": { "type": "Point", "coordinates": [ 25.3406736, 35.1027833 ] } },
{ "type": "Feature", "properties": { "@type": "node", "@id": 7592186656, "admin_level": null, "amenity": "place_of_worship", "archaeological_site": null, "boundary": null, "building": "chapel", "crop": null, "denomination": "greek_orthodox", "ele": null, "highway": null, "historic": null, "historic:civilization": null, "informal": null, "landuse": null, "lanes": null, "name": null, "natural": null, "reg_ref": null, "religion": "christian", "source": null, "source:reg_ref": null, "surface": null, "tracktype": null, "wikidata": null, "label": "building:chapel;amenity:place_of_worship" }, "geometry": { "type": "Point", "coordinates": [ 25.3181644, 35.1105769 ] } },
{ "type": "Feature", "properties": { "@type": "node", "@id": 7995750039, "admin_level": null, "amenity": null, "archaeological_site": null, "boundary": null, "building": null, "crop": null, "denomination": null, "ele": "675", "highway": null, "historic": null, "historic:civilization": null, "informal": null, "landuse": null, "lanes": null, "name": null, "natural": "peak", "reg_ref": null, "religion": null, "source": null, "source:reg_ref": null, "surface": null, "tracktype": null, "wikidata": null, "label": "natural:peak" }, "geometry": { "type": "Point", "coordinates": [ 25.340552, 35.1025849 ] } },
{ "type": "Feature", "properties": { "@type": "way", "@id": 25784173, "admin_level": null, "amenity": null, "archaeological_site": null, "boundary": null, "building": null, "crop": null, "denomination": null, "ele": null, "highway": null, "historic": null, "historic:civilization": null, "informal": null, "landuse": "residential", "lanes": null, "name": null, "natural": null, "reg_ref": null, "religion": null, "source": null, "source:reg_ref": null, "surface": null, "tracktype": null, "wikidata": null, "label": "landuse:residential" }, "geometry": { "type": "Polygon", "coordinates": [ [ [ 25.3407674, 35.1139257 ], [ 25.3389904, 35.1144991 ], [ 25.338879144167027, 35.114568423624888 ], [ 25.340985704948167, 35.114568423624888 ], [ 25.3407674, 35.1139257 ] ] ] } },
{ "type": "Feature", "properties": { "@type": "way", "@id": 349613615, "admin_level": null, "amenity": null, "archaeological_site": null, "boundary": null, "building": null, "crop": null, "denomination": null, "ele": null, "highway": null, "historic": null, "historic:civilization": null, "informal": null, "landuse": "residential", "lanes": null, "name": null, "natural": null, "reg_ref": null, "religion": null, "source": null, "source:reg_ref": null, "surface": null, "tracktype": null, "wikidata": null, "label": "landuse:residential" }, "geometry": { "type": "Polygon", "coordinates": [ [ [ 25.3152393, 35.1041697 ], [ 25.3152719, 35.1039032 ], [ 25.3152068, 35.1035835 ], [ 25.3153305, 35.1035675 ], [ 25.3153761, 35.1037594 ], [ 25.3157148, 35.1037221 ], [ 25.3155064, 35.1031945 ], [ 25.3156888, 35.1031679 ], [ 25.3155064, 35.1026723 ], [ 25.3152133, 35.1027202 ], [ 25.315120533287786, 35.102662390334679 ], [ 25.315120533287786, 35.104165265932238 ], [ 25.3152393, 35.1041697 ] ] ] } },
{ "type": "Feature", "properties": { "@type": "way", "@id": 812831398, "admin_level": null, "amenity": null, "archaeological_site": null, "boundary": null, "building": null, "crop": "grape", "denomination": null, "ele": null, "highway": null, "historic": null, "historic:civilization": null, "informal": null, "landuse": "vineyard", "lanes": null, "name": null, "natural": null, "reg_ref": null, "religion": null, "source": null, "source:reg_ref": null, "surface": null, "tracktype": null, "wikidata": null, "label": "landuse:vineyard" }, "geometry": { "type": "Polygon", "coordinates": [ [ [ 25.3194, 35.1083135 ], [ 25.3195207, 35.1083793 ], [ 25.3195395, 35.108331 ], [ 25.3195315, 35.108026 ], [ 25.3194349, 35.1079492 ], [ 25.319341, 35.1079097 ], [ 25.3192927, 35.1082959 ], [ 25.3194, 35.1083135 ] ] ] } },
{ "type": "Feature", "properties": { "@type": "way", "@id": 812831399, "admin_level": null, "amenity": null, "archaeological_site": null, "boundary": null, "building": null, "crop": "grape", "denomination": null, "ele": null, "highway": null, "historic": null, "historic:civilization": null, "informal": null, "landuse": "vineyard", "lanes": null, "name": null, "natural": null, "reg_ref": null, "religion": null, "source": null, "source:reg_ref": null, "surface": null, "tracktype": null, "wikidata": null, "label": "landuse:vineyard" }, "geometry": { "type": "Polygon", "coordinates": [ [ [ 25.3190701, 35.1082147 ], [ 25.3191747, 35.1082762 ], [ 25.3192632, 35.1083047 ], [ 25.3193222, 35.1079097 ], [ 25.3192766, 35.1078944 ], [ 25.3189816, 35.108127 ], [ 25.3190701, 35.1082147 ] ] ] } },
{ "type": "Feature", "properties": { "@type": "way", "@id": 812831400, "admin_level": null, "amenity": null, "archaeological_site": null, "boundary": null, "building": null, "crop": "grape", "denomination": null, "ele": null, "highway": null, "historic": null, "historic:civilization": null, "informal": null, "landuse": "vineyard", "lanes": null, "name": null, "natural": null, "reg_ref": null, "religion": null, "source": null, "source:reg_ref": null, "surface": null, "tracktype": null, "wikidata": null, "label": "landuse:vineyard" }, "geometry": { "type": "Polygon", "coordinates": [ [ [ 25.3188877, 35.1080567 ], [ 25.3189628, 35.1081138 ], [ 25.3192579, 35.1078768 ], [ 25.3191506, 35.1077978 ], [ 25.3188743, 35.1079734 ], [ 25.3188877, 35.1080567 ] ] ] } },
{ "type": "Feature", "properties": { "@type": "way", "@id": 812831401, "admin_level": null, "amenity": null, "archaeological_site": null, "boundary": null, "building": null, "crop": "grape", "denomination": null, "ele": null, "highway": null, "historic": null, "historic:civilization": null, "informal": null, "landuse": "vineyard", "lanes": null, "name": null, "natural": null, "reg_ref": null, "religion": null, "source": null, "source:reg_ref": null, "surface": null, "tracktype": null, "wikidata": null, "label": "landuse:vineyard" }, "geometry": { "type": "Polygon", "coordinates": [ [ [ 25.3195475, 35.1079163 ], [ 25.3199821, 35.1078044 ], [ 25.320025, 35.1075959 ], [ 25.3195449, 35.1078 ], [ 25.3195475, 35.1079163 ] ] ] } },
{ "type": "Feature", "properties": { "@type": "way", "@id": 812831402, "admin_level": null, "amenity": null, "archaeological_site": null, "boundary": null, "building": null, "crop": "grape", "denomination": null, "ele": null, "highway": null, "historic": null, "historic:civilization": null, "informal": null, "landuse": "vineyard", "lanes": null, "name": null, "natural": null, "reg_ref": null, "religion": null, "source": null, "source:reg_ref": null, "surface": null, "tracktype": null, "wikidata": null, "label": "landuse:vineyard" }, "geometry": { "type": "Polygon", "coordinates": [ [ [ 25.3198721, 35.1082257 ], [ 25.3199096, 35.1080458 ], [ 25.3195851, 35.1081116 ], [ 25.3195824, 35.1083332 ], [ 25.3198721, 35.1082257 ] ] ] } },
{ "type": "Feature", "properties": { "@type": "way", "@id": 812831403, "admin_level": null, "amenity": null, "archaeological_site": null, "boundary": null, "building": null, "crop": "grape", "denomination": null, "ele": null, "highway": null, "historic": null, "historic:civilization": null, "informal": null, "landuse": "vineyard", "lanes": null, "name": null, "natural": null, "reg_ref": null, "religion": null, "source": null, "source:reg_ref": null, "surface": null, "tracktype": null, "wikidata": null, "label": "landuse:vineyard" }, "geometry": { "type": "Polygon", "coordinates": [ [ [ 25.3195878, 35.1080831 ], [ 25.319907, 35.108026 ], [ 25.319974, 35.1078241 ], [ 25.319561, 35.1079404 ], [ 25.3195878, 35.1080831 ] ] ] } },
{ "type": "Feature", "properties": { "@type": "way", "@id": 812831404, "admin_level": null, "amenity": null, "archaeological_site": null, "boundary": null, "building": "yes", "crop": null, "denomination": null, "ele": null, "highway": null, "historic": null, "historic:civilization": null, "informal": null, "landuse": null, "lanes": null, "name": null, "natural": null, "reg_ref": null, "religion": null, "source": null, "source:reg_ref": null, "surface": null, "tracktype": null, "wikidata": null, "label": "building:yes" }, "geometry": { "type": "Polygon", "coordinates": [ [ [ 25.3198587, 35.1087062 ], [ 25.3199847, 35.1087062 ], [ 25.3199874, 35.1084846 ], [ 25.319856, 35.1084846 ], [ 25.3198587, 35.1087062 ] ] ] } },
{ "type": "Feature", "properties": { "@type": "way", "@id": 812831405, "admin_level": null, "amenity": null, "archaeological_site": null, "boundary": null, "building": "yes", "crop": null, "denomination": null, "ele": null, "highway": null, "historic": null, "historic:civilization": null, "informal": null, "landuse": null, "lanes": null, "name": null, "natural": null, "reg_ref": null, "religion": null, "source": null, "source:reg_ref": null, "surface": null, "tracktype": null, "wikidata": null, "label": "building:yes" }, "geometry": { "type": "Polygon", "coordinates": [ [ [ 25.3197085, 35.1084298 ], [ 25.3198775, 35.1084319 ], [ 25.3198748, 35.1083573 ], [ 25.3197058, 35.1083552 ], [ 25.3197085, 35.1084298 ] ] ] } },
{ "type": "Feature", "properties": { "@type": "way", "@id": 813402462, "admin_level": null, "amenity": null, "archaeological_site": null, "boundary": null, "building": null, "crop": null, "denomination": null, "ele": null, "highway": null, "historic": null, "historic:civilization": null, "informal": null, "landuse": "orchard", "lanes": null, "name": null, "natural": null, "reg_ref": null, "religion": null, "source": null, "source:reg_ref": null, "surface": null, "tracktype": null, "wikidata": null, "label": "landuse:orchard" }, "geometry": { "type": "Polygon", "coordinates": [ [ [ 25.3283065, 35.091167 ], [ 25.328434038701058, 35.091106905493398 ], [ 25.328286180274745, 35.091106905493398 ], [ 25.3283065, 35.091167 ] ] ] } },
{ "type": "Feature", "properties": { "@type": "way", "@id": 813402464, "admin_level": null, "amenity": null, "archaeological_site": null, "boundary": null, "building": null, "crop": null, "denomination": null, "ele": null, "highway": null, "historic": null, "historic:civilization": null, "informal": null, "landuse": "orchard", "lanes": null, "name": null, "natural": null, "reg_ref": null, "religion": null, "source": null, "source:reg_ref": null, "surface": null, "tracktype": null, "wikidata": null, "label": "landuse:orchard" }, "geometry": { "type": "Polygon", "coordinates": [ [ [ 25.3303745, 35.0920076 ], [ 25.3304737, 35.0920756 ], [ 25.3307768, 35.0918473 ], [ 25.3308117, 35.0917705 ], [ 25.3309243, 35.0917069 ], [ 25.3310021, 35.0917025 ], [ 25.3310423, 35.0916652 ], [ 25.3310048, 35.0915796 ], [ 25.3308948, 35.0914633 ], [ 25.3307795, 35.0913184 ], [ 25.3306346, 35.0914457 ], [ 25.3305273, 35.0915247 ], [ 25.3304898, 35.0915884 ], [ 25.3304066, 35.0916454 ], [ 25.3303503, 35.0917552 ], [ 25.3302806, 35.0918649 ], [ 25.3302484, 35.0918825 ], [ 25.3302403, 35.0919505 ], [ 25.3303745, 35.0920076 ] ] ] } },
{ "type": "Feature", "properties": { "@type": "way", "@id": 813413676, "admin_level": null, "amenity": null, "archaeological_site": null, "boundary": null, "building": null, "crop": null, "denomination": null, "ele": null, "highway": null, "historic": null, "historic:civilization": null, "informal": null, "landuse": "orchard", "lanes": null, "name": null, "natural": null, "reg_ref": null, "religion": null, "source": null, "source:reg_ref": null, "surface": null, "tracktype": null, "wikidata": null, "label": "landuse:orchard" }, "geometry": { "type": "Polygon", "coordinates": [ [ [ 25.3372613, 35.0981551 ], [ 25.3375456, 35.0984163 ], [ 25.3376704, 35.0985655 ], [ 25.3378018, 35.0986598 ], [ 25.3379426, 35.0987147 ], [ 25.3379855, 35.0986906 ], [ 25.3380646, 35.0985644 ], [ 25.3381518, 35.0983976 ], [ 25.3381344, 35.0983307 ], [ 25.3380874, 35.0982725 ], [ 25.338003, 35.0981781 ], [ 25.3379346, 35.0980991 ], [ 25.3379024, 35.0980081 ], [ 25.3378782, 35.0978918 ], [ 25.3377803, 35.0978907 ], [ 25.3375175, 35.0978962 ], [ 25.337378, 35.0979071 ], [ 25.3372305, 35.0979554 ], [ 25.3371607, 35.0980278 ], [ 25.3372613, 35.0981551 ] ] ] } },
{ "type": "Feature", "properties": { "@type": "way", "@id": 1181844056, "admin_level": null, "amenity": null, "archaeological_site": "settlement", "boundary": null, "building": null, "crop": null, "denomination": null, "ele": null, "highway": null, "historic": "archaeological_site", "historic:civilization": "prehistoric", "informal": null, "landuse": null, "lanes": null, "name": "Αρχαία Αρκαδία (Αφρατί)", "natural": null, "reg_ref": null, "religion": null, "source": null, "source:reg_ref": null, "surface": null, "tracktype": null, "wikidata": "Q20013164", "label": "historic:archaeological_site" }, "geometry": { "type": "Polygon", "coordinates": [ [ [ 25.3422739, 35.1018071 ], [ 25.3420293, 35.1015614 ], [ 25.3414499, 35.1014279 ], [ 25.3410208, 35.1016105 ], [ 25.3406045, 35.1018387 ], [ 25.3407504, 35.1019792 ], [ 25.3408534, 35.1023935 ], [ 25.3410637, 35.102562 ], [ 25.3415358, 35.102878 ], [ 25.341892, 35.1032256 ], [ 25.3424584, 35.1037487 ], [ 25.342726984876787, 35.103849956469709 ], [ 25.342726984876787, 35.102141763020214 ], [ 25.3422739, 35.1018071 ] ] ] } }
]
}
