{
"type": "FeatureCollection",
"name": "patch_56154_polygon",
"crs": { "type": "name", "properties": { "name": "urn:ogc:def:crs:OGC:1.3:CRS84" } },
"features": [
{ "type": "Feature", "properties": { "element": "way", "id": 327626735, "amenity": null, "denomination": null, "name": null, "phone": null, "website": null, "addr:city": null, "addr:country": null, "addr:postcode": null, "email": null, "tourism": null, "ele": null, "man_made": null, "natural": null, "healthcare": null, "operator": null, "leisure": "pitch", "sport": "soccer", "landuse": null, "religion": null, "building": null, "castle_type": null, "historic": null, "historic:civilization": null, "intermittent": null, "name:el": null, "name:en": null, "name:ru": null, "waterway": null, "wikidata": null, "label": "sport:soccer;leisure:pitch" }, "geometry": { "type": "Polygon", "coordinates": [ [ [ 23.6766201, 38.44734 ], [ 23.6758855, 38.4466505 ], [ 23.6752617, 38.4470478 ], [ 23.675973, 38.4477623 ], [ 23.6766201, 38.44734 ] ] ] } },
{ "type": "Feature", "properties": { "element": "way", "id": 327630172, "amenity": null, "denomination": null, "name": null, "phone": null, "website": null, "addr:city": null, "addr:country": null, "addr:postcode": null, "email": null, "tourism": null, "ele": null, "man_made": null, "natural": null, "healthcare": null, "operator": null, "leisure": null, "sport": null, "landuse": "cemetery", "religion": null, "building": null, "castle_type": null, "historic": null, "historic:civilization": null, "intermittent": null, "name:el": null, "name:en": null, "name:ru": null, "waterway": null, "wikidata": null, "label": "landuse:cemetery" }, "geometry": { "type": "Polygon", "coordinates": [ [ [ 23.682326, 38.4487667 ], [ 23.6820611, 38.4487807 ], [ 23.6819049, 38.4487993 ], [ 23.6819524, 38.4489138 ], [ 23.6820255, 38.4490547 ], [ 23.6820927, 38.4491755 ], [ 23.6822311, 38.4493133 ], [ 23.682402037943138, 38.449239971080239 ], [ 23.682402037943138, 38.448760102450628 ], [ 23.682326, 38.4487667 ] ] ] } },
{ "type": "Feature", "properties": { "element": "way", "id": 327739998, "amenity": null, "denomination": null, "name": null, "phone": null, "website": null, "addr:city": null, "addr:country": null, "addr:postcode": null, "email": null, "tourism": null, "ele": null, "man_made": null, "natural": null, "healthcare": null, "operator": null, "leisure": null, "sport": null, "landuse": "residential", "religion": null, "building": null, "castle_type": null, "historic": null, "historic:civilization": null, "intermittent": null, "name:el": null, "name:en": null, "name:ru": null, "waterway": null, "wikidata": null, "label": "landuse:residential" }, "geometry": { "type": "Polygon", "coordinates": [ [ [ 23.6821023, 38.4470026 ], [ 23.6821813, 38.4478202 ], [ 23.6808052, 38.4477211 ], [ 23.6801409, 38.4487616 ], [ 23.6790021, 38.4498393 ], [ 23.6787016, 38.4504959 ], [ 23.6793659, 38.451301 ], [ 23.6805996, 38.4514992 ], [ 23.6807894, 38.4519823 ], [ 23.6811849, 38.4525026 ], [ 23.6821339, 38.4521681 ], [ 23.682402037943138, 38.452183762676874 ], [ 23.682402037943138, 38.446420678191785 ], [ 23.6821023, 38.4470026 ] ] ] } },
{ "type": "Feature", "properties": { "element": "way", "id": 327739999, "amenity": null, "denomination": null, "name": null, "phone": null, "website": null, "addr:city": null, "addr:country": null, "addr:postcode": null, "email": null, "tourism": null, "ele": null, "man_made": null, "natural": null, "healthcare": null, "operator": null, "leisure": null, "sport": null, "landuse": "residential", "religion": null, "building": null, "castle_type": null, "historic": null, "historic:civilization": null, "intermittent": null, "name:el": null, "name:en": null, "name:ru": null, "waterway": null, "wikidata": null, "label": "landuse:residential" }, "geometry": { "type": "Polygon", "coordinates": [ [ [ 23.6774678, 38.4432242 ], [ 23.6785117, 38.4434224 ], [ 23.6791919, 38.4432986 ], [ 23.6798088, 38.4440914 ], [ 23.6802675, 38.4443268 ], [ 23.6813747, 38.4439799 ], [ 23.6819757, 38.4442896 ], [ 23.682402037943138, 38.444786153431913 ], [ 23.682402037943138, 38.442741693375325 ], [ 23.676961319503572, 38.442741693375325 ], [ 23.6774678, 38.4432242 ] ] ] } },
{ "type": "Feature", "properties": { "element": "way", "id": 329078623, "amenity": null, "denomination": "greek_orthodox", "name": "Κοιμητήριο Μύτικα", "phone": null, "website": null, "addr:city": null, "addr:country": null, "addr:postcode": null, "email": null, "tourism": null, "ele": null, "man_made": null, "natural": null, "healthcare": null, "operator": null, "leisure": null, "sport": null, "landuse": "cemetery", "religion": "christian", "building": null, "castle_type": null, "historic": null, "historic:civilization": null, "intermittent": null, "name:el": null, "name:en": null, "name:ru": null, "waterway": null, "wikidata": null, "label": "landuse:cemetery" }, "geometry": { "type": "Polygon", "coordinates": [ [ [ 23.6708, 38.445009 ], [ 23.6709463, 38.4449255 ], [ 23.6710654, 38.4448666 ], [ 23.6711385, 38.4448158 ], [ 23.6710675, 38.4447618 ], [ 23.6708083, 38.4446129 ], [ 23.6707623, 38.4446063 ], [ 23.6706181, 38.4447422 ], [ 23.6705366, 38.4448698 ], [ 23.670336, 38.4450433 ], [ 23.6705157, 38.4451841 ], [ 23.6706746, 38.4450793 ], [ 23.6708, 38.445009 ] ] ] } },
{ "type": "Feature", "properties": { "element": "way", "id": 329078827, "amenity": null, "denomination": null, "name": "Ενετικός Πύργος", "phone": null, "website": null, "addr:city": null, "addr:country": null, "addr:postcode": null, "email": null, "tourism": null, "ele": null, "man_made": null, "natural": null, "healthcare": null, "operator": null, "leisure": null, "sport": null, "landuse": null, "religion": null, "building": "yes", "castle_type": "tower", "historic": "castle", "historic:civilization": "medieval", "intermittent": null, "name:el": null, "name:en": null, "name:ru": null, "waterway": null, "wikidata": null, "label": "building:yes;historic:castle" }, "geometry": { "type": "Polygon", "coordinates": [ [ [ 23.6705294, 38.4443785 ], [ 23.6705964, 38.4443288 ], [ 23.670546, 38.4442871 ], [ 23.670479, 38.4443369 ], [ 23.6705294, 38.4443785 ] ] ] } },
{ "type": "Feature", "properties": { "element": "way", "id": 329078828, "amenity": null, "denomination": null, "name": "Ενετικός Πύργος", "phone": null, "website": null, "addr:city": null, "addr:country": null, "addr:postcode": null, "email": null, "tourism": null, "ele": null, "man_made": null, "natural": null, "healthcare": null, "operator": null, "leisure": null, "sport": null, "landuse": null, "religion": null, "building": "yes", "castle_type": "tower", "historic": "castle", "historic:civilization": "medieval", "intermittent": null, "name:el": null, "name:en": null, "name:ru": null, "waterway": null, "wikidata": null, "label": "building:yes;historic:castle" }, "geometry": { "type": "Polygon", "coordinates": [ [ [ 23.671326, 38.4451046 ], [ 23.6713828, 38.4450678 ], [ 23.6713409, 38.445028 ], [ 23.6712841, 38.4450648 ], [ 23.671326, 38.4451046 ] ] ] } },
{ "type": "Feature", "properties": { "element": "way", "id": 1103642837, "amenity": "place_of_worship", "denomination": null, "name": "Άγιος Αθανάσιος", "phone": null, "website": null, "addr:city": null, "addr:country": null, "addr:postcode": null, "email": null, "tourism": null, "ele": null, "man_made": null, "natural": null, "healthcare": null, "operator": null, "leisure": null, "sport": null, "landuse": null, "religion": "christian", "building": "yes", "castle_type": null, "historic": null, "historic:civilization": null, "intermittent": null, "name:el": null, "name:en": null, "name:ru": null, "waterway": null, "wikidata": null, "label": "building:yes;amenity:place_of_worship" }, "geometry": { "type": "Polygon", "coordinates": [ [ [ 23.670888, 38.4448362 ], [ 23.6709313, 38.444798 ], [ 23.6708224, 38.4447226 ], [ 23.6707792, 38.4447609 ], [ 23.670888, 38.4448362 ] ] ] } },
{ "type": "Feature", "properties": { "element": "way", "id": 1103642839, "amenity": null, "denomination": null, "name": null, "phone": null, "website": null, "addr:city": null, "addr:country": null, "addr:postcode": null, "email": null, "tourism": null, "ele": null, "man_made": null, "natural": null, "healthcare": null, "operator": null, "leisure": null, "sport": null, "landuse": null, "religion": null, "building": "yes", "castle_type": null, "historic": null, "historic:civilization": null, "intermittent": null, "name:el": null, "name:en": null, "name:ru": null, "waterway": null, "wikidata": null, "label": "building:yes" }, "geometry": { "type": "Polygon", "coordinates": [ [ [ 23.6711605, 38.4451448 ], [ 23.6712079, 38.4451202 ], [ 23.6711622, 38.4450662 ], [ 23.6711148, 38.4450908 ], [ 23.6711605, 38.4451448 ] ] ] } },
{ "type": "Feature", "properties": { "element": "way", "id": 1103642840, "amenity": null, "denomination": null, "name": null, "phone": null, "website": null, "addr:city": null, "addr:country": null, "addr:postcode": null, "email": null, "tourism": null, "ele": null, "man_made": null, "natural": null, "healthcare": null, "operator": null, "leisure": null, "sport": null, "landuse": null, "religion": null, "building": "yes", "castle_type": null, "historic": null, "historic:civilization": null, "intermittent": null, "name:el": null, "name:en": null, "name:ru": null, "waterway": null, "wikidata": null, "label": "building:yes" }, "geometry": { "type": "Polygon", "coordinates": [ [ [ 23.6693605, 38.4445087 ], [ 23.6695482, 38.4443902 ], [ 23.6695165, 38.4443573 ], [ 23.6694288, 38.4444133 ], [ 23.6694109, 38.4443978 ], [ 23.6693659, 38.4444279 ], [ 23.6693827, 38.4444424 ], [ 23.6693241, 38.4444809 ], [ 23.6693605, 38.4445087 ] ] ] } },
{ "type": "Feature", "properties": { "element": "way", "id": 1293426014, "amenity": null, "denomination": null, "name": null, "phone": null, "website": null, "addr:city": null, "addr:country": null, "addr:postcode": null, "email": null, "tourism": null, "ele": null, "man_made": null, "natural": null, "healthcare": null, "operator": null, "leisure": "swimming_pool", "sport": null, "landuse": null, "religion": null, "building": null, "castle_type": null, "historic": null, "historic:civilization": null, "intermittent": null, "name:el": null, "name:en": null, "name:ru": null, "waterway": null, "wikidata": null, "label": "leisure:swimming_pool" }, "geometry": { "type": "Polygon", "coordinates": [ [ [ 23.6536018, 38.4472448 ], [ 23.6535602, 38.4473497 ], [ 23.6536007, 38.4473597 ], [ 23.6536261, 38.4473479 ], [ 23.6536642, 38.4472638 ], [ 23.6536018, 38.4472448 ] ] ] } },
{ "type": "Feature", "properties": { "element": "way", "id": 1293426015, "amenity": null, "denomination": null, "name": null, "phone": null, "website": null, "addr:city": null, "addr:country": null, "addr:postcode": null, "email": null, "tourism": null, "ele": null, "man_made": null, "natural": null, "healthcare": null, "operator": null, "leisure": "swimming_pool", "sport": null, "landuse": null, "religion": null, "building": null, "castle_type": null, "historic": null, "historic:civilization": null, "intermittent": null, "name:el": null, "name:en": null, "name:ru": null, "waterway": null, "wikidata": null, "label": "leisure:swimming_pool" }, "geometry": { "type": "Polygon", "coordinates": [ [ [ 23.653513, 38.4457777 ], [ 23.6534772, 38.4458657 ], [ 23.6534872, 38.4458696 ], [ 23.6534891, 38.4458797 ], [ 23.6534971, 38.4458844 ], [ 23.653506, 38.4458821 ], [ 23.653509, 38.4458766 ], [ 23.65352, 38.4458797 ], [ 23.6535548, 38.4457871 ], [ 23.653513, 38.4457777 ] ] ] } },
{ "type": "Feature", "properties": { "element": "way", "id": 1436283638, "amenity": null, "denomination": null, "name": null, "phone": null, "website": null, "addr:city": null, "addr:country": null, "addr:postcode": null, "email": null, "tourism": null, "ele": null, "man_made": null, "natural": null, "healthcare": null, "operator": null, "leisure": null, "sport": null, "landuse": null, "religion": null, "building": "yes", "castle_type": null, "historic": null, "historic:civilization": null, "intermittent": null, "name:el": null, "name:en": null, "name:ru": null, "waterway": null, "wikidata": null, "label": "building:yes" }, "geometry": { "type": "Polygon", "coordinates": [ [ [ 23.678955, 38.4530206 ], [ 23.6790426, 38.4529868 ], [ 23.6791337, 38.4531102 ], [ 23.6792224, 38.4530791 ], [ 23.6792306, 38.4530993 ], [ 23.6793146, 38.4530609 ], [ 23.679115, 38.4527957 ], [ 23.6790636, 38.4528241 ], [ 23.6790181, 38.4527875 ], [ 23.6789002, 38.4528369 ], [ 23.678906, 38.4528506 ], [ 23.6788196, 38.4528954 ], [ 23.678955, 38.4530206 ] ] ] } }
]
}
