{
"type": "FeatureCollection",
"name": "patch_56154_point",
"crs": { "type": "name", "properties": { "name": "urn:ogc:def:crs:OGC:1.3:CRS84" } },
"features": [
{ "type": "Feature", "properties": { "element": "node", "id": 5632432115, "amenity": "place_of_worship", "denomination": "greek_orthodox", "name": "Ιερός ναός Ευαγγελίστριας", "phone": null, "website": null, "addr:city": null, "addr:country": null, "addr:postcode": null, "email": null, "tourism": null, "ele": null, "man_made": null, "natural": null, "healthcare": null, "operator": null, "leisure": null, "sport": null, "landuse": null, "religion": null, "building": null, "castle_type": null, "historic": null, "historic:civilization": null, "intermittent": null, "name:el": null, "name:en": null, "name:ru": null, "waterway": null, "wikidata": null, "label": "amenity:place_of_worship" }, "geometry": { "type": "Point", "coordinates": [ 23.6684569, 38.4440717 ] } },
{ "type": "Feature", "properties": { "element": "node", "id": 5632987391, "amenity": "restaurant", "denomination": null, "name": "Κτήμα ΑΜΠΕΛΙΣ", "phone": "6934588481,2221051469", "website": "https://www.ktimaampelis.gr/", "addr:city": null, "addr:country": null, "addr:postcode": null, "email": null, "tourism": null, "ele": null, "man_made": null, "natural": null, "healthcare": null, "operator": null, "leisure": null, "sport": null, "landuse": null, "religion": null, "building": null, "castle_type": null, "historic": null, "historic:civilization": null, "intermittent": null, "name:el": null, "name:en": null, "name:ru": null, "waterway": null, "wikidata": null, "label": "amenity:restaurant" }, "geometry": { "type": "Point", "coordinates": [ 23.663848, 38.4490024 ] } },
{ "type": "Feature", "properties": { "element": "node", "id": 6046828217, "amenity": null, "denomination": null, "name": "Madcat Farm", "phone": "+302221052336", "website": "http://www.madcatfarm.gr/", "addr:city": "Φύλλα", "addr:country": "GR", "addr:postcode": "34100", "email": "madcatfarm@gmail.com", "tourism": "guest_house", "ele": null, "man_made": null, "natural": null, "healthcare": null, "operator": null, "leisure": null, "sport": null, "landuse": null, "religion": null, "building": null, "castle_type": null, "historic": null, "historic:civilization": null, "intermittent": null, "name:el": null, "name:en": null, "name:ru": null, "waterway": null, "wikidata": null, "label": "tourism:guest_house" }, "geometry": { "type": "Point", "coordinates": [ 23.6794156, 38.4471641 ] } },
{ "type": "Feature", "properties": { "element": "node", "id": 8767014714, "amenity": null, "denomination": null, "name": "Γιδοτόπι", "phone": null, "website": null, "addr:city": null, "addr:country": null, "addr:postcode": null, "email": null, "tourism": null, "ele": "146", "man_made": "survey_point", "natural": "peak", "healthcare": null, "operator": null, "leisure": null, "sport": null, "landuse": null, "religion": null, "building": null, "castle_type": null, "historic": null, "historic:civilization": null, "intermittent": null, "name:el": null, "name:en": null, "name:ru": null, "waterway": null, "wikidata": null, "label": "natural:peak" }, "geometry": { "type": "Point", "coordinates": [ 23.67495, 38.4631601 ] } },
{ "type": "Feature", "properties": { "element": "node", "id": 9099177491, "amenity": "pharmacy", "denomination": null, "name": null, "phone": "+302221051151", "website": null, "addr:city": "Φύλλα", "addr:country": null, "addr:postcode": null, "email": null, "tourism": null, "ele": null, "man_made": null, "natural": null, "healthcare": "pharmacy", "operator": "Αρτσίτας Ανδρέας", "leisure": null, "sport": null, "landuse": null, "religion": null, "building": null, "castle_type": null, "historic": null, "historic:civilization": null, "intermittent": null, "name:el": null, "name:en": null, "name:ru": null, "waterway": null, "wikidata": null, "label": "amenity:pharmacy" }, "geometry": { "type": "Point", "coordinates": [ 23.6819997, 38.443144 ] } }
]
}
