{
"type": "FeatureCollection",
"name": "patch_82949_linestring",
"crs": { "type": "name", "properties": { "name": "urn:ogc:def:crs:OGC:1.3:CRS84" } },
"features": [
{ "type": "Feature", "properties": { "osm_id": 37300563, "name": "Κρύο Ρέμα", "label": "waterway:stream", "waterway": "stream" }, "geometry": { "type": "LineString", "coordinates": [ [ 22.194396312580004, 41.03530145934171 ], [ 22.194102, 41.034967600396037 ], [ 22.1939507, 41.034402800395974 ], [ 22.1939167, 41.033488600395877 ], [ 22.1938699, 41.032858500395811 ], [ 22.193484, 41.031978500395702 ], [ 22.193316, 41.031631200395658 ], [ 22.193383, 41.031467600395651 ], [ 22.1934911, 41.031382300395649 ], [ 22.1936605, 41.031248600395635 ], [ 22.1937995, 41.031019200395598 ], [ 22.1936712, 41.030617000395551 ], [ 22.1936357, 41.030505700395537 ], [ 22.1928132, 41.029401000395424 ] ] } },
{ "type": "Feature", "properties": { "osm_id": 177954941, "name": "Megalo Potami", "label": "waterway:river", "waterway": "river" }, "geometry": { "type": "LineString", "coordinates": [ [ 22.1928132, 41.029401000395424 ], [ 22.1924164, 41.029211300395389 ], [ 22.1920825, 41.028979000395367 ], [ 22.1915769, 41.028747300395345 ], [ 22.1912735, 41.02863560039534 ], [ 22.1909639, 41.028422800395326 ], [ 22.1905876, 41.028057900395275 ], [ 22.1903254, 41.027794800395242 ], [ 22.1902164, 41.027545100395209 ], [ 22.1900483, 41.027104200395165 ], [ 22.1897986, 41.026836500395142 ], [ 22.1893354, 41.026592500395104 ], [ 22.1887544, 41.026422500395093 ], [ 22.1882322, 41.026147400395061 ], [ 22.1867224, 41.025572500395 ], [ 22.185768, 41.025082900394935 ], [ 22.1849125, 41.024952800394928 ], [ 22.1841853, 41.024809800394905 ], [ 22.1839735, 41.024790400394906 ], [ 22.1837146, 41.024811500394918 ], [ 22.1834545, 41.024722600394902 ], [ 22.1833661, 41.024653600394899 ], [ 22.1832184, 41.024573100394882 ], [ 22.1831187, 41.024559300394891 ], [ 22.1827611, 41.024582700394873 ], [ 22.1819755, 41.024737000394907 ], [ 22.18128, 41.024781800394905 ], [ 22.1804491, 41.024723600394914 ], [ 22.1801451, 41.024681000394892 ], [ 22.1799853, 41.024564400394887 ], [ 22.1798494, 41.024471100394869 ], [ 22.1797017, 41.024164500394832 ], [ 22.1796432, 41.023980000394822 ], [ 22.1796248, 41.023719000394784 ], [ 22.1795031, 41.023608800394783 ], [ 22.1793929, 41.023554600394768 ], [ 22.1791573, 41.023504400394771 ], [ 22.1788979, 41.023467400394765 ], [ 22.1777068, 41.023543200394784 ], [ 22.1773479, 41.023550900394781 ], [ 22.1769709, 41.023446800394773 ], [ 22.1766088, 41.023271900394732 ], [ 22.1764893, 41.023190900394731 ], [ 22.1761291, 41.022716700394682 ], [ 22.1756888, 41.022376800394646 ], [ 22.1752594, 41.022110900394601 ], [ 22.1747853, 41.021965900394591 ], [ 22.1741671, 41.021901600394585 ], [ 22.1738543, 41.021891000394589 ], [ 22.1724135, 41.022026100394598 ], [ 22.1708108, 41.022218700394632 ], [ 22.1701203, 41.022245000394626 ], [ 22.1699383, 41.02223350039462 ], [ 22.1691927, 41.02214290039462 ], [ 22.1685122, 41.0220032003946 ], [ 22.1657949, 41.020788900394464 ], [ 22.165289735449054, 41.020600287587214 ] ] } },
{ "type": "Feature", "properties": { "osm_id": 1092723498, "name": null, "label": "waterway:stream", "waterway": "stream" }, "geometry": { "type": "LineString", "coordinates": [ [ 22.165289735449054, 41.033432083320356 ], [ 22.1658424, 41.032906400395809 ], [ 22.1663949, 41.032516100395775 ], [ 22.1672423, 41.032042300395709 ], [ 22.1684963, 41.031506800395668 ], [ 22.1704554, 41.030711700395557 ], [ 22.1715141, 41.030303600395527 ], [ 22.1717059, 41.030198200395517 ], [ 22.1719352, 41.030010500395505 ], [ 22.1726258, 41.029506500395421 ], [ 22.1728672, 41.029190400395393 ], [ 22.1734568, 41.028356100395307 ], [ 22.173878, 41.027449700395209 ], [ 22.1740739, 41.026608000395107 ], [ 22.1740542, 41.025973500395054 ], [ 22.17397, 41.025411800394984 ], [ 22.1738921, 41.025256300394965 ], [ 22.1735921, 41.024657100394897 ], [ 22.1726767, 41.022632800394661 ], [ 22.1724135, 41.022026100394598 ] ] } },
{ "type": "Feature", "properties": { "osm_id": 303739437, "name": null, "label": "waterway:stream", "waterway": "stream" }, "geometry": { "type": "LineString", "coordinates": [ [ 22.19614551894044, 41.030671781542814 ], [ 22.1957084, 41.030686400395574 ], [ 22.195517, 41.030672000395569 ], [ 22.1953384, 41.030638300395559 ], [ 22.1946048, 41.030676800395568 ], [ 22.1939925, 41.030633500395567 ], [ 22.1936712, 41.030617000395551 ] ] } }
]
}
