{
"type": "FeatureCollection",
"name": "patch_83550_point",
"crs": { "type": "name", "properties": { "name": "urn:ogc:def:crs:OGC:1.3:CRS84" } },
"features": [
{ "type": "Feature", "properties": { "element": "node", "id": 1105558746, "amenity": "place_of_worship", "denomination": "greek_orthodox", "religion": "christian", "drinking_water": null, "natural": null, "building": null, "denomination_1": null, "landuse": null, "name": null, "name:de": null, "name:el": null, "name:en": null, "access": null, "capacity": null, "fee": null, "park_ride": null, "parking": null, "supervised": null, "surface": null, "ele": null, "water": null, "source": null, "leaf_type": null, "type": null, "label": "amenity:place_of_worship" }, "geometry": { "type": "Point", "coordinates": [ 24.8263407, 37.8507643 ] } },
{ "type": "Feature", "properties": { "element": "node", "id": 1105558776, "amenity": "place_of_worship", "denomination": "greek_orthodox", "religion": "christian", "drinking_water": null, "natural": null, "building": null, "denomination_1": null, "landuse": null, "name": null, "name:de": null, "name:el": null, "name:en": null, "access": null, "capacity": null, "fee": null, "park_ride": null, "parking": null, "supervised": null, "surface": null, "ele": null, "water": null, "source": null, "leaf_type": null, "type": null, "label": "amenity:place_of_worship" }, "geometry": { "type": "Point", "coordinates": [ 24.827863, 37.8523389 ] } },
{ "type": "Feature", "properties": { "element": "node", "id": 5119970108, "amenity": null, "denomination": null, "religion": null, "drinking_water": "yes", "natural": "spring", "building": null, "denomination_1": null, "landuse": null, "name": null, "name:de": null, "name:el": null, "name:en": null, "access": null, "capacity": null, "fee": null, "park_ride": null, "parking": null, "supervised": null, "surface": null, "ele": null, "water": null, "source": null, "leaf_type": null, "type": null, "label": "natural:spring" }, "geometry": { "type": "Point", "coordinates": [ 24.8208606, 37.8674764 ] } },
{ "type": "Feature", "properties": { "element": "node", "id": 5120019306, "amenity": null, "denomination": null, "religion": null, "drinking_water": "yes", "natural": "spring", "building": null, "denomination_1": null, "landuse": null, "name": null, "name:de": null, "name:el": null, "name:en": null, "access": null, "capacity": null, "fee": null, "park_ride": null, "parking": null, "supervised": null, "surface": null, "ele": null, "water": null, "source": null, "leaf_type": null, "type": null, "label": "natural:spring" }, "geometry": { "type": "Point", "coordinates": [ 24.8119999, 37.8645401 ] } }
]
}
