{
"type": "FeatureCollection",
"name": "patch_83550_multipolygon",
"crs": { "type": "name", "properties": { "name": "urn:ogc:def:crs:OGC:1.3:CRS84" } },
"features": [
{ "type": "Feature", "properties": { "element": "relation", "id": 12130426, "amenity": null, "denomination": null, "religion": null, "drinking_water": null, "natural": "wood", "building": null, "denomination_1": null, "landuse": null, "name": null, "name:de": null, "name:el": null, "name:en": null, "access": null, "capacity": null, "fee": null, "park_ride": null, "parking": null, "supervised": null, "surface": null, "ele": null, "water": null, "source": null, "leaf_type": null, "type": "multipolygon", "label": "natural:wood" }, "geometry": { "type": "MultiPolygon", "coordinates": [ [ [ [ 24.8319511, 37.8474176 ], [ 24.8316581, 37.8474316 ], [ 24.8314628, 37.8473615 ], [ 24.8311521, 37.8473615 ], [ 24.8309834, 37.8473545 ], [ 24.8307703, 37.8472493 ], [ 24.8306549, 37.8472633 ], [ 24.8305217, 37.8473264 ], [ 24.8302732, 37.8473404 ], [ 24.8300512, 37.8474035 ], [ 24.8298115, 37.8473475 ], [ 24.8296695, 37.8472353 ], [ 24.8295984, 37.8471091 ], [ 24.8294653, 37.8469689 ], [ 24.8295896, 37.8466815 ], [ 24.8298115, 37.8465903 ], [ 24.8298115, 37.8464361 ], [ 24.8298026, 37.8462819 ], [ 24.8298381, 37.8460785 ], [ 24.829918, 37.8460155 ], [ 24.8299624, 37.8461487 ], [ 24.83014, 37.8462608 ], [ 24.8301578, 37.8461837 ], [ 24.8301578, 37.8460435 ], [ 24.8302643, 37.8458332 ], [ 24.8302021, 37.8456649 ], [ 24.8303708, 37.8456439 ], [ 24.8306194, 37.8456018 ], [ 24.8307171, 37.8454546 ], [ 24.830868, 37.8453354 ], [ 24.8310633, 37.8453144 ], [ 24.8312142, 37.8452162 ], [ 24.8311343, 37.8451181 ], [ 24.8309656, 37.8450971 ], [ 24.8307437, 37.8451321 ], [ 24.8305573, 37.845062 ], [ 24.8304596, 37.8448797 ], [ 24.8305217, 37.8447255 ], [ 24.8305217, 37.8446063 ], [ 24.8305928, 37.8444941 ], [ 24.8306017, 37.8443399 ], [ 24.8304685, 37.8442768 ], [ 24.8303531, 37.8443609 ], [ 24.8303353, 37.8445011 ], [ 24.8302732, 37.8446554 ], [ 24.83014, 37.8448377 ], [ 24.8299891, 37.8447746 ], [ 24.829918, 37.8446554 ], [ 24.829847, 37.8445713 ], [ 24.829847, 37.844431 ], [ 24.829776, 37.8442978 ], [ 24.8296073, 37.8442768 ], [ 24.8295807, 37.844389 ], [ 24.8295629, 37.8445713 ], [ 24.829412, 37.8445923 ], [ 24.8291723, 37.8447185 ], [ 24.8290569, 37.8448587 ], [ 24.8290658, 37.845048 ], [ 24.8290303, 37.8451882 ], [ 24.8292167, 37.8453284 ], [ 24.8292167, 37.8455317 ], [ 24.8291989, 37.8457841 ], [ 24.8292078, 37.8460155 ], [ 24.8291634, 37.8461907 ], [ 24.8291634, 37.8464291 ], [ 24.8291545, 37.8466113 ], [ 24.8290036, 37.8467586 ], [ 24.8288083, 37.8468848 ], [ 24.8287994, 37.847046 ], [ 24.8289237, 37.8471652 ], [ 24.8291013, 37.8472353 ], [ 24.8292788, 37.8473895 ], [ 24.8294475, 37.8474526 ], [ 24.8295629, 37.8476349 ], [ 24.829705, 37.84774 ], [ 24.8298648, 37.8477961 ], [ 24.8301222, 37.8478312 ], [ 24.8303087, 37.8477751 ], [ 24.8305395, 37.8478242 ], [ 24.8307615, 37.8478101 ], [ 24.8309124, 37.8476699 ], [ 24.8311698, 37.847684 ], [ 24.8313918, 37.8477541 ], [ 24.8315693, 37.8477541 ], [ 24.8317647, 37.8477541 ], [ 24.8319866, 37.8476349 ], [ 24.8321375, 37.8475648 ], [ 24.8323151, 37.8474666 ], [ 24.8325548, 37.8474035 ], [ 24.8328034, 37.8474386 ], [ 24.8328744, 37.8472914 ], [ 24.8328744, 37.8471301 ], [ 24.8328123, 37.8469689 ], [ 24.832759, 37.8467796 ], [ 24.83283, 37.8467516 ], [ 24.8330253, 37.8468217 ], [ 24.8332206, 37.8470109 ], [ 24.8333893, 37.847053 ], [ 24.833629, 37.8471582 ], [ 24.8337267, 37.8472423 ], [ 24.8339036, 37.8473807 ], [ 24.8340763, 37.847455 ], [ 24.8341548, 37.8475976 ], [ 24.834190057344102, 37.847631634690273 ], [ 24.834190057344102, 37.845339567729297 ], [ 24.8340998, 37.8453663 ], [ 24.833935, 37.8452919 ], [ 24.8339272, 37.8451183 ], [ 24.8337937, 37.8450006 ], [ 24.8335739, 37.844951 ], [ 24.8334798, 37.8448394 ], [ 24.8335582, 37.8447526 ], [ 24.8337545, 37.8447402 ], [ 24.833833, 37.8446101 ], [ 24.8339664, 37.8445419 ], [ 24.834092, 37.8444055 ], [ 24.8341312, 37.8442258 ], [ 24.8340763, 37.8440708 ], [ 24.8339036, 37.8440088 ], [ 24.8337623, 37.8440026 ], [ 24.833751557738054, 37.843996008675795 ], [ 24.832860728650381, 37.843996008675795 ], [ 24.8328518, 37.8440336 ], [ 24.8328518, 37.8442444 ], [ 24.8329382, 37.8443559 ], [ 24.8330324, 37.8445233 ], [ 24.8330324, 37.8447278 ], [ 24.8329539, 37.844827 ], [ 24.8328597, 37.8447402 ], [ 24.8326791, 37.8446597 ], [ 24.8324986, 37.8445233 ], [ 24.8322867, 37.8444241 ], [ 24.8320826, 37.844294 ], [ 24.8319335, 37.8442506 ], [ 24.8316352, 37.8441638 ], [ 24.8317765, 37.8443373 ], [ 24.8319649, 37.8444427 ], [ 24.8321532, 37.8446225 ], [ 24.8323495, 37.844734 ], [ 24.8325143, 37.8448208 ], [ 24.8327341, 37.8449386 ], [ 24.8329382, 37.8450749 ], [ 24.8331187, 37.8450935 ], [ 24.8331187, 37.8452175 ], [ 24.8331972, 37.8453973 ], [ 24.8333699, 37.8455336 ], [ 24.8335739, 37.8456514 ], [ 24.8336053, 37.8458373 ], [ 24.8337623, 37.8459985 ], [ 24.8339821, 37.8461472 ], [ 24.8339821, 37.8463022 ], [ 24.8340763, 37.8464819 ], [ 24.8339664, 37.8466431 ], [ 24.8338958, 37.8467733 ], [ 24.8338958, 37.8469158 ], [ 24.8338487, 37.847046 ], [ 24.8337356, 37.8471021 ], [ 24.8337001, 37.847025 ], [ 24.8335935, 37.8468707 ], [ 24.8334337, 37.8468287 ], [ 24.8332295, 37.8467235 ], [ 24.8330253, 37.8465833 ], [ 24.8329366, 37.8465202 ], [ 24.8327856, 37.8464291 ], [ 24.8326791, 37.8463029 ], [ 24.8325459, 37.8461837 ], [ 24.8325548, 37.8460365 ], [ 24.8325104, 37.8458752 ], [ 24.8323595, 37.8457981 ], [ 24.8321464, 37.8458262 ], [ 24.8319777, 37.8458121 ], [ 24.8318268, 37.8458823 ], [ 24.8317469, 37.8459944 ], [ 24.8316848, 37.8461136 ], [ 24.8317469, 37.8462748 ], [ 24.8317469, 37.8464641 ], [ 24.8316226, 37.8465693 ], [ 24.8316226, 37.8466955 ], [ 24.8318091, 37.8468567 ], [ 24.8318534, 37.847039 ], [ 24.832031, 37.8471652 ], [ 24.8322174, 37.8472563 ], [ 24.832102, 37.8473475 ], [ 24.8319511, 37.8474176 ] ], [ [ 24.8298613, 37.8453291 ], [ 24.8297985, 37.8453787 ], [ 24.8298534, 37.845453 ], [ 24.8298613, 37.8455646 ], [ 24.8297749, 37.8456266 ], [ 24.8296808, 37.8456204 ], [ 24.8296337, 37.8454964 ], [ 24.8296337, 37.8453725 ], [ 24.8295316, 37.8452671 ], [ 24.8295316, 37.8451617 ], [ 24.8296023, 37.8450811 ], [ 24.8297514, 37.8451369 ], [ 24.829979, 37.8452113 ], [ 24.8300732, 37.8453539 ], [ 24.8300497, 37.8454097 ], [ 24.8299476, 37.8453849 ], [ 24.8298613, 37.8453291 ] ] ], [ [ [ 24.8341286, 37.8485869 ], [ 24.8339451, 37.8485749 ], [ 24.8337617, 37.8484361 ], [ 24.8336088, 37.8484361 ], [ 24.8334942, 37.8485266 ], [ 24.8335401, 37.8486352 ], [ 24.8336929, 37.8487076 ], [ 24.8337311, 37.8487982 ], [ 24.8338534, 37.8489189 ], [ 24.8338534, 37.8490335 ], [ 24.8339069, 37.849106 ], [ 24.8337999, 37.8492086 ], [ 24.8336394, 37.8492508 ], [ 24.8334101, 37.8493232 ], [ 24.8333413, 37.8494922 ], [ 24.8334789, 37.8495405 ], [ 24.8336165, 37.8495707 ], [ 24.8337235, 37.8496069 ], [ 24.8337159, 37.8497155 ], [ 24.8338076, 37.8498 ], [ 24.8339069, 37.8497517 ], [ 24.8339375, 37.8496491 ], [ 24.8341515, 37.8496069 ], [ 24.8340904, 37.8497397 ], [ 24.8339451, 37.8498604 ], [ 24.8339375, 37.849969 ], [ 24.8339834, 37.8500776 ], [ 24.8338534, 37.8501863 ], [ 24.8337388, 37.8501863 ], [ 24.833563, 37.8502406 ], [ 24.833456, 37.8502587 ], [ 24.8333719, 37.8504216 ], [ 24.8332649, 37.8505122 ], [ 24.8332649, 37.8506148 ], [ 24.8334101, 37.850657 ], [ 24.8335095, 37.8507355 ], [ 24.8336471, 37.8508019 ], [ 24.8337311, 37.8509165 ], [ 24.8337159, 37.85117 ], [ 24.8337159, 37.8513933 ], [ 24.8337159, 37.8515261 ], [ 24.8336012, 37.8516468 ], [ 24.8334789, 37.8516468 ], [ 24.8331808, 37.851695 ], [ 24.8329821, 37.8516347 ], [ 24.8328063, 37.8516106 ], [ 24.8326458, 37.8515261 ], [ 24.8324471, 37.8515261 ], [ 24.8323248, 37.8515864 ], [ 24.8324089, 37.8517132 ], [ 24.8325159, 37.8517856 ], [ 24.8327146, 37.8518399 ], [ 24.8329057, 37.8519304 ], [ 24.8330738, 37.8519787 ], [ 24.8332038, 37.8521115 ], [ 24.8333566, 37.8521597 ], [ 24.8334942, 37.8522804 ], [ 24.8336088, 37.8524434 ], [ 24.8336929, 37.8526486 ], [ 24.8337694, 37.8527693 ], [ 24.8339146, 37.8528719 ], [ 24.8340904, 37.8528719 ], [ 24.834190057344102, 37.852896918083999 ], [ 24.834190057344102, 37.852655581567177 ], [ 24.8341515, 37.8526305 ], [ 24.834190057344102, 37.852569639878425 ], [ 24.834190057344102, 37.848545315778381 ], [ 24.8341286, 37.8485869 ] ] ] ] } }
]
}
