{
"type": "FeatureCollection",
"name": "patch_64914_point",
"crs": { "type": "name", "properties": { "name": "urn:ogc:def:crs:OGC:1.3:CRS84" } },
"features": [
{ "type": "Feature", "properties": { "element": "node", "id": 1913919895, "amenity": "toilets", "disused": "yes", "tourism": null, "cuisine": null, "name": null, "religion": null, "castle_type": null, "historic": null, "historic:civilization": null, "image": null, "name:el": null, "name:en": null, "source": null, "landuse": null, "building": null, "parking": null, "natural": null, "man_made": null, "tower:type": null, "leisure": null, "sport": null, "waterway": null, "layer": null, "tunnel": null, "label": "amenity:toilets" }, "geometry": { "type": "Point", "coordinates": [ 25.9559717, 35.174021 ] } },
{ "type": "Feature", "properties": { "element": "node", "id": 1913919904, "amenity": null, "disused": null, "tourism": "viewpoint", "cuisine": null, "name": null, "religion": null, "castle_type": null, "historic": null, "historic:civilization": null, "image": null, "name:el": null, "name:en": null, "source": null, "landuse": null, "building": null, "parking": null, "natural": null, "man_made": null, "tower:type": null, "leisure": null, "sport": null, "waterway": null, "layer": null, "tunnel": null, "label": "tourism:viewpoint" }, "geometry": { "type": "Point", "coordinates": [ 25.956062, 35.1741768 ] } },
{ "type": "Feature", "properties": { "element": "node", "id": 4441107115, "amenity": "restaurant", "disused": null, "tourism": null, "cuisine": "regional", "name": "Kath'odon", "religion": null, "castle_type": null, "historic": null, "historic:civilization": null, "image": null, "name:el": null, "name:en": null, "source": null, "landuse": null, "building": null, "parking": null, "natural": null, "man_made": null, "tower:type": null, "leisure": null, "sport": null, "waterway": null, "layer": null, "tunnel": null, "label": "amenity:restaurant" }, "geometry": { "type": "Point", "coordinates": [ 25.9468414, 35.1682648 ] } },
{ "type": "Feature", "properties": { "element": "node", "id": 8274967977, "amenity": "place_of_worship", "disused": null, "tourism": null, "cuisine": null, "name": null, "religion": "christian", "castle_type": null, "historic": null, "historic:civilization": null, "image": null, "name:el": null, "name:en": null, "source": null, "landuse": null, "building": null, "parking": null, "natural": null, "man_made": null, "tower:type": null, "leisure": null, "sport": null, "waterway": null, "layer": null, "tunnel": null, "label": "amenity:place_of_worship" }, "geometry": { "type": "Point", "coordinates": [ 25.9394647, 35.1764218 ] } },
{ "type": "Feature", "properties": { "element": "node", "id": 8274967983, "amenity": "place_of_worship", "disused": null, "tourism": null, "cuisine": null, "name": null, "religion": "christian", "castle_type": null, "historic": null, "historic:civilization": null, "image": null, "name:el": null, "name:en": null, "source": null, "landuse": null, "building": null, "parking": null, "natural": null, "man_made": null, "tower:type": null, "leisure": null, "sport": null, "waterway": null, "layer": null, "tunnel": null, "label": "amenity:place_of_worship" }, "geometry": { "type": "Point", "coordinates": [ 25.9446762, 35.1631404 ] } },
{ "type": "Feature", "properties": { "element": "node", "id": 8274967988, "amenity": "place_of_worship", "disused": null, "tourism": null, "cuisine": null, "name": null, "religion": "christian", "castle_type": null, "historic": null, "historic:civilization": null, "image": null, "name:el": null, "name:en": null, "source": null, "landuse": null, "building": null, "parking": null, "natural": null, "man_made": null, "tower:type": null, "leisure": null, "sport": null, "waterway": null, "layer": null, "tunnel": null, "label": "amenity:place_of_worship" }, "geometry": { "type": "Point", "coordinates": [ 25.9497952, 35.1690682 ] } },
{ "type": "Feature", "properties": { "element": "node", "id": 8274967993, "amenity": "place_of_worship", "disused": null, "tourism": null, "cuisine": null, "name": null, "religion": "christian", "castle_type": null, "historic": null, "historic:civilization": null, "image": null, "name:el": null, "name:en": null, "source": null, "landuse": null, "building": null, "parking": null, "natural": null, "man_made": null, "tower:type": null, "leisure": null, "sport": null, "waterway": null, "layer": null, "tunnel": null, "label": "amenity:place_of_worship" }, "geometry": { "type": "Point", "coordinates": [ 25.9377373, 35.1610079 ] } },
{ "type": "Feature", "properties": { "element": "node", "id": 8274967998, "amenity": "place_of_worship", "disused": null, "tourism": null, "cuisine": null, "name": null, "religion": "christian", "castle_type": null, "historic": null, "historic:civilization": null, "image": null, "name:el": null, "name:en": null, "source": null, "landuse": null, "building": null, "parking": null, "natural": null, "man_made": null, "tower:type": null, "leisure": null, "sport": null, "waterway": null, "layer": null, "tunnel": null, "label": "amenity:place_of_worship" }, "geometry": { "type": "Point", "coordinates": [ 25.9341539, 35.1651423 ] } },
{ "type": "Feature", "properties": { "element": "node", "id": 8274979028, "amenity": "place_of_worship", "disused": null, "tourism": null, "cuisine": null, "name": null, "religion": "christian", "castle_type": null, "historic": null, "historic:civilization": null, "image": null, "name:el": null, "name:en": null, "source": null, "landuse": null, "building": null, "parking": null, "natural": null, "man_made": null, "tower:type": null, "leisure": null, "sport": null, "waterway": null, "layer": null, "tunnel": null, "label": "amenity:place_of_worship" }, "geometry": { "type": "Point", "coordinates": [ 25.9477809, 35.1772078 ] } },
{ "type": "Feature", "properties": { "element": "node", "id": 8279002023, "amenity": "place_of_worship", "disused": null, "tourism": null, "cuisine": null, "name": null, "religion": "christian", "castle_type": null, "historic": null, "historic:civilization": null, "image": null, "name:el": null, "name:en": null, "source": null, "landuse": null, "building": null, "parking": null, "natural": null, "man_made": null, "tower:type": null, "leisure": null, "sport": null, "waterway": null, "layer": null, "tunnel": null, "label": "amenity:place_of_worship" }, "geometry": { "type": "Point", "coordinates": [ 25.9499696, 35.1577616 ] } },
{ "type": "Feature", "properties": { "element": "node", "id": 8279002074, "amenity": "place_of_worship", "disused": null, "tourism": null, "cuisine": null, "name": null, "religion": "christian", "castle_type": null, "historic": null, "historic:civilization": null, "image": null, "name:el": null, "name:en": null, "source": null, "landuse": null, "building": null, "parking": null, "natural": null, "man_made": null, "tower:type": null, "leisure": null, "sport": null, "waterway": null, "layer": null, "tunnel": null, "label": "amenity:place_of_worship" }, "geometry": { "type": "Point", "coordinates": [ 25.9397101, 35.1563086 ] } },
{ "type": "Feature", "properties": { "element": "node", "id": 8437724425, "amenity": "place_of_worship", "disused": null, "tourism": null, "cuisine": null, "name": null, "religion": "christian", "castle_type": null, "historic": null, "historic:civilization": null, "image": null, "name:el": null, "name:en": null, "source": null, "landuse": null, "building": null, "parking": null, "natural": null, "man_made": null, "tower:type": null, "leisure": null, "sport": null, "waterway": null, "layer": null, "tunnel": null, "label": "amenity:place_of_worship" }, "geometry": { "type": "Point", "coordinates": [ 25.9380175, 35.157079 ] } },
{ "type": "Feature", "properties": { "element": "node", "id": 8438748568, "amenity": "place_of_worship", "disused": null, "tourism": null, "cuisine": null, "name": null, "religion": "christian", "castle_type": null, "historic": null, "historic:civilization": null, "image": null, "name:el": null, "name:en": null, "source": null, "landuse": null, "building": null, "parking": null, "natural": null, "man_made": null, "tower:type": null, "leisure": null, "sport": null, "waterway": null, "layer": null, "tunnel": null, "label": "amenity:place_of_worship" }, "geometry": { "type": "Point", "coordinates": [ 25.9378025, 35.1766161 ] } },
{ "type": "Feature", "properties": { "element": "node", "id": 8531527587, "amenity": "place_of_worship", "disused": null, "tourism": null, "cuisine": null, "name": null, "religion": "christian", "castle_type": null, "historic": null, "historic:civilization": null, "image": null, "name:el": null, "name:en": null, "source": null, "landuse": null, "building": null, "parking": null, "natural": null, "man_made": null, "tower:type": null, "leisure": null, "sport": null, "waterway": null, "layer": null, "tunnel": null, "label": "amenity:place_of_worship" }, "geometry": { "type": "Point", "coordinates": [ 25.9391734, 35.159009 ] } },
{ "type": "Feature", "properties": { "element": "node", "id": 9958994201, "amenity": null, "disused": null, "tourism": null, "cuisine": null, "name": "Πύργος Κορνάρου", "religion": null, "castle_type": "tower", "historic": "castle", "historic:civilization": "venetian", "image": "https://www.kastra.eu/pics/kornaro3.jpg", "name:el": "Πύργος Κορνάρου", "name:en": "Kornaros Tower", "source": "https://www.kastra.eu/castlegr.php?kastro=kornaro", "landuse": null, "building": null, "parking": null, "natural": null, "man_made": null, "tower:type": null, "leisure": null, "sport": null, "waterway": null, "layer": null, "tunnel": null, "label": "historic:castle" }, "geometry": { "type": "Point", "coordinates": [ 25.9477295, 35.1773095 ] } },
{ "type": "Feature", "properties": { "element": "node", "id": 9974181165, "amenity": null, "disused": null, "tourism": "viewpoint", "cuisine": null, "name": null, "religion": null, "castle_type": null, "historic": null, "historic:civilization": null, "image": null, "name:el": null, "name:en": null, "source": null, "landuse": null, "building": null, "parking": null, "natural": null, "man_made": null, "tower:type": null, "leisure": null, "sport": null, "waterway": null, "layer": null, "tunnel": null, "label": "tourism:viewpoint" }, "geometry": { "type": "Point", "coordinates": [ 25.9394606, 35.1572746 ] } },
{ "type": "Feature", "properties": { "element": "node", "id": 9974181166, "amenity": null, "disused": null, "tourism": "viewpoint", "cuisine": null, "name": null, "religion": null, "castle_type": null, "historic": null, "historic:civilization": null, "image": null, "name:el": null, "name:en": null, "source": null, "landuse": null, "building": null, "parking": null, "natural": null, "man_made": null, "tower:type": null, "leisure": null, "sport": null, "waterway": null, "layer": null, "tunnel": null, "label": "tourism:viewpoint" }, "geometry": { "type": "Point", "coordinates": [ 25.9457576, 35.1654627 ] } },
{ "type": "Feature", "properties": { "element": "node", "id": 9974181168, "amenity": null, "disused": null, "tourism": "viewpoint", "cuisine": null, "name": null, "religion": null, "castle_type": null, "historic": null, "historic:civilization": null, "image": null, "name:el": null, "name:en": null, "source": null, "landuse": null, "building": null, "parking": null, "natural": null, "man_made": null, "tower:type": null, "leisure": null, "sport": null, "waterway": null, "layer": null, "tunnel": null, "label": "tourism:viewpoint" }, "geometry": { "type": "Point", "coordinates": [ 25.9543398, 35.1730977 ] } },
{ "type": "Feature", "properties": { "element": "node", "id": 9974181196, "amenity": null, "disused": null, "tourism": "viewpoint", "cuisine": null, "name": null, "religion": null, "castle_type": null, "historic": null, "historic:civilization": null, "image": null, "name:el": null, "name:en": null, "source": null, "landuse": null, "building": null, "parking": null, "natural": null, "man_made": null, "tower:type": null, "leisure": null, "sport": null, "waterway": null, "layer": null, "tunnel": null, "label": "tourism:viewpoint" }, "geometry": { "type": "Point", "coordinates": [ 25.9376903, 35.1553811 ] } },
{ "type": "Feature", "properties": { "element": "node", "id": 9974181205, "amenity": "cafe", "disused": "closed", "tourism": null, "cuisine": null, "name": null, "religion": null, "castle_type": null, "historic": null, "historic:civilization": null, "image": null, "name:el": null, "name:en": null, "source": null, "landuse": null, "building": null, "parking": null, "natural": null, "man_made": null, "tower:type": null, "leisure": null, "sport": null, "waterway": null, "layer": null, "tunnel": null, "label": "amenity:cafe" }, "geometry": { "type": "Point", "coordinates": [ 25.9559221, 35.1740676 ] } }
]
}
