{
"type": "FeatureCollection",
"name": "patch_38806_polygon",
"crs": { "type": "name", "properties": { "name": "urn:ogc:def:crs:OGC:1.3:CRS84" } },
"features": [
{ "type": "Feature", "properties": { "osm_id": 387692478, "name": null, "label": "landuse:farmland", "landuse": "farmland", "natural": null }, "geometry": { "type": "Polygon", "coordinates": [ [ [ 21.4166732, 40.451123900326536 ], [ 21.4174425, 40.451222200326541 ], [ 21.4180473, 40.45127590032655 ], [ 21.4183643, 40.451401000326577 ], [ 21.4183585, 40.451575200326587 ], [ 21.4175247, 40.451468000326585 ], [ 21.4166791, 40.451320500326567 ], [ 21.4160215, 40.451191000326546 ], [ 21.4155106, 40.451262500326543 ], [ 21.4159393, 40.452553800326719 ], [ 21.4168788, 40.452745900326747 ], [ 21.4180386, 40.452988200326772 ], [ 21.4183417, 40.453084500326781 ], [ 21.4186137, 40.453225100326804 ], [ 21.4188005, 40.453359400326811 ], [ 21.4190351, 40.453607400326845 ], [ 21.4192254, 40.453707600326865 ], [ 21.4194075, 40.453761200326866 ], [ 21.4203058, 40.45388180032689 ], [ 21.4209224, 40.453850500326894 ], [ 21.4215742, 40.453859500326885 ], [ 21.4225195, 40.454065000326914 ], [ 21.4224843, 40.454239300326932 ], [ 21.4222201, 40.454529700326972 ], [ 21.4222259, 40.454650300326989 ], [ 21.4225254, 40.455088200327026 ], [ 21.42259, 40.455865600327144 ], [ 21.422637, 40.455999600327146 ], [ 21.423001, 40.455914700327149 ], [ 21.4238936, 40.456089000327168 ], [ 21.4240169, 40.456343700327196 ], [ 21.4247626, 40.456138100327173 ], [ 21.4250621, 40.456602800327232 ], [ 21.4258179, 40.456438100327212 ], [ 21.4258293, 40.45533520032707 ], [ 21.4257693, 40.454565800326968 ], [ 21.4265529, 40.452845000326754 ], [ 21.4265888, 40.452048300326659 ], [ 21.4269965, 40.451351000326568 ], [ 21.427157985408542, 40.451108830171435 ], [ 21.416655641458412, 40.451108830171435 ], [ 21.4166732, 40.451123900326536 ] ] ] } },
{ "type": "Feature", "properties": { "osm_id": 153817187, "name": null, "label": "landuse:residential", "landuse": "residential", "natural": null }, "geometry": { "type": "Polygon", "coordinates": [ [ [ 21.4269965, 40.451351000326568 ], [ 21.4265888, 40.452048300326659 ], [ 21.4265529, 40.452845000326754 ], [ 21.4257693, 40.454565800326968 ], [ 21.4258293, 40.45533520032707 ], [ 21.4258179, 40.456438100327212 ], [ 21.426055, 40.456810700327253 ], [ 21.4263255, 40.457148300327304 ], [ 21.4274185, 40.457625900327365 ], [ 21.4284791, 40.457732900327372 ], [ 21.4290418, 40.457461200327337 ], [ 21.4298535, 40.457247100327308 ], [ 21.4308058, 40.457016500327306 ], [ 21.431124949378173, 40.456665433410869 ], [ 21.431124949378173, 40.452847025411103 ], [ 21.4302633, 40.451860500326639 ], [ 21.43004208480512, 40.451108830171435 ], [ 21.427157985408542, 40.451108830171435 ], [ 21.4269965, 40.451351000326568 ] ] ] } },
{ "type": "Feature", "properties": { "osm_id": 1012187129, "name": null, "label": "landuse:cemetery", "landuse": "cemetery", "natural": null }, "geometry": { "type": "Polygon", "coordinates": [ [ [ 21.4287364, 40.459446900327599 ], [ 21.4289274, 40.459166100327558 ], [ 21.4280069, 40.458820000327513 ], [ 21.427817, 40.45916290032757 ], [ 21.4287364, 40.459446900327599 ] ] ] } },
{ "type": "Feature", "properties": { "osm_id": 261627378, "name": "Φράγμα Γέρμα", "label": "landuse:reservoir", "landuse": "reservoir", "natural": null }, "geometry": { "type": "Polygon", "coordinates": [ [ [ 21.4293161, 40.474025300329423 ], [ 21.4292267, 40.473929400329418 ], [ 21.4291494, 40.473880000329402 ], [ 21.4291982, 40.473821200329411 ], [ 21.4291332, 40.473743900329389 ], [ 21.4290885, 40.473561400329373 ], [ 21.4291007, 40.473471700329355 ], [ 21.4291738, 40.47336970032935 ], [ 21.4292348, 40.473292400329342 ], [ 21.4291454, 40.473159400329315 ], [ 21.4290031, 40.473048000329314 ], [ 21.4289665, 40.472986200329295 ], [ 21.4290478, 40.472890300329297 ], [ 21.4291047, 40.47280370032928 ], [ 21.4292023, 40.472726400329265 ], [ 21.4291088, 40.472714000329269 ], [ 21.4289624, 40.472717100329277 ], [ 21.4288039, 40.472723300329278 ], [ 21.4287429, 40.47266760032926 ], [ 21.4287226, 40.47258410032925 ], [ 21.428747, 40.472537700329241 ], [ 21.4288201, 40.472469700329228 ], [ 21.4288608, 40.472367600329214 ], [ 21.4288079, 40.472352200329226 ], [ 21.4287348, 40.472380000329217 ], [ 21.4286169, 40.472370700329229 ], [ 21.4285356, 40.472293400329214 ], [ 21.4285234, 40.472228500329194 ], [ 21.4284908, 40.472203700329203 ], [ 21.4284949, 40.472138800329212 ], [ 21.4284868, 40.472070800329185 ], [ 21.4284542, 40.472039800329185 ], [ 21.4284055, 40.471984200329182 ], [ 21.4284055, 40.471940900329166 ], [ 21.4284583, 40.471879000329153 ], [ 21.4284258, 40.471804800329146 ], [ 21.4283445, 40.471776900329154 ], [ 21.4282998, 40.471727500329138 ], [ 21.4282998, 40.47163780032912 ], [ 21.4283323, 40.471575900329121 ], [ 21.4282632, 40.47153260032912 ], [ 21.4282347, 40.471492400329112 ], [ 21.4281534, 40.471285200329085 ], [ 21.4280314, 40.47120790032907 ], [ 21.4279542, 40.471087300329067 ], [ 21.4279745, 40.470938800329051 ], [ 21.4280843, 40.470719200329015 ], [ 21.4257719, 40.470977400329048 ], [ 21.4257019, 40.470985200329046 ], [ 21.425645, 40.471065600329055 ], [ 21.4256653, 40.471136800329063 ], [ 21.4257263, 40.471214100329071 ], [ 21.4257792, 40.471291400329072 ], [ 21.4256531, 40.471291400329072 ], [ 21.4256857, 40.471405800329102 ], [ 21.4257629, 40.471538800329114 ], [ 21.4257751, 40.471619200329123 ], [ 21.4256938, 40.471653200329115 ], [ 21.4256816, 40.471736700329139 ], [ 21.4256735, 40.471879000329153 ], [ 21.4257344, 40.471959400329176 ], [ 21.4258361, 40.471866600329179 ], [ 21.4259337, 40.471811000329154 ], [ 21.4260272, 40.471783100329148 ], [ 21.4261329, 40.471786200329142 ], [ 21.426263, 40.471755300329143 ], [ 21.4263768, 40.471783100329148 ], [ 21.4265069, 40.471857400329156 ], [ 21.4265313, 40.472005800329178 ], [ 21.4265272, 40.472117100329193 ], [ 21.4266614, 40.472169700329211 ], [ 21.4267345, 40.472234700329196 ], [ 21.426763, 40.472324400329214 ], [ 21.4267955, 40.472525400329246 ], [ 21.4268443, 40.472720200329263 ], [ 21.4268768, 40.472748000329275 ], [ 21.4269012, 40.472816100329275 ], [ 21.4269338, 40.472933600329284 ], [ 21.4270069, 40.472964500329304 ], [ 21.4270395, 40.472930500329298 ], [ 21.4271086, 40.472933600329284 ], [ 21.4271655, 40.473017100329301 ], [ 21.4272387, 40.473103700329311 ], [ 21.4272631, 40.473174800329325 ], [ 21.4272468, 40.473270700329337 ], [ 21.4271696, 40.473360400329341 ], [ 21.4271818, 40.47341920032936 ], [ 21.4272346, 40.473459400329354 ], [ 21.4272346, 40.473533600329375 ], [ 21.4272712, 40.473598500329388 ], [ 21.4273322, 40.473607800329383 ], [ 21.4273769, 40.473678900329389 ], [ 21.4274094, 40.473743900329389 ], [ 21.4273728, 40.473842800329408 ], [ 21.4274135, 40.473926300329424 ], [ 21.4275151, 40.473954200329416 ], [ 21.4276371, 40.473975800329413 ], [ 21.4276249, 40.474037700329433 ], [ 21.42764612535192, 40.474062811208093 ], [ 21.427884152020233, 40.474062811208093 ], [ 21.4278404, 40.473938700329434 ], [ 21.4279339, 40.4738738003294 ], [ 21.428003, 40.473839700329407 ], [ 21.4280924, 40.473982000329428 ], [ 21.42813897189972, 40.474062811208093 ], [ 21.429309639469086, 40.474062811208093 ], [ 21.4293161, 40.474025300329423 ] ] ] } },
{ "type": "Feature", "properties": { "osm_id": -1842311, "name": null, "label": "natural:wood", "landuse": null, "natural": "wood" }, "geometry": { "type": "MultiPolygon", "coordinates": [ [ [ [ 21.430793, 40.470130000328936 ], [ 21.42968, 40.470233000328953 ], [ 21.42864, 40.470517000328975 ], [ 21.429078, 40.470575000328985 ], [ 21.429564, 40.470969000329042 ], [ 21.429717, 40.471355000329105 ], [ 21.429864, 40.47186900032915 ], [ 21.430012, 40.472383000329224 ], [ 21.430398, 40.472774000329274 ], [ 21.431124949378173, 40.473543248594197 ], [ 21.431124949378173, 40.470165652376835 ], [ 21.430793, 40.470130000328936 ] ] ], [ [ [ 21.430974, 40.451614000326593 ], [ 21.4302633, 40.451860500326639 ], [ 21.43044, 40.451810000326624 ], [ 21.430555, 40.451822000326622 ], [ 21.430703, 40.451895000326637 ], [ 21.431124949378173, 40.4521235167527 ], [ 21.431124949378173, 40.451617326787812 ], [ 21.430974, 40.451614000326593 ] ] ] ] } },
{ "type": "Feature", "properties": { "osm_id": 136704842, "name": null, "label": "natural:wood", "landuse": null, "natural": "wood" }, "geometry": { "type": "Polygon", "coordinates": [ [ [ 21.411533, 40.47398400032943 ], [ 21.4119445, 40.473505600329368 ], [ 21.412095, 40.473180900329325 ], [ 21.4123633, 40.472822100329282 ], [ 21.4128349, 40.472457200329231 ], [ 21.4137699, 40.472113900329184 ], [ 21.4143716, 40.471387100329103 ], [ 21.414726, 40.470916000329034 ], [ 21.415399, 40.470239000328959 ], [ 21.4164979, 40.469370700328845 ], [ 21.4169979, 40.469021200328804 ], [ 21.4174817, 40.468665500328747 ], [ 21.4178151, 40.468492300328727 ], [ 21.417884, 40.468317000328717 ], [ 21.417963, 40.467907000328651 ], [ 21.417955, 40.46791100032867 ], [ 21.417753, 40.467369000328581 ], [ 21.417825, 40.466730000328511 ], [ 21.417923, 40.466275000328459 ], [ 21.418082, 40.46579400032838 ], [ 21.4183, 40.465365000328333 ], [ 21.418736, 40.464501000328227 ], [ 21.419014, 40.464069000328173 ], [ 21.419278, 40.463367000328091 ], [ 21.41937, 40.462679000327995 ], [ 21.41935, 40.462132000327941 ], [ 21.419181, 40.461514000327846 ], [ 21.418803, 40.46084600032777 ], [ 21.417858, 40.460012000327652 ], [ 21.417236, 40.459504000327591 ], [ 21.416456, 40.459521000327605 ], [ 21.415637, 40.459967000327644 ], [ 21.414789, 40.460350000327708 ], [ 21.413861, 40.460247000327698 ], [ 21.413118, 40.459803000327632 ], [ 21.412926, 40.45920100032756 ], [ 21.41224, 40.45918600032757 ], [ 21.410984, 40.459443000327596 ], [ 21.410142, 40.460003000327653 ], [ 21.409992, 40.460000000327653 ], [ 21.40952, 40.459837000327639 ], [ 21.409525, 40.459824000327636 ], [ 21.408843, 40.460343000327704 ], [ 21.408577, 40.460446000327721 ], [ 21.408385, 40.460441000327712 ], [ 21.407669, 40.460599000327726 ], [ 21.407437, 40.460702000327743 ], [ 21.407224, 40.461066000327797 ], [ 21.406985, 40.461386000327835 ], [ 21.406694, 40.461553000327854 ], [ 21.406066, 40.461647000327865 ], [ 21.405069, 40.461734000327873 ], [ 21.404406, 40.461979000327915 ], [ 21.403963, 40.462403000327967 ], [ 21.403663, 40.462830000328005 ], [ 21.403157, 40.463426000328084 ], [ 21.403069, 40.463828000328157 ], [ 21.403054, 40.463901000328136 ], [ 21.402745, 40.464545000328222 ], [ 21.402815, 40.464937000328284 ], [ 21.403368, 40.465318000328331 ], [ 21.403441, 40.46564600032837 ], [ 21.403828, 40.465915000328408 ], [ 21.403874, 40.465936000328419 ], [ 21.403878, 40.465976000328411 ], [ 21.404189, 40.466304000328464 ], [ 21.404568, 40.466560000328485 ], [ 21.405212, 40.466624000328501 ], [ 21.40563, 40.466707000328512 ], [ 21.405912, 40.466961000328538 ], [ 21.40584, 40.467132000328562 ], [ 21.405587, 40.467819000328653 ], [ 21.405576, 40.468115000328687 ], [ 21.406256, 40.468946000328792 ], [ 21.406359, 40.469410000328857 ], [ 21.406333, 40.469464000328848 ], [ 21.405895, 40.469779000328884 ], [ 21.404209, 40.470761000329027 ], [ 21.402016, 40.47240400032922 ], [ 21.401709, 40.472983000329293 ], [ 21.401576, 40.473479000329348 ], [ 21.40160465328011, 40.474062811208093 ], [ 21.41144530200139, 40.474062811208093 ], [ 21.411533, 40.47398400032943 ] ] ] } }
]
}
