{
"type": "FeatureCollection",
"name": "patch_75573_linestring",
"crs": { "type": "name", "properties": { "name": "urn:ogc:def:crs:OGC:1.3:CRS84" } },
"features": [
{ "type": "Feature", "properties": { "@type": "way", "@id": 808850621, "admin_level": null, "amenity": null, "boundary": null, "building": null, "denomination": null, "ford": null, "generator:method": null, "generator:output:electricity": null, "generator:source": null, "generator:type": null, "highway": null, "int_name": null, "intermittent": "yes", "lanes": null, "layer": null, "leaf_type": null, "leisure": null, "lit": null, "name": null, "name:de": null, "name:el": null, "name:en": null, "name:fr": null, "name:it": null, "natural": null, "power": null, "protect_class": null, "protection_title": null, "religion": null, "source": null, "surface": null, "tourism": null, "tracktype": null, "tunnel": null, "waterway": "stream", "label": "waterway:stream" }, "geometry": { "type": "LineString", "coordinates": [ [ 20.9970055, 38.7829263 ], [ 20.9973144, 38.7831418 ], [ 20.9975909, 38.7832496 ], [ 20.9976372, 38.7832723 ] ] } },
{ "type": "Feature", "properties": { "@type": "way", "@id": 808850640, "admin_level": null, "amenity": null, "boundary": null, "building": null, "denomination": null, "ford": null, "generator:method": null, "generator:output:electricity": null, "generator:source": null, "generator:type": null, "highway": null, "int_name": null, "intermittent": "yes", "lanes": null, "layer": null, "leaf_type": null, "leisure": null, "lit": null, "name": null, "name:de": null, "name:el": null, "name:en": null, "name:fr": null, "name:it": null, "natural": null, "power": null, "protect_class": null, "protection_title": null, "religion": null, "source": null, "surface": null, "tourism": null, "tracktype": null, "tunnel": null, "waterway": "stream", "label": "waterway:stream" }, "geometry": { "type": "LineString", "coordinates": [ [ 20.99728, 38.7656234 ], [ 20.9976162, 38.7656306 ], [ 20.9979618, 38.7656598 ], [ 20.9982233, 38.7656379 ], [ 20.9985222, 38.7655287 ], [ 20.9987557, 38.7654704 ], [ 20.999176, 38.765536 ], [ 20.9994095, 38.7656743 ], [ 20.9998111, 38.76582 ], [ 21.0000726, 38.765871 ], [ 21.0004929, 38.765871 ], [ 21.0007078, 38.7659511 ], [ 21.0008198, 38.7661914 ], [ 21.0011748, 38.7664244 ], [ 21.0014083, 38.7664827 ], [ 21.0017725, 38.7663662 ], [ 21.0020621, 38.7661404 ], [ 21.0024888, 38.7659296 ], [ 21.0029609, 38.765938 ], [ 21.0033149, 38.7659798 ], [ 21.0037226, 38.7660885 ], [ 21.0042913, 38.7661638 ], [ 21.0044844, 38.76603 ], [ 21.0046346, 38.765871 ], [ 21.0049243, 38.7658459 ], [ 21.0054285, 38.7658878 ], [ 21.0058148, 38.7658376 ], [ 21.0060723, 38.7657288 ], [ 21.0063727, 38.765528 ], [ 21.0066838, 38.7654946 ], [ 21.0069413, 38.7655448 ], [ 21.0073919, 38.7656284 ], [ 21.0076816, 38.7656201 ], [ 21.0079605, 38.765436 ], [ 21.0082073, 38.7653105 ], [ 21.0085077, 38.7652938 ], [ 21.008851, 38.7654444 ], [ 21.0093982, 38.7658459 ], [ 21.0101437, 38.7663911 ], [ 21.0105173, 38.7665294 ], [ 21.0108628, 38.7665877 ], [ 21.0111804, 38.7667406 ], [ 21.0114699, 38.7667916 ], [ 21.0118622, 38.7666605 ], [ 21.0123199, 38.7665076 ], [ 21.012899, 38.7664566 ], [ 21.013183507324346, 38.766459688791592 ] ] } },
{ "type": "Feature", "properties": { "@type": "way", "@id": 808850643, "admin_level": null, "amenity": null, "boundary": null, "building": null, "denomination": null, "ford": null, "generator:method": null, "generator:output:electricity": null, "generator:source": null, "generator:type": null, "highway": null, "int_name": null, "intermittent": "yes", "lanes": null, "layer": null, "leaf_type": null, "leisure": null, "lit": null, "name": null, "name:de": null, "name:el": null, "name:en": null, "name:fr": null, "name:it": null, "natural": null, "power": null, "protect_class": null, "protection_title": null, "religion": null, "source": null, "surface": null, "tourism": null, "tracktype": null, "tunnel": null, "waterway": "stream", "label": "waterway:stream" }, "geometry": { "type": "LineString", "coordinates": [ [ 20.996822, 38.7698992 ], [ 20.9970252, 38.7701274 ], [ 20.9971147, 38.7703239 ], [ 20.9971228, 38.7705394 ], [ 20.9971879, 38.7706979 ], [ 20.9973993, 38.7709135 ], [ 20.9976595, 38.771129 ], [ 20.9978465, 38.7712748 ], [ 20.9979359, 38.7714333 ], [ 20.9979603, 38.7716425 ], [ 20.9980254, 38.7718453 ], [ 20.9981636, 38.7719468 ], [ 20.9984807, 38.7720292 ], [ 20.998627, 38.7721496 ], [ 20.9987978, 38.7723335 ], [ 20.9988872, 38.7724476 ], [ 20.9991068, 38.772549 ], [ 20.9993263, 38.7725743 ], [ 20.9996841, 38.77253 ], [ 20.9999117, 38.7724539 ], [ 21.0000825, 38.7723144 ], [ 21.0003915, 38.772251 ], [ 21.0007411, 38.7721052 ], [ 21.000863, 38.7719594 ], [ 21.0010907, 38.7719468 ], [ 21.0012615, 38.7720419 ], [ 21.0014322, 38.772156 ], [ 21.0017493, 38.7720672 ], [ 21.0020339, 38.7720545 ], [ 21.002229, 38.7721306 ], [ 21.0024811, 38.7721433 ], [ 21.0026844, 38.7721496 ], [ 21.0029283, 38.7721877 ], [ 21.0029527, 38.7723271 ], [ 21.0028958, 38.772511 ], [ 21.0029852, 38.7726314 ], [ 21.0032048, 38.7726631 ], [ 21.0034568, 38.7725934 ], [ 21.0035869, 38.7724539 ], [ 21.0036438, 38.7723208 ], [ 21.0037414, 38.772213 ], [ 21.0039609, 38.7722257 ], [ 21.0041479, 38.7723715 ], [ 21.0044651, 38.772568 ], [ 21.0047415, 38.7726504 ], [ 21.0050505, 38.7726504 ], [ 21.0054082, 38.7725743 ], [ 21.0055871, 38.7724856 ], [ 21.005701, 38.7723081 ], [ 21.0060099, 38.772175 ], [ 21.006262, 38.7722257 ], [ 21.0065303, 38.7723778 ], [ 21.0067824, 38.772511 ], [ 21.0070995, 38.7725743 ], [ 21.0076524, 38.7723842 ], [ 21.0080264, 38.7722764 ], [ 21.0084004, 38.7722447 ], [ 21.0086362, 38.7723081 ], [ 21.0088639, 38.7724285 ], [ 21.0090834, 38.7725997 ], [ 21.0092867, 38.7727011 ], [ 21.009555, 38.7726821 ], [ 21.0098559, 38.7725617 ], [ 21.0102787, 38.772587 ], [ 21.0108072, 38.7727328 ], [ 21.0117016, 38.7728279 ], [ 21.0120675, 38.7728659 ], [ 21.0128562, 38.7728343 ], [ 21.013183507324346, 38.772809158046257 ] ] } },
{ "type": "Feature", "properties": { "@type": "way", "@id": 808850656, "admin_level": null, "amenity": null, "boundary": null, "building": null, "denomination": null, "ford": null, "generator:method": null, "generator:output:electricity": null, "generator:source": null, "generator:type": null, "highway": null, "int_name": null, "intermittent": "yes", "lanes": null, "layer": null, "leaf_type": null, "leisure": null, "lit": null, "name": null, "name:de": null, "name:el": null, "name:en": null, "name:fr": null, "name:it": null, "natural": null, "power": null, "protect_class": null, "protection_title": null, "religion": null, "source": null, "surface": null, "tourism": null, "tracktype": null, "tunnel": null, "waterway": "stream", "label": "waterway:stream" }, "geometry": { "type": "LineString", "coordinates": [ [ 20.9978104, 38.7833573 ], [ 20.9980085, 38.7834424 ], [ 20.9982088, 38.7835284 ], [ 20.9985015, 38.7835791 ], [ 20.9987617, 38.7837503 ], [ 20.9989325, 38.7839214 ], [ 20.9989975, 38.7841496 ], [ 20.9990138, 38.7843651 ], [ 20.9990382, 38.7845235 ], [ 20.9992171, 38.7846566 ], [ 20.9995098, 38.7847834 ], [ 20.9999075, 38.7849599 ], [ 21.0000916, 38.7850813 ], [ 21.0003393, 38.7851806 ], [ 21.0004526, 38.785164 ], [ 21.0006012, 38.7851034 ], [ 21.0007286, 38.7851034 ], [ 21.0009127, 38.7851916 ], [ 21.0011179, 38.7852965 ], [ 21.001394, 38.7853903 ], [ 21.0017055, 38.7854123 ], [ 21.001932, 38.7853516 ], [ 21.0020381, 38.7852689 ], [ 21.0021514, 38.785153 ], [ 21.0024133, 38.785142 ], [ 21.0027106, 38.785142 ], [ 21.0029796, 38.7852965 ], [ 21.0031424, 38.7854675 ], [ 21.0033618, 38.7856496 ], [ 21.0035458, 38.7857268 ], [ 21.0036025, 38.7858813 ], [ 21.0037086, 38.78592 ], [ 21.0038714, 38.7859365 ], [ 21.0039705, 38.7860469 ], [ 21.0039989, 38.7862069 ], [ 21.0041121, 38.7863172 ], [ 21.0041758, 38.7864827 ], [ 21.0041687, 38.7866317 ], [ 21.0041546, 38.7868303 ], [ 21.004144368450845, 38.786862167576381 ] ] } },
{ "type": "Feature", "properties": { "@type": "way", "@id": 808850657, "admin_level": null, "amenity": null, "boundary": null, "building": null, "denomination": null, "ford": null, "generator:method": null, "generator:output:electricity": null, "generator:source": null, "generator:type": null, "highway": null, "int_name": null, "intermittent": "yes", "lanes": null, "layer": "-1", "leaf_type": null, "leisure": null, "lit": null, "name": null, "name:de": null, "name:el": null, "name:en": null, "name:fr": null, "name:it": null, "natural": null, "power": null, "protect_class": null, "protection_title": null, "religion": null, "source": null, "surface": null, "tourism": null, "tracktype": null, "tunnel": "culvert", "waterway": "stream", "label": "waterway:stream" }, "geometry": { "type": "LineString", "coordinates": [ [ 20.9976372, 38.7832723 ], [ 20.9977188, 38.7833124 ], [ 20.9978104, 38.7833573 ] ] } },
{ "type": "Feature", "properties": { "@type": "way", "@id": 808850669, "admin_level": null, "amenity": null, "boundary": null, "building": null, "denomination": null, "ford": null, "generator:method": null, "generator:output:electricity": null, "generator:source": null, "generator:type": null, "highway": null, "int_name": null, "intermittent": "yes", "lanes": null, "layer": null, "leaf_type": null, "leisure": null, "lit": null, "name": null, "name:de": null, "name:el": null, "name:en": null, "name:fr": null, "name:it": null, "natural": null, "power": null, "protect_class": null, "protection_title": null, "religion": null, "source": null, "surface": null, "tourism": null, "tracktype": null, "tunnel": null, "waterway": "stream", "label": "waterway:stream" }, "geometry": { "type": "LineString", "coordinates": [ [ 20.9997818, 38.7821912 ], [ 21.0001052, 38.7820342 ], [ 21.0003226, 38.7819432 ], [ 21.0005824, 38.7818978 ], [ 21.0008581, 38.7819226 ], [ 21.0011232, 38.7819804 ], [ 21.0013141, 38.7819928 ], [ 21.0016375, 38.7819019 ], [ 21.0020034, 38.7817407 ], [ 21.0024753, 38.7816084 ], [ 21.0028729, 38.781501 ], [ 21.0032865, 38.7814431 ], [ 21.0035145, 38.7815299 ], [ 21.0036842, 38.7816374 ], [ 21.0038273, 38.781658 ], [ 21.0040288, 38.7815671 ], [ 21.0041985, 38.781534 ], [ 21.0044689, 38.7815464 ], [ 21.0048241, 38.781658 ], [ 21.0052271, 38.7817324 ], [ 21.0055134, 38.7817903 ], [ 21.0056937, 38.7817076 ], [ 21.005874, 38.7815795 ], [ 21.0060171, 38.7815175 ], [ 21.0063194, 38.7814803 ], [ 21.0064148, 38.7813935 ], [ 21.0066216, 38.781286 ], [ 21.0067064, 38.7811951 ], [ 21.0068496, 38.7810711 ], [ 21.0070776, 38.7810711 ], [ 21.0074328, 38.7811083 ], [ 21.0077775, 38.7810587 ], [ 21.0083077, 38.7810174 ], [ 21.0086364, 38.7809926 ], [ 21.009156, 38.7809678 ], [ 21.0095007, 38.7810628 ], [ 21.0097287, 38.7811207 ], [ 21.0099461, 38.7810918 ], [ 21.0100892, 38.7809471 ], [ 21.0102748, 38.7808479 ], [ 21.0105399, 38.7808231 ], [ 21.0107626, 38.7808851 ], [ 21.0110648, 38.7810008 ], [ 21.0115473, 38.7811455 ], [ 21.0117965, 38.7811538 ], [ 21.0121359, 38.7810835 ], [ 21.0124063, 38.7810504 ], [ 21.012735, 38.7810876 ], [ 21.0130956, 38.781224 ], [ 21.013183507324346, 38.781285145125146 ] ] } }
]
}
