{
"type": "FeatureCollection",
"name": "patch_1103_linestring",
"crs": { "type": "name", "properties": { "name": "urn:ogc:def:crs:OGC:1.3:CRS84" } },
"features": [
{ "type": "Feature", "properties": { "@type": "way", "@id": 16315771, "access": null, "addr:city": null, "addr:country": null, "addr:postcode": null, "alt_name": null, "alt_name:ca": null, "alt_name:mk": null, "amenity": null, "area": null, "artwork_type": null, "barrier": null, "board_type": null, "boat": null, "bottle": null, "boundary": null, "brand": null, "bridge": null, "building": null, "bus": null, "cables": null, "construction:railway:etcs": null, "cuisine": null, "cutting": null, "denomination": null, "destination": null, "destination:lang:el-Latn": null, "destination:ref": null, "direction": null, "distance": null, "disused:railway": null, "electrified": null, "embankment": null, "emergency": null, "fee": null, "female": null, "fire_hydrant:position": null, "frequency": null, "gauge": null, "highway": null, "historic": null, "info": null, "information": null, "int_name": null, "int_ref": null, "junction:ref": null, "landuse": null, "lanes": null, "layer": null, "leisure": null, "lit": null, "loc_name": null, "loc_name:ca": null, "loc_name:en": null, "loc_name:fr": null, "loc_name:prefix": null, "male": null, "man_made": null, "material": null, "maxspeed": null, "maxspeed:backward": null, "maxspeed:forward": null, "name": null, "name:ar": null, "name:bg": null, "name:ca": null, "name:de": null, "name:el": null, "name:en": null, "name:es": null, "name:fr": null, "name:it": null, "name:la": null, "name:mk": null, "name:nl": null, "name:pl": null, "name:prefix": null, "name:ro": null, "name:ru": null, "name:sq": null, "name:tr": null, "name:uk": null, "nat_name": null, "natural": "coastline", "noexit": null, "note:toll": null, "old_name": null, "oneway": null, "operator": null, "operator:wikidata": null, "outdoor_seating": null, "parking": null, "passenger_lines": null, "phone": null, "place": null, "placement": null, "plant:method": null, "plant:output:electricity": null, "plant:source": null, "power": null, "protect_class": null, "protection_title": null, "public_transport": null, "railway": null, "railway:ref": null, "ref": null, "reg_ref": null, "religion": null, "residential": null, "service": null, "shop": null, "short_name": null, "short_name:el": null, "short_name:en": null, "sidewalk": null, "smoothness": null, "source": "PGS", "source:junction:ref": null, "source:maxspeed": null, "source:ref": null, "sport": null, "surface": null, "toilets": null, "toll": null, "tourism": null, "tower:type": null, "tracks": null, "tunnel": null, "turn:lanes": null, "usage": null, "voltage": null, "waterway": null, "website": null, "wheelchair": null, "width": null, "wikidata": null, "wikipedia": null, "label": "natural:coastline" }, "geometry": { "type": "LineString", "coordinates": [ [ 22.594492001751249, 40.453540241447669 ], [ 22.5943383, 40.4535573 ], [ 22.5939835, 40.4536649 ], [ 22.5930735, 40.4540668 ], [ 22.5922782, 40.4544915 ], [ 22.5920084, 40.4546387 ], [ 22.5918005, 40.4547721 ], [ 22.5918127, 40.4547937 ], [ 22.591764, 40.4548149 ], [ 22.5917407, 40.454789 ], [ 22.5915789, 40.4547818 ], [ 22.5914772, 40.454819 ], [ 22.5913938, 40.4548658 ], [ 22.5913399, 40.4549001 ], [ 22.5913898, 40.454957 ], [ 22.5913648, 40.4549683 ], [ 22.5913258, 40.4549241 ], [ 22.5912785, 40.4549241 ], [ 22.5911758, 40.4549672 ], [ 22.5910557, 40.4550177 ], [ 22.5909102, 40.4551314 ], [ 22.5907379, 40.4552894 ], [ 22.589978, 40.4555933 ], [ 22.5892847, 40.4558743 ], [ 22.5889374, 40.4559646 ], [ 22.5887817, 40.4560517 ], [ 22.58868, 40.4561408 ], [ 22.5885518, 40.4562157 ], [ 22.5884105, 40.4562286 ], [ 22.5882772, 40.4563133 ], [ 22.5881847, 40.4563147 ], [ 22.5881047, 40.4563414 ], [ 22.588016, 40.4564015 ], [ 22.5879469, 40.4564514 ], [ 22.5878193, 40.4566071 ], [ 22.5877856, 40.4567185 ], [ 22.5875271, 40.4571108 ], [ 22.5873063, 40.4573629 ], [ 22.5868155, 40.4582924 ], [ 22.5867352, 40.4584208 ], [ 22.5862758, 40.4591553 ], [ 22.5859534, 40.459932 ], [ 22.5861681, 40.4611969 ], [ 22.5866843, 40.4625434 ], [ 22.5882129, 40.4650375 ], [ 22.5894878, 40.4676653 ], [ 22.5908904, 40.4695183 ], [ 22.5918985, 40.4704568 ], [ 22.5931318, 40.4718983 ], [ 22.593916529278243, 40.472696141241947 ] ] } },
{ "type": "Feature", "properties": { "@type": "way", "@id": 160571155, "access": null, "addr:city": null, "addr:country": null, "addr:postcode": null, "alt_name": null, "alt_name:ca": null, "alt_name:mk": null, "amenity": null, "area": null, "artwork_type": null, "barrier": null, "board_type": null, "boat": "no", "bottle": null, "boundary": null, "brand": null, "bridge": null, "building": null, "bus": null, "cables": null, "construction:railway:etcs": null, "cuisine": null, "cutting": null, "denomination": null, "destination": null, "destination:lang:el-Latn": null, "destination:ref": null, "direction": null, "distance": null, "disused:railway": null, "electrified": null, "embankment": null, "emergency": null, "fee": null, "female": null, "fire_hydrant:position": null, "frequency": null, "gauge": null, "highway": null, "historic": null, "info": null, "information": null, "int_name": null, "int_ref": null, "junction:ref": null, "landuse": null, "lanes": null, "layer": null, "leisure": null, "lit": null, "loc_name": null, "loc_name:ca": null, "loc_name:en": null, "loc_name:fr": null, "loc_name:prefix": null, "male": null, "man_made": null, "material": null, "maxspeed": null, "maxspeed:backward": null, "maxspeed:forward": null, "name": "Keramidas", "name:ar": null, "name:bg": null, "name:ca": null, "name:de": "Keramidas", "name:el": "Κεραμιδάς", "name:en": "Keramidas", "name:es": null, "name:fr": "Keramidas", "name:it": null, "name:la": null, "name:mk": null, "name:nl": null, "name:pl": null, "name:prefix": null, "name:ro": null, "name:ru": null, "name:sq": null, "name:tr": null, "name:uk": null, "nat_name": null, "natural": null, "noexit": null, "note:toll": null, "old_name": null, "oneway": null, "operator": null, "operator:wikidata": null, "outdoor_seating": null, "parking": null, "passenger_lines": null, "phone": null, "place": null, "placement": null, "plant:method": null, "plant:output:electricity": null, "plant:source": null, "power": null, "protect_class": null, "protection_title": null, "public_transport": null, "railway": null, "railway:ref": null, "ref": null, "reg_ref": null, "religion": null, "residential": null, "service": null, "shop": null, "short_name": null, "short_name:el": null, "short_name:en": null, "sidewalk": null, "smoothness": null, "source": null, "source:junction:ref": null, "source:maxspeed": null, "source:ref": null, "sport": null, "surface": null, "toilets": null, "toll": null, "tourism": null, "tower:type": null, "tracks": null, "tunnel": null, "turn:lanes": null, "usage": null, "voltage": null, "waterway": "stream", "website": null, "wheelchair": null, "width": null, "wikidata": null, "wikipedia": null, "label": "waterway:stream" }, "geometry": { "type": "LineString", "coordinates": [ [ 22.5847013, 40.4583835 ], [ 22.5847443, 40.458391 ], [ 22.5848463, 40.4584033 ], [ 22.5849294, 40.4584114 ], [ 22.5850662, 40.4584114 ], [ 22.5851681, 40.4583992 ], [ 22.5852513, 40.458391 ], [ 22.5853586, 40.4583808 ], [ 22.5854436, 40.458361 ], [ 22.5855107, 40.4583345 ], [ 22.5855597, 40.4583012 ], [ 22.5856027, 40.4582768 ], [ 22.5856555, 40.458257 ], [ 22.5857118, 40.4582529 ], [ 22.5858674, 40.4582488 ], [ 22.5860095, 40.4582672 ], [ 22.5860908, 40.4582849 ], [ 22.5861866, 40.4583121 ], [ 22.5862644, 40.4583284 ], [ 22.5863617, 40.45834 ], [ 22.586436, 40.458361 ], [ 22.5864789, 40.4583712 ], [ 22.5865307, 40.4583808 ], [ 22.5865782, 40.4583835 ], [ 22.586638, 40.458391 ], [ 22.5866755, 40.4584033 ], [ 22.5867352, 40.4584208 ] ] } },
{ "type": "Feature", "properties": { "@type": "way", "@id": 161156134, "access": null, "addr:city": null, "addr:country": null, "addr:postcode": null, "alt_name": null, "alt_name:ca": null, "alt_name:mk": null, "amenity": null, "area": null, "artwork_type": null, "barrier": null, "board_type": null, "boat": null, "bottle": null, "boundary": null, "brand": null, "bridge": null, "building": null, "bus": null, "cables": null, "construction:railway:etcs": null, "cuisine": null, "cutting": null, "denomination": null, "destination": null, "destination:lang:el-Latn": null, "destination:ref": null, "direction": null, "distance": null, "disused:railway": null, "electrified": null, "embankment": null, "emergency": null, "fee": null, "female": null, "fire_hydrant:position": null, "frequency": null, "gauge": null, "highway": null, "historic": null, "info": null, "information": null, "int_name": null, "int_ref": null, "junction:ref": null, "landuse": null, "lanes": null, "layer": null, "leisure": null, "lit": null, "loc_name": null, "loc_name:ca": null, "loc_name:en": null, "loc_name:fr": null, "loc_name:prefix": null, "male": null, "man_made": null, "material": null, "maxspeed": null, "maxspeed:backward": null, "maxspeed:forward": null, "name": null, "name:ar": null, "name:bg": null, "name:ca": null, "name:de": null, "name:el": null, "name:en": null, "name:es": null, "name:fr": null, "name:it": null, "name:la": null, "name:mk": null, "name:nl": null, "name:pl": null, "name:prefix": null, "name:ro": null, "name:ru": null, "name:sq": null, "name:tr": null, "name:uk": null, "nat_name": null, "natural": null, "noexit": null, "note:toll": null, "old_name": null, "oneway": null, "operator": null, "operator:wikidata": null, "outdoor_seating": null, "parking": null, "passenger_lines": null, "phone": null, "place": null, "placement": null, "plant:method": null, "plant:output:electricity": null, "plant:source": null, "power": null, "protect_class": null, "protection_title": null, "public_transport": null, "railway": null, "railway:ref": null, "ref": null, "reg_ref": null, "religion": null, "residential": null, "service": null, "shop": null, "short_name": null, "short_name:el": null, "short_name:en": null, "sidewalk": null, "smoothness": null, "source": null, "source:junction:ref": null, "source:maxspeed": null, "source:ref": null, "sport": null, "surface": null, "toilets": null, "toll": null, "tourism": null, "tower:type": null, "tracks": null, "tunnel": null, "turn:lanes": null, "usage": null, "voltage": null, "waterway": "stream", "website": null, "wheelchair": null, "width": null, "wikidata": null, "wikipedia": null, "label": "waterway:stream" }, "geometry": { "type": "LineString", "coordinates": [ [ 22.563768582439973, 40.459076142197453 ], [ 22.5639405, 40.4590023 ], [ 22.5647076, 40.4589434 ], [ 22.565158, 40.4590451 ], [ 22.5659954, 40.4589327 ], [ 22.5666781, 40.4587935 ], [ 22.5671777, 40.4587614 ], [ 22.5677681, 40.4587153 ], [ 22.5683005, 40.4586283 ], [ 22.5685642, 40.4584844 ], [ 22.5689374, 40.4582534 ], [ 22.5694102, 40.4582837 ], [ 22.5696789, 40.4583291 ], [ 22.5699675, 40.4583632 ], [ 22.5705348, 40.45842 ], [ 22.5708582, 40.4584314 ], [ 22.5711689, 40.4582706 ], [ 22.5717241, 40.4582799 ], [ 22.5721371, 40.4581663 ], [ 22.5729532, 40.4578937 ], [ 22.5736548, 40.4576476 ], [ 22.5741475, 40.4575795 ], [ 22.5748093, 40.4575075 ], [ 22.5752721, 40.4574507 ], [ 22.5758941, 40.4574545 ], [ 22.5764912, 40.4574356 ], [ 22.5772327, 40.4574697 ], [ 22.5777452, 40.4574772 ], [ 22.5781533, 40.4574924 ], [ 22.5784951, 40.4574993 ] ] } },
{ "type": "Feature", "properties": { "@type": "way", "@id": 760049958, "access": null, "addr:city": null, "addr:country": null, "addr:postcode": null, "alt_name": null, "alt_name:ca": null, "alt_name:mk": null, "amenity": null, "area": null, "artwork_type": null, "barrier": null, "board_type": null, "boat": null, "bottle": null, "boundary": null, "brand": null, "bridge": null, "building": null, "bus": null, "cables": null, "construction:railway:etcs": null, "cuisine": null, "cutting": null, "denomination": null, "destination": null, "destination:lang:el-Latn": null, "destination:ref": null, "direction": null, "distance": null, "disused:railway": null, "electrified": null, "embankment": null, "emergency": null, "fee": null, "female": null, "fire_hydrant:position": null, "frequency": null, "gauge": null, "highway": null, "historic": null, "info": null, "information": null, "int_name": null, "int_ref": null, "junction:ref": null, "landuse": null, "lanes": null, "layer": "-1", "leisure": null, "lit": null, "loc_name": null, "loc_name:ca": null, "loc_name:en": null, "loc_name:fr": null, "loc_name:prefix": null, "male": null, "man_made": null, "material": null, "maxspeed": null, "maxspeed:backward": null, "maxspeed:forward": null, "name": null, "name:ar": null, "name:bg": null, "name:ca": null, "name:de": null, "name:el": null, "name:en": null, "name:es": null, "name:fr": null, "name:it": null, "name:la": null, "name:mk": null, "name:nl": null, "name:pl": null, "name:prefix": null, "name:ro": null, "name:ru": null, "name:sq": null, "name:tr": null, "name:uk": null, "nat_name": null, "natural": null, "noexit": null, "note:toll": null, "old_name": null, "oneway": null, "operator": null, "operator:wikidata": null, "outdoor_seating": null, "parking": null, "passenger_lines": null, "phone": null, "place": null, "placement": null, "plant:method": null, "plant:output:electricity": null, "plant:source": null, "power": null, "protect_class": null, "protection_title": null, "public_transport": null, "railway": null, "railway:ref": null, "ref": null, "reg_ref": null, "religion": null, "residential": null, "service": null, "shop": null, "short_name": null, "short_name:el": null, "short_name:en": null, "sidewalk": null, "smoothness": null, "source": null, "source:junction:ref": null, "source:maxspeed": null, "source:ref": null, "sport": null, "surface": null, "toilets": null, "toll": null, "tourism": null, "tower:type": null, "tracks": null, "tunnel": "culvert", "turn:lanes": null, "usage": null, "voltage": null, "waterway": "stream", "website": null, "wheelchair": null, "width": null, "wikidata": null, "wikipedia": null, "label": "waterway:stream" }, "geometry": { "type": "LineString", "coordinates": [ [ 22.5784951, 40.4574993 ], [ 22.5794719, 40.4575189 ] ] } },
{ "type": "Feature", "properties": { "@type": "way", "@id": 760049959, "access": null, "addr:city": null, "addr:country": null, "addr:postcode": null, "alt_name": null, "alt_name:ca": null, "alt_name:mk": null, "amenity": null, "area": null, "artwork_type": null, "barrier": null, "board_type": null, "boat": null, "bottle": null, "boundary": null, "brand": null, "bridge": null, "building": null, "bus": null, "cables": null, "construction:railway:etcs": null, "cuisine": null, "cutting": null, "denomination": null, "destination": null, "destination:lang:el-Latn": null, "destination:ref": null, "direction": null, "distance": null, "disused:railway": null, "electrified": null, "embankment": null, "emergency": null, "fee": null, "female": null, "fire_hydrant:position": null, "frequency": null, "gauge": null, "highway": null, "historic": null, "info": null, "information": null, "int_name": null, "int_ref": null, "junction:ref": null, "landuse": null, "lanes": null, "layer": null, "leisure": null, "lit": null, "loc_name": null, "loc_name:ca": null, "loc_name:en": null, "loc_name:fr": null, "loc_name:prefix": null, "male": null, "man_made": null, "material": null, "maxspeed": null, "maxspeed:backward": null, "maxspeed:forward": null, "name": null, "name:ar": null, "name:bg": null, "name:ca": null, "name:de": null, "name:el": null, "name:en": null, "name:es": null, "name:fr": null, "name:it": null, "name:la": null, "name:mk": null, "name:nl": null, "name:pl": null, "name:prefix": null, "name:ro": null, "name:ru": null, "name:sq": null, "name:tr": null, "name:uk": null, "nat_name": null, "natural": null, "noexit": null, "note:toll": null, "old_name": null, "oneway": null, "operator": null, "operator:wikidata": null, "outdoor_seating": null, "parking": null, "passenger_lines": null, "phone": null, "place": null, "placement": null, "plant:method": null, "plant:output:electricity": null, "plant:source": null, "power": null, "protect_class": null, "protection_title": null, "public_transport": null, "railway": null, "railway:ref": null, "ref": null, "reg_ref": null, "religion": null, "residential": null, "service": null, "shop": null, "short_name": null, "short_name:el": null, "short_name:en": null, "sidewalk": null, "smoothness": null, "source": null, "source:junction:ref": null, "source:maxspeed": null, "source:ref": null, "sport": null, "surface": null, "toilets": null, "toll": null, "tourism": null, "tower:type": null, "tracks": null, "tunnel": null, "turn:lanes": null, "usage": null, "voltage": null, "waterway": "stream", "website": null, "wheelchair": null, "width": null, "wikidata": null, "wikipedia": null, "label": "waterway:stream" }, "geometry": { "type": "LineString", "coordinates": [ [ 22.5794719, 40.4575189 ], [ 22.5799496, 40.457553 ], [ 22.5801487, 40.4575719 ], [ 22.5809299, 40.457659 ], [ 22.5814873, 40.4578369 ], [ 22.5820147, 40.4578824 ], [ 22.5825123, 40.4579164 ], [ 22.5831145, 40.4580225 ], [ 22.583632, 40.4581853 ], [ 22.5840699, 40.458367 ], [ 22.5843087, 40.4583973 ], [ 22.5847013, 40.4583835 ] ] } }
]
}
