{
"type": "FeatureCollection",
"name": "patch_59359_polygon",
"crs": { "type": "name", "properties": { "name": "urn:ogc:def:crs:OGC:1.3:CRS84" } },
"features": [
{ "type": "Feature", "properties": { "@type": "way", "@id": 416256027, "amenity": null, "building": "yes", "climbing:bolted": null, "climbing:orientation": null, "climbing:quality": null, "climbing:rock": null, "climbing:sport": null, "climbing:toprope": null, "communication:television": null, "denomination": null, "ele": null, "fee": null, "highway": null, "indoor": null, "landuse": null, "lit": null, "man_made": null, "name": null, "name:el": null, "name:en": null, "natural": null, "operator": null, "religion": null, "source": "bing", "sport": null, "surface": null, "tourism": null, "tower:type": null, "label": "building:yes" }, "geometry": { "type": "Polygon", "coordinates": [ [ [ 23.2162858, 37.4773098 ], [ 23.2162963, 37.4772538 ], [ 23.2161703, 37.4772389 ], [ 23.2161598, 37.4772949 ], [ 23.2162858, 37.4773098 ] ] ] } },
{ "type": "Feature", "properties": { "@type": "way", "@id": 416256028, "amenity": null, "building": "yes", "climbing:bolted": null, "climbing:orientation": null, "climbing:quality": null, "climbing:rock": null, "climbing:sport": null, "climbing:toprope": null, "communication:television": null, "denomination": null, "ele": null, "fee": null, "highway": null, "indoor": null, "landuse": null, "lit": null, "man_made": null, "name": null, "name:el": null, "name:en": null, "natural": null, "operator": null, "religion": null, "source": "bing", "sport": null, "surface": null, "tourism": null, "tower:type": null, "label": "building:yes" }, "geometry": { "type": "Polygon", "coordinates": [ [ [ 23.2163944, 37.4773133 ], [ 23.2164776, 37.4772686 ], [ 23.2164358, 37.4772197 ], [ 23.2163527, 37.4772644 ], [ 23.2163944, 37.4773133 ] ] ] } },
{ "type": "Feature", "properties": { "@type": "way", "@id": 416256029, "amenity": null, "building": "yes", "climbing:bolted": null, "climbing:orientation": null, "climbing:quality": null, "climbing:rock": null, "climbing:sport": null, "climbing:toprope": null, "communication:television": null, "denomination": null, "ele": null, "fee": null, "highway": null, "indoor": null, "landuse": null, "lit": null, "man_made": null, "name": null, "name:el": null, "name:en": null, "natural": null, "operator": null, "religion": null, "source": "bing", "sport": null, "surface": null, "tourism": null, "tower:type": null, "label": "building:yes" }, "geometry": { "type": "Polygon", "coordinates": [ [ [ 23.2165238, 37.477277 ], [ 23.2165833, 37.4772495 ], [ 23.2165163, 37.477158 ], [ 23.2164567, 37.4771855 ], [ 23.2165238, 37.477277 ] ] ] } },
{ "type": "Feature", "properties": { "@type": "way", "@id": 750385268, "amenity": null, "building": null, "climbing:bolted": null, "climbing:orientation": null, "climbing:quality": null, "climbing:rock": null, "climbing:sport": null, "climbing:toprope": null, "communication:television": null, "denomination": null, "ele": null, "fee": null, "highway": null, "indoor": null, "landuse": "quarry", "lit": null, "man_made": null, "name": null, "name:el": null, "name:en": null, "natural": null, "operator": null, "religion": null, "source": null, "sport": null, "surface": null, "tourism": null, "tower:type": null, "label": "landuse:quarry" }, "geometry": { "type": "Polygon", "coordinates": [ [ [ 23.2208335, 37.4574041 ], [ 23.2183413, 37.4587961 ], [ 23.2175651, 37.4594427 ], [ 23.218896, 37.4605533 ], [ 23.2215749, 37.4612712 ], [ 23.2266767, 37.4620973 ], [ 23.228968704177902, 37.461673974912998 ], [ 23.228968704177902, 37.458134996358879 ], [ 23.2267279, 37.4573433 ], [ 23.226218532627403, 37.457206340411062 ], [ 23.222020183155085, 37.457206340411062 ], [ 23.2208335, 37.4574041 ] ] ] } }
]
}
