{
"type": "FeatureCollection",
"name": "patch_59359_point",
"crs": { "type": "name", "properties": { "name": "urn:ogc:def:crs:OGC:1.3:CRS84" } },
"features": [
{ "type": "Feature", "properties": { "@type": "node", "@id": 309349780, "amenity": null, "building": null, "climbing:bolted": null, "climbing:orientation": null, "climbing:quality": null, "climbing:rock": null, "climbing:sport": null, "climbing:toprope": null, "communication:television": null, "denomination": null, "ele": "1080", "fee": null, "highway": null, "indoor": null, "landuse": null, "lit": null, "man_made": null, "name": null, "name:el": null, "name:en": null, "natural": null, "operator": null, "religion": null, "source": null, "sport": null, "surface": null, "tourism": "viewpoint", "tower:type": null, "label": "tourism:viewpoint" }, "geometry": { "type": "Point", "coordinates": [ 23.2076777, 37.4748864 ] } },
{ "type": "Feature", "properties": { "@type": "node", "@id": 354563036, "amenity": null, "building": null, "climbing:bolted": null, "climbing:orientation": null, "climbing:quality": null, "climbing:rock": null, "climbing:sport": null, "climbing:toprope": null, "communication:television": null, "denomination": null, "ele": null, "fee": null, "highway": null, "indoor": null, "landuse": null, "lit": null, "man_made": null, "name": "Mt. Didimo", "name:el": null, "name:en": null, "natural": null, "operator": null, "religion": null, "source": null, "sport": null, "surface": null, "tourism": "viewpoint", "tower:type": null, "label": "tourism:viewpoint" }, "geometry": { "type": "Point", "coordinates": [ 23.2128021, 37.4759009 ] } },
{ "type": "Feature", "properties": { "@type": "node", "@id": 9707433334, "amenity": null, "building": null, "climbing:bolted": null, "climbing:orientation": null, "climbing:quality": null, "climbing:rock": null, "climbing:sport": null, "climbing:toprope": null, "communication:television": null, "denomination": null, "ele": "1080", "fee": null, "highway": null, "indoor": null, "landuse": null, "lit": null, "man_made": null, "name": null, "name:el": null, "name:en": null, "natural": "peak", "operator": null, "religion": null, "source": null, "sport": null, "surface": null, "tourism": null, "tower:type": null, "label": "natural:peak" }, "geometry": { "type": "Point", "coordinates": [ 23.2077272, 37.4753978 ] } },
{ "type": "Feature", "properties": { "@type": "node", "@id": 9707433335, "amenity": "place_of_worship", "building": null, "climbing:bolted": null, "climbing:orientation": null, "climbing:quality": null, "climbing:rock": null, "climbing:sport": null, "climbing:toprope": null, "communication:television": null, "denomination": "orthodox", "ele": null, "fee": null, "highway": null, "indoor": null, "landuse": null, "lit": null, "man_made": null, "name": "Profitis Illias", "name:el": null, "name:en": null, "natural": null, "operator": null, "religion": "christian", "source": null, "sport": null, "surface": null, "tourism": null, "tower:type": null, "label": "amenity:place_of_worship" }, "geometry": { "type": "Point", "coordinates": [ 23.207003, 37.4750108 ] } }
]
}
