{
"type": "FeatureCollection",
"name": "patch_59359_linestring",
"crs": { "type": "name", "properties": { "name": "urn:ogc:def:crs:OGC:1.3:CRS84" } },
"features": [
{ "type": "Feature", "properties": { "@type": "way", "@id": 424824762, "amenity": null, "building": null, "climbing:bolted": "yes", "climbing:orientation": "SE", "climbing:quality": "fragile", "climbing:rock": "limestone", "climbing:sport": "yes", "climbing:toprope": "yes", "communication:television": null, "denomination": null, "ele": "1100", "fee": "no", "highway": null, "indoor": "no", "landuse": null, "lit": null, "man_made": null, "name": "Δίδυμα", "name:el": "Δίδυμα", "name:en": "Didyma", "natural": "cliff", "operator": null, "religion": null, "source": null, "sport": "climbing", "surface": null, "tourism": null, "tower:type": null, "label": "natural:cliff;sport:climbing" }, "geometry": { "type": "LineString", "coordinates": [ [ 23.2104277, 37.4739054 ], [ 23.2121276, 37.47528 ] ] } }
]
}
