{
"type": "FeatureCollection",
"name": "patch_11816_polygon",
"crs": { "type": "name", "properties": { "name": "urn:ogc:def:crs:OGC:1.3:CRS84" } },
"features": [
{ "type": "Feature", "properties": { "osm_id": 137321314, "name": "Εθνικό Θαλάσσιο Πάρκο Β. Σποράδων", "label": "leisure:nature_reserve", "leisure": "nature_reserve" }, "geometry": { "type": "Polygon", "coordinates": [ [ [ 24.089800857658002, 39.264477373363789 ], [ 24.118484231336112, 39.264477373363789 ], [ 24.118484231336112, 39.240701422559127 ], [ 24.089800857658002, 39.240701422559127 ], [ 24.089800857658002, 39.264477373363789 ] ] ] } }
]
}
