{
"type": "FeatureCollection",
"name": "patch_23683_polygon",
"crs": { "type": "name", "properties": { "name": "urn:ogc:def:crs:OGC:1.3:CRS84" } },
"features": [
{ "type": "Feature", "properties": { "@type": "way", "@id": 504236496, "amenity": null, "building": null, "bus": null, "created_by": null, "cuisine": null, "denomination": null, "ele": null, "highway": null, "int_name": null, "lit": null, "maxspeed": null, "name": "Διαλισκάρι", "name:el": "Διαλισκάρι", "name:en": "Dialiskari", "natural": "beach", "oneway": null, "place": null, "public_transport": null, "religion": null, "shelter": null, "source": null, "surface": "sand", "wikidata": null, "label": "natural:beach" }, "geometry": { "type": "Polygon", "coordinates": [ [ [ 25.1556788, 36.6868835 ], [ 25.1557514, 36.6869445 ], [ 25.1558275, 36.6869913 ], [ 25.1558912, 36.6870098 ], [ 25.1559567, 36.6869899 ], [ 25.155985, 36.6869629 ], [ 25.1560151, 36.6869175 ], [ 25.1560319, 36.6868839 ], [ 25.155961, 36.6868268 ], [ 25.1558712, 36.6867575 ], [ 25.1557944, 36.6866523 ], [ 25.1557408, 36.6866692 ], [ 25.1557089, 36.6867274 ], [ 25.1556735, 36.6868083 ], [ 25.1556788, 36.6868835 ] ] ] } },
{ "type": "Feature", "properties": { "@type": "way", "@id": 504271082, "amenity": "place_of_worship", "building": "church", "bus": null, "created_by": null, "cuisine": null, "denomination": "greek_orthodox", "ele": null, "highway": null, "int_name": "Aghios Georgios", "lit": null, "maxspeed": null, "name": "Άγιος Γεώργιος", "name:el": null, "name:en": null, "natural": null, "oneway": null, "place": null, "public_transport": null, "religion": "christian", "shelter": null, "source": null, "surface": null, "wikidata": null, "label": "building:church;amenity:place_of_worship" }, "geometry": { "type": "Polygon", "coordinates": [ [ [ 25.1655555, 36.692764 ], [ 25.1656386, 36.6927418 ], [ 25.1656171, 36.6926986 ], [ 25.165537, 36.6927245 ], [ 25.1655555, 36.692764 ] ] ] } },
{ "type": "Feature", "properties": { "@type": "way", "@id": 504271191, "amenity": null, "building": null, "bus": null, "created_by": null, "cuisine": null, "denomination": null, "ele": null, "highway": null, "int_name": null, "lit": null, "maxspeed": null, "name": "Άγιος Γεώργιος", "name:el": "Άγιος Γεώργιος", "name:en": "Aghios Georgios", "natural": "beach", "oneway": null, "place": null, "public_transport": null, "religion": null, "shelter": null, "source": null, "surface": "sand", "wikidata": null, "label": "natural:beach" }, "geometry": { "type": "Polygon", "coordinates": [ [ [ 25.1658552, 36.6935777 ], [ 25.1659705, 36.693696 ], [ 25.166161, 36.6938057 ], [ 25.1663648, 36.6938896 ], [ 25.1665284, 36.6939433 ], [ 25.1667135, 36.6939885 ], [ 25.166802, 36.6940272 ], [ 25.1668637, 36.6940251 ], [ 25.1668959, 36.6939949 ], [ 25.1669522, 36.6939369 ], [ 25.1669576, 36.6939068 ], [ 25.166931, 36.693864 ], [ 25.1665281, 36.6937353 ], [ 25.1663326, 36.6935964 ], [ 25.1661665, 36.6934079 ], [ 25.1660619, 36.6931392 ], [ 25.1659223, 36.6932637 ], [ 25.1658391, 36.6933626 ], [ 25.1658177, 36.6934874 ], [ 25.1658552, 36.6935777 ] ] ] } },
{ "type": "Feature", "properties": { "@type": "way", "@id": 504273351, "amenity": "restaurant", "building": "yes", "bus": null, "created_by": null, "cuisine": "greek;seafood", "denomination": null, "ele": null, "highway": null, "int_name": null, "lit": null, "maxspeed": null, "name": "Αλμύρα", "name:el": "Αλμύρα", "name:en": "Almira", "natural": null, "oneway": null, "place": null, "public_transport": null, "religion": null, "shelter": null, "source": null, "surface": null, "wikidata": null, "label": "building:yes;amenity:restaurant" }, "geometry": { "type": "Polygon", "coordinates": [ [ [ 25.1657001, 36.6936056 ], [ 25.1657403, 36.6935733 ], [ 25.1657175, 36.6935507 ], [ 25.165794, 36.6934883 ], [ 25.1657294, 36.6934541 ], [ 25.1656894, 36.6934894 ], [ 25.1656505, 36.6934647 ], [ 25.1655848, 36.6935346 ], [ 25.1657001, 36.6936056 ] ] ] } },
{ "type": "Feature", "properties": { "@type": "way", "@id": 504322823, "amenity": null, "building": null, "bus": null, "created_by": null, "cuisine": null, "denomination": null, "ele": null, "highway": null, "int_name": null, "lit": null, "maxspeed": null, "name": "Μάλτα", "name:el": "Μάλτα", "name:en": "Malta", "natural": "beach", "oneway": null, "place": null, "public_transport": null, "religion": null, "shelter": null, "source": null, "surface": null, "wikidata": null, "label": "natural:beach" }, "geometry": { "type": "Polygon", "coordinates": [ [ [ 25.1756246, 36.7085254 ], [ 25.17565, 36.7083967 ], [ 25.1755913, 36.7083847 ], [ 25.1755259, 36.7083975 ], [ 25.1754852, 36.7084415 ], [ 25.1754586, 36.708511 ], [ 25.175425, 36.7085606 ], [ 25.175417642646192, 36.708602939488905 ], [ 25.17564259939266, 36.708602939488905 ], [ 25.1756246, 36.7085254 ] ] ] } },
{ "type": "Feature", "properties": { "@type": "way", "@id": 504322954, "amenity": "place_of_worship", "building": "yes", "bus": null, "created_by": null, "cuisine": null, "denomination": null, "ele": null, "highway": null, "int_name": null, "lit": null, "maxspeed": null, "name": "Αγία Τριάδα", "name:el": "Αγία Τριάδα", "name:en": "Aghia Triada", "natural": null, "oneway": null, "place": null, "public_transport": null, "religion": "christian", "shelter": null, "source": null, "surface": null, "wikidata": null, "label": "building:yes;amenity:place_of_worship" }, "geometry": { "type": "Polygon", "coordinates": [ [ [ 25.1611697, 36.7065735 ], [ 25.1612468, 36.7065229 ], [ 25.1612164, 36.7064911 ], [ 25.1611394, 36.7065379 ], [ 25.1611697, 36.7065735 ] ] ] } },
{ "type": "Feature", "properties": { "@type": "way", "@id": 613352811, "amenity": null, "building": "yes", "bus": null, "created_by": null, "cuisine": null, "denomination": null, "ele": null, "highway": null, "int_name": null, "lit": null, "maxspeed": null, "name": null, "name:el": null, "name:en": null, "natural": null, "oneway": null, "place": null, "public_transport": null, "religion": null, "shelter": null, "source": null, "surface": null, "wikidata": null, "label": "building:yes" }, "geometry": { "type": "Polygon", "coordinates": [ [ [ 25.1651265, 36.6935754 ], [ 25.1651639, 36.6935439 ], [ 25.1651358, 36.6935274 ], [ 25.1650984, 36.6935574 ], [ 25.1651265, 36.6935754 ] ] ] } },
{ "type": "Feature", "properties": { "@type": "way", "@id": 721903266, "amenity": null, "building": null, "bus": null, "created_by": null, "cuisine": null, "denomination": null, "ele": null, "highway": null, "int_name": null, "lit": null, "maxspeed": null, "name": null, "name:el": null, "name:en": null, "natural": "bare_rock", "oneway": null, "place": null, "public_transport": null, "religion": null, "shelter": null, "source": null, "surface": null, "wikidata": null, "label": "natural:bare_rock" }, "geometry": { "type": "Polygon", "coordinates": [ [ [ 25.1737542, 36.6983108 ], [ 25.1738025, 36.6983065 ], [ 25.1738132, 36.6982656 ], [ 25.173781, 36.6982269 ], [ 25.1737193, 36.6982183 ], [ 25.173714, 36.6982721 ], [ 25.1737542, 36.6983108 ] ] ] } }
]
}
