{
"type": "FeatureCollection",
"name": "patch_32721_polygon",
"crs": { "type": "name", "properties": { "name": "urn:ogc:def:crs:OGC:1.3:CRS84" } },
"features": [
{ "type": "Feature", "properties": { "element": "way", "id": 135877161, "leaf_type": "mixed", "natural": "wood", "source": "http://geodata.gov.gr/", "landuse": null, "amenity": null, "building": null, "religion": null, "intermittent": null, "waterway": null, "layer": null, "tunnel": null, "label": "natural:wood" }, "geometry": { "type": "Polygon", "coordinates": [ [ [ 22.0087466, 38.4492288 ], [ 22.007911, 38.447968 ], [ 22.007804, 38.446932 ], [ 22.006874, 38.446799 ], [ 22.005825, 38.446781 ], [ 22.004601, 38.44676 ], [ 22.004156, 38.447027 ], [ 22.004666, 38.447587 ], [ 22.005278, 38.447597 ], [ 22.005886, 38.447745 ], [ 22.006055, 38.447954 ], [ 22.005702, 38.448086 ], [ 22.004915, 38.448072 ], [ 22.00316, 38.447945 ], [ 22.001477, 38.447102 ], [ 22.000599674158938, 38.446742545691151 ], [ 21.989346513395429, 38.446742545691151 ], [ 21.989377, 38.446843 ], [ 21.990992, 38.446794 ], [ 21.992346, 38.446982 ], [ 21.994116, 38.4473 ], [ 21.995794, 38.447846 ], [ 21.997446, 38.448527 ], [ 21.999266, 38.448724 ], [ 21.999398, 38.448752 ], [ 21.999798, 38.448838 ], [ 22.001875, 38.449058 ], [ 22.003014, 38.449111 ], [ 22.003625, 38.449012 ], [ 22.005495, 38.449252 ], [ 22.006438, 38.449956 ], [ 22.007399, 38.449972 ], [ 22.008101, 38.449915 ], [ 22.009011, 38.449872 ], [ 22.0087466, 38.4492288 ] ] ] } },
{ "type": "Feature", "properties": { "element": "way", "id": 135877177, "leaf_type": null, "natural": "wood", "source": "http://geodata.gov.gr/", "landuse": null, "amenity": null, "building": null, "religion": null, "intermittent": null, "waterway": null, "layer": null, "tunnel": null, "label": "natural:wood" }, "geometry": { "type": "Polygon", "coordinates": [ [ [ 22.015813, 38.46888 ], [ 22.012714, 38.468989 ], [ 22.011894, 38.468813 ], [ 22.011598, 38.468321 ], [ 22.011921, 38.46784 ], [ 22.011458, 38.467057 ], [ 22.011206, 38.466639 ], [ 22.010766, 38.465909 ], [ 22.010388, 38.465334 ], [ 22.010071, 38.464915 ], [ 22.009153, 38.464848 ], [ 22.008633, 38.464632 ], [ 22.008374, 38.464105 ], [ 22.006018, 38.464411 ], [ 22.006379, 38.465309 ], [ 22.0064323, 38.4654067 ], [ 22.006792, 38.466066 ], [ 22.007383, 38.466621 ], [ 22.007532, 38.46751 ], [ 22.0069, 38.468453 ], [ 22.006704, 38.469267 ], [ 22.005834, 38.469389 ], [ 22.005132706254606, 38.469559416164593 ], [ 22.016385454395717, 38.469559416164593 ], [ 22.016385454395717, 38.468844044186717 ], [ 22.015813, 38.46888 ] ] ] } },
{ "type": "Feature", "properties": { "element": "way", "id": 135877178, "leaf_type": "mixed", "natural": "wood", "source": "http://geodata.gov.gr/", "landuse": null, "amenity": null, "building": null, "religion": null, "intermittent": null, "waterway": null, "layer": null, "tunnel": null, "label": "natural:wood" }, "geometry": { "type": "Polygon", "coordinates": [ [ [ 22.0163372, 38.4473807 ], [ 22.0157721, 38.4470241 ], [ 22.014587, 38.447202 ], [ 22.014272, 38.448263 ], [ 22.015415, 38.450806 ], [ 22.016297, 38.452448 ], [ 22.016385454395717, 38.452546449667274 ], [ 22.016385454395717, 38.447420783784267 ], [ 22.0163372, 38.4473807 ] ] ] } },
{ "type": "Feature", "properties": { "element": "way", "id": 135877281, "leaf_type": "needleleaved", "natural": "wood", "source": "http://geodata.gov.gr/", "landuse": null, "amenity": null, "building": null, "religion": null, "intermittent": null, "waterway": null, "layer": null, "tunnel": null, "label": "natural:wood" }, "geometry": { "type": "Polygon", "coordinates": [ [ [ 22.010997, 38.455949 ], [ 22.011621, 38.45593 ], [ 22.011988, 38.45555 ], [ 22.011561, 38.454514 ], [ 22.011451, 38.452174 ], [ 22.011827, 38.451217 ], [ 22.012289, 38.45033 ], [ 22.0123, 38.449918 ], [ 22.011796, 38.449152 ], [ 22.010406, 38.448785 ], [ 22.010072, 38.448229 ], [ 22.010077, 38.448023 ], [ 22.01052, 38.447824 ], [ 22.011821, 38.448259 ], [ 22.01252, 38.44827 ], [ 22.01297, 38.447797 ], [ 22.012562, 38.446758 ], [ 22.01252927800455, 38.446742545691151 ], [ 22.008347990157368, 38.446742545691151 ], [ 22.007804, 38.446932 ], [ 22.007911, 38.447968 ], [ 22.0087466, 38.4492288 ], [ 22.009011, 38.449872 ], [ 22.009182, 38.450417 ], [ 22.009099, 38.451918 ], [ 22.009462, 38.452315 ], [ 22.010044, 38.452848 ], [ 22.010011, 38.453467 ], [ 22.009315, 38.453749 ], [ 22.009436, 38.454208 ], [ 22.009893, 38.454739 ], [ 22.010073, 38.455377 ], [ 22.009949, 38.456023 ], [ 22.010997, 38.455949 ] ] ] } },
{ "type": "Feature", "properties": { "element": "way", "id": 135877940, "leaf_type": "needleleaved", "natural": "wood", "source": "http://geodata.gov.gr/", "landuse": null, "amenity": null, "building": null, "religion": null, "intermittent": null, "waterway": null, "layer": null, "tunnel": null, "label": "natural:wood" }, "geometry": { "type": "Polygon", "coordinates": [ [ [ 21.994669, 38.455862 ], [ 21.994239, 38.455437 ], [ 21.994264, 38.454535 ], [ 21.993704, 38.453691 ], [ 21.99309, 38.453653 ], [ 21.989511, 38.453022 ], [ 21.989161, 38.45244 ], [ 21.98903, 38.451491 ], [ 21.989052, 38.45071 ], [ 21.989234, 38.449808 ], [ 21.989311, 38.448904 ], [ 21.989277, 38.448246 ], [ 21.989248, 38.447422 ], [ 21.989377, 38.446843 ], [ 21.989346513395429, 38.446742545691151 ], [ 21.986729421983558, 38.446742545691151 ], [ 21.986729421983558, 38.456189117376944 ], [ 21.9868261, 38.456218 ], [ 21.987887, 38.456535 ], [ 21.989737, 38.456481 ], [ 21.99105, 38.456161 ], [ 21.992555, 38.456786 ], [ 21.994389, 38.45733 ], [ 21.9959238, 38.4574563 ], [ 21.996468, 38.456853 ], [ 21.995892, 38.456042 ], [ 21.994669, 38.455862 ] ] ] } },
{ "type": "Feature", "properties": { "element": "way", "id": 138494911, "leaf_type": null, "natural": null, "source": null, "landuse": "residential", "amenity": null, "building": null, "religion": null, "intermittent": null, "waterway": null, "layer": null, "tunnel": null, "label": "landuse:residential" }, "geometry": { "type": "Polygon", "coordinates": [ [ [ 22.0047436, 38.4518966 ], [ 22.0042863, 38.4520446 ], [ 22.0034084, 38.4523311 ], [ 22.0027926, 38.4523502 ], [ 22.0028718, 38.452842 ], [ 22.0029145, 38.4531762 ], [ 22.0026828, 38.4535343 ], [ 22.002067, 38.4537635 ], [ 22.002256, 38.4544033 ], [ 22.0026584, 38.4543699 ], [ 22.003195, 38.4542791 ], [ 22.0036462, 38.4543651 ], [ 22.0038961, 38.4545513 ], [ 22.0040668, 38.4549476 ], [ 22.0044997, 38.4548043 ], [ 22.0045851, 38.4542935 ], [ 22.0049936, 38.4539783 ], [ 22.0056521, 38.4538924 ], [ 22.0063654, 38.4539592 ], [ 22.0062923, 38.4535391 ], [ 22.0064752, 38.4532812 ], [ 22.0069508, 38.4529374 ], [ 22.0064081, 38.452565 ], [ 22.0060484, 38.452121 ], [ 22.0053106, 38.4517867 ], [ 22.0047436, 38.4518966 ] ] ] } },
{ "type": "Feature", "properties": { "element": "way", "id": 546826195, "leaf_type": null, "natural": null, "source": null, "landuse": null, "amenity": "grave_yard", "building": null, "religion": null, "intermittent": null, "waterway": null, "layer": null, "tunnel": null, "label": "amenity:grave_yard" }, "geometry": { "type": "Polygon", "coordinates": [ [ [ 21.9978161, 38.4535341 ], [ 21.9980371, 38.4533308 ], [ 21.9979733, 38.4531778 ], [ 21.9979378, 38.4531075 ], [ 21.9978913, 38.4530597 ], [ 21.9975803, 38.4533287 ], [ 21.9978161, 38.4535341 ] ] ] } },
{ "type": "Feature", "properties": { "element": "way", "id": 546826196, "leaf_type": null, "natural": null, "source": null, "landuse": null, "amenity": "place_of_worship", "building": "yes", "religion": "christian", "intermittent": null, "waterway": null, "layer": null, "tunnel": null, "label": "building:yes;amenity:place_of_worship" }, "geometry": { "type": "Polygon", "coordinates": [ [ [ 21.9977994, 38.4529872 ], [ 21.9979457, 38.4529649 ], [ 21.9979335, 38.4528948 ], [ 21.9977892, 38.4529123 ], [ 21.9977994, 38.4529872 ] ] ] } },
{ "type": "Feature", "properties": { "element": "way", "id": 552156115, "leaf_type": null, "natural": null, "source": null, "landuse": null, "amenity": "place_of_worship", "building": "yes", "religion": "christian", "intermittent": null, "waterway": null, "layer": null, "tunnel": null, "label": "building:yes;amenity:place_of_worship" }, "geometry": { "type": "Polygon", "coordinates": [ [ [ 22.0054533, 38.4536797 ], [ 22.0055683, 38.4536076 ], [ 22.0055135, 38.4535549 ], [ 22.0053914, 38.4536339 ], [ 22.0054533, 38.4536797 ] ] ] } },
{ "type": "Feature", "properties": { "element": "way", "id": 552626207, "leaf_type": null, "natural": null, "source": null, "landuse": null, "amenity": "place_of_worship", "building": "yes", "religion": "christian", "intermittent": null, "waterway": null, "layer": null, "tunnel": null, "label": "building:yes;amenity:place_of_worship" }, "geometry": { "type": "Polygon", "coordinates": [ [ [ 22.0036773, 38.4476677 ], [ 22.0037605, 38.4476146 ], [ 22.003725, 38.4475797 ], [ 22.0036449, 38.4476303 ], [ 22.0036773, 38.4476677 ] ] ] } },
{ "type": "Feature", "properties": { "element": "way", "id": 1246212419, "leaf_type": "mixed", "natural": "wood", "source": "http://geodata.gov.gr/", "landuse": null, "amenity": null, "building": null, "religion": null, "intermittent": null, "waterway": null, "layer": null, "tunnel": null, "label": "natural:wood" }, "geometry": { "type": "Polygon", "coordinates": [ [ [ 22.004012, 38.4694289 ], [ 22.0059416, 38.4688303 ], [ 22.0062502, 38.4681686 ], [ 22.0057881, 38.4670912 ], [ 22.0045137, 38.4671364 ], [ 22.0034163, 38.4678484 ], [ 22.0019529, 38.4678941 ], [ 22.001707, 38.466441 ], [ 22.002099, 38.465315 ], [ 21.999629, 38.464976 ], [ 21.999396, 38.464961 ], [ 21.998218, 38.464883 ], [ 21.996359, 38.46499 ], [ 21.994847, 38.465381 ], [ 21.99492, 38.465938 ], [ 21.995204, 38.466957 ], [ 21.995324, 38.467541 ], [ 21.994548, 38.467894 ], [ 21.992603, 38.467621 ], [ 21.992192, 38.466537 ], [ 21.991864, 38.46592 ], [ 21.991655, 38.464574 ], [ 21.991303, 38.463144 ], [ 21.990795, 38.462606 ], [ 21.99052, 38.461871 ], [ 21.990529, 38.461549 ], [ 21.990338, 38.461061 ], [ 21.989692, 38.460372 ], [ 21.989312, 38.460388 ], [ 21.987432, 38.459882 ], [ 21.986729421983558, 38.459856733787426 ], [ 21.986729421983558, 38.469559416164593 ], [ 22.003603640990079, 38.469559416164593 ], [ 22.004012, 38.4694289 ] ] ] } },
{ "type": "Feature", "properties": { "element": "way", "id": 1307327640, "leaf_type": null, "natural": "scrub", "source": null, "landuse": null, "amenity": null, "building": null, "religion": null, "intermittent": null, "waterway": null, "layer": null, "tunnel": null, "label": "natural:scrub" }, "geometry": { "type": "Polygon", "coordinates": [ [ [ 21.987432, 38.459882 ], [ 21.989312, 38.460388 ], [ 21.989692, 38.460372 ], [ 21.990338, 38.461061 ], [ 21.990529, 38.461549 ], [ 21.99052, 38.461871 ], [ 21.990795, 38.462606 ], [ 21.991303, 38.463144 ], [ 21.991655, 38.464574 ], [ 21.991864, 38.46592 ], [ 21.992192, 38.466537 ], [ 21.992603, 38.467621 ], [ 21.994548, 38.467894 ], [ 21.995324, 38.467541 ], [ 21.995204, 38.466957 ], [ 21.994847, 38.465381 ], [ 21.996359, 38.46499 ], [ 21.998218, 38.464883 ], [ 21.999396, 38.464961 ], [ 21.999629, 38.464976 ], [ 22.002099, 38.465315 ], [ 22.0023408, 38.4649866 ], [ 22.0024579, 38.4646441 ], [ 22.0025935, 38.4643111 ], [ 22.0025935, 38.4641905 ], [ 22.0025935, 38.4637804 ], [ 22.0025195, 38.4636067 ], [ 22.002156, 38.4634764 ], [ 22.0021683, 38.4633365 ], [ 22.0024641, 38.4628637 ], [ 22.0025072, 38.4626803 ], [ 22.0026305, 38.4623522 ], [ 22.0027352, 38.4618311 ], [ 22.0026982, 38.4616622 ], [ 22.0025997, 38.4616477 ], [ 22.0023593, 38.461696 ], [ 22.0021868, 38.461778 ], [ 22.0020697, 38.4619035 ], [ 22.001928, 38.4619421 ], [ 22.0017308, 38.4619855 ], [ 22.0013919, 38.4620145 ], [ 22.000942, 38.4621785 ], [ 22.0006401, 38.4622557 ], [ 22.0004491, 38.4623329 ], [ 21.9999992, 38.4623715 ], [ 21.9998575, 38.4623426 ], [ 21.9996418, 38.462193 ], [ 21.9995186, 38.4620193 ], [ 21.9995741, 38.4617877 ], [ 21.9998262, 38.4615442 ], [ 22.000089, 38.461435 ], [ 22.0002553, 38.4613846 ], [ 22.0005665, 38.4613888 ], [ 22.0006952, 38.4613384 ], [ 22.0007113, 38.4612376 ], [ 22.0007489, 38.4609771 ], [ 22.0008508, 38.4608637 ], [ 22.0009903, 38.4607671 ], [ 22.0010332, 38.4606453 ], [ 22.0009044, 38.4604689 ], [ 22.0004109, 38.460095 ], [ 22.0003734, 38.4599228 ], [ 22.0003948, 38.4597926 ], [ 22.0005504, 38.459738 ], [ 22.0007328, 38.4596246 ], [ 22.0010278, 38.4594187 ], [ 22.0011512, 38.4593305 ], [ 22.0010815, 38.4592507 ], [ 22.0008776, 38.4591877 ], [ 22.0008132, 38.4591163 ], [ 22.0008293, 38.4590281 ], [ 22.0010332, 38.4589525 ], [ 22.0012639, 38.458839 ], [ 22.0015964, 38.4587256 ], [ 22.0018861, 38.4587004 ], [ 22.0021919, 38.4587424 ], [ 22.0024333, 38.45886 ], [ 22.0027873, 38.4588979 ], [ 22.0030073, 38.4589735 ], [ 22.0032433, 38.4588979 ], [ 22.0033774, 38.4588474 ], [ 22.0035384, 38.458881 ], [ 22.0036801, 38.4589929 ], [ 22.0038924, 38.4591079 ], [ 22.0040373, 38.4592885 ], [ 22.0042196, 38.4591919 ], [ 22.0044396, 38.4591751 ], [ 22.0046864, 38.4592213 ], [ 22.0046327, 38.4588979 ], [ 22.0046166, 38.4586626 ], [ 22.0046649, 38.4584988 ], [ 22.0048848, 38.4583812 ], [ 22.0051745, 38.4582762 ], [ 22.0056466, 38.4582173 ], [ 22.00555, 38.4580115 ], [ 22.0054159, 38.4579863 ], [ 22.0050511, 38.4577973 ], [ 22.0047668, 38.4577385 ], [ 22.0040802, 38.4575578 ], [ 22.0036242, 38.4573772 ], [ 22.0033292, 38.4572176 ], [ 22.0030234, 38.4569109 ], [ 22.0028195, 38.4568353 ], [ 22.0026157, 38.4568521 ], [ 22.0021383, 38.4569193 ], [ 22.00187, 38.4568899 ], [ 22.001634, 38.4567639 ], [ 22.0013551, 38.4566757 ], [ 22.0008293, 38.4566799 ], [ 22.0003465, 38.4568731 ], [ 22.00003, 38.4570411 ], [ 21.9999067, 38.4571966 ], [ 21.9997404, 38.4573058 ], [ 21.9994936, 38.4573352 ], [ 21.9992254, 38.4572974 ], [ 21.9990323, 38.4572386 ], [ 21.9987962, 38.4570874 ], [ 21.9985656, 38.4569907 ], [ 21.9984583, 38.4569907 ], [ 21.9982061, 38.4570748 ], [ 21.9980077, 38.4571252 ], [ 21.9978038, 38.457121 ], [ 21.9976375, 38.4570664 ], [ 21.9974015, 38.4569655 ], [ 21.9972352, 38.4569277 ], [ 21.9969509, 38.4569319 ], [ 21.9967202, 38.4569991 ], [ 21.9966558, 38.4571336 ], [ 21.9966022, 38.4573436 ], [ 21.9965003, 38.4575116 ], [ 21.9964305, 38.4575788 ], [ 21.996291, 38.4576503 ], [ 21.9960979, 38.4577259 ], [ 21.9959263, 38.4578351 ], [ 21.9958458, 38.4579275 ], [ 21.9958404, 38.4580703 ], [ 21.995819, 38.4582762 ], [ 21.9957975, 38.4584232 ], [ 21.9957278, 38.4585492 ], [ 21.9956312, 38.4585786 ], [ 21.9955239, 38.4585702 ], [ 21.9954327, 38.4584988 ], [ 21.9952074, 38.4583938 ], [ 21.994848, 38.4583014 ], [ 21.9938327, 38.4581187 ], [ 21.9932211, 38.4579213 ], [ 21.9925238, 38.457749 ], [ 21.9918157, 38.4576356 ], [ 21.9913114, 38.4575306 ], [ 21.9909252, 38.4574718 ], [ 21.9906194, 38.4574844 ], [ 21.9895358, 38.457497 ], [ 21.988715, 38.4575054 ], [ 21.9883556, 38.4575432 ], [ 21.9879694, 38.4575348 ], [ 21.98761, 38.4574802 ], [ 21.9871808, 38.4574466 ], [ 21.9870789, 38.4574466 ], [ 21.986934, 38.4574928 ], [ 21.986729421983558, 38.457613962601513 ], [ 21.986729421983558, 38.459856733787426 ], [ 21.987432, 38.459882 ] ] ] } },
{ "type": "Feature", "properties": { "element": "way", "id": 1307327641, "leaf_type": null, "natural": "scrub", "source": null, "landuse": null, "amenity": null, "building": null, "religion": null, "intermittent": null, "waterway": null, "layer": null, "tunnel": null, "label": "natural:scrub" }, "geometry": { "type": "Polygon", "coordinates": [ [ [ 22.005834, 38.469389 ], [ 22.006704, 38.469267 ], [ 22.0059416, 38.4688303 ], [ 22.004012, 38.4694289 ], [ 22.003603640990079, 38.469559416164593 ], [ 22.005132706254606, 38.469559416164593 ], [ 22.005834, 38.469389 ] ] ] } }
]
}
