{
"type": "FeatureCollection",
"name": "patch_32721_linestring",
"crs": { "type": "name", "properties": { "name": "urn:ogc:def:crs:OGC:1.3:CRS84" } },
"features": [
{ "type": "Feature", "properties": { "element": "way", "id": 552156674, "leaf_type": null, "natural": null, "source": null, "landuse": null, "amenity": null, "building": null, "religion": null, "intermittent": "yes", "waterway": "stream", "layer": null, "tunnel": null, "label": "waterway:stream" }, "geometry": { "type": "LineString", "coordinates": [ [ 22.016385454395717, 38.463222467051146 ], [ 22.0159202, 38.4630832 ], [ 22.0156654, 38.4628504 ], [ 22.0153398, 38.4625179 ], [ 22.0153257, 38.4622407 ], [ 22.0154531, 38.462019 ], [ 22.0151416, 38.4616643 ], [ 22.0146178, 38.4613539 ], [ 22.0137967, 38.4609881 ], [ 22.0132021, 38.4608773 ], [ 22.0127916, 38.4606666 ], [ 22.0125651, 38.4605225 ], [ 22.0123244, 38.4604893 ], [ 22.0117865, 38.4605004 ], [ 22.0114325, 38.460323 ], [ 22.0110362, 38.4603784 ], [ 22.0107389, 38.460323 ], [ 22.0103425, 38.4598574 ], [ 22.0100735, 38.459547 ], [ 22.0098753, 38.4594251 ], [ 22.0097054, 38.4591923 ], [ 22.009578, 38.4591036 ], [ 22.0093657, 38.459159 ], [ 22.0091816, 38.4589817 ], [ 22.008856, 38.4586269 ], [ 22.0085304, 38.4583941 ], [ 22.0082048, 38.458372 ], [ 22.0079217, 38.4582944 ], [ 22.007681, 38.458117 ], [ 22.0073129, 38.4580283 ], [ 22.0071147, 38.4581724 ], [ 22.0068741, 38.4582722 ], [ 22.0066334, 38.4581502 ], [ 22.0065201, 38.4580061 ], [ 22.0063503, 38.4580061 ], [ 22.006237, 38.4580394 ], [ 22.0061096, 38.4582057 ], [ 22.00606, 38.4582944 ], [ 22.0059256, 38.4582777 ], [ 22.0057769, 38.4581835 ], [ 22.0056495, 38.4580172 ], [ 22.0055575, 38.457923 ], [ 22.005423, 38.4579175 ], [ 22.0052673, 38.4579452 ], [ 22.0051469, 38.4578343 ], [ 22.0050195, 38.4577179 ], [ 22.0048992, 38.4576736 ], [ 22.0046373, 38.4576403 ], [ 22.0041418, 38.4574796 ], [ 22.0037383, 38.4573077 ], [ 22.0035047, 38.4572357 ], [ 22.0033773, 38.4571525 ], [ 22.0032782, 38.4570306 ], [ 22.0032145, 38.4568144 ], [ 22.003073, 38.4567146 ], [ 22.0029456, 38.4567091 ], [ 22.0027049, 38.456759 ], [ 22.002443, 38.4567479 ], [ 22.0022023, 38.4567978 ], [ 22.00199, 38.4568144 ], [ 22.0017776, 38.4567313 ], [ 22.001636, 38.4566149 ], [ 22.0014379, 38.4564929 ], [ 22.0013104, 38.4564153 ], [ 22.0011335, 38.4563544 ], [ 22.0010273, 38.4563932 ], [ 22.0008574, 38.4564763 ], [ 22.0007371, 38.4565982 ], [ 22.0006097, 38.4566315 ], [ 22.0005177, 38.4566814 ], [ 22.0002699, 38.4568588 ], [ 22.0001284, 38.4568421 ], [ 21.9999514, 38.4568643 ], [ 21.999824, 38.4569585 ], [ 21.9997815, 38.4571193 ], [ 21.9996683, 38.4571969 ], [ 21.9994276, 38.4572523 ], [ 21.9991445, 38.4571636 ], [ 21.9989746, 38.4570417 ], [ 21.9988118, 38.456953 ], [ 21.9986631, 38.4568754 ], [ 21.998288, 38.4568532 ] ] } },
{ "type": "Feature", "properties": { "element": "way", "id": 552156675, "leaf_type": null, "natural": null, "source": null, "landuse": null, "amenity": null, "building": null, "religion": null, "intermittent": "yes", "waterway": "stream", "layer": "-1", "tunnel": "culvert", "label": "waterway:stream" }, "geometry": { "type": "LineString", "coordinates": [ [ 21.998288, 38.4568532 ], [ 21.9979978, 38.4568366 ] ] } }
]
}
