{
"type": "FeatureCollection",
"name": "patch_65633_features",
"crs": { "type": "name", "properties": { "name": "urn:ogc:def:crs:OGC:1.3:CRS84" } },
"features": [
{ "type": "Feature", "properties": { "@type": "way", "@id": 701193828, "area": null, "barrier": null, "boundary": null, "bridge": null, "embankment": null, "highway": null, "int_name": null, "landuse": "meadow", "lanes": null, "layer": null, "leisure": null, "lit": null, "man_made": null, "name": null, "name:el": null, "name:en": null, "name:mk": null, "name:sq": null, "natural": null, "oneway": null, "operator": null, "operator:1995-2025": null, "protect_class": null, "protection_title": null, "ref": null, "smoothness": null, "source": "Bing (2019-07-02)", "source:ref": null, "start_date": null, "surface": null, "toll": null, "wikidata": null, "wikipedia": null, "label": "landuse:meadow" }, "geometry": { "type": "MultiPolygon", "coordinates": [ [ [ [ 21.1118942, 40.5520424 ], [ 21.1120297, 40.5519217 ], [ 21.1122305, 40.5517869 ], [ 21.1123612, 40.5516556 ], [ 21.1121247, 40.5515956 ], [ 21.1119768, 40.551605 ], [ 21.1117797, 40.5516378 ], [ 21.111666181345001, 40.551685084588897 ], [ 21.111666181345001, 40.552144163594157 ], [ 21.1118942, 40.5520424 ] ] ], [ [ [ 21.1118335, 40.5531104 ], [ 21.112039, 40.5531636 ], [ 21.112067, 40.5532452 ], [ 21.1122024, 40.5533552 ], [ 21.1123939, 40.5533943 ], [ 21.1125994, 40.5533623 ], [ 21.1126694, 40.5532204 ], [ 21.1126694, 40.5530607 ], [ 21.1127143, 40.5528857 ], [ 21.1127815, 40.5527485 ], [ 21.1128049, 40.5526136 ], [ 21.1126975, 40.5525498 ], [ 21.1127628, 40.5524646 ], [ 21.1129216, 40.5523653 ], [ 21.1128282, 40.5522553 ], [ 21.1127161, 40.5523724 ], [ 21.1126087, 40.5525569 ], [ 21.1124453, 40.5525711 ], [ 21.1122024, 40.5525888 ], [ 21.1119456, 40.5526172 ], [ 21.1117214, 40.5526456 ], [ 21.111666181345001, 40.552657182051711 ], [ 21.111666181345001, 40.553099650307828 ], [ 21.1118335, 40.5531104 ] ] ] ] } },
{ "type": "Feature", "properties": { "@type": "way", "@id": 138577571, "area": null, "barrier": null, "boundary": "protected_area", "bridge": null, "embankment": null, "highway": null, "int_name": null, "landuse": null, "lanes": null, "layer": null, "leisure": "nature_reserve", "lit": null, "man_made": null, "name": "Λίμνη-Βουνό Καστοριάς", "name:el": null, "name:en": "Limni - Vouno Kastorias", "name:mk": null, "name:sq": null, "natural": null, "oneway": null, "operator": null, "operator:1995-2025": null, "protect_class": "4", "protection_title": "Wildlife Refugee", "ref": null, "smoothness": null, "source": "http://geodata.gov.gr/", "source:ref": null, "start_date": null, "surface": null, "toll": null, "wikidata": null, "wikipedia": null, "label": "leisure:nature_reserve" }, "geometry": { "type": "Polygon", "coordinates": [ [ [ 21.1418316, 40.560933 ], [ 21.1418397, 40.5616403 ], [ 21.1418491, 40.5624377 ], [ 21.141949122064666, 40.562845968977051 ], [ 21.141949122064666, 40.560340399355447 ], [ 21.1418316, 40.560933 ] ] ] } },
{ "type": "Feature", "properties": { "@type": "way", "@id": 701193825, "area": null, "barrier": null, "boundary": null, "bridge": null, "embankment": null, "highway": null, "int_name": null, "landuse": "meadow", "lanes": null, "layer": null, "leisure": null, "lit": null, "man_made": null, "name": null, "name:el": null, "name:en": null, "name:mk": null, "name:sq": null, "natural": null, "oneway": null, "operator": null, "operator:1995-2025": null, "protect_class": null, "protection_title": null, "ref": null, "smoothness": null, "source": null, "source:ref": null, "start_date": null, "surface": null, "toll": null, "wikidata": null, "wikipedia": null, "label": "landuse:meadow" }, "geometry": { "type": "Polygon", "coordinates": [ [ [ 21.1117981, 40.5512164 ], [ 21.1119275, 40.5511087 ], [ 21.1120693, 40.5510899 ], [ 21.1122357, 40.5511789 ], [ 21.1124267, 40.5512351 ], [ 21.1126177, 40.5513475 ], [ 21.1125068, 40.5514411 ], [ 21.1124513, 40.5515207 ], [ 21.1124665, 40.5516037 ], [ 21.112534, 40.5515704 ], [ 21.1127442, 40.5515527 ], [ 21.1127442, 40.5514072 ], [ 21.1128796, 40.5513753 ], [ 21.1131682, 40.5512954 ], [ 21.113003, 40.5511794 ], [ 21.1127694, 40.5510718 ], [ 21.1124014, 40.5509104 ], [ 21.1120687, 40.550819 ], [ 21.1118351, 40.5508728 ], [ 21.111666181345001, 40.5508728 ], [ 21.111666181345001, 40.551279046301921 ], [ 21.1117981, 40.5512164 ] ] ] } },
{ "type": "Feature", "properties": { "@type": "way", "@id": 701193826, "area": null, "barrier": null, "boundary": null, "bridge": null, "embankment": null, "highway": null, "int_name": null, "landuse": "meadow", "lanes": null, "layer": null, "leisure": null, "lit": null, "man_made": null, "name": null, "name:el": null, "name:en": null, "name:mk": null, "name:sq": null, "natural": null, "oneway": null, "operator": null, "operator:1995-2025": null, "protect_class": null, "protection_title": null, "ref": null, "smoothness": null, "source": "Bing (2019-07-02)", "source:ref": null, "start_date": null, "surface": null, "toll": null, "wikidata": null, "wikipedia": null, "label": "landuse:meadow" }, "geometry": { "type": "Polygon", "coordinates": [ [ [ 21.1123377, 40.5507652 ], [ 21.112734, 40.5509427 ], [ 21.1132719, 40.5512014 ], [ 21.1134307, 40.5512866 ], [ 21.1136128, 40.5513433 ], [ 21.113921, 40.5512227 ], [ 21.113851, 40.5511375 ], [ 21.1136408, 40.5509246 ], [ 21.1137155, 40.5508962 ], [ 21.1138323, 40.5509672 ], [ 21.113907, 40.5510737 ], [ 21.1140144, 40.5511021 ], [ 21.1142012, 40.5510488 ], [ 21.11436, 40.5509459 ], [ 21.1144627, 40.5508111 ], [ 21.1146729, 40.550843 ], [ 21.1148317, 40.5508359 ], [ 21.1149287, 40.550771 ], [ 21.1149019, 40.5506283 ], [ 21.1148, 40.5505916 ], [ 21.1145532, 40.550665 ], [ 21.1143333, 40.5507546 ], [ 21.1140758, 40.5508117 ], [ 21.1139256, 40.5508117 ], [ 21.1139148, 40.5507424 ], [ 21.1140275, 40.5506324 ], [ 21.1140275, 40.5505223 ], [ 21.1139631, 40.5504041 ], [ 21.1138451, 40.5502696 ], [ 21.1137056, 40.5502166 ], [ 21.1135393, 40.5502492 ], [ 21.1132389, 40.5501953 ], [ 21.113003, 40.5502758 ], [ 21.113095, 40.5504049 ], [ 21.1132366, 40.5505286 ], [ 21.1130667, 40.5505931 ], [ 21.1128331, 40.5504855 ], [ 21.1125005, 40.5503995 ], [ 21.1122527, 40.5505232 ], [ 21.1119483, 40.5506523 ], [ 21.1123377, 40.5507652 ] ] ] } },
{ "type": "Feature", "properties": { "@type": "way", "@id": 701193827, "area": null, "barrier": null, "boundary": null, "bridge": null, "embankment": null, "highway": null, "int_name": null, "landuse": "meadow", "lanes": null, "layer": null, "leisure": null, "lit": null, "man_made": null, "name": null, "name:el": null, "name:en": null, "name:mk": null, "name:sq": null, "natural": null, "oneway": null, "operator": null, "operator:1995-2025": null, "protect_class": null, "protection_title": null, "ref": null, "smoothness": null, "source": "Bing (2019-07-02)", "source:ref": null, "start_date": null, "surface": null, "toll": null, "wikidata": null, "wikipedia": null, "label": "landuse:meadow" }, "geometry": { "type": "Polygon", "coordinates": [ [ [ 21.1165971, 40.549165 ], [ 21.1167633, 40.5492954 ], [ 21.1168063, 40.5493729 ], [ 21.1168384, 40.5495563 ], [ 21.1166936, 40.5494666 ], [ 21.1165005, 40.5492995 ], [ 21.1162645, 40.5491446 ], [ 21.116258328967593, 40.549137163826629 ], [ 21.115407107857411, 40.549137163826629 ], [ 21.115433, 40.5492302 ], [ 21.11561, 40.5493362 ], [ 21.1158675, 40.5493892 ], [ 21.1161679, 40.5495522 ], [ 21.1163986, 40.5496867 ], [ 21.1166346, 40.5497927 ], [ 21.1169296, 40.5499883 ], [ 21.1172461, 40.5501188 ], [ 21.1174554, 40.5501229 ], [ 21.1177021, 40.5500495 ], [ 21.1179435, 40.5499027 ], [ 21.1179142, 40.5497571 ], [ 21.1177109, 40.5496336 ], [ 21.1175239, 40.5494359 ], [ 21.1178085, 40.549337 ], [ 21.1179793, 40.5491826 ], [ 21.11793854107977, 40.549137163826629 ], [ 21.117220392280529, 40.549137163826629 ], [ 21.1172571, 40.5492162 ], [ 21.117151, 40.5491947 ], [ 21.117090406644195, 40.549137163826629 ], [ 21.116569620700645, 40.549137163826629 ], [ 21.1165971, 40.549165 ] ] ] } },
{ "type": "Feature", "properties": { "@type": "way", "@id": 701193830, "area": null, "barrier": null, "boundary": null, "bridge": null, "embankment": null, "highway": null, "int_name": null, "landuse": "meadow", "lanes": null, "layer": null, "leisure": null, "lit": null, "man_made": null, "name": null, "name:el": null, "name:en": null, "name:mk": null, "name:sq": null, "natural": null, "oneway": null, "operator": null, "operator:1995-2025": null, "protect_class": null, "protection_title": null, "ref": null, "smoothness": null, "source": "Bing (2019-07-02)", "source:ref": null, "start_date": null, "surface": null, "toll": null, "wikidata": null, "wikipedia": null, "label": "landuse:meadow" }, "geometry": { "type": "Polygon", "coordinates": [ [ [ 21.1158404, 40.5552358 ], [ 21.1159384, 40.5552535 ], [ 21.1159851, 40.5551542 ], [ 21.1160832, 40.555101 ], [ 21.1162233, 40.5551045 ], [ 21.116298, 40.5550016 ], [ 21.1162186, 40.5549377 ], [ 21.1162186, 40.5548632 ], [ 21.1163494, 40.554732 ], [ 21.1165175, 40.5546468 ], [ 21.1164568, 40.5545581 ], [ 21.1164335, 40.554441 ], [ 21.1162046, 40.5544765 ], [ 21.1160645, 40.5545581 ], [ 21.1159711, 40.5547107 ], [ 21.1158591, 40.554849 ], [ 21.1157983, 40.5549803 ], [ 21.115789, 40.5551435 ], [ 21.1158404, 40.5552358 ] ] ] } },
{ "type": "Feature", "properties": { "@type": "way", "@id": 701193831, "area": null, "barrier": null, "boundary": null, "bridge": null, "embankment": null, "highway": null, "int_name": null, "landuse": "meadow", "lanes": null, "layer": null, "leisure": null, "lit": null, "man_made": null, "name": null, "name:el": null, "name:en": null, "name:mk": null, "name:sq": null, "natural": null, "oneway": null, "operator": null, "operator:1995-2025": null, "protect_class": null, "protection_title": null, "ref": null, "smoothness": null, "source": "Bing (2019-07-02)", "source:ref": null, "start_date": null, "surface": null, "toll": null, "wikidata": null, "wikipedia": null, "label": "landuse:meadow" }, "geometry": { "type": "Polygon", "coordinates": [ [ [ 21.1135522, 40.5557469 ], [ 21.1136595, 40.5557538 ], [ 21.1138229, 40.5556829 ], [ 21.1140471, 40.5555977 ], [ 21.1142339, 40.5555409 ], [ 21.1144067, 40.5554416 ], [ 21.1145234, 40.5553139 ], [ 21.1146262, 40.5552181 ], [ 21.1147383, 40.5551897 ], [ 21.114883, 40.55525 ], [ 21.1150558, 40.5552926 ], [ 21.1151761, 40.5553462 ], [ 21.1152613, 40.5552819 ], [ 21.1154154, 40.5552003 ], [ 21.1155602, 40.5550052 ], [ 21.1156816, 40.5547355 ], [ 21.1158264, 40.5545191 ], [ 21.1159711, 40.5543807 ], [ 21.1159665, 40.5542033 ], [ 21.1159881, 40.554154 ], [ 21.1160291, 40.5540605 ], [ 21.1160599, 40.5539904 ], [ 21.1162327, 40.5538059 ], [ 21.1164475, 40.553593 ], [ 21.1165409, 40.5533765 ], [ 21.116737, 40.5531423 ], [ 21.1167837, 40.5529685 ], [ 21.1168444, 40.5527485 ], [ 21.1168818, 40.5525107 ], [ 21.1169705, 40.5524185 ], [ 21.1171059, 40.5523085 ], [ 21.1171293, 40.5521949 ], [ 21.117134, 40.5520566 ], [ 21.1172414, 40.5519004 ], [ 21.1172414, 40.551755 ], [ 21.1171407, 40.551708 ], [ 21.1171407, 40.5518438 ], [ 21.1170606, 40.5520264 ], [ 21.1167712, 40.552006 ], [ 21.1166231, 40.552106 ], [ 21.1166291, 40.5523093 ], [ 21.1165799, 40.5525648 ], [ 21.1164813, 40.5527989 ], [ 21.1163211, 40.5529534 ], [ 21.1160469, 40.553019 ], [ 21.1159791, 40.5531828 ], [ 21.1162657, 40.5531009 ], [ 21.1163334, 40.5531454 ], [ 21.1162533, 40.5534122 ], [ 21.1160931, 40.5536136 ], [ 21.1159329, 40.5537634 ], [ 21.1156988, 40.5539507 ], [ 21.1155447, 40.5541192 ], [ 21.1153537, 40.5542737 ], [ 21.1151442, 40.5544001 ], [ 21.1148792, 40.5545874 ], [ 21.1151164, 40.5547747 ], [ 21.1151565, 40.5548051 ], [ 21.1149809, 40.5549175 ], [ 21.1149377, 40.554887 ], [ 21.1146758, 40.5549292 ], [ 21.1144971, 40.5549245 ], [ 21.1143369, 40.554976 ], [ 21.1142198, 40.5551492 ], [ 21.114035, 40.555285 ], [ 21.1137823, 40.555374 ], [ 21.1136714, 40.5555893 ], [ 21.113505, 40.5557438 ], [ 21.1135522, 40.5557469 ] ] ] } },
{ "type": "Feature", "properties": { "@type": "way", "@id": 701193832, "area": null, "barrier": null, "boundary": null, "bridge": null, "embankment": null, "highway": null, "int_name": null, "landuse": "meadow", "lanes": null, "layer": null, "leisure": null, "lit": null, "man_made": null, "name": null, "name:el": null, "name:en": null, "name:mk": null, "name:sq": null, "natural": null, "oneway": null, "operator": null, "operator:1995-2025": null, "protect_class": null, "protection_title": null, "ref": null, "smoothness": null, "source": "Bing (2019-07-02)", "source:ref": null, "start_date": null, "surface": null, "toll": null, "wikidata": null, "wikipedia": null, "label": "landuse:meadow" }, "geometry": { "type": "Polygon", "coordinates": [ [ [ 21.1165553, 40.5514926 ], [ 21.1168634, 40.5514598 ], [ 21.1171284, 40.5514364 ], [ 21.1172947, 40.5514973 ], [ 21.1172763, 40.5516518 ], [ 21.1173628, 40.5517337 ], [ 21.1174375, 40.5518082 ], [ 21.1175262, 40.5519679 ], [ 21.1175216, 40.5521417 ], [ 21.1174609, 40.5522553 ], [ 21.1173815, 40.5524043 ], [ 21.117218, 40.5525746 ], [ 21.1173068, 40.5526633 ], [ 21.1173348, 40.5527733 ], [ 21.1173021, 40.5529436 ], [ 21.1173581, 40.5530501 ], [ 21.1175262, 40.5530678 ], [ 21.1176804, 40.553153 ], [ 21.1178485, 40.5531743 ], [ 21.1179092, 40.5530678 ], [ 21.118082, 40.5529365 ], [ 21.1181987, 40.5528088 ], [ 21.1183482, 40.5527307 ], [ 21.1184276, 40.5525427 ], [ 21.1184649, 40.5523582 ], [ 21.1184649, 40.5522091 ], [ 21.1184135, 40.5521453 ], [ 21.1182968, 40.552053 ], [ 21.1182233, 40.552099 ], [ 21.1181667, 40.5520802 ], [ 21.1181556, 40.552061 ], [ 21.1181172, 40.5519942 ], [ 21.1181956, 40.551937 ], [ 21.1182547, 40.551847 ], [ 21.1183834, 40.5517451 ], [ 21.1186784, 40.5515169 ], [ 21.1187804, 40.5513783 ], [ 21.1186463, 40.5511989 ], [ 21.1185765, 40.5509992 ], [ 21.1183834, 40.5509055 ], [ 21.1181045, 40.5509055 ], [ 21.1179703, 40.5509788 ], [ 21.1178523, 40.551203 ], [ 21.1177182, 40.5513579 ], [ 21.1176646, 40.5515332 ], [ 21.1175197, 40.5515821 ], [ 21.1174607, 40.5514883 ], [ 21.1172676, 40.5513538 ], [ 21.1170262, 40.551309 ], [ 21.1165553, 40.5514037 ], [ 21.1165553, 40.5514926 ] ] ] } },
{ "type": "Feature", "properties": { "@type": "way", "@id": 701193833, "area": null, "barrier": null, "boundary": null, "bridge": null, "embankment": null, "highway": null, "int_name": null, "landuse": "farmland", "lanes": null, "layer": null, "leisure": null, "lit": null, "man_made": null, "name": null, "name:el": null, "name:en": null, "name:mk": null, "name:sq": null, "natural": null, "oneway": null, "operator": null, "operator:1995-2025": null, "protect_class": null, "protection_title": null, "ref": null, "smoothness": null, "source": "Bing (2019-07-02)", "source:ref": null, "start_date": null, "surface": null, "toll": null, "wikidata": null, "wikipedia": null, "label": "landuse:farmland" }, "geometry": { "type": "Polygon", "coordinates": [ [ [ 21.1254606, 40.5575172 ], [ 21.1257127, 40.5575066 ], [ 21.126007, 40.5575385 ], [ 21.1262731, 40.5576379 ], [ 21.1264273, 40.5577549 ], [ 21.126572, 40.5579394 ], [ 21.1266234, 40.5581381 ], [ 21.1265207, 40.5583758 ], [ 21.1264086, 40.558681 ], [ 21.1264459, 40.55894 ], [ 21.1265533, 40.5590961 ], [ 21.1267495, 40.5593196 ], [ 21.1268849, 40.5594296 ], [ 21.1270717, 40.5594864 ], [ 21.1272492, 40.5595609 ], [ 21.1272725, 40.5594331 ], [ 21.1272585, 40.5591777 ], [ 21.1271651, 40.558901 ], [ 21.127067, 40.5587094 ], [ 21.1270484, 40.5584858 ], [ 21.1270764, 40.5582268 ], [ 21.1270764, 40.5580814 ], [ 21.127011, 40.5579217 ], [ 21.126955, 40.5576698 ], [ 21.1268476, 40.5574924 ], [ 21.1267308, 40.5572937 ], [ 21.1266701, 40.5570418 ], [ 21.1266374, 40.5568218 ], [ 21.126586, 40.556726 ], [ 21.1264413, 40.5566267 ], [ 21.1263665, 40.5567473 ], [ 21.1263479, 40.556875 ], [ 21.1262498, 40.5570028 ], [ 21.126119, 40.5571092 ], [ 21.1260163, 40.5572121 ], [ 21.1259276, 40.5571873 ], [ 21.1259883, 40.5570595 ], [ 21.1258995, 40.5570311 ], [ 21.1257828, 40.5569779 ], [ 21.1256894, 40.5570631 ], [ 21.125582, 40.5571731 ], [ 21.125554, 40.5572902 ], [ 21.1254606, 40.5574143 ], [ 21.1254606, 40.5575172 ] ] ] } },
{ "type": "Feature", "properties": { "@type": "way", "@id": 701193834, "area": null, "barrier": null, "boundary": null, "bridge": null, "embankment": null, "highway": null, "int_name": null, "landuse": "farmland", "lanes": null, "layer": null, "leisure": null, "lit": null, "man_made": null, "name": null, "name:el": null, "name:en": null, "name:mk": null, "name:sq": null, "natural": null, "oneway": null, "operator": null, "operator:1995-2025": null, "protect_class": null, "protection_title": null, "ref": null, "smoothness": null, "source": "Bing (2019-07-02)", "source:ref": null, "start_date": null, "surface": null, "toll": null, "wikidata": null, "wikipedia": null, "label": "landuse:farmland" }, "geometry": { "type": "Polygon", "coordinates": [ [ [ 21.1259598, 40.554854 ], [ 21.1260411, 40.55503 ], [ 21.1261021, 40.5551412 ], [ 21.1261346, 40.5552524 ], [ 21.1261224, 40.5553822 ], [ 21.1260736, 40.555515 ], [ 21.1261021, 40.5556756 ], [ 21.126224, 40.5557899 ], [ 21.1263989, 40.555864 ], [ 21.1265533, 40.5559011 ], [ 21.1265533, 40.5557281 ], [ 21.1265737, 40.5555737 ], [ 21.1267241, 40.555586 ], [ 21.1269518, 40.5555675 ], [ 21.1269802, 40.5556324 ], [ 21.126964, 40.5557559 ], [ 21.126964, 40.5558393 ], [ 21.1270737, 40.5558579 ], [ 21.1271632, 40.5558579 ], [ 21.1271388, 40.5556972 ], [ 21.1271388, 40.5555768 ], [ 21.1272648, 40.5555768 ], [ 21.127277, 40.5556416 ], [ 21.1274396, 40.5556077 ], [ 21.1275534, 40.5555644 ], [ 21.1276795, 40.5554347 ], [ 21.1277161, 40.5553482 ], [ 21.1277201, 40.5552555 ], [ 21.1275047, 40.5552679 ], [ 21.1273055, 40.5552648 ], [ 21.1271103, 40.5552772 ], [ 21.1268867, 40.5552679 ], [ 21.1268542, 40.5551289 ], [ 21.1268176, 40.5549683 ], [ 21.1267973, 40.5547829 ], [ 21.12672, 40.5546439 ], [ 21.1266834, 40.5544401 ], [ 21.126659, 40.5542238 ], [ 21.1266184, 40.5540107 ], [ 21.1264639, 40.5538192 ], [ 21.1263826, 40.5539644 ], [ 21.1262444, 40.5539922 ], [ 21.1261387, 40.554091 ], [ 21.1261387, 40.5542362 ], [ 21.1260533, 40.5543412 ], [ 21.1259191, 40.5544586 ], [ 21.125911, 40.5546563 ], [ 21.1259598, 40.554854 ] ] ] } },
{ "type": "Feature", "properties": { "@type": "way", "@id": 701193835, "area": null, "barrier": null, "boundary": null, "bridge": null, "embankment": null, "highway": null, "int_name": null, "landuse": "meadow", "lanes": null, "layer": null, "leisure": null, "lit": null, "man_made": null, "name": null, "name:el": null, "name:en": null, "name:mk": null, "name:sq": null, "natural": null, "oneway": null, "operator": null, "operator:1995-2025": null, "protect_class": null, "protection_title": null, "ref": null, "smoothness": null, "source": null, "source:ref": null, "start_date": null, "surface": null, "toll": null, "wikidata": null, "wikipedia": null, "label": "landuse:meadow" }, "geometry": { "type": "Polygon", "coordinates": [ [ [ 21.1176174, 40.5581003 ], [ 21.1176825, 40.5582115 ], [ 21.1177719, 40.558369 ], [ 21.1178817, 40.5584802 ], [ 21.1180443, 40.558542 ], [ 21.1180443, 40.5584617 ], [ 21.1182273, 40.5584432 ], [ 21.1183655, 40.5583937 ], [ 21.1184265, 40.5583042 ], [ 21.1184387, 40.5581775 ], [ 21.1182679, 40.5581899 ], [ 21.1181053, 40.5581158 ], [ 21.1180321, 40.5579891 ], [ 21.1179996, 40.5578131 ], [ 21.1178451, 40.5578995 ], [ 21.1176784, 40.5579366 ], [ 21.1174995, 40.5579397 ], [ 21.1174711, 40.5580107 ], [ 21.1176174, 40.5581003 ] ] ] } },
{ "type": "Feature", "properties": { "@type": "way", "@id": 701193836, "area": null, "barrier": null, "boundary": null, "bridge": null, "embankment": null, "highway": null, "int_name": null, "landuse": "meadow", "lanes": null, "layer": null, "leisure": null, "lit": null, "man_made": null, "name": null, "name:el": null, "name:en": null, "name:mk": null, "name:sq": null, "natural": null, "oneway": null, "operator": null, "operator:1995-2025": null, "protect_class": null, "protection_title": null, "ref": null, "smoothness": null, "source": null, "source:ref": null, "start_date": null, "surface": null, "toll": null, "wikidata": null, "wikipedia": null, "label": "landuse:meadow" }, "geometry": { "type": "Polygon", "coordinates": [ [ [ 21.1173938, 40.5577791 ], [ 21.1174873, 40.5577945 ], [ 21.1176744, 40.5577297 ], [ 21.1177597, 40.5576246 ], [ 21.1177597, 40.5575412 ], [ 21.1178776, 40.5574733 ], [ 21.117898, 40.5573497 ], [ 21.1178939, 40.5572478 ], [ 21.1178045, 40.5572633 ], [ 21.1176744, 40.5573219 ], [ 21.1175361, 40.557325 ], [ 21.1174508, 40.5574609 ], [ 21.1174304, 40.5575721 ], [ 21.1173573, 40.5576432 ], [ 21.1173207, 40.5577266 ], [ 21.1173938, 40.5577791 ] ] ] } },
{ "type": "Feature", "properties": { "@type": "way", "@id": 701193837, "area": null, "barrier": null, "boundary": null, "bridge": null, "embankment": null, "highway": null, "int_name": null, "landuse": "meadow", "lanes": null, "layer": null, "leisure": null, "lit": null, "man_made": null, "name": null, "name:el": null, "name:en": null, "name:mk": null, "name:sq": null, "natural": null, "oneway": null, "operator": null, "operator:1995-2025": null, "protect_class": null, "protection_title": null, "ref": null, "smoothness": null, "source": null, "source:ref": null, "start_date": null, "surface": null, "toll": null, "wikidata": null, "wikipedia": null, "label": "landuse:meadow" }, "geometry": { "type": "Polygon", "coordinates": [ [ [ 21.1214572, 40.5535141 ], [ 21.121543, 40.5536323 ], [ 21.1216664, 40.5537749 ], [ 21.1218703, 40.5538891 ], [ 21.1220419, 40.5539787 ], [ 21.1222511, 40.5540847 ], [ 21.1224925, 40.5540073 ], [ 21.1227018, 40.5538728 ], [ 21.1227018, 40.5537505 ], [ 21.1227822, 40.5536893 ], [ 21.1229485, 40.5536812 ], [ 21.1231416, 40.5535548 ], [ 21.1232865, 40.5535018 ], [ 21.1235118, 40.553404 ], [ 21.1234903, 40.5532817 ], [ 21.1233884, 40.5532165 ], [ 21.1232597, 40.5533266 ], [ 21.1230719, 40.5533144 ], [ 21.1231041, 40.5532125 ], [ 21.1232489, 40.5531513 ], [ 21.1231524, 40.5529964 ], [ 21.1231738, 40.5528497 ], [ 21.1231309, 40.55276 ], [ 21.1229914, 40.55276 ], [ 21.1229324, 40.5528986 ], [ 21.1229324, 40.5530168 ], [ 21.123029, 40.5531187 ], [ 21.1229593, 40.553294 ], [ 21.1228251, 40.5534244 ], [ 21.1225891, 40.5534692 ], [ 21.1224496, 40.5534489 ], [ 21.1223477, 40.5534937 ], [ 21.122337, 40.5536119 ], [ 21.122219, 40.5537056 ], [ 21.1220527, 40.553563 ], [ 21.1218595, 40.5534652 ], [ 21.1217147, 40.5533021 ], [ 21.1216074, 40.5531717 ], [ 21.1215055, 40.5532206 ], [ 21.1213875, 40.5533266 ], [ 21.1213553, 40.5534611 ], [ 21.1214572, 40.5535141 ] ] ] } },
{ "type": "Feature", "properties": { "@type": "way", "@id": 701193838, "area": null, "barrier": null, "boundary": null, "bridge": null, "embankment": null, "highway": null, "int_name": null, "landuse": "meadow", "lanes": null, "layer": null, "leisure": null, "lit": null, "man_made": null, "name": null, "name:el": null, "name:en": null, "name:mk": null, "name:sq": null, "natural": null, "oneway": null, "operator": null, "operator:1995-2025": null, "protect_class": null, "protection_title": null, "ref": null, "smoothness": null, "source": null, "source:ref": null, "start_date": null, "surface": null, "toll": null, "wikidata": null, "wikipedia": null, "label": "landuse:meadow" }, "geometry": { "type": "Polygon", "coordinates": [ [ [ 21.1202878, 40.5536037 ], [ 21.1203146, 40.5538116 ], [ 21.1204487, 40.5539746 ], [ 21.1206418, 40.5540928 ], [ 21.1208457, 40.5541744 ], [ 21.1210871, 40.5541907 ], [ 21.1212695, 40.5541377 ], [ 21.1212802, 40.5542518 ], [ 21.1211729, 40.5543455 ], [ 21.1209798, 40.554423 ], [ 21.1210066, 40.5545819 ], [ 21.1211193, 40.5545819 ], [ 21.1211622, 40.5547001 ], [ 21.1212265, 40.5548224 ], [ 21.1213821, 40.5546798 ], [ 21.1215216, 40.5546146 ], [ 21.1216772, 40.5544556 ], [ 21.1218542, 40.5543252 ], [ 21.1217469, 40.5541784 ], [ 21.1216557, 40.5540888 ], [ 21.1215591, 40.554154 ], [ 21.1214733, 40.5540888 ], [ 21.1214733, 40.5539543 ], [ 21.1214036, 40.5538075 ], [ 21.1212695, 40.5536812 ], [ 21.1211997, 40.5535915 ], [ 21.1212158, 40.5534407 ], [ 21.1211622, 40.5533225 ], [ 21.1209476, 40.5533551 ], [ 21.1207759, 40.5533673 ], [ 21.1206365, 40.553241 ], [ 21.1204916, 40.5531432 ], [ 21.1203468, 40.5532369 ], [ 21.1202663, 40.5533796 ], [ 21.1202878, 40.5536037 ] ] ] } },
{ "type": "Feature", "properties": { "@type": "way", "@id": 701193839, "area": null, "barrier": null, "boundary": null, "bridge": null, "embankment": null, "highway": null, "int_name": null, "landuse": "meadow", "lanes": null, "layer": null, "leisure": null, "lit": null, "man_made": null, "name": null, "name:el": null, "name:en": null, "name:mk": null, "name:sq": null, "natural": null, "oneway": null, "operator": null, "operator:1995-2025": null, "protect_class": null, "protection_title": null, "ref": null, "smoothness": null, "source": null, "source:ref": null, "start_date": null, "surface": null, "toll": null, "wikidata": null, "wikipedia": null, "label": "landuse:meadow" }, "geometry": { "type": "Polygon", "coordinates": [ [ [ 21.1210227, 40.5528252 ], [ 21.1210763, 40.5530046 ], [ 21.1212265, 40.553082 ], [ 21.1214518, 40.5531187 ], [ 21.1216664, 40.5530005 ], [ 21.1218917, 40.5529434 ], [ 21.1220151, 40.5528538 ], [ 21.1221975, 40.5526989 ], [ 21.1223477, 40.5526378 ], [ 21.122514, 40.5525807 ], [ 21.1225784, 40.5524869 ], [ 21.1226535, 40.5524217 ], [ 21.1225194, 40.552385 ], [ 21.1223799, 40.5523891 ], [ 21.1221921, 40.5523891 ], [ 21.122058, 40.5523361 ], [ 21.1220312, 40.5522342 ], [ 21.1219132, 40.5521568 ], [ 21.1217791, 40.5521242 ], [ 21.121645, 40.5522057 ], [ 21.1214733, 40.5523565 ], [ 21.1212695, 40.5524706 ], [ 21.1210442, 40.5525685 ], [ 21.1209637, 40.5526785 ], [ 21.1210227, 40.5528252 ] ] ] } },
{ "type": "Feature", "properties": { "@type": "relation", "@id": 9746166, "area": null, "barrier": null, "boundary": null, "bridge": null, "embankment": null, "highway": null, "int_name": null, "landuse": null, "lanes": null, "layer": null, "leisure": null, "lit": null, "man_made": null, "name": null, "name:el": null, "name:en": null, "name:mk": null, "name:sq": null, "natural": "wood", "oneway": null, "operator": null, "operator:1995-2025": null, "protect_class": null, "protection_title": null, "ref": null, "smoothness": null, "source": "Bing (2019-07-02)", "source:ref": null, "start_date": null, "surface": null, "toll": null, "wikidata": null, "wikipedia": null, "label": "natural:wood" }, "geometry": { "type": "Polygon", "coordinates": [ [ [ 21.1116841, 40.5642759 ], [ 21.1117635, 40.5644214 ], [ 21.1119736, 40.5644604 ], [ 21.1121604, 40.5645313 ], [ 21.1123752, 40.5645136 ], [ 21.1124826, 40.5644178 ], [ 21.1126087, 40.5643575 ], [ 21.1126087, 40.5642121 ], [ 21.112562, 40.5640737 ], [ 21.1124967, 40.5640205 ], [ 21.1122818, 40.5640347 ], [ 21.1120997, 40.5640276 ], [ 21.1121184, 40.5638963 ], [ 21.1122725, 40.563797 ], [ 21.1124686, 40.5636657 ], [ 21.1127068, 40.563577 ], [ 21.1128189, 40.5633854 ], [ 21.1128936, 40.5632364 ], [ 21.1130711, 40.5630555 ], [ 21.1132252, 40.5630378 ], [ 21.1133886, 40.5631052 ], [ 21.113496, 40.5630449 ], [ 21.1135801, 40.56291 ], [ 21.113482, 40.5628355 ], [ 21.1135194, 40.5626936 ], [ 21.1136788, 40.5626149 ], [ 21.113829, 40.5624641 ], [ 21.1139631, 40.5623174 ], [ 21.1141187, 40.562244 ], [ 21.1143655, 40.5621829 ], [ 21.1145103, 40.5620443 ], [ 21.1145103, 40.5618895 ], [ 21.1143279, 40.5616735 ], [ 21.1142206, 40.5615105 ], [ 21.114285, 40.5613352 ], [ 21.1144942, 40.5611029 ], [ 21.1146015, 40.5609766 ], [ 21.1146229, 40.5608054 ], [ 21.1147088, 40.5607361 ], [ 21.1149287, 40.5607402 ], [ 21.1151755, 40.5607484 ], [ 21.1152506, 40.5606709 ], [ 21.1149287, 40.5606424 ], [ 21.114859, 40.5604794 ], [ 21.1148375, 40.5603001 ], [ 21.1150628, 40.5601167 ], [ 21.1153096, 40.5599577 ], [ 21.1155456, 40.5598721 ], [ 21.1156797, 40.5598884 ], [ 21.115787, 40.5601044 ], [ 21.1158192, 40.5603367 ], [ 21.1158782, 40.5605242 ], [ 21.1159801, 40.5606669 ], [ 21.1159855, 40.5609236 ], [ 21.1160767, 40.561217 ], [ 21.1161625, 40.5613556 ], [ 21.116184, 40.5614901 ], [ 21.1162806, 40.5615675 ], [ 21.1165059, 40.5615145 ], [ 21.1164522, 40.5613597 ], [ 21.1164844, 40.5612415 ], [ 21.116699, 40.5612537 ], [ 21.1169779, 40.5612252 ], [ 21.117273, 40.5612578 ], [ 21.1175358, 40.5612374 ], [ 21.1177289, 40.5611152 ], [ 21.1179435, 40.5609358 ], [ 21.1181205, 40.5606587 ], [ 21.1183137, 40.5604672 ], [ 21.1184424, 40.5602552 ], [ 21.1185658, 40.5600718 ], [ 21.1184961, 40.5599007 ], [ 21.1183619, 40.5597499 ], [ 21.1183405, 40.5595624 ], [ 21.1185551, 40.5595176 ], [ 21.1185712, 40.5593994 ], [ 21.1184907, 40.559216 ], [ 21.1187106, 40.5591019 ], [ 21.1189842, 40.5588614 ], [ 21.1191398, 40.5586658 ], [ 21.1193758, 40.5585435 ], [ 21.1196494, 40.5585476 ], [ 21.1199123, 40.5585557 ], [ 21.1200571, 40.5584213 ], [ 21.1201107, 40.5582745 ], [ 21.1202502, 40.5581523 ], [ 21.1204433, 40.5581278 ], [ 21.1205238, 40.5582542 ], [ 21.1205989, 40.5583968 ], [ 21.1208296, 40.5584824 ], [ 21.1210602, 40.5583683 ], [ 21.1209369, 40.5582745 ], [ 21.1208671, 40.5581074 ], [ 21.1209744, 40.5579526 ], [ 21.12113, 40.5577569 ], [ 21.121307, 40.5576836 ], [ 21.1214679, 40.5575368 ], [ 21.1217147, 40.5574472 ], [ 21.1221546, 40.5574431 ], [ 21.1224174, 40.5575165 ], [ 21.1225462, 40.5573494 ], [ 21.122573, 40.5571089 ], [ 21.1225891, 40.556901 ], [ 21.1227179, 40.5567176 ], [ 21.1229539, 40.5567217 ], [ 21.1230558, 40.5565465 ], [ 21.1229914, 40.5562734 ], [ 21.1228788, 40.5560574 ], [ 21.1226696, 40.5558984 ], [ 21.1225408, 40.5557395 ], [ 21.1228251, 40.5555235 ], [ 21.1230987, 40.5554216 ], [ 21.1232972, 40.5553034 ], [ 21.1235654, 40.5551811 ], [ 21.1238497, 40.5550547 ], [ 21.1241394, 40.555014 ], [ 21.1243272, 40.555071 ], [ 21.1245203, 40.5550058 ], [ 21.124692, 40.5548958 ], [ 21.124928, 40.5547817 ], [ 21.1251157, 40.5547491 ], [ 21.1252981, 40.554802 ], [ 21.1255234, 40.5547735 ], [ 21.1256683, 40.5548346 ], [ 21.1257917, 40.5549977 ], [ 21.1258882, 40.5552748 ], [ 21.1258882, 40.5555479 ], [ 21.125915, 40.5558047 ], [ 21.125915, 40.5561307 ], [ 21.1259633, 40.5563631 ], [ 21.1258829, 40.5565261 ], [ 21.1256844, 40.5566443 ], [ 21.1255556, 40.5568847 ], [ 21.1254483, 40.5570722 ], [ 21.125223, 40.5572801 ], [ 21.125164, 40.5574146 ], [ 21.1252069, 40.5575328 ], [ 21.1253411, 40.5576754 ], [ 21.1255449, 40.5578018 ], [ 21.1257487, 40.5577447 ], [ 21.1258507, 40.5576224 ], [ 21.125958, 40.5576836 ], [ 21.1260277, 40.5578099 ], [ 21.1262047, 40.5578873 ], [ 21.1263442, 40.5580789 ], [ 21.1263281, 40.5583194 ], [ 21.1262155, 40.5584539 ], [ 21.1260331, 40.5585313 ], [ 21.1259043, 40.5586454 ], [ 21.1258721, 40.5589022 ], [ 21.1258721, 40.5591263 ], [ 21.1257648, 40.5592649 ], [ 21.1254966, 40.5594157 ], [ 21.1252016, 40.5596521 ], [ 21.1257112, 40.5600433 ], [ 21.125958, 40.5598599 ], [ 21.1261511, 40.5598395 ], [ 21.1263764, 40.5597173 ], [ 21.1265856, 40.5596358 ], [ 21.1268216, 40.5596317 ], [ 21.1269665, 40.5597132 ], [ 21.1270684, 40.5597906 ], [ 21.1272615, 40.5598151 ], [ 21.1273555, 40.5599648 ], [ 21.127425, 40.560274 ], [ 21.127725, 40.56066 ], [ 21.127965, 40.561027 ], [ 21.128094, 40.561141 ], [ 21.129731, 40.561817 ], [ 21.131526, 40.561861 ], [ 21.133129, 40.561353 ], [ 21.133742, 40.561016 ], [ 21.133728, 40.560773 ], [ 21.133818, 40.560519 ], [ 21.134389, 40.560335 ], [ 21.135079, 40.560151 ], [ 21.135254, 40.55997 ], [ 21.135253, 40.560009 ], [ 21.136052, 40.559907 ], [ 21.136545, 40.559347 ], [ 21.136582, 40.55849 ], [ 21.135981, 40.557188 ], [ 21.134627, 40.555938 ], [ 21.132981, 40.554967 ], [ 21.1320022, 40.554264 ], [ 21.1320255, 40.5541466 ], [ 21.1319401, 40.5540323 ], [ 21.1318303, 40.5539582 ], [ 21.1317775, 40.5538346 ], [ 21.1316863, 40.5537962 ], [ 21.1316401, 40.5536019 ], [ 21.1315076, 40.5535387 ], [ 21.131295, 40.553534 ], [ 21.1310824, 40.5534989 ], [ 21.1309315, 40.5534708 ], [ 21.1308637, 40.5533584 ], [ 21.1308729, 40.5532671 ], [ 21.1308175, 40.5531688 ], [ 21.1309869, 40.5532062 ], [ 21.1311163, 40.5532671 ], [ 21.1312365, 40.5532765 ], [ 21.1313074, 40.553225 ], [ 21.1313936, 40.5530985 ], [ 21.1313382, 40.553047 ], [ 21.1313197, 40.5529206 ], [ 21.1312396, 40.5528387 ], [ 21.1311595, 40.5528855 ], [ 21.1310978, 40.5528457 ], [ 21.1310701, 40.5527193 ], [ 21.1309808, 40.5526631 ], [ 21.1309869, 40.5525554 ], [ 21.1310054, 40.5524899 ], [ 21.1310701, 40.5524946 ], [ 21.1310886, 40.5525929 ], [ 21.1311779, 40.5526327 ], [ 21.1313197, 40.5526069 ], [ 21.1313782, 40.5524946 ], [ 21.1314306, 40.5523752 ], [ 21.131446, 40.5522792 ], [ 21.1313875, 40.5522371 ], [ 21.1313443, 40.5522347 ], [ 21.1311749, 40.5523237 ], [ 21.1310639, 40.5522979 ], [ 21.1309407, 40.5523049 ], [ 21.130876, 40.5523962 ], [ 21.1307558, 40.552408 ], [ 21.1306018, 40.5523939 ], [ 21.1305494, 40.5523003 ], [ 21.1306326, 40.5522113 ], [ 21.1305833, 40.5521458 ], [ 21.1305032, 40.5521341 ], [ 21.130383, 40.5522136 ], [ 21.130383, 40.5521106 ], [ 21.1304816, 40.5520123 ], [ 21.1304447, 40.5519585 ], [ 21.1303307, 40.5519491 ], [ 21.1302475, 40.5518976 ], [ 21.130155, 40.5519749 ], [ 21.1300256, 40.5520357 ], [ 21.1300226, 40.5520943 ], [ 21.1300564, 40.5521621 ], [ 21.1299517, 40.5521481 ], [ 21.1298192, 40.5521785 ], [ 21.1297884, 40.5522464 ], [ 21.1296559, 40.5522464 ], [ 21.1294988, 40.5523026 ], [ 21.1294094, 40.5522277 ], [ 21.1293848, 40.5520872 ], [ 21.1293879, 40.5519327 ], [ 21.1293355, 40.5518648 ], [ 21.1292461, 40.5518157 ], [ 21.1292246, 40.5517478 ], [ 21.1292523, 40.5516541 ], [ 21.1292492, 40.5515254 ], [ 21.1292708, 40.5514013 ], [ 21.129357, 40.5513521 ], [ 21.129317, 40.5512772 ], [ 21.1292523, 40.5512468 ], [ 21.1292554, 40.5511649 ], [ 21.1292122, 40.551097 ], [ 21.1290366, 40.5510408 ], [ 21.1291537, 40.5510127 ], [ 21.1292677, 40.5509869 ], [ 21.1294033, 40.551008 ], [ 21.129471, 40.5510829 ], [ 21.1293817, 40.5511017 ], [ 21.129394, 40.5511532 ], [ 21.129431, 40.5512 ], [ 21.1294834, 40.5511649 ], [ 21.1295573, 40.5511555 ], [ 21.1295635, 40.5512398 ], [ 21.1296744, 40.5512983 ], [ 21.1296775, 40.5513826 ], [ 21.1295666, 40.5514458 ], [ 21.1295419, 40.551502 ], [ 21.1296189, 40.5515394 ], [ 21.1296497, 40.5515886 ], [ 21.1294834, 40.5516026 ], [ 21.1293386, 40.551598 ], [ 21.1293786, 40.5517173 ], [ 21.1294063, 40.5517946 ], [ 21.1294865, 40.5517782 ], [ 21.1295604, 40.5517056 ], [ 21.1296374, 40.5517173 ], [ 21.1296128, 40.5517829 ], [ 21.1295573, 40.5518531 ], [ 21.1296251, 40.5519257 ], [ 21.1297329, 40.5518976 ], [ 21.1297915, 40.5519117 ], [ 21.1298346, 40.5520147 ], [ 21.129924, 40.5519795 ], [ 21.130001, 40.5518999 ], [ 21.1300965, 40.5518367 ], [ 21.1302629, 40.5518297 ], [ 21.1302475, 40.5517712 ], [ 21.1301335, 40.5517033 ], [ 21.1300195, 40.5517478 ], [ 21.1299363, 40.5517454 ], [ 21.1299363, 40.5516752 ], [ 21.1300071, 40.5516097 ], [ 21.1301181, 40.551605 ], [ 21.1302351, 40.5515511 ], [ 21.1302629, 40.5514411 ], [ 21.1302382, 40.5513217 ], [ 21.1302043, 40.5511906 ], [ 21.1301181, 40.5511274 ], [ 21.1300441, 40.5510221 ], [ 21.1298623, 40.5510384 ], [ 21.1297268, 40.5509799 ], [ 21.1296374, 40.5509027 ], [ 21.1295019, 40.5508793 ], [ 21.129354, 40.5507856 ], [ 21.1291229, 40.5507833 ], [ 21.1288641, 40.550809 ], [ 21.1286854, 40.5508067 ], [ 21.1285591, 40.5508512 ], [ 21.1285036, 40.5509495 ], [ 21.1283526, 40.5509144 ], [ 21.1282017, 40.5508722 ], [ 21.1280199, 40.550898 ], [ 21.1279644, 40.5509542 ], [ 21.1279706, 40.5510572 ], [ 21.1278011, 40.5510548 ], [ 21.127684, 40.5510455 ], [ 21.127644, 40.5511134 ], [ 21.1275516, 40.5511391 ], [ 21.1274468, 40.5512515 ], [ 21.1274468, 40.5510478 ], [ 21.1274745, 40.5508605 ], [ 21.1274684, 40.5507364 ], [ 21.1274098, 40.5505843 ], [ 21.1273574, 40.55061 ], [ 21.127302, 40.5506756 ], [ 21.1272132, 40.5506976 ], [ 21.1271542, 40.5508362 ], [ 21.127063, 40.5509095 ], [ 21.1269826, 40.5508362 ], [ 21.1269396, 40.5507424 ], [ 21.1268377, 40.5507587 ], [ 21.1268914, 40.5508892 ], [ 21.126886, 40.5510726 ], [ 21.1267573, 40.5511949 ], [ 21.1266339, 40.5512397 ], [ 21.1266339, 40.5513416 ], [ 21.1266071, 40.5515209 ], [ 21.1266231, 40.5516432 ], [ 21.1265373, 40.5517207 ], [ 21.1263978, 40.551741 ], [ 21.1263871, 40.5518796 ], [ 21.1264193, 40.5520223 ], [ 21.1263978, 40.5521201 ], [ 21.1262906, 40.552063 ], [ 21.1262101, 40.5519489 ], [ 21.1262208, 40.5517655 ], [ 21.1262208, 40.5515617 ], [ 21.1261564, 40.551419 ], [ 21.1262101, 40.5513253 ], [ 21.1262155, 40.5511093 ], [ 21.126253, 40.5508647 ], [ 21.126253, 40.5506527 ], [ 21.1263227, 40.5504123 ], [ 21.1263227, 40.5501881 ], [ 21.1263871, 40.5500862 ], [ 21.1265749, 40.5500454 ], [ 21.1265105, 40.5499557 ], [ 21.1264247, 40.5498905 ], [ 21.1263174, 40.5498538 ], [ 21.1263174, 40.5497316 ], [ 21.126253, 40.5496582 ], [ 21.1260813, 40.549646 ], [ 21.1258614, 40.5497071 ], [ 21.1258507, 40.549968 ], [ 21.1257863, 40.550131 ], [ 21.1256361, 40.5502044 ], [ 21.1255073, 40.5502044 ], [ 21.1253947, 40.5503104 ], [ 21.1253357, 40.550396 ], [ 21.1251855, 40.5504041 ], [ 21.1249924, 40.5503307 ], [ 21.1248743, 40.5503878 ], [ 21.1249226, 40.5505019 ], [ 21.1248583, 40.5505916 ], [ 21.1247456, 40.5505957 ], [ 21.12481, 40.5507465 ], [ 21.1246222, 40.5507139 ], [ 21.1245203, 40.5506487 ], [ 21.1244184, 40.5506487 ], [ 21.1243916, 40.5507628 ], [ 21.1241984, 40.5507628 ], [ 21.1240536, 40.5507302 ], [ 21.124016, 40.5508158 ], [ 21.1238283, 40.5508565 ], [ 21.12378, 40.5509625 ], [ 21.1237478, 40.5511949 ], [ 21.1236137, 40.5513661 ], [ 21.1235386, 40.5515332 ], [ 21.1236781, 40.5515902 ], [ 21.1238873, 40.5515902 ], [ 21.1241233, 40.5516554 ], [ 21.1239892, 40.5518348 ], [ 21.1237693, 40.5519448 ], [ 21.1237585, 40.5520508 ], [ 21.1235547, 40.5520671 ], [ 21.1234099, 40.5521609 ], [ 21.1233723, 40.5522587 ], [ 21.1233777, 40.5524054 ], [ 21.1232811, 40.552544 ], [ 21.1232167, 40.5526867 ], [ 21.1230504, 40.5526867 ], [ 21.1229056, 40.5526459 ], [ 21.122809, 40.5525481 ], [ 21.1227876, 40.5524462 ], [ 21.122852, 40.5523361 ], [ 21.1228412, 40.5522424 ], [ 21.1228412, 40.5521079 ], [ 21.1227876, 40.5519897 ], [ 21.1229378, 40.5519611 ], [ 21.1230719, 40.5519693 ], [ 21.1230987, 40.5518959 ], [ 21.1229432, 40.5518959 ], [ 21.1227554, 40.5518429 ], [ 21.1226696, 40.5518756 ], [ 21.1226696, 40.5519774 ], [ 21.1225837, 40.5519774 ], [ 21.1224979, 40.5518959 ], [ 21.1224335, 40.5518063 ], [ 21.1221921, 40.5518348 ], [ 21.1220473, 40.5518144 ], [ 21.12194, 40.5517329 ], [ 21.1220258, 40.5516147 ], [ 21.1221975, 40.551525 ], [ 21.1222887, 40.5514394 ], [ 21.1221707, 40.551419 ], [ 21.1219668, 40.5515046 ], [ 21.1217844, 40.5515658 ], [ 21.1217469, 40.5516636 ], [ 21.1216557, 40.5516351 ], [ 21.121484, 40.5517737 ], [ 21.1211461, 40.5519774 ], [ 21.1208671, 40.5521242 ], [ 21.1206686, 40.5522831 ], [ 21.1204809, 40.5523891 ], [ 21.1203307, 40.5525318 ], [ 21.1202824, 40.5526867 ], [ 21.1201966, 40.5527926 ], [ 21.1200678, 40.5527886 ], [ 21.1198801, 40.5529924 ], [ 21.1197621, 40.5531635 ], [ 21.1195904, 40.553347 ], [ 21.1194938, 40.5535345 ], [ 21.1193061, 40.5538075 ], [ 21.1191934, 40.5540195 ], [ 21.1190593, 40.5543048 ], [ 21.1189306, 40.5545697 ], [ 21.1186999, 40.5548917 ], [ 21.1184424, 40.5552096 ], [ 21.1181956, 40.5555275 ], [ 21.1180669, 40.5557395 ], [ 21.1178309, 40.5559392 ], [ 21.1176485, 40.5560981 ], [ 21.1175305, 40.5562693 ], [ 21.1173534, 40.5564609 ], [ 21.1172837, 40.5566198 ], [ 21.1171335, 40.5568358 ], [ 21.1169296, 40.5570152 ], [ 21.1166936, 40.5571986 ], [ 21.1165005, 40.557276 ], [ 21.1165863, 40.5574268 ], [ 21.1167902, 40.5575817 ], [ 21.1169887, 40.5576917 ], [ 21.1171389, 40.5577243 ], [ 21.1172783, 40.5578099 ], [ 21.1173266, 40.5580055 ], [ 21.1171979, 40.5580137 ], [ 21.1170477, 40.5581604 ], [ 21.1169189, 40.5582012 ], [ 21.1167794, 40.5583479 ], [ 21.1167633, 40.5585476 ], [ 21.1166507, 40.5586902 ], [ 21.116538, 40.5586006 ], [ 21.1163986, 40.5585557 ], [ 21.1163664, 40.5586332 ], [ 21.1162645, 40.5587432 ], [ 21.1159265, 40.5587228 ], [ 21.11561, 40.5586495 ], [ 21.1154544, 40.558568 ], [ 21.1154062, 40.5583723 ], [ 21.1152935, 40.5583723 ], [ 21.1153686, 40.558621 ], [ 21.1153686, 40.5587758 ], [ 21.1151969, 40.5586699 ], [ 21.1150682, 40.5586128 ], [ 21.1149985, 40.5584865 ], [ 21.1148751, 40.5584946 ], [ 21.1148965, 40.558621 ], [ 21.1148, 40.5587555 ], [ 21.1148161, 40.5589022 ], [ 21.114977, 40.55911 ], [ 21.1151057, 40.5591345 ], [ 21.1152077, 40.5592608 ], [ 21.1152667, 40.5593831 ], [ 21.1152613, 40.5596561 ], [ 21.1152613, 40.5598355 ], [ 21.114918, 40.560027 ], [ 21.1146659, 40.5601737 ], [ 21.1144459, 40.5602878 ], [ 21.1142689, 40.560243 ], [ 21.1141616, 40.5600678 ], [ 21.1140543, 40.5599496 ], [ 21.1140221, 40.5600841 ], [ 21.1140865, 40.5602471 ], [ 21.1141455, 40.5604346 ], [ 21.1141348, 40.5605976 ], [ 21.1139792, 40.5605976 ], [ 21.1140382, 40.5607728 ], [ 21.1142635, 40.5608258 ], [ 21.1142635, 40.5609073 ], [ 21.1141562, 40.5610703 ], [ 21.1140168, 40.5611926 ], [ 21.1140168, 40.5613352 ], [ 21.113947, 40.5615594 ], [ 21.1139739, 40.5617876 ], [ 21.1141348, 40.5619465 ], [ 21.1142206, 40.5620117 ], [ 21.114108, 40.5620973 ], [ 21.1138719, 40.5622318 ], [ 21.1136842, 40.5623255 ], [ 21.1135071, 40.5624926 ], [ 21.1134493, 40.5624027 ], [ 21.113482, 40.562314 ], [ 21.1135614, 40.5622395 ], [ 21.1135614, 40.5621437 ], [ 21.11344, 40.5621437 ], [ 21.1133886, 40.5620621 ], [ 21.1132999, 40.5620373 ], [ 21.1132065, 40.5620763 ], [ 21.1131785, 40.562236 ], [ 21.1131878, 40.5624063 ], [ 21.1132859, 40.5625659 ], [ 21.1132532, 40.5626936 ], [ 21.1130897, 40.5628497 ], [ 21.1128422, 40.5629952 ], [ 21.1127021, 40.5631584 ], [ 21.1126461, 40.5633358 ], [ 21.1124686, 40.5634848 ], [ 21.1121604, 40.5636267 ], [ 21.1120203, 40.5638147 ], [ 21.1119269, 40.5638821 ], [ 21.1118662, 40.564095 ], [ 21.1116701, 40.5641021 ], [ 21.1116841, 40.5642759 ] ], [ [ 21.1173573, 40.5576432 ], [ 21.1174304, 40.5575721 ], [ 21.1174508, 40.5574609 ], [ 21.1175361, 40.557325 ], [ 21.1176744, 40.5573219 ], [ 21.1178045, 40.5572633 ], [ 21.1178939, 40.5572478 ], [ 21.117898, 40.5573497 ], [ 21.1178776, 40.5574733 ], [ 21.1177597, 40.5575412 ], [ 21.1177597, 40.5576246 ], [ 21.1176744, 40.5577297 ], [ 21.1174873, 40.5577945 ], [ 21.1173938, 40.5577791 ], [ 21.1173207, 40.5577266 ], [ 21.1173573, 40.5576432 ] ], [ [ 21.1174995, 40.5579397 ], [ 21.1176784, 40.5579366 ], [ 21.1178451, 40.5578995 ], [ 21.1179996, 40.5578131 ], [ 21.1180321, 40.5579891 ], [ 21.1181053, 40.5581158 ], [ 21.1182679, 40.5581899 ], [ 21.1184387, 40.5581775 ], [ 21.1184265, 40.5583042 ], [ 21.1183655, 40.5583937 ], [ 21.1182273, 40.5584432 ], [ 21.1180443, 40.5584617 ], [ 21.1180443, 40.558542 ], [ 21.1178817, 40.5584802 ], [ 21.1177719, 40.558369 ], [ 21.1176825, 40.5582115 ], [ 21.1176174, 40.5581003 ], [ 21.1174711, 40.5580107 ], [ 21.1174995, 40.5579397 ] ], [ [ 21.1203468, 40.5532369 ], [ 21.1204916, 40.5531432 ], [ 21.1206365, 40.553241 ], [ 21.1207759, 40.5533673 ], [ 21.1209476, 40.5533551 ], [ 21.1211622, 40.5533225 ], [ 21.1212158, 40.5534407 ], [ 21.1211997, 40.5535915 ], [ 21.1212695, 40.5536812 ], [ 21.1214036, 40.5538075 ], [ 21.1214733, 40.5539543 ], [ 21.1214733, 40.5540888 ], [ 21.1215591, 40.554154 ], [ 21.1216557, 40.5540888 ], [ 21.1217469, 40.5541784 ], [ 21.1218542, 40.5543252 ], [ 21.1216772, 40.5544556 ], [ 21.1215216, 40.5546146 ], [ 21.1213821, 40.5546798 ], [ 21.1212265, 40.5548224 ], [ 21.1211622, 40.5547001 ], [ 21.1211193, 40.5545819 ], [ 21.1210066, 40.5545819 ], [ 21.1209798, 40.554423 ], [ 21.1211729, 40.5543455 ], [ 21.1212802, 40.5542518 ], [ 21.1212695, 40.5541377 ], [ 21.1210871, 40.5541907 ], [ 21.1208457, 40.5541744 ], [ 21.1206418, 40.5540928 ], [ 21.1204487, 40.5539746 ], [ 21.1203146, 40.5538116 ], [ 21.1202878, 40.5536037 ], [ 21.1202663, 40.5533796 ], [ 21.1203468, 40.5532369 ] ], [ [ 21.1210442, 40.5525685 ], [ 21.1212695, 40.5524706 ], [ 21.1214733, 40.5523565 ], [ 21.121645, 40.5522057 ], [ 21.1217791, 40.5521242 ], [ 21.1219132, 40.5521568 ], [ 21.1220312, 40.5522342 ], [ 21.122058, 40.5523361 ], [ 21.1221921, 40.5523891 ], [ 21.1223799, 40.5523891 ], [ 21.1225194, 40.552385 ], [ 21.1226535, 40.5524217 ], [ 21.1225784, 40.5524869 ], [ 21.122514, 40.5525807 ], [ 21.1223477, 40.5526378 ], [ 21.1221975, 40.5526989 ], [ 21.1220151, 40.5528538 ], [ 21.1218917, 40.5529434 ], [ 21.1216664, 40.5530005 ], [ 21.1214518, 40.5531187 ], [ 21.1212265, 40.553082 ], [ 21.1210763, 40.5530046 ], [ 21.1210227, 40.5528252 ], [ 21.1209637, 40.5526785 ], [ 21.1210442, 40.5525685 ] ], [ [ 21.1213875, 40.5533266 ], [ 21.1215055, 40.5532206 ], [ 21.1216074, 40.5531717 ], [ 21.1217147, 40.5533021 ], [ 21.1218595, 40.5534652 ], [ 21.1220527, 40.553563 ], [ 21.122219, 40.5537056 ], [ 21.122337, 40.5536119 ], [ 21.1223477, 40.5534937 ], [ 21.1224496, 40.5534489 ], [ 21.1225891, 40.5534692 ], [ 21.1228251, 40.5534244 ], [ 21.1229593, 40.553294 ], [ 21.123029, 40.5531187 ], [ 21.1229324, 40.5530168 ], [ 21.1229324, 40.5528986 ], [ 21.1229914, 40.55276 ], [ 21.1231309, 40.55276 ], [ 21.1231738, 40.5528497 ], [ 21.1231524, 40.5529964 ], [ 21.1232489, 40.5531513 ], [ 21.1231041, 40.5532125 ], [ 21.1230719, 40.5533144 ], [ 21.1232597, 40.5533266 ], [ 21.1233884, 40.5532165 ], [ 21.1234903, 40.5532817 ], [ 21.1235118, 40.553404 ], [ 21.1232865, 40.5535018 ], [ 21.1231416, 40.5535548 ], [ 21.1229485, 40.5536812 ], [ 21.1227822, 40.5536893 ], [ 21.1227018, 40.5537505 ], [ 21.1227018, 40.5538728 ], [ 21.1224925, 40.5540073 ], [ 21.1222511, 40.5540847 ], [ 21.1220419, 40.5539787 ], [ 21.1218703, 40.5538891 ], [ 21.1216664, 40.5537749 ], [ 21.121543, 40.5536323 ], [ 21.1214572, 40.5535141 ], [ 21.1213553, 40.5534611 ], [ 21.1213875, 40.5533266 ] ], [ [ 21.1255825, 40.5538605 ], [ 21.1256683, 40.5537179 ], [ 21.1256683, 40.5535711 ], [ 21.1255288, 40.5535671 ], [ 21.1255395, 40.5534244 ], [ 21.1257327, 40.5532328 ], [ 21.1258453, 40.5530943 ], [ 21.1259526, 40.5529598 ], [ 21.1259526, 40.5527967 ], [ 21.1258346, 40.5526622 ], [ 21.1257434, 40.5524584 ], [ 21.1257112, 40.5523117 ], [ 21.1257917, 40.5521894 ], [ 21.1257917, 40.5520427 ], [ 21.1257058, 40.5519204 ], [ 21.1257434, 40.5518144 ], [ 21.125738, 40.5516514 ], [ 21.1258024, 40.5516025 ], [ 21.1258882, 40.5515739 ], [ 21.1260062, 40.5517329 ], [ 21.1259258, 40.5519163 ], [ 21.1259258, 40.5521812 ], [ 21.1259955, 40.5522995 ], [ 21.1261082, 40.5524829 ], [ 21.1262423, 40.5526378 ], [ 21.1262637, 40.5528742 ], [ 21.1263442, 40.5530087 ], [ 21.1263442, 40.5532247 ], [ 21.1263174, 40.5535018 ], [ 21.1261994, 40.5537016 ], [ 21.126135, 40.5539461 ], [ 21.125958, 40.5540765 ], [ 21.1258614, 40.5543048 ], [ 21.1257273, 40.5544841 ], [ 21.1256039, 40.5546349 ], [ 21.1254644, 40.554639 ], [ 21.1254805, 40.5544678 ], [ 21.1253947, 40.5542885 ], [ 21.1253947, 40.5540276 ], [ 21.1255825, 40.5538605 ] ], [ [ 21.125554, 40.5572902 ], [ 21.125582, 40.5571731 ], [ 21.1256894, 40.5570631 ], [ 21.1257828, 40.5569779 ], [ 21.1258995, 40.5570311 ], [ 21.1259883, 40.5570595 ], [ 21.1259276, 40.5571873 ], [ 21.1260163, 40.5572121 ], [ 21.126119, 40.5571092 ], [ 21.1262498, 40.5570028 ], [ 21.1263479, 40.556875 ], [ 21.1263665, 40.5567473 ], [ 21.1264413, 40.5566267 ], [ 21.126586, 40.556726 ], [ 21.1266374, 40.5568218 ], [ 21.1266701, 40.5570418 ], [ 21.1267308, 40.5572937 ], [ 21.1268476, 40.5574924 ], [ 21.126955, 40.5576698 ], [ 21.127011, 40.5579217 ], [ 21.1270764, 40.5580814 ], [ 21.1270764, 40.5582268 ], [ 21.1270484, 40.5584858 ], [ 21.127067, 40.5587094 ], [ 21.1271651, 40.558901 ], [ 21.1272585, 40.5591777 ], [ 21.1272725, 40.5594331 ], [ 21.1272492, 40.5595609 ], [ 21.1270717, 40.5594864 ], [ 21.1268849, 40.5594296 ], [ 21.1267495, 40.5593196 ], [ 21.1265533, 40.5590961 ], [ 21.1264459, 40.55894 ], [ 21.1264086, 40.558681 ], [ 21.1265207, 40.5583758 ], [ 21.1266234, 40.5581381 ], [ 21.126572, 40.5579394 ], [ 21.1264273, 40.5577549 ], [ 21.1262731, 40.5576379 ], [ 21.126007, 40.5575385 ], [ 21.1257127, 40.5575066 ], [ 21.1254606, 40.5575172 ], [ 21.1254606, 40.5574143 ], [ 21.125554, 40.5572902 ] ], [ [ 21.1259191, 40.5544586 ], [ 21.1260533, 40.5543412 ], [ 21.1261387, 40.5542362 ], [ 21.1261387, 40.554091 ], [ 21.1262444, 40.5539922 ], [ 21.1263826, 40.5539644 ], [ 21.1264639, 40.5538192 ], [ 21.1266184, 40.5540107 ], [ 21.126659, 40.5542238 ], [ 21.1266834, 40.5544401 ], [ 21.12672, 40.5546439 ], [ 21.1267973, 40.5547829 ], [ 21.1268176, 40.5549683 ], [ 21.1268542, 40.5551289 ], [ 21.1268867, 40.5552679 ], [ 21.1271103, 40.5552772 ], [ 21.1273055, 40.5552648 ], [ 21.1275047, 40.5552679 ], [ 21.1277201, 40.5552555 ], [ 21.1277161, 40.5553482 ], [ 21.1276795, 40.5554347 ], [ 21.1275534, 40.5555644 ], [ 21.1274396, 40.5556077 ], [ 21.127277, 40.5556416 ], [ 21.1272648, 40.5555768 ], [ 21.1271388, 40.5555768 ], [ 21.1271388, 40.5556972 ], [ 21.1271632, 40.5558579 ], [ 21.1270737, 40.5558579 ], [ 21.126964, 40.5558393 ], [ 21.126964, 40.5557559 ], [ 21.1269802, 40.5556324 ], [ 21.1269518, 40.5555675 ], [ 21.1267241, 40.555586 ], [ 21.1265737, 40.5555737 ], [ 21.1265533, 40.5557281 ], [ 21.1265533, 40.5559011 ], [ 21.1263989, 40.555864 ], [ 21.126224, 40.5557899 ], [ 21.1261021, 40.5556756 ], [ 21.1260736, 40.555515 ], [ 21.1261224, 40.5553822 ], [ 21.1261346, 40.5552524 ], [ 21.1261021, 40.5551412 ], [ 21.1260411, 40.55503 ], [ 21.1259598, 40.554854 ], [ 21.125911, 40.5546563 ], [ 21.1259191, 40.5544586 ] ] ] } },
{ "type": "Feature", "properties": { "@type": "way", "@id": 701193840, "area": null, "barrier": null, "boundary": null, "bridge": null, "embankment": null, "highway": null, "int_name": null, "landuse": "meadow", "lanes": null, "layer": null, "leisure": null, "lit": null, "man_made": null, "name": null, "name:el": null, "name:en": null, "name:mk": null, "name:sq": null, "natural": null, "oneway": null, "operator": null, "operator:1995-2025": null, "protect_class": null, "protection_title": null, "ref": null, "smoothness": null, "source": null, "source:ref": null, "start_date": null, "surface": null, "toll": null, "wikidata": null, "wikipedia": null, "label": "landuse:meadow" }, "geometry": { "type": "Polygon", "coordinates": [ [ [ 21.1253947, 40.5542885 ], [ 21.1254805, 40.5544678 ], [ 21.1254644, 40.554639 ], [ 21.1256039, 40.5546349 ], [ 21.1257273, 40.5544841 ], [ 21.1258614, 40.5543048 ], [ 21.125958, 40.5540765 ], [ 21.126135, 40.5539461 ], [ 21.1261994, 40.5537016 ], [ 21.1263174, 40.5535018 ], [ 21.1263442, 40.5532247 ], [ 21.1263442, 40.5530087 ], [ 21.1262637, 40.5528742 ], [ 21.1262423, 40.5526378 ], [ 21.1261082, 40.5524829 ], [ 21.1259955, 40.5522995 ], [ 21.1259258, 40.5521812 ], [ 21.1259258, 40.5519163 ], [ 21.1260062, 40.5517329 ], [ 21.1258882, 40.5515739 ], [ 21.1258024, 40.5516025 ], [ 21.125738, 40.5516514 ], [ 21.1257434, 40.5518144 ], [ 21.1257058, 40.5519204 ], [ 21.1257917, 40.5520427 ], [ 21.1257917, 40.5521894 ], [ 21.1257112, 40.5523117 ], [ 21.1257434, 40.5524584 ], [ 21.1258346, 40.5526622 ], [ 21.1259526, 40.5527967 ], [ 21.1259526, 40.5529598 ], [ 21.1258453, 40.5530943 ], [ 21.1257327, 40.5532328 ], [ 21.1255395, 40.5534244 ], [ 21.1255288, 40.5535671 ], [ 21.1256683, 40.5535711 ], [ 21.1256683, 40.5537179 ], [ 21.1255825, 40.5538605 ], [ 21.1253947, 40.5540276 ], [ 21.1253947, 40.5542885 ] ] ] } },
{ "type": "Feature", "properties": { "@type": "relation", "@id": 9746515, "area": null, "barrier": null, "boundary": null, "bridge": null, "embankment": null, "highway": null, "int_name": null, "landuse": null, "lanes": null, "layer": null, "leisure": null, "lit": null, "man_made": null, "name": null, "name:el": null, "name:en": null, "name:mk": null, "name:sq": null, "natural": "wood", "oneway": null, "operator": null, "operator:1995-2025": null, "protect_class": null, "protection_title": null, "ref": null, "smoothness": null, "source": "Bing (2019-07-02)", "source:ref": null, "start_date": null, "surface": null, "toll": null, "wikidata": null, "wikipedia": null, "label": "natural:wood" }, "geometry": { "type": "Polygon", "coordinates": [ [ [ 21.1118242, 40.5576308 ], [ 21.1119549, 40.5574817 ], [ 21.112053, 40.557276 ], [ 21.1121884, 40.5570347 ], [ 21.1123285, 40.5567579 ], [ 21.1124593, 40.5564918 ], [ 21.112576, 40.5563499 ], [ 21.1128002, 40.5562541 ], [ 21.1129356, 40.5561122 ], [ 21.1131271, 40.5560412 ], [ 21.1132906, 40.5559738 ], [ 21.1135194, 40.555949 ], [ 21.1137576, 40.5558816 ], [ 21.1139911, 40.5557325 ], [ 21.1141358, 40.5556403 ], [ 21.1143647, 40.5555871 ], [ 21.1145655, 40.5554913 ], [ 21.1147009, 40.5553458 ], [ 21.114841, 40.5553422 ], [ 21.1149998, 40.5554168 ], [ 21.1151586, 40.5554238 ], [ 21.1152193, 40.555548 ], [ 21.11528, 40.5556829 ], [ 21.1151586, 40.5557325 ], [ 21.1149437, 40.555917 ], [ 21.1148083, 40.5560093 ], [ 21.1146262, 40.5560838 ], [ 21.1146122, 40.5563109 ], [ 21.1146682, 40.5563996 ], [ 21.114883, 40.5564564 ], [ 21.1150465, 40.5565699 ], [ 21.1151352, 40.5567154 ], [ 21.1151399, 40.5568502 ], [ 21.1149624, 40.5570524 ], [ 21.1147896, 40.5571695 ], [ 21.1150044, 40.5572192 ], [ 21.1151399, 40.5572015 ], [ 21.1153033, 40.5571163 ], [ 21.1154855, 40.5568786 ], [ 21.1156162, 40.5567154 ], [ 21.1157143, 40.5565309 ], [ 21.1158497, 40.5563818 ], [ 21.1159945, 40.5563357 ], [ 21.1160412, 40.5562151 ], [ 21.1159992, 40.556098 ], [ 21.1160272, 40.5559738 ], [ 21.116186, 40.5558851 ], [ 21.1163167, 40.5559099 ], [ 21.1165082, 40.5558745 ], [ 21.1166296, 40.555807 ], [ 21.1168911, 40.5558 ], [ 21.1168865, 40.5556935 ], [ 21.1166903, 40.5557006 ], [ 21.1164848, 40.5557467 ], [ 21.1163401, 40.5557467 ], [ 21.1164381, 40.5555906 ], [ 21.116312, 40.5556261 ], [ 21.1161673, 40.5557183 ], [ 21.1159758, 40.5557964 ], [ 21.1158684, 40.5558638 ], [ 21.115803, 40.5560235 ], [ 21.1156676, 40.5562115 ], [ 21.1155462, 40.5563854 ], [ 21.1153827, 40.556538 ], [ 21.1152893, 40.5564883 ], [ 21.1151866, 40.5563499 ], [ 21.1152987, 40.5562186 ], [ 21.1154154, 40.5560164 ], [ 21.1155322, 40.5558248 ], [ 21.1156676, 40.5557077 ], [ 21.1158964, 40.5557077 ], [ 21.1161066, 40.5556403 ], [ 21.1163027, 40.5555445 ], [ 21.1164381, 40.5554097 ], [ 21.1166156, 40.5553139 ], [ 21.1167604, 40.5552926 ], [ 21.1168257, 40.5554522 ], [ 21.1170079, 40.5556403 ], [ 21.1171433, 40.5555977 ], [ 21.1171013, 40.555438 ], [ 21.1170172, 40.5552784 ], [ 21.1170266, 40.555101 ], [ 21.1172227, 40.5550016 ], [ 21.1173721, 40.5548668 ], [ 21.1175356, 40.5546539 ], [ 21.117643, 40.5544126 ], [ 21.1178064, 40.5542068 ], [ 21.1178812, 40.5540507 ], [ 21.1179185, 40.5538307 ], [ 21.1179139, 40.5536639 ], [ 21.1179839, 40.5535043 ], [ 21.118152, 40.5534475 ], [ 21.1183155, 40.5533233 ], [ 21.1184276, 40.5532133 ], [ 21.1185303, 40.5531104 ], [ 21.1186704, 40.5530998 ], [ 21.1187778, 40.5530146 ], [ 21.1187778, 40.552862 ], [ 21.1188525, 40.5526775 ], [ 21.1188619, 40.5525178 ], [ 21.1187031, 40.5526633 ], [ 21.118549, 40.5527236 ], [ 21.1186097, 40.5525285 ], [ 21.1186657, 40.5523972 ], [ 21.1185817, 40.5522659 ], [ 21.1185817, 40.5520388 ], [ 21.1184743, 40.5519111 ], [ 21.1183861, 40.5519538 ], [ 21.1183225, 40.5519723 ], [ 21.1182629, 40.5520158 ], [ 21.1182022, 40.5520433 ], [ 21.1181556, 40.552061 ], [ 21.1181667, 40.5520802 ], [ 21.1182233, 40.552099 ], [ 21.1182968, 40.552053 ], [ 21.1184135, 40.5521453 ], [ 21.1184649, 40.5522091 ], [ 21.1184649, 40.5523582 ], [ 21.1184276, 40.5525427 ], [ 21.1183482, 40.5527307 ], [ 21.1181987, 40.5528088 ], [ 21.118082, 40.5529365 ], [ 21.1179092, 40.5530678 ], [ 21.1178485, 40.5531743 ], [ 21.1176804, 40.553153 ], [ 21.1175262, 40.5530678 ], [ 21.1173581, 40.5530501 ], [ 21.1172739, 40.5531335 ], [ 21.1171499, 40.5532277 ], [ 21.1169873, 40.5533188 ], [ 21.1168511, 40.5534161 ], [ 21.1167068, 40.5535335 ], [ 21.1165665, 40.5536864 ], [ 21.1164385, 40.5538362 ], [ 21.116284, 40.5539613 ], [ 21.1161153, 40.5540756 ], [ 21.1159881, 40.554154 ], [ 21.1159665, 40.5542033 ], [ 21.1159711, 40.5543807 ], [ 21.1158264, 40.5545191 ], [ 21.1156816, 40.5547355 ], [ 21.1155602, 40.5550052 ], [ 21.1154154, 40.5552003 ], [ 21.1152613, 40.5552819 ], [ 21.1151761, 40.5553462 ], [ 21.1150558, 40.5552926 ], [ 21.114883, 40.55525 ], [ 21.1147383, 40.5551897 ], [ 21.1146262, 40.5552181 ], [ 21.1145234, 40.5553139 ], [ 21.1144067, 40.5554416 ], [ 21.1142339, 40.5555409 ], [ 21.1140471, 40.5555977 ], [ 21.1138229, 40.5556829 ], [ 21.1136595, 40.5557538 ], [ 21.1135784, 40.5558192 ], [ 21.1134605, 40.5558841 ], [ 21.1133304, 40.5559212 ], [ 21.1131556, 40.5559613 ], [ 21.1130092, 40.5559721 ], [ 21.1128588, 40.555966 ], [ 21.1127641, 40.5559641 ], [ 21.1126645, 40.5559915 ], [ 21.112576, 40.5560412 ], [ 21.1124266, 40.5561512 ], [ 21.1122725, 40.5562789 ], [ 21.1121931, 40.556428 ], [ 21.112053, 40.5566054 ], [ 21.1119549, 40.5568183 ], [ 21.1118335, 40.5569566 ], [ 21.1117354, 40.5571447 ], [ 21.1117261, 40.5572937 ], [ 21.111666181345001, 40.557354402837277 ], [ 21.111666181345001, 40.557737998888705 ], [ 21.1118242, 40.5576308 ] ], [ [ 21.1157983, 40.5549803 ], [ 21.1158591, 40.554849 ], [ 21.1159711, 40.5547107 ], [ 21.1160645, 40.5545581 ], [ 21.1162046, 40.5544765 ], [ 21.1164335, 40.554441 ], [ 21.1164568, 40.5545581 ], [ 21.1165175, 40.5546468 ], [ 21.1163494, 40.554732 ], [ 21.1162186, 40.5548632 ], [ 21.1162186, 40.5549377 ], [ 21.116298, 40.5550016 ], [ 21.1162233, 40.5551045 ], [ 21.1160832, 40.555101 ], [ 21.1159851, 40.5551542 ], [ 21.1159384, 40.5552535 ], [ 21.1158404, 40.5552358 ], [ 21.115789, 40.5551435 ], [ 21.1157983, 40.5549803 ] ] ] } }
]
}
