{
"type": "FeatureCollection",
"name": "patch_35114_point",
"crs": { "type": "name", "properties": { "name": "urn:ogc:def:crs:OGC:1.3:CRS84" } },
"features": [
{ "type": "Feature", "properties": { "element": "node", "id": 345213004, "ele": "1420", "natural": "peak", "name": null, "name:el": null, "waterway": null, "leaf_type": null, "source": null, "name:mk": null, "type": null, "label": "natural:peak" }, "geometry": { "type": "Point", "coordinates": [ 21.9089944, 41.001283 ] } },
{ "type": "Feature", "properties": { "element": "node", "id": 6715415222, "ele": "1337", "natural": "saddle", "name": null, "name:el": null, "waterway": null, "leaf_type": null, "source": null, "name:mk": null, "type": null, "label": "natural:saddle" }, "geometry": { "type": "Point", "coordinates": [ 21.9114241, 40.9971866 ] } }
]
}
