{
"type": "FeatureCollection",
"name": "patch_87165_features",
"crs": { "type": "name", "properties": { "name": "urn:ogc:def:crs:OGC:1.3:CRS84" } },
"features": [
{ "type": "Feature", "properties": { "osm_id": 1429831459, "name": null, "label": "landuse:forest", "landuse": "forest", "natural": null }, "geometry": { "type": "Polygon", "coordinates": [ [ [ 22.8482894, 38.735334700087513 ], [ 22.8484119, 38.735413200087521 ], [ 22.8484119, 38.73549510008754 ], [ 22.8484644, 38.735607700087563 ], [ 22.8485519, 38.735764700087572 ], [ 22.848615615435417, 38.735829289032907 ], [ 22.848615615435417, 38.735316477606482 ], [ 22.848276430575535, 38.735316477606482 ], [ 22.8482894, 38.735334700087513 ] ] ] } },
{ "type": "Feature", "properties": { "osm_id": 738059324, "name": null, "label": "natural:heath", "landuse": null, "natural": "heath" }, "geometry": { "type": "Polygon", "coordinates": [ [ [ 22.8326014, 38.737794400087864 ], [ 22.8329423, 38.737827200087864 ], [ 22.833003, 38.738122300087916 ], [ 22.8333205, 38.738115000087923 ], [ 22.8337082, 38.737962000087897 ], [ 22.8339136, 38.737754400087873 ], [ 22.8341798, 38.737645100087846 ], [ 22.8342032, 38.737455700087828 ], [ 22.8341285, 38.737313600087802 ], [ 22.8339136, 38.737171500087783 ], [ 22.8336288, 38.737171500087783 ], [ 22.8333065, 38.737288100087795 ], [ 22.8328582, 38.737335500087788 ], [ 22.8328209, 38.737492100087806 ], [ 22.8325734, 38.737677900087846 ], [ 22.8326014, 38.737794400087864 ] ] ] } },
{ "type": "Feature", "properties": { "osm_id": 738059323, "name": null, "label": "landuse:farmyard", "landuse": "farmyard", "natural": null }, "geometry": { "type": "Polygon", "coordinates": [ [ [ 22.828961, 38.74460310008886 ], [ 22.8294282, 38.744487200088841 ], [ 22.8299166, 38.744183500088788 ], [ 22.8304545, 38.743918500088746 ], [ 22.830674, 38.743725300088741 ], [ 22.8302563, 38.74328360008866 ], [ 22.8300015, 38.74328360008866 ], [ 22.8299095, 38.743416100088695 ], [ 22.8299236, 38.743559700088703 ], [ 22.8298104, 38.743570700088696 ], [ 22.8297184, 38.743399600088679 ], [ 22.8295131, 38.743432700088675 ], [ 22.8294848, 38.743614900088723 ], [ 22.8292795, 38.74388540008875 ], [ 22.8288194, 38.744255300088803 ], [ 22.828961, 38.74460310008886 ] ] ] } },
{ "type": "Feature", "properties": { "osm_id": 738059346, "name": null, "label": "natural:heath", "landuse": null, "natural": "heath" }, "geometry": { "type": "Polygon", "coordinates": [ [ [ 22.8265643, 38.744009000088774 ], [ 22.8269935, 38.744025700088777 ], [ 22.8275299, 38.7441931000888 ], [ 22.8281629, 38.744377200088827 ], [ 22.8283989, 38.744126100088785 ], [ 22.8286886, 38.744151200088787 ], [ 22.8288925, 38.743783000088733 ], [ 22.8290641, 38.743707700088734 ], [ 22.8289676, 38.743490200088701 ], [ 22.8290105, 38.743155400088639 ], [ 22.8292143, 38.742862600088607 ], [ 22.8294289, 38.74254460008855 ], [ 22.8287959, 38.742569700088559 ], [ 22.8285062, 38.742435800088543 ], [ 22.8279483, 38.742268400088513 ], [ 22.8276586, 38.742427400088523 ], [ 22.8272188, 38.742494400088553 ], [ 22.8272188, 38.7428207000886 ], [ 22.8270256, 38.743071800088643 ], [ 22.8270149, 38.743414800088672 ], [ 22.8264677, 38.743565500088707 ], [ 22.8265643, 38.744009000088774 ] ] ] } },
{ "type": "Feature", "properties": { "osm_id": 1089696004, "name": null, "label": "natural:wood", "landuse": null, "natural": "wood" }, "geometry": { "type": "Polygon", "coordinates": [ [ [ 22.8484772, 38.754200200090246 ], [ 22.8483516, 38.754096900090225 ], [ 22.848268, 38.753993600090205 ], [ 22.8481386, 38.753871500090213 ], [ 22.8481107, 38.753757300090179 ], [ 22.8480549, 38.753632200090173 ], [ 22.8480898, 38.753518100090147 ], [ 22.8481316, 38.753414800090134 ], [ 22.8481176, 38.753300600090121 ], [ 22.8479991, 38.753267900090108 ], [ 22.8478736, 38.753295100090114 ], [ 22.8478666, 38.753393000090135 ], [ 22.8479154, 38.753539800090152 ], [ 22.8478457, 38.753686600090191 ], [ 22.8477551, 38.753730100090181 ], [ 22.8478039, 38.753866100090207 ], [ 22.8477342, 38.753942200090208 ], [ 22.847783, 38.75402920009023 ], [ 22.8478666, 38.75402920009023 ], [ 22.8479364, 38.75411070009023 ], [ 22.8480409, 38.754246700090256 ], [ 22.8481665, 38.754317400090258 ], [ 22.8482571, 38.75440440009028 ], [ 22.8483408, 38.754496800090287 ], [ 22.8484732, 38.754540300090305 ], [ 22.848615615435417, 38.75457199117033 ], [ 22.848615615435417, 38.754247173266037 ], [ 22.8484772, 38.754200200090246 ] ] ] } },
{ "type": "Feature", "properties": { "osm_id": -10206583, "name": null, "label": "natural:wood", "landuse": null, "natural": "wood" }, "geometry": { "type": "MultiPolygon", "coordinates": [ [ [ [ 22.834576, 38.735676000087572 ], [ 22.834854, 38.735991000087601 ], [ 22.834574, 38.73611300008762 ], [ 22.833859, 38.736137000087638 ], [ 22.832499, 38.736176000087632 ], [ 22.830945, 38.737134000087764 ], [ 22.830427, 38.73722200008779 ], [ 22.829715, 38.737091000087773 ], [ 22.828526, 38.736923000087749 ], [ 22.827891, 38.736917000087743 ], [ 22.827211, 38.737221000087779 ], [ 22.825354, 38.738251000087942 ], [ 22.8236722, 38.738769000088006 ], [ 22.8231913, 38.738845800088022 ], [ 22.8229314, 38.739074500088059 ], [ 22.8229148, 38.739194600088062 ], [ 22.8231832, 38.739327800088077 ], [ 22.8230775, 38.739461000088106 ], [ 22.8224676, 38.739150200088062 ], [ 22.8220367, 38.739188300088074 ], [ 22.8217521, 38.739511700088123 ], [ 22.8217521, 38.739752700088133 ], [ 22.8215488, 38.739987400088189 ], [ 22.8216383, 38.740298100088225 ], [ 22.8214594, 38.740298100088225 ], [ 22.8212317, 38.740057100088194 ], [ 22.8208252, 38.740038100088192 ], [ 22.8206463, 38.739936600088178 ], [ 22.8203292, 38.740120600088204 ], [ 22.8201015, 38.740133300088218 ], [ 22.8198495, 38.740019100088183 ], [ 22.8196706, 38.740152300088219 ], [ 22.8193372, 38.739968400088188 ], [ 22.8189795, 38.739955700088181 ], [ 22.8187274, 38.740152300088219 ], [ 22.818581547572489, 38.740182430968041 ], [ 22.818581547572489, 38.748930770205526 ], [ 22.8186914, 38.748882900089491 ], [ 22.8191564, 38.748871000089487 ], [ 22.8196982, 38.748932900089486 ], [ 22.8201558, 38.748980200089484 ], [ 22.8205294, 38.748914700089479 ], [ 22.8209124, 38.748761700089467 ], [ 22.8211412, 38.748747100089467 ], [ 22.821342, 38.748816300089466 ], [ 22.8215802, 38.748816300089466 ], [ 22.8218604, 38.748681600089455 ], [ 22.8222994, 38.748561400089436 ], [ 22.8224395, 38.748423000089417 ], [ 22.8226916, 38.748321000089383 ], [ 22.8228691, 38.748259100089385 ], [ 22.822785, 38.748011400089354 ], [ 22.8230559, 38.748007800089354 ], [ 22.8233735, 38.747887600089335 ], [ 22.823635, 38.747876700089328 ], [ 22.8239572, 38.747865700089328 ], [ 22.8239572, 38.747985900089347 ], [ 22.8236723, 38.748146200089366 ], [ 22.8235603, 38.748350100089397 ], [ 22.8235649, 38.748546800089422 ], [ 22.8235136, 38.748732600089454 ], [ 22.8232941, 38.748732600089454 ], [ 22.8231633, 38.748911000089478 ], [ 22.8229718, 38.749023900089497 ], [ 22.8225936, 38.748834500089472 ], [ 22.8224161, 38.749027600089491 ], [ 22.8222153, 38.74911860008951 ], [ 22.8219164, 38.749235200089522 ], [ 22.8218557, 38.74938810008954 ], [ 22.8217109, 38.749519300089574 ], [ 22.8215101, 38.749708700089599 ], [ 22.8213233, 38.749854300089623 ], [ 22.8214821, 38.750065600089656 ], [ 22.8218277, 38.749788800089597 ], [ 22.8220332, 38.749963600089629 ], [ 22.8222853, 38.750098400089648 ], [ 22.8226076, 38.7503096000897 ], [ 22.8226211, 38.75047160008971 ], [ 22.8228364, 38.750735700089749 ], [ 22.8228831, 38.751260200089824 ], [ 22.8232754, 38.751325700089836 ], [ 22.823663, 38.751445900089848 ], [ 22.8243168, 38.751689900089893 ], [ 22.8247091, 38.751933900089917 ], [ 22.8249332, 38.752134200089955 ], [ 22.8255123, 38.751660800089887 ], [ 22.8250033, 38.751143600089797 ], [ 22.825064, 38.751005200089786 ], [ 22.8255357, 38.750866800089767 ], [ 22.8256431, 38.750557300089724 ], [ 22.8256431, 38.750338700089699 ], [ 22.8261101, 38.749883500089631 ], [ 22.8258254, 38.749731300089593 ], [ 22.8256384, 38.749519300089574 ], [ 22.8251761, 38.749708700089599 ], [ 22.8252648, 38.749868900089623 ], [ 22.8249146, 38.749981800089635 ], [ 22.8247978, 38.750083800089648 ], [ 22.8246297, 38.749949000089643 ], [ 22.8243425, 38.750225400089661 ], [ 22.8239058, 38.750200300089666 ], [ 22.8235369, 38.749803300089617 ], [ 22.8232941, 38.749406400089555 ], [ 22.8238872, 38.749067600089504 ], [ 22.8248071, 38.748466700089416 ], [ 22.825008, 38.748142500089365 ], [ 22.8249566, 38.747884000089336 ], [ 22.8254002, 38.747636300089304 ], [ 22.8255917, 38.748179000089372 ], [ 22.8263809, 38.747931300089341 ], [ 22.8264743, 38.748084300089353 ], [ 22.8267405, 38.748051500089353 ], [ 22.8268853, 38.748324700089391 ], [ 22.8271328, 38.748747100089467 ], [ 22.8278193, 38.748597800089435 ], [ 22.828319, 38.748652400089455 ], [ 22.8284871, 38.748608700089441 ], [ 22.8285898, 38.748423000089417 ], [ 22.8289401, 38.748251800089385 ], [ 22.8290849, 38.74798960008934 ], [ 22.8293884, 38.74770910008931 ], [ 22.8295659, 38.747927700089321 ], [ 22.8297527, 38.748164400089372 ], [ 22.8300796, 38.748295500089398 ], [ 22.8304905, 38.748120700089366 ], [ 22.8307194, 38.747924000089334 ], [ 22.8309622, 38.747927700089321 ], [ 22.8312097, 38.748175300089379 ], [ 22.8315319, 38.74838290008941 ], [ 22.8322231, 38.748674300089441 ], [ 22.8325967, 38.748863700089473 ], [ 22.8325407, 38.749027600089491 ], [ 22.8326481, 38.749220600089529 ], [ 22.8329376, 38.749206000089522 ], [ 22.8332131, 38.749275200089528 ], [ 22.8334186, 38.749559300089572 ], [ 22.8337595, 38.74938810008954 ], [ 22.8335681, 38.749180500089523 ], [ 22.8335867, 38.748972900089484 ], [ 22.833951, 38.749038500089505 ], [ 22.8340397, 38.749224300089537 ], [ 22.8342659, 38.749424900089558 ], [ 22.835064, 38.749816000089616 ], [ 22.83608, 38.750227000089666 ], [ 22.837071, 38.750286000089687 ], [ 22.8375541, 38.750554200089724 ], [ 22.8379364, 38.750907500089767 ], [ 22.8384035, 38.751227700089821 ], [ 22.8388849, 38.75150370008987 ], [ 22.8389981, 38.751834900089904 ], [ 22.8391397, 38.752166100089951 ], [ 22.8387433, 38.75214410008995 ], [ 22.8382903, 38.752265500089983 ], [ 22.8383328, 38.752618800090019 ], [ 22.838177, 38.752817500090039 ], [ 22.8375825, 38.752685000090025 ], [ 22.8377665, 38.753027300090082 ], [ 22.8384319, 38.75323700009011 ], [ 22.8390972, 38.753546200090156 ], [ 22.8396918, 38.754009800090223 ], [ 22.8399608, 38.754484600090287 ], [ 22.839992, 38.754978000090347 ], [ 22.839744, 38.755597000090461 ], [ 22.839107, 38.755715000090476 ], [ 22.838002, 38.755269000090401 ], [ 22.836986, 38.754264000090252 ], [ 22.836357, 38.753885000090186 ], [ 22.83572, 38.754003000090222 ], [ 22.835634, 38.754437000090292 ], [ 22.836421, 38.754880000090353 ], [ 22.837286, 38.755386000090425 ], [ 22.837436, 38.755947000090501 ], [ 22.837113, 38.756255000090555 ], [ 22.836307, 38.756993000090652 ], [ 22.835581, 38.757670000090748 ], [ 22.835022, 38.757851000090781 ], [ 22.834467, 38.757845000090789 ], [ 22.833128, 38.757148000090659 ], [ 22.83178, 38.757010000090652 ], [ 22.8310158, 38.756823800090629 ], [ 22.830674, 38.756959000090653 ], [ 22.8303519, 38.756788200090632 ], [ 22.8299205, 38.756749800090624 ], [ 22.8294399, 38.756490300090583 ], [ 22.8289715, 38.756461400090565 ], [ 22.8284663, 38.756509500090587 ], [ 22.8281458, 38.756922700090655 ], [ 22.8277638, 38.757086100090667 ], [ 22.8275789, 38.757422500090705 ], [ 22.8270736, 38.757605100090736 ], [ 22.8266423, 38.757557000090735 ], [ 22.8263218, 38.757355200090714 ], [ 22.8259028, 38.75746090009072 ], [ 22.8258289, 38.757739600090773 ], [ 22.825967648147575, 38.757912709038791 ], [ 22.840896542637683, 38.757912709038791 ], [ 22.841071, 38.757556000090744 ], [ 22.841302, 38.756776000090618 ], [ 22.841971, 38.755587000090443 ], [ 22.843341, 38.754122000090248 ], [ 22.844538, 38.75324800009011 ], [ 22.846291, 38.752583000090006 ], [ 22.848423, 38.75157000008987 ], [ 22.848615615435417, 38.751468691625938 ], [ 22.848615615435417, 38.747298681511353 ], [ 22.848532, 38.747353000089248 ], [ 22.84745, 38.747964000089354 ], [ 22.846682, 38.74882700008947 ], [ 22.846117, 38.749412000089556 ], [ 22.845074, 38.750085000089655 ], [ 22.8448574, 38.749656800089596 ], [ 22.8446972, 38.749435800089543 ], [ 22.8447342, 38.74911860008951 ], [ 22.8445986, 38.74860920008944 ], [ 22.8443275, 38.748397700089413 ], [ 22.8440564, 38.747936300089343 ], [ 22.8435634, 38.747974800089345 ], [ 22.843243, 38.748234300089379 ], [ 22.8428486, 38.748128600089373 ], [ 22.8425528, 38.747696000089306 ], [ 22.8424789, 38.747263500089247 ], [ 22.8421584, 38.746984800089209 ], [ 22.8415669, 38.746831000089173 ], [ 22.841345, 38.746504200089127 ], [ 22.8405424, 38.7462489000891 ], [ 22.83977, 38.746240000089102 ], [ 22.838038, 38.74532100008895 ], [ 22.837417, 38.744413000088819 ], [ 22.837228, 38.743851000088746 ], [ 22.837271, 38.743634000088704 ], [ 22.838028, 38.743486000088694 ], [ 22.838782, 38.743493000088705 ], [ 22.839436, 38.743529000088714 ], [ 22.840315, 38.743603000088711 ], [ 22.84123, 38.743519000088696 ], [ 22.842142, 38.743528000088688 ], [ 22.843249, 38.743819000088749 ], [ 22.843644, 38.743978000088767 ], [ 22.844042, 38.74388900008875 ], [ 22.844088, 38.743485000088697 ], [ 22.844055, 38.743112000088637 ], [ 22.84442, 38.742587000088569 ], [ 22.845425, 38.741851000088452 ], [ 22.845454, 38.741476000088404 ], [ 22.844281, 38.741425000088398 ], [ 22.843566, 38.741417000088397 ], [ 22.843416, 38.741216000088365 ], [ 22.843529, 38.740538000088264 ], [ 22.843539, 38.739938000088188 ], [ 22.843289, 38.739576000088121 ], [ 22.842222, 38.739285000088096 ], [ 22.841148, 38.739395000088109 ], [ 22.840292, 38.738706000088001 ], [ 22.839525, 38.738779000088009 ], [ 22.839416, 38.739217000088075 ], [ 22.840021, 38.739663000088143 ], [ 22.840318, 38.740266000088234 ], [ 22.839851, 38.740701000088279 ], [ 22.838106, 38.741283000088366 ], [ 22.836668, 38.741789000088446 ], [ 22.8359, 38.741981000088472 ], [ 22.834882, 38.741771000088448 ], [ 22.834641, 38.740889000088323 ], [ 22.835055, 38.740573000088261 ], [ 22.835924, 38.740502000088256 ], [ 22.836991, 38.740793000088296 ], [ 22.83755, 38.740918000088314 ], [ 22.837807, 38.740841000088317 ], [ 22.837864, 38.740441000088246 ], [ 22.837868, 38.74020200008821 ], [ 22.837875, 38.739802000088162 ], [ 22.838553, 38.738929000088028 ], [ 22.839121, 38.738495000087966 ], [ 22.8404, 38.738308000087954 ], [ 22.84173, 38.738161000087914 ], [ 22.843778, 38.737741000087858 ], [ 22.845335, 38.737378000087809 ], [ 22.845023, 38.737436000087811 ], [ 22.843429, 38.737060000087759 ], [ 22.842609, 38.736971000087756 ], [ 22.841731, 38.736669000087701 ], [ 22.840777, 38.736284000087643 ], [ 22.840481, 38.73599900008761 ], [ 22.840455, 38.735740000087574 ], [ 22.840984, 38.735510000087537 ], [ 22.841302, 38.735372000087516 ], [ 22.841561721890567, 38.735316477606482 ], [ 22.83425925805431, 38.735316477606482 ], [ 22.834576, 38.735676000087572 ] ], [ [ 22.8189273, 38.747508600089276 ], [ 22.81918, 38.747253900089234 ], [ 22.8194758, 38.747128900089223 ], [ 22.8198147, 38.747104900089212 ], [ 22.8201166, 38.746826200089181 ], [ 22.8204124, 38.74672040008916 ], [ 22.8207945, 38.746701200089149 ], [ 22.8210902, 38.746566700089133 ], [ 22.8213306, 38.74636960008911 ], [ 22.8216387, 38.746124500089074 ], [ 22.8217742, 38.745932300089052 ], [ 22.8219726, 38.745799600089029 ], [ 22.8224705, 38.745711200089012 ], [ 22.8227355, 38.745624700089003 ], [ 22.8232531, 38.745567000088997 ], [ 22.8236352, 38.745615100088997 ], [ 22.8236906, 38.74578810008903 ], [ 22.8238878, 38.745893800089043 ], [ 22.8242699, 38.745908200089048 ], [ 22.8245287, 38.746014000089062 ], [ 22.8247937, 38.746268700089097 ], [ 22.8247444, 38.746446500089128 ], [ 22.8244732, 38.74664840008915 ], [ 22.8243007, 38.746725300089174 ], [ 22.8239679, 38.746701200089149 ], [ 22.824048, 38.747008800089212 ], [ 22.8239001, 38.747244300089235 ], [ 22.8236044, 38.747407700089262 ], [ 22.8232778, 38.747518200089274 ], [ 22.8228095, 38.747585500089286 ], [ 22.8224644, 38.747585500089286 ], [ 22.8222918, 38.747691200089307 ], [ 22.8223473, 38.747921900089331 ], [ 22.8220638, 38.747960400089333 ], [ 22.8216387, 38.748075700089359 ], [ 22.8213059, 38.748171800089381 ], [ 22.820893, 38.748167000089381 ], [ 22.8204925, 38.748056500089355 ], [ 22.8203446, 38.748195900089371 ], [ 22.8200488, 38.74831120008939 ], [ 22.8198024, 38.748224700089388 ], [ 22.8195312, 38.748484200089422 ], [ 22.8192662, 38.748407300089397 ], [ 22.818952, 38.748181400089365 ], [ 22.8190814, 38.747960400089333 ], [ 22.818882, 38.747716200089307 ], [ 22.8189273, 38.747508600089276 ] ], [ [ 22.8270149, 38.743414800088672 ], [ 22.8270256, 38.743071800088643 ], [ 22.8272188, 38.7428207000886 ], [ 22.8272188, 38.742494400088553 ], [ 22.8276586, 38.742427400088523 ], [ 22.8279483, 38.742268400088513 ], [ 22.8285062, 38.742435800088543 ], [ 22.8287959, 38.742569700088559 ], [ 22.8294289, 38.74254460008855 ], [ 22.8292143, 38.742862600088607 ], [ 22.8290105, 38.743155400088639 ], [ 22.8289676, 38.743490200088701 ], [ 22.8290641, 38.743707700088734 ], [ 22.8288925, 38.743783000088733 ], [ 22.8286886, 38.744151200088787 ], [ 22.8283989, 38.744126100088785 ], [ 22.8281629, 38.744377200088827 ], [ 22.8275299, 38.7441931000888 ], [ 22.8269935, 38.744025700088777 ], [ 22.8265643, 38.744009000088774 ], [ 22.8264677, 38.743565500088707 ], [ 22.8270149, 38.743414800088672 ] ], [ [ 22.828707, 38.745147000088934 ], [ 22.829558, 38.744497000088842 ], [ 22.830154, 38.744108000088779 ], [ 22.831544, 38.743957000088756 ], [ 22.833223, 38.744171000088791 ], [ 22.834689, 38.744515000088832 ], [ 22.835864, 38.744692000088868 ], [ 22.836573, 38.745028000088908 ], [ 22.837152, 38.745627000088994 ], [ 22.837396, 38.746156000089087 ], [ 22.837389, 38.746551000089141 ], [ 22.837591, 38.74708000008922 ], [ 22.838177, 38.74725100008925 ], [ 22.838891, 38.74732400008925 ], [ 22.840011, 38.7477040000893 ], [ 22.840642, 38.747959000089331 ], [ 22.8411962, 38.748187500089372 ], [ 22.8416778, 38.748503400089419 ], [ 22.8421708, 38.748897500089484 ], [ 22.8426268, 38.749253100089526 ], [ 22.8431444, 38.749551100089576 ], [ 22.843647, 38.749916000089634 ], [ 22.843681, 38.75028900008968 ], [ 22.843794, 38.75063200008973 ], [ 22.843674, 38.75072400008974 ], [ 22.843395, 38.750753000089745 ], [ 22.842683, 38.750590000089723 ], [ 22.842047, 38.750646000089731 ], [ 22.841802, 38.751079000089796 ], [ 22.841953, 38.751578000089872 ], [ 22.843214, 38.752150000089948 ], [ 22.844083, 38.752407000089988 ], [ 22.844077, 38.752780000090048 ], [ 22.843516, 38.753148000090107 ], [ 22.843357, 38.753146000090105 ], [ 22.8424, 38.753385000090141 ], [ 22.841449, 38.753252000090114 ], [ 22.841518, 38.752674000090032 ], [ 22.8417304, 38.752320700089967 ], [ 22.8415322, 38.751978500089933 ], [ 22.8410792, 38.751978500089933 ], [ 22.8405412, 38.751724500089885 ], [ 22.8400882, 38.751492700089848 ], [ 22.8398051, 38.751029000089787 ], [ 22.8393521, 38.750730900089756 ], [ 22.8390406, 38.750377600089685 ], [ 22.8389698, 38.749947000089627 ], [ 22.8384743, 38.749704100089595 ], [ 22.8379081, 38.749516400089561 ], [ 22.837969, 38.748897000089485 ], [ 22.837506, 38.748430000089407 ], [ 22.835332, 38.747651000089313 ], [ 22.834526, 38.748038000089359 ], [ 22.833475, 38.748027000089365 ], [ 22.832556, 38.747656000089307 ], [ 22.83223, 38.746994000089202 ], [ 22.832237, 38.746566000089139 ], [ 22.832665, 38.74614200008908 ], [ 22.83263, 38.745713000089012 ], [ 22.831169, 38.745040000088927 ], [ 22.830623, 38.744969000088915 ], [ 22.829792, 38.745619000089 ], [ 22.828821, 38.745873000089048 ], [ 22.82853, 38.745640000089004 ], [ 22.828707, 38.745147000088934 ] ], [ [ 22.8292795, 38.74388540008875 ], [ 22.8294848, 38.743614900088723 ], [ 22.8295131, 38.743432700088675 ], [ 22.8297184, 38.743399600088679 ], [ 22.8298104, 38.743570700088696 ], [ 22.8299236, 38.743559700088703 ], [ 22.8299095, 38.743416100088695 ], [ 22.8300015, 38.74328360008866 ], [ 22.8302563, 38.74328360008866 ], [ 22.830674, 38.743725300088741 ], [ 22.8304545, 38.743918500088746 ], [ 22.8299166, 38.744183500088788 ], [ 22.8294282, 38.744487200088841 ], [ 22.828961, 38.74460310008886 ], [ 22.8288194, 38.744255300088803 ], [ 22.8292795, 38.74388540008875 ] ], [ [ 22.8328209, 38.737492100087806 ], [ 22.8328582, 38.737335500087788 ], [ 22.8333065, 38.737288100087795 ], [ 22.8336288, 38.737171500087783 ], [ 22.8339136, 38.737171500087783 ], [ 22.8341285, 38.737313600087802 ], [ 22.8342032, 38.737455700087828 ], [ 22.8341798, 38.737645100087846 ], [ 22.8339136, 38.737754400087873 ], [ 22.8337082, 38.737962000087897 ], [ 22.8333205, 38.738115000087923 ], [ 22.833003, 38.738122300087916 ], [ 22.8329423, 38.737827200087864 ], [ 22.8326014, 38.737794400087864 ], [ 22.8325734, 38.737677900087846 ], [ 22.8328209, 38.737492100087806 ] ] ], [ [ [ 22.848365, 38.738186000087921 ], [ 22.848146, 38.739144000088068 ], [ 22.848532, 38.740547000088277 ], [ 22.84842, 38.741146000088364 ], [ 22.848518, 38.741426000088389 ], [ 22.848615615435417, 38.741437911094486 ], [ 22.848615615435417, 38.737918998795081 ], [ 22.848365, 38.738186000087921 ] ] ], [ [ [ 22.8248262, 38.757831500090759 ], [ 22.8248262, 38.757521900090723 ], [ 22.8251588, 38.757772900090764 ], [ 22.8253627, 38.757747800090776 ], [ 22.8254378, 38.757521900090723 ], [ 22.8254056, 38.757245900090702 ], [ 22.8251803, 38.757070200090666 ], [ 22.8247833, 38.756978100090663 ], [ 22.8244722, 38.756835900090621 ], [ 22.8242898, 38.756877700090634 ], [ 22.8241074, 38.756693700090601 ], [ 22.8234637, 38.756919600090654 ], [ 22.8233457, 38.756467800090569 ], [ 22.8237426, 38.756292100090562 ], [ 22.823925, 38.756082900090519 ], [ 22.8240001, 38.755656200090463 ], [ 22.8234744, 38.755589300090456 ], [ 22.8230238, 38.755430300090431 ], [ 22.822541, 38.755463800090439 ], [ 22.8221655, 38.755639500090467 ], [ 22.821629, 38.755689700090464 ], [ 22.821275, 38.755631100090469 ], [ 22.8212213, 38.755413600090421 ], [ 22.8209102, 38.755405200090436 ], [ 22.820996, 38.755748300090481 ], [ 22.8208843, 38.756067400090537 ], [ 22.8205107, 38.756023700090509 ], [ 22.8202679, 38.756271400090554 ], [ 22.8198009, 38.756315100090561 ], [ 22.8193713, 38.756213100090534 ], [ 22.819007, 38.75633690009056 ], [ 22.819007, 38.756781200090622 ], [ 22.8187642, 38.757079800090672 ], [ 22.818581547572489, 38.756979452446153 ], [ 22.818581547572489, 38.757912709038791 ], [ 22.824911075667064, 38.757912709038791 ], [ 22.8248262, 38.757831500090759 ] ] ] ] } },
{ "type": "Feature", "properties": { "osm_id": 358104896, "name": null, "label": "natural:peak", "landuse": null, "natural": "peak" }, "geometry": { "type": "Point", "coordinates": [ 22.8370508, 38.738249800087942 ] } },
{ "type": "Feature", "properties": { "osm_id": 358104826, "name": null, "label": "natural:peak", "landuse": null, "natural": "peak" }, "geometry": { "type": "Point", "coordinates": [ 22.8291543, 38.740057400088197 ] } },
{ "type": "Feature", "properties": { "osm_id": 358104715, "name": null, "label": "natural:peak", "landuse": null, "natural": "peak" }, "geometry": { "type": "Point", "coordinates": [ 22.8269227, 38.757193900090691 ] } }
]
}
