{
"type": "FeatureCollection",
"name": "patch_76236_point",
"crs": { "type": "name", "properties": { "name": "urn:ogc:def:crs:OGC:1.3:CRS84" } },
"features": [
{ "type": "Feature", "properties": { "@type": "node", "@id": 12336831595, "access": null, "addr:postcode": null, "amenity": "bench", "backrest": "yes", "barrier": null, "bell_tower": null, "building": null, "colour": null, "couplings": null, "denomination": null, "direction": null, "ele": null, "emergency": null, "entrance": null, "fire_hydrant:position": null, "fire_hydrant:type": null, "ford": null, "highway": null, "incline": null, "int_name": null, "isced:level": null, "junction": null, "landuse": null, "lane_markings": null, "lanes": null, "layer": null, "leaf_type": null, "leisure": null, "lit": null, "man_made": null, "mapillary": null, "material": "wood", "maxspeed": null, "name": null, "name:el": null, "name:mk": null, "natural": null, "noexit": null, "noname": null, "oneway": null, "operator": null, "place": null, "population": null, "religion": null, "service": null, "shelter_type": null, "sidewalk": null, "smoothness": null, "source": null, "sport": null, "surface": null, "survey:date": null, "tower:type": null, "tracktype": null, "tunnel": null, "waterway": null, "width": null, "wikidata": null, "wikipedia": null, "label": "amenity:bench" }, "geometry": { "type": "Point", "coordinates": [ 21.6785387, 40.2496161 ] } },
{ "type": "Feature", "properties": { "@type": "node", "@id": 12336831596, "access": null, "addr:postcode": null, "amenity": "bench", "backrest": "yes", "barrier": null, "bell_tower": null, "building": null, "colour": null, "couplings": null, "denomination": null, "direction": null, "ele": null, "emergency": null, "entrance": null, "fire_hydrant:position": null, "fire_hydrant:type": null, "ford": null, "highway": null, "incline": null, "int_name": null, "isced:level": null, "junction": null, "landuse": null, "lane_markings": null, "lanes": null, "layer": null, "leaf_type": null, "leisure": null, "lit": null, "man_made": null, "mapillary": null, "material": "wood", "maxspeed": null, "name": null, "name:el": null, "name:mk": null, "natural": null, "noexit": null, "noname": null, "oneway": null, "operator": null, "place": null, "population": null, "religion": null, "service": null, "shelter_type": null, "sidewalk": null, "smoothness": null, "source": null, "sport": null, "surface": null, "survey:date": null, "tower:type": null, "tracktype": null, "tunnel": null, "waterway": null, "width": null, "wikidata": null, "wikipedia": null, "label": "amenity:bench" }, "geometry": { "type": "Point", "coordinates": [ 21.6785421, 40.2495818 ] } },
{ "type": "Feature", "properties": { "@type": "node", "@id": 12336867108, "access": null, "addr:postcode": null, "amenity": "water_point", "backrest": null, "barrier": null, "bell_tower": null, "building": null, "colour": null, "couplings": null, "denomination": null, "direction": null, "ele": "756", "emergency": null, "entrance": null, "fire_hydrant:position": null, "fire_hydrant:type": null, "ford": null, "highway": null, "incline": null, "int_name": null, "isced:level": null, "junction": null, "landuse": null, "lane_markings": null, "lanes": null, "layer": null, "leaf_type": null, "leisure": null, "lit": null, "man_made": null, "mapillary": null, "material": null, "maxspeed": null, "name": null, "name:el": null, "name:mk": null, "natural": null, "noexit": null, "noname": null, "oneway": null, "operator": null, "place": null, "population": null, "religion": null, "service": null, "shelter_type": null, "sidewalk": null, "smoothness": null, "source": null, "sport": null, "surface": null, "survey:date": null, "tower:type": null, "tracktype": null, "tunnel": null, "waterway": null, "width": null, "wikidata": null, "wikipedia": null, "label": "amenity:water_point" }, "geometry": { "type": "Point", "coordinates": [ 21.6780613, 40.249819 ] } },
{ "type": "Feature", "properties": { "@type": "node", "@id": 12337837852, "access": null, "addr:postcode": null, "amenity": "watering_place", "backrest": null, "barrier": null, "bell_tower": null, "building": null, "colour": null, "couplings": null, "denomination": null, "direction": null, "ele": null, "emergency": null, "entrance": null, "fire_hydrant:position": null, "fire_hydrant:type": null, "ford": null, "highway": null, "incline": null, "int_name": null, "isced:level": null, "junction": null, "landuse": null, "lane_markings": null, "lanes": null, "layer": null, "leaf_type": null, "leisure": null, "lit": null, "man_made": null, "mapillary": null, "material": null, "maxspeed": null, "name": null, "name:el": null, "name:mk": null, "natural": null, "noexit": null, "noname": null, "oneway": null, "operator": null, "place": null, "population": null, "religion": null, "service": null, "shelter_type": null, "sidewalk": null, "smoothness": null, "source": null, "sport": null, "surface": null, "survey:date": null, "tower:type": null, "tracktype": null, "tunnel": null, "waterway": null, "width": null, "wikidata": null, "wikipedia": null, "label": "amenity:watering_place" }, "geometry": { "type": "Point", "coordinates": [ 21.677829, 40.2450816 ] } },
{ "type": "Feature", "properties": { "@type": "node", "@id": 12337837888, "access": null, "addr:postcode": null, "amenity": "bench", "backrest": "yes", "barrier": null, "bell_tower": null, "building": null, "colour": null, "couplings": null, "denomination": null, "direction": null, "ele": null, "emergency": null, "entrance": null, "fire_hydrant:position": null, "fire_hydrant:type": null, "ford": null, "highway": null, "incline": null, "int_name": null, "isced:level": null, "junction": null, "landuse": null, "lane_markings": null, "lanes": null, "layer": null, "leaf_type": null, "leisure": null, "lit": null, "man_made": null, "mapillary": null, "material": "wood", "maxspeed": null, "name": null, "name:el": null, "name:mk": null, "natural": null, "noexit": null, "noname": null, "oneway": null, "operator": null, "place": null, "population": null, "religion": null, "service": null, "shelter_type": null, "sidewalk": null, "smoothness": null, "source": null, "sport": null, "surface": null, "survey:date": null, "tower:type": null, "tracktype": null, "tunnel": null, "waterway": null, "width": null, "wikidata": null, "wikipedia": null, "label": "amenity:bench" }, "geometry": { "type": "Point", "coordinates": [ 21.6772282, 40.2455194 ] } },
{ "type": "Feature", "properties": { "@type": "node", "@id": 12337837889, "access": null, "addr:postcode": null, "amenity": "bench", "backrest": "yes", "barrier": null, "bell_tower": null, "building": null, "colour": null, "couplings": null, "denomination": null, "direction": null, "ele": null, "emergency": null, "entrance": null, "fire_hydrant:position": null, "fire_hydrant:type": null, "ford": null, "highway": null, "incline": null, "int_name": null, "isced:level": null, "junction": null, "landuse": null, "lane_markings": null, "lanes": null, "layer": null, "leaf_type": null, "leisure": null, "lit": null, "man_made": null, "mapillary": null, "material": "wood", "maxspeed": null, "name": null, "name:el": null, "name:mk": null, "natural": null, "noexit": null, "noname": null, "oneway": null, "operator": null, "place": null, "population": null, "religion": null, "service": null, "shelter_type": null, "sidewalk": null, "smoothness": null, "source": null, "sport": null, "surface": null, "survey:date": null, "tower:type": null, "tracktype": null, "tunnel": null, "waterway": null, "width": null, "wikidata": null, "wikipedia": null, "label": "amenity:bench" }, "geometry": { "type": "Point", "coordinates": [ 21.6772187, 40.2455414 ] } },
{ "type": "Feature", "properties": { "@type": "node", "@id": 12338119301, "access": null, "addr:postcode": null, "amenity": "watering_place", "backrest": null, "barrier": null, "bell_tower": null, "building": null, "colour": null, "couplings": null, "denomination": null, "direction": null, "ele": null, "emergency": null, "entrance": null, "fire_hydrant:position": null, "fire_hydrant:type": null, "ford": null, "highway": null, "incline": null, "int_name": null, "isced:level": null, "junction": null, "landuse": null, "lane_markings": null, "lanes": null, "layer": null, "leaf_type": null, "leisure": null, "lit": null, "man_made": null, "mapillary": null, "material": null, "maxspeed": null, "name": null, "name:el": null, "name:mk": null, "natural": null, "noexit": null, "noname": null, "oneway": null, "operator": null, "place": null, "population": null, "religion": null, "service": null, "shelter_type": null, "sidewalk": null, "smoothness": null, "source": null, "sport": null, "surface": null, "survey:date": null, "tower:type": null, "tracktype": null, "tunnel": null, "waterway": null, "width": null, "wikidata": null, "wikipedia": null, "label": "amenity:watering_place" }, "geometry": { "type": "Point", "coordinates": [ 21.6634594, 40.2472145 ] } },
{ "type": "Feature", "properties": { "@type": "node", "@id": 12338995149, "access": null, "addr:postcode": null, "amenity": "place_of_worship", "backrest": null, "barrier": null, "bell_tower": null, "building": "chapel", "colour": null, "couplings": null, "denomination": "greek_orthodox", "direction": null, "ele": null, "emergency": null, "entrance": null, "fire_hydrant:position": null, "fire_hydrant:type": null, "ford": null, "highway": null, "incline": null, "int_name": null, "isced:level": null, "junction": null, "landuse": null, "lane_markings": null, "lanes": null, "layer": null, "leaf_type": null, "leisure": null, "lit": null, "man_made": null, "mapillary": null, "material": null, "maxspeed": null, "name": "Αγία Μαρίνα", "name:el": null, "name:mk": null, "natural": null, "noexit": null, "noname": null, "oneway": null, "operator": null, "place": null, "population": null, "religion": "christian", "service": null, "shelter_type": null, "sidewalk": null, "smoothness": null, "source": null, "sport": null, "surface": null, "survey:date": null, "tower:type": null, "tracktype": null, "tunnel": null, "waterway": null, "width": null, "wikidata": null, "wikipedia": null, "label": "building:chapel;amenity:place_of_worship" }, "geometry": { "type": "Point", "coordinates": [ 21.6669277, 40.2543351 ] } },
{ "type": "Feature", "properties": { "@type": "node", "@id": 12338995165, "access": null, "addr:postcode": null, "amenity": "bench", "backrest": "yes", "barrier": null, "bell_tower": null, "building": null, "colour": null, "couplings": null, "denomination": null, "direction": null, "ele": null, "emergency": null, "entrance": null, "fire_hydrant:position": null, "fire_hydrant:type": null, "ford": null, "highway": null, "incline": null, "int_name": null, "isced:level": null, "junction": null, "landuse": null, "lane_markings": null, "lanes": null, "layer": null, "leaf_type": null, "leisure": null, "lit": null, "man_made": null, "mapillary": null, "material": "wood", "maxspeed": null, "name": null, "name:el": null, "name:mk": null, "natural": null, "noexit": null, "noname": null, "oneway": null, "operator": null, "place": null, "population": null, "religion": null, "service": null, "shelter_type": null, "sidewalk": null, "smoothness": null, "source": null, "sport": null, "surface": null, "survey:date": null, "tower:type": null, "tracktype": null, "tunnel": null, "waterway": null, "width": null, "wikidata": null, "wikipedia": null, "label": "amenity:bench" }, "geometry": { "type": "Point", "coordinates": [ 21.6780477, 40.249793 ] } }
]
}
