{
"type": "FeatureCollection",
"name": "patch_34831_point",
"crs": { "type": "name", "properties": { "name": "urn:ogc:def:crs:OGC:1.3:CRS84" } },
"features": [
{ "type": "Feature", "properties": { "osm_id": 9169113132, "name": "CYCLON", "label": "amenity:fuel", "amenity": "fuel" }, "geometry": { "type": "Point", "coordinates": [ 20.9478194, 38.698568700082191 ] } },
{ "type": "Feature", "properties": { "osm_id": 9169113145, "name": "AEGEAN", "label": "amenity:fuel", "amenity": "fuel" }, "geometry": { "type": "Point", "coordinates": [ 20.9471847, 38.702127900082701 ] } }
]
}
