{
"type": "FeatureCollection",
"name": "patch_27032_polygon",
"crs": { "type": "name", "properties": { "name": "urn:ogc:def:crs:OGC:1.3:CRS84" } },
"features": [
{ "type": "Feature", "properties": { "osm_id": -19534716, "name": null, "label": "natural:bare_rock", "natural": "bare_rock" }, "geometry": { "type": "Polygon", "coordinates": [ [ [ 28.2153877, 36.328686399769744 ], [ 28.2154653, 36.328755799769752 ], [ 28.2155738, 36.32881969976976 ], [ 28.2156402, 36.328911399769773 ], [ 28.21568, 36.328870599769765 ], [ 28.2156868, 36.328841299769763 ], [ 28.2156719, 36.328811199769746 ], [ 28.2156411, 36.328791699769745 ], [ 28.2156761, 36.32876349976975 ], [ 28.2156788, 36.328727899769746 ], [ 28.2156627, 36.328691199769743 ], [ 28.2156801, 36.328646899769737 ], [ 28.2156801, 36.328616599769738 ], [ 28.2157041, 36.328588599769738 ], [ 28.2157122, 36.328547599769735 ], [ 28.2157336, 36.328519499769719 ], [ 28.2157189, 36.328497899769729 ], [ 28.2157633, 36.328480499769725 ], [ 28.2157713, 36.328442699769717 ], [ 28.215766, 36.328403799769724 ], [ 28.2157417, 36.3283573997697 ], [ 28.2157579, 36.328314099769713 ], [ 28.2157859, 36.328305599769699 ], [ 28.2158022, 36.328270899769713 ], [ 28.2157861, 36.328237399769698 ], [ 28.2157725, 36.328179099769685 ], [ 28.215798, 36.3281347997697 ], [ 28.215833, 36.328097999769689 ], [ 28.2158691, 36.328036499769688 ], [ 28.2158786, 36.327984599769664 ], [ 28.2158732, 36.327932699769654 ], [ 28.2158907, 36.327881899769665 ], [ 28.2159323, 36.327836499769646 ], [ 28.2159496, 36.327780499769645 ], [ 28.215943, 36.327724199769641 ], [ 28.215975, 36.32765399976963 ], [ 28.2159913, 36.327599899769631 ], [ 28.2159723, 36.327544899769613 ], [ 28.2159859, 36.327498299769616 ], [ 28.2159725, 36.327460499769614 ], [ 28.2159442, 36.327459599769604 ], [ 28.2159095, 36.327432399769606 ], [ 28.215912, 36.327381799769597 ], [ 28.215892, 36.327350299769591 ], [ 28.215857, 36.327330999769607 ], [ 28.2158665, 36.327378399769607 ], [ 28.2158598, 36.327421599769607 ], [ 28.2158329, 36.327444399769611 ], [ 28.2158289, 36.327404499769607 ], [ 28.2158114, 36.3273655997696 ], [ 28.2157886, 36.327350399769593 ], [ 28.2157739, 36.327320199769595 ], [ 28.2157484, 36.327306099769594 ], [ 28.2157458, 36.327260599769595 ], [ 28.2157095, 36.327244599769585 ], [ 28.2154513, 36.3273740997696 ], [ 28.2154356, 36.327419799769608 ], [ 28.2154317, 36.327472699769622 ], [ 28.2154627, 36.327551799769623 ], [ 28.2154971, 36.327618399769626 ], [ 28.2154988, 36.327705799769639 ], [ 28.2154876, 36.327792799769654 ], [ 28.215498, 36.327874699769659 ], [ 28.2154704, 36.327939899769667 ], [ 28.2154153, 36.327971799769671 ], [ 28.2154549, 36.328034299769683 ], [ 28.2155169, 36.328086999769674 ], [ 28.2155049, 36.328143899769685 ], [ 28.2154343, 36.328198199769695 ], [ 28.2154721, 36.328231499769693 ], [ 28.2154119, 36.328257799769702 ], [ 28.2153964, 36.328313299769697 ], [ 28.2154274, 36.328381299769703 ], [ 28.2153895, 36.328432499769718 ], [ 28.215374, 36.328503299769736 ], [ 28.2153688, 36.328574099769725 ], [ 28.2153257, 36.328618499769725 ], [ 28.2153877, 36.328686399769744 ] ], [ [ 28.2155036, 36.32797359976967 ], [ 28.2155398, 36.327938899769656 ], [ 28.2155449, 36.327872299769652 ], [ 28.2155225, 36.327820999769649 ], [ 28.2155277, 36.327782099769642 ], [ 28.2155604, 36.327751599769648 ], [ 28.2155845, 36.327797399769644 ], [ 28.2155794, 36.327851499769658 ], [ 28.2155914, 36.327922299769661 ], [ 28.2155777, 36.32797779976967 ], [ 28.2155398, 36.328009699769666 ], [ 28.2154967, 36.32801249976967 ], [ 28.2155036, 36.32797359976967 ] ] ] } },
{ "type": "Feature", "properties": { "osm_id": 1425598744, "name": null, "label": "natural:wood", "natural": "wood" }, "geometry": { "type": "Polygon", "coordinates": [ [ [ 28.2155398, 36.328009699769666 ], [ 28.2155777, 36.32797779976967 ], [ 28.2155914, 36.327922299769661 ], [ 28.2155794, 36.327851499769658 ], [ 28.2155845, 36.327797399769644 ], [ 28.2155604, 36.327751599769648 ], [ 28.2155277, 36.327782099769642 ], [ 28.2155225, 36.327820999769649 ], [ 28.2155449, 36.327872299769652 ], [ 28.2155398, 36.327938899769656 ], [ 28.2155036, 36.32797359976967 ], [ 28.2154967, 36.32801249976967 ], [ 28.2155398, 36.328009699769666 ] ] ] } }
]
}
