{
"type": "FeatureCollection",
"name": "patch_1266_polygon",
"crs": { "type": "name", "properties": { "name": "urn:ogc:def:crs:OGC:1.3:CRS84" } },
"features": [
{ "type": "Feature", "properties": { "osm_id": 136246150, "name": null, "label": "natural:wood", "natural": "wood" }, "geometry": { "type": "Polygon", "coordinates": [ [ [ 23.568504, 38.775610000093351 ], [ 23.571349, 38.776436000093476 ], [ 23.5733767, 38.777173100093577 ], [ 23.573811, 38.777174000093588 ], [ 23.572992, 38.776614000093517 ], [ 23.571575, 38.775321000093321 ], [ 23.5704401, 38.773776000093093 ], [ 23.568581, 38.771835000092821 ], [ 23.567953983042152, 38.771524959921777 ], [ 23.567953983042152, 38.775539479364767 ], [ 23.568504, 38.775610000093351 ] ] ] } },
{ "type": "Feature", "properties": { "osm_id": 136247064, "name": null, "label": "natural:wood", "natural": "wood" }, "geometry": { "type": "Polygon", "coordinates": [ [ [ 23.568035, 38.769037000092389 ], [ 23.568449, 38.769364000092452 ], [ 23.569692, 38.770142000092569 ], [ 23.571013, 38.770342000092583 ], [ 23.572288, 38.770762000092645 ], [ 23.573485, 38.771994000092839 ], [ 23.574091, 38.773536000093053 ], [ 23.574679, 38.774489000093205 ], [ 23.574882, 38.775425000093321 ], [ 23.575477, 38.776635000093499 ], [ 23.575705, 38.777539000093633 ], [ 23.576422, 38.778404000093765 ], [ 23.5763914, 38.779058000093862 ], [ 23.5767283, 38.779393000093904 ], [ 23.5769978, 38.780600000094083 ], [ 23.5770306, 38.781727000094229 ], [ 23.5772757, 38.782493000094362 ], [ 23.5776707, 38.783058000094435 ], [ 23.5783109, 38.783579300094509 ], [ 23.5788544, 38.784160900094598 ], [ 23.5792173, 38.784658900094669 ], [ 23.5793157, 38.784758900094673 ], [ 23.579519, 38.784775000094697 ], [ 23.579977, 38.78427200009461 ], [ 23.580509, 38.784366000094622 ], [ 23.581154, 38.784398000094633 ], [ 23.581916, 38.784103000094575 ], [ 23.582451, 38.783600000094516 ], [ 23.58259, 38.783071000094445 ], [ 23.582445, 38.782597000094377 ], [ 23.582295, 38.782093000094306 ], [ 23.581775, 38.781921000094265 ], [ 23.581054, 38.781989000094292 ], [ 23.580675, 38.781869000094254 ], [ 23.580678, 38.781363000094181 ], [ 23.580834, 38.780843000094116 ], [ 23.581557, 38.780534000094072 ], [ 23.581939, 38.780059000093999 ], [ 23.582324, 38.779288000093885 ], [ 23.582479, 38.778664000093798 ], [ 23.582501, 38.778079000093726 ], [ 23.582339, 38.777481000093623 ], [ 23.581811, 38.776932000093538 ], [ 23.580892, 38.776917000093555 ], [ 23.580515, 38.77656000009349 ], [ 23.580417, 38.776101000093419 ], [ 23.58033, 38.775699000093383 ], [ 23.579777, 38.775678000093365 ], [ 23.579459, 38.775666000093366 ], [ 23.579336, 38.77563600009335 ], [ 23.578853, 38.775515000093343 ], [ 23.578476, 38.775247000093302 ], [ 23.578419, 38.774783000093244 ], [ 23.580674, 38.773652000093072 ], [ 23.5820365, 38.773356800093019 ], [ 23.582153, 38.772665000092935 ], [ 23.581665, 38.770928000092667 ], [ 23.580688, 38.769134000092428 ], [ 23.579962, 38.768683000092338 ], [ 23.578922, 38.768761000092354 ], [ 23.578246, 38.768840000092368 ], [ 23.5769, 38.76789900009225 ], [ 23.574931, 38.766711000092052 ], [ 23.5749986, 38.766348000092016 ], [ 23.5748312, 38.765678400091915 ], [ 23.574630477231139, 38.764876308058 ], [ 23.567953983042152, 38.764876308058 ], [ 23.567953983042152, 38.769020816216475 ], [ 23.568035, 38.769037000092389 ] ] ] } },
{ "type": "Feature", "properties": { "osm_id": 166234374, "name": "Ατάλαντος", "label": "natural:beach", "natural": "beach" }, "geometry": { "type": "Polygon", "coordinates": [ [ [ 23.5732114, 38.77921520009388 ], [ 23.5736019, 38.778961500093843 ], [ 23.5739878, 38.778809700093817 ], [ 23.5743389, 38.778724700093811 ], [ 23.5747098, 38.778631200093784 ], [ 23.5749533, 38.778574900093794 ], [ 23.5751948, 38.778534300093781 ], [ 23.5754544, 38.778540400093775 ], [ 23.5756139, 38.778529400093774 ], [ 23.5755473, 38.778420800093762 ], [ 23.5752598, 38.778376500093756 ], [ 23.5748739, 38.778411900093772 ], [ 23.5744199, 38.778468000093774 ], [ 23.574155, 38.778488600093766 ], [ 23.5738297, 38.778444400093775 ], [ 23.5736594, 38.778574100093792 ], [ 23.5735346, 38.778709800093814 ], [ 23.5731903, 38.778703900093795 ], [ 23.5729481, 38.778922200093831 ], [ 23.5729519, 38.779276100093881 ], [ 23.5729367, 38.779453500093922 ], [ 23.5732114, 38.77921520009388 ] ] ] } },
{ "type": "Feature", "properties": { "osm_id": 640162046, "name": null, "label": "natural:bare_rock", "natural": "bare_rock" }, "geometry": { "type": "Polygon", "coordinates": [ [ [ 23.5741885, 38.782371100094338 ], [ 23.5742275, 38.782371100094338 ], [ 23.574254, 38.782353200094342 ], [ 23.5742788, 38.782349000094335 ], [ 23.5743071, 38.782336600094325 ], [ 23.5743018, 38.782292500094329 ], [ 23.5742788, 38.782274500094317 ], [ 23.5742682, 38.782251100094321 ], [ 23.5742204, 38.782252500094316 ], [ 23.5742098, 38.782289700094339 ], [ 23.5741761, 38.782315900094339 ], [ 23.5741691, 38.782349000094335 ], [ 23.5741885, 38.782371100094338 ] ] ] } },
{ "type": "Feature", "properties": { "osm_id": 640162047, "name": null, "label": "natural:bare_rock", "natural": "bare_rock" }, "geometry": { "type": "Polygon", "coordinates": [ [ [ 23.5741868, 38.782495300094361 ], [ 23.5742098, 38.782509000094358 ], [ 23.5742628, 38.782520100094352 ], [ 23.5742947, 38.782520100094352 ], [ 23.5743389, 38.782506300094362 ], [ 23.5743619, 38.782488400094351 ], [ 23.5743566, 38.782463500094352 ], [ 23.5743266, 38.782442800094351 ], [ 23.5742522, 38.782437300094351 ], [ 23.5742115, 38.782429000094346 ], [ 23.5741726, 38.782438700094339 ], [ 23.5741637, 38.782473200094351 ], [ 23.5741868, 38.782495300094361 ] ] ] } },
{ "type": "Feature", "properties": { "osm_id": 640162048, "name": null, "label": "natural:bare_rock", "natural": "bare_rock" }, "geometry": { "type": "Polygon", "coordinates": [ [ [ 23.570172, 38.787143800095031 ], [ 23.5702127, 38.787153400095036 ], [ 23.5702427, 38.787149300095031 ], [ 23.5702587, 38.787139700095025 ], [ 23.5702746, 38.787116200095035 ], [ 23.5702374, 38.787094100095025 ], [ 23.5702056, 38.787073400095025 ], [ 23.5701773, 38.787073400095025 ], [ 23.5701472, 38.787088600095018 ], [ 23.5701454, 38.787114800095026 ], [ 23.570172, 38.787143800095031 ] ] ] } },
{ "type": "Feature", "properties": { "osm_id": 136247518, "name": null, "label": "natural:wood", "natural": "wood" }, "geometry": { "type": "MultiPolygon", "coordinates": [ [ [ [ 23.580075, 38.765141000091845 ], [ 23.579799, 38.765526000091889 ], [ 23.579576, 38.766147000091991 ], [ 23.579574, 38.766533000092032 ], [ 23.580038, 38.766728000092066 ], [ 23.580449, 38.766708000092059 ], [ 23.581026, 38.766431000092027 ], [ 23.58122, 38.76617500009197 ], [ 23.581388, 38.765596000091904 ], [ 23.581526, 38.765403000091879 ], [ 23.581909, 38.76544800009188 ], [ 23.582018, 38.765641000091911 ], [ 23.581961, 38.765941000091942 ], [ 23.581904, 38.766349000092013 ], [ 23.581929, 38.766756000092073 ], [ 23.582448, 38.766994000092097 ], [ 23.582994, 38.767296000092145 ], [ 23.583322, 38.767555000092194 ], [ 23.583894, 38.768115000092266 ], [ 23.584138, 38.76852300009233 ], [ 23.584025, 38.769038000092394 ], [ 23.583748, 38.769616000092476 ], [ 23.584349, 38.769876000092523 ], [ 23.584624, 38.769748000092505 ], [ 23.5849, 38.76944800009246 ], [ 23.585204, 38.768935000092391 ], [ 23.585454, 38.768464000092322 ], [ 23.5859333, 38.767670500092201 ], [ 23.5861494, 38.766731300092054 ], [ 23.586109, 38.766216000092001 ], [ 23.585721, 38.765522000091892 ], [ 23.585263, 38.765348000091876 ], [ 23.584345, 38.76531800009186 ], [ 23.583933769421485, 38.764876308058 ], [ 23.580201167827433, 38.764876308058 ], [ 23.580075, 38.765141000091845 ] ] ], [ [ [ 23.577417, 38.765217000091845 ], [ 23.577937, 38.765219000091854 ], [ 23.578349, 38.76502700009182 ], [ 23.578608581894763, 38.764876308058 ], [ 23.576716907384274, 38.764876308058 ], [ 23.577417, 38.765217000091845 ] ] ] ] } },
{ "type": "Feature", "properties": { "osm_id": 640160071, "name": null, "label": "natural:bare_rock", "natural": "bare_rock" }, "geometry": { "type": "Polygon", "coordinates": [ [ [ 23.5886239, 38.769866800092537 ], [ 23.5886664, 38.769888900092525 ], [ 23.5886982, 38.769882000092522 ], [ 23.5887212, 38.769862700092517 ], [ 23.5887106, 38.769828200092526 ], [ 23.5886628, 38.769815800092516 ], [ 23.5886186, 38.769810300092523 ], [ 23.5885956, 38.769819900092514 ], [ 23.5885938, 38.769843400092519 ], [ 23.5886239, 38.769866800092537 ] ] ] } },
{ "type": "Feature", "properties": { "osm_id": 640160073, "name": null, "label": "natural:bare_rock", "natural": "bare_rock" }, "geometry": { "type": "Polygon", "coordinates": [ [ [ 23.5884752, 38.769850300092521 ], [ 23.5885018, 38.769857200092524 ], [ 23.5885372, 38.769855800092515 ], [ 23.5885531, 38.769842000092517 ], [ 23.5885566, 38.769819900092514 ], [ 23.588523, 38.769796500092511 ], [ 23.5884859, 38.769804700092514 ], [ 23.5884699, 38.769828200092526 ], [ 23.5884752, 38.769850300092521 ] ] ] } },
{ "type": "Feature", "properties": { "osm_id": 640160074, "name": null, "label": "natural:bare_rock", "natural": "bare_rock" }, "geometry": { "type": "Polygon", "coordinates": [ [ [ 23.5883708, 38.769807500092504 ], [ 23.5883991, 38.769814400092514 ], [ 23.5884239, 38.769807500092504 ], [ 23.5884416, 38.769796500092511 ], [ 23.5884275, 38.769773000092506 ], [ 23.5883797, 38.769760600092511 ], [ 23.5883638, 38.769786800092511 ], [ 23.5883708, 38.769807500092504 ] ] ] } },
{ "type": "Feature", "properties": { "osm_id": 166234824, "name": null, "label": "natural:beach", "natural": "beach" }, "geometry": { "type": "Polygon", "coordinates": [ [ [ 23.5878337, 38.764989200091819 ], [ 23.5878756, 38.765290200091869 ], [ 23.5879414, 38.765721800091924 ], [ 23.5880013, 38.766176700091982 ], [ 23.588121, 38.766568600092043 ], [ 23.5884052, 38.767410800092179 ], [ 23.5886446, 38.76799410009226 ], [ 23.58881, 38.76810240009226 ], [ 23.588721, 38.767661700092205 ], [ 23.5886266, 38.767364300092147 ], [ 23.5883784, 38.766811000092076 ], [ 23.5881804, 38.766383200092022 ], [ 23.5881371, 38.766350300092014 ], [ 23.5880942, 38.765819500091936 ], [ 23.5881239, 38.765470600091888 ], [ 23.5881209, 38.765371200091863 ], [ 23.5882135, 38.765085200091832 ], [ 23.5883302, 38.764910300091813 ], [ 23.588360015778001, 38.764876308058 ], [ 23.587927510976311, 38.764876308058 ], [ 23.5878337, 38.764989200091819 ] ] ] } },
{ "type": "Feature", "properties": { "osm_id": 640160068, "name": null, "label": "natural:bare_rock", "natural": "bare_rock" }, "geometry": { "type": "Polygon", "coordinates": [ [ [ 23.5958575, 38.766415200092013 ], [ 23.5958951, 38.766396300092012 ], [ 23.5959353, 38.766369200092015 ], [ 23.5959299, 38.766333600092011 ], [ 23.5958951, 38.766319000092011 ], [ 23.5958682, 38.766342000092017 ], [ 23.5958387, 38.766375400092024 ], [ 23.5958307, 38.766402600092022 ], [ 23.5958575, 38.766415200092013 ] ] ] } },
{ "type": "Feature", "properties": { "osm_id": 640160067, "name": null, "label": "natural:bare_rock", "natural": "bare_rock" }, "geometry": { "type": "Polygon", "coordinates": [ [ [ 23.596568, 38.766738900092065 ], [ 23.5965926, 38.766744900092071 ], [ 23.5966142, 38.766735300092073 ], [ 23.5966157, 38.766716100092069 ], [ 23.5965849, 38.766705200092062 ], [ 23.5965603, 38.766711300092062 ], [ 23.5965587, 38.766725700092067 ], [ 23.596568, 38.766738900092065 ] ] ] } },
{ "type": "Feature", "properties": { "osm_id": 640160066, "name": null, "label": "natural:bare_rock", "natural": "bare_rock" }, "geometry": { "type": "Polygon", "coordinates": [ [ [ 23.5967636, 38.766770100092074 ], [ 23.5967975, 38.766782100092072 ], [ 23.5968376, 38.766771300092074 ], [ 23.5968545, 38.766747300092071 ], [ 23.5968191, 38.766732900092059 ], [ 23.5967713, 38.766723300092067 ], [ 23.5967544, 38.766747300092071 ], [ 23.5967636, 38.766770100092074 ] ] ] } },
{ "type": "Feature", "properties": { "osm_id": 502060805, "name": null, "label": "natural:beach", "natural": "beach" }, "geometry": { "type": "Polygon", "coordinates": [ [ [ 23.5981596, 38.765965500091959 ], [ 23.5980295, 38.76604160009196 ], [ 23.5978832, 38.766149300091982 ], [ 23.5977002, 38.766257100091991 ], [ 23.5975592, 38.766364000092011 ], [ 23.5979666, 38.766283400091993 ], [ 23.598227149432283, 38.76626623772335 ], [ 23.598227149432283, 38.765935404287262 ], [ 23.5981596, 38.765965500091959 ] ] ] } },
{ "type": "Feature", "properties": { "osm_id": 640160064, "name": null, "label": "natural:bare_rock", "natural": "bare_rock" }, "geometry": { "type": "Polygon", "coordinates": [ [ [ 23.5972119, 38.766683600092065 ], [ 23.597232, 38.766690800092057 ], [ 23.5972504, 38.766686000092065 ], [ 23.5972566, 38.766663200092061 ], [ 23.5972643, 38.766648800092035 ], [ 23.5972628, 38.766630800092052 ], [ 23.5972427, 38.766616400092055 ], [ 23.5972273, 38.766611600092034 ], [ 23.5972088, 38.766618800092047 ], [ 23.5971996, 38.766639200092051 ], [ 23.5971981, 38.766670400092053 ], [ 23.5972119, 38.766683600092065 ] ] ] } },
{ "type": "Feature", "properties": { "osm_id": 640161557, "name": null, "label": "natural:bare_rock", "natural": "bare_rock" }, "geometry": { "type": "Polygon", "coordinates": [ [ [ 23.5871303, 38.778697200093809 ], [ 23.5871337, 38.778700500093798 ], [ 23.5871473, 38.778707700093804 ], [ 23.5871761, 38.778714700093801 ], [ 23.5872012, 38.778715500093796 ], [ 23.5872277, 38.778711100093808 ], [ 23.5872613, 38.778698000093804 ], [ 23.587271, 38.778684100093798 ], [ 23.5872733, 38.778669800093802 ], [ 23.5872623, 38.778656700093791 ], [ 23.5872442, 38.778653600093797 ], [ 23.5872284, 38.778654400093792 ], [ 23.5871959, 38.778665300093785 ], [ 23.5871635, 38.778677200093796 ], [ 23.5871325, 38.778688600093794 ], [ 23.5871297, 38.778693700093797 ], [ 23.5871303, 38.778697200093809 ] ] ] } }
]
}
