{
"type": "FeatureCollection",
"name": "patch_42882_linestring",
"crs": { "type": "name", "properties": { "name": "urn:ogc:def:crs:OGC:1.3:CRS84" } },
"features": [
{ "type": "Feature", "properties": { "@type": "way", "@id": 146857106, "access": null, "alt_name": null, "alt_name1": null, "amenity": null, "archaeological_site": null, "barrier": "city_wall", "building": null, "cables": null, "castle_type": null, "check_date:surface": null, "cuisine": null, "ele": null, "emergency": null, "entrance": null, "fee": null, "fortification_type": null, "handrail": null, "highway": null, "historic": "citywalls", "historic:civilization": "ancient_greek", "historic:period": "classical_greece", "incline": null, "indoor": null, "int_name": null, "int_ref": null, "landuse": null, "lanes": null, "layer": null, "leaf_type": null, "lit": null, "location": null, "man_made": null, "maxspeed": null, "name": null, "name:ar": null, "name:bg": null, "name:ca": null, "name:de": null, "name:el": null, "name:en": null, "name:es": null, "name:fr": null, "name:it": null, "name:mk": null, "name:nl": null, "name:pl": null, "name:prefix": null, "name:pt": null, "name:ro": null, "name:ru": null, "name:sq": null, "name:sr": null, "name:tr": null, "name:uk": null, "natural": null, "noexit": null, "oneway": null, "opening_hours": null, "operator": null, "parking": null, "power": null, "ramp": null, "ref": null, "religion": null, "ruin_type": null, "ruins": null, "sac_scale": null, "smoothness": null, "source": null, "source:ref": null, "start_date": null, "step_count": null, "substance": null, "surface": null, "toll": null, "tourism": null, "tower": null, "traffic_sign": null, "traffic_sign:direction": null, "tunnel": null, "voltage": null, "wall": null, "wheelchair": null, "wifi": null, "wikidata": null, "wikipedia": null, "label": "historic:citywalls" }, "geometry": { "type": "LineString", "coordinates": [ [ 22.87050693964132, 37.891309520105594 ], [ 22.8705305, 37.8912604 ], [ 22.8703479, 37.8912185 ], [ 22.8703876, 37.8911168 ], [ 22.8705198, 37.8911368 ], [ 22.8705363, 37.8910944 ], [ 22.8705539, 37.8910507 ], [ 22.8704263, 37.8910091 ], [ 22.8704855, 37.8908899 ], [ 22.8705728, 37.8909206 ], [ 22.8705899, 37.8907768 ], [ 22.8705011, 37.8907903 ], [ 22.8704622, 37.8906747 ], [ 22.8705696, 37.8906477 ], [ 22.8705073, 37.8904559 ], [ 22.8699047, 37.8904161 ] ] } },
{ "type": "Feature", "properties": { "@type": "way", "@id": 146863148, "access": null, "alt_name": null, "alt_name1": null, "amenity": null, "archaeological_site": null, "barrier": "wall", "building": null, "cables": null, "castle_type": null, "check_date:surface": null, "cuisine": null, "ele": null, "emergency": null, "entrance": null, "fee": null, "fortification_type": null, "handrail": null, "highway": null, "historic": "ruins", "historic:civilization": null, "historic:period": null, "incline": null, "indoor": null, "int_name": null, "int_ref": null, "landuse": null, "lanes": null, "layer": null, "leaf_type": null, "lit": null, "location": null, "man_made": null, "maxspeed": null, "name": null, "name:ar": null, "name:bg": null, "name:ca": null, "name:de": null, "name:el": null, "name:en": null, "name:es": null, "name:fr": null, "name:it": null, "name:mk": null, "name:nl": null, "name:pl": null, "name:prefix": null, "name:pt": null, "name:ro": null, "name:ru": null, "name:sq": null, "name:sr": null, "name:tr": null, "name:uk": null, "natural": null, "noexit": null, "oneway": null, "opening_hours": null, "operator": null, "parking": null, "power": null, "ramp": null, "ref": null, "religion": null, "ruin_type": "wall_medium", "ruins": null, "sac_scale": null, "smoothness": null, "source": null, "source:ref": null, "start_date": null, "step_count": null, "substance": null, "surface": null, "toll": null, "tourism": null, "tower": null, "traffic_sign": null, "traffic_sign:direction": null, "tunnel": null, "voltage": null, "wall": "castle_wall", "wheelchair": null, "wifi": null, "wikidata": null, "wikipedia": null, "label": "historic:ruins" }, "geometry": { "type": "LineString", "coordinates": [ [ 22.8686765, 37.8905855 ], [ 22.8685832, 37.8905015 ], [ 22.8684358, 37.8902363 ], [ 22.8684418, 37.8901508 ], [ 22.8685826, 37.8901045 ] ] } },
{ "type": "Feature", "properties": { "@type": "way", "@id": 146863150, "access": null, "alt_name": null, "alt_name1": null, "amenity": null, "archaeological_site": null, "barrier": "city_wall", "building": null, "cables": null, "castle_type": null, "check_date:surface": null, "cuisine": null, "ele": null, "emergency": null, "entrance": null, "fee": null, "fortification_type": null, "handrail": null, "highway": null, "historic": "citywalls", "historic:civilization": null, "historic:period": null, "incline": null, "indoor": null, "int_name": null, "int_ref": null, "landuse": null, "lanes": null, "layer": null, "leaf_type": null, "lit": null, "location": null, "man_made": null, "maxspeed": null, "name": null, "name:ar": null, "name:bg": null, "name:ca": null, "name:de": null, "name:el": null, "name:en": null, "name:es": null, "name:fr": null, "name:it": null, "name:mk": null, "name:nl": null, "name:pl": null, "name:prefix": null, "name:pt": null, "name:ro": null, "name:ru": null, "name:sq": null, "name:sr": null, "name:tr": null, "name:uk": null, "natural": null, "noexit": null, "oneway": null, "opening_hours": null, "operator": null, "parking": null, "power": null, "ramp": null, "ref": null, "religion": null, "ruin_type": null, "ruins": null, "sac_scale": null, "smoothness": null, "source": null, "source:ref": null, "start_date": null, "step_count": null, "substance": null, "surface": null, "toll": null, "tourism": null, "tower": null, "traffic_sign": null, "traffic_sign:direction": null, "tunnel": null, "voltage": null, "wall": "castle_wall", "wheelchair": null, "wifi": null, "wikidata": null, "wikipedia": null, "label": "historic:citywalls" }, "geometry": { "type": "LineString", "coordinates": [ [ 22.8687934, 37.8908316 ], [ 22.8687188, 37.8907942 ], [ 22.8687669, 37.8907448 ], [ 22.868804, 37.8907599 ], [ 22.8689461, 37.8905807 ], [ 22.8689207, 37.8905603 ], [ 22.868946, 37.8905308 ], [ 22.8689709, 37.890544 ], [ 22.8690935, 37.8904346 ] ] } },
{ "type": "Feature", "properties": { "@type": "way", "@id": 367158080, "access": null, "alt_name": null, "alt_name1": null, "amenity": null, "archaeological_site": null, "barrier": null, "building": null, "cables": null, "castle_type": null, "check_date:surface": null, "cuisine": null, "ele": null, "emergency": null, "entrance": null, "fee": null, "fortification_type": null, "handrail": null, "highway": null, "historic": null, "historic:civilization": null, "historic:period": null, "incline": null, "indoor": null, "int_name": null, "int_ref": null, "landuse": null, "lanes": null, "layer": null, "leaf_type": null, "lit": null, "location": null, "man_made": null, "maxspeed": null, "name": null, "name:ar": null, "name:bg": null, "name:ca": null, "name:de": null, "name:el": null, "name:en": null, "name:es": null, "name:fr": null, "name:it": null, "name:mk": null, "name:nl": null, "name:pl": null, "name:prefix": null, "name:pt": null, "name:ro": null, "name:ru": null, "name:sq": null, "name:sr": null, "name:tr": null, "name:uk": null, "natural": "cliff", "noexit": null, "oneway": null, "opening_hours": null, "operator": null, "parking": null, "power": null, "ramp": null, "ref": null, "religion": null, "ruin_type": null, "ruins": null, "sac_scale": null, "smoothness": null, "source": null, "source:ref": null, "start_date": null, "step_count": null, "substance": null, "surface": null, "toll": null, "tourism": null, "tower": null, "traffic_sign": null, "traffic_sign:direction": null, "tunnel": null, "voltage": null, "wall": null, "wheelchair": null, "wifi": null, "wikidata": null, "wikipedia": null, "label": "natural:cliff" }, "geometry": { "type": "LineString", "coordinates": [ [ 22.8695491, 37.8889291 ], [ 22.8693603, 37.8885362 ], [ 22.8693026, 37.8883707 ], [ 22.8692916, 37.8882788 ], [ 22.8691371, 37.8880891 ], [ 22.8689311, 37.8878859 ], [ 22.8687938, 37.8876827 ] ] } },
{ "type": "Feature", "properties": { "@type": "way", "@id": 519377873, "access": null, "alt_name": null, "alt_name1": null, "amenity": null, "archaeological_site": null, "barrier": null, "building": null, "cables": null, "castle_type": null, "check_date:surface": null, "cuisine": null, "ele": null, "emergency": null, "entrance": null, "fee": null, "fortification_type": null, "handrail": null, "highway": null, "historic": null, "historic:civilization": null, "historic:period": null, "incline": null, "indoor": null, "int_name": null, "int_ref": null, "landuse": null, "lanes": null, "layer": null, "leaf_type": null, "lit": null, "location": null, "man_made": null, "maxspeed": null, "name": null, "name:ar": null, "name:bg": null, "name:ca": null, "name:de": null, "name:el": null, "name:en": null, "name:es": null, "name:fr": null, "name:it": null, "name:mk": null, "name:nl": null, "name:pl": null, "name:prefix": null, "name:pt": null, "name:ro": null, "name:ru": null, "name:sq": null, "name:sr": null, "name:tr": null, "name:uk": null, "natural": "cliff", "noexit": null, "oneway": null, "opening_hours": null, "operator": null, "parking": null, "power": null, "ramp": null, "ref": null, "religion": null, "ruin_type": null, "ruins": null, "sac_scale": null, "smoothness": null, "source": null, "source:ref": null, "start_date": null, "step_count": null, "substance": null, "surface": null, "toll": null, "tourism": null, "tower": null, "traffic_sign": null, "traffic_sign:direction": null, "tunnel": null, "voltage": null, "wall": null, "wheelchair": null, "wifi": null, "wikidata": null, "wikipedia": null, "label": "natural:cliff" }, "geometry": { "type": "LineString", "coordinates": [ [ 22.8696602, 37.8891275 ], [ 22.8698007, 37.8892295 ], [ 22.8700928, 37.889194 ], [ 22.8703231, 37.8892025 ], [ 22.870767, 37.8891098 ], [ 22.8711715, 37.8890654 ], [ 22.8714412, 37.8890876 ], [ 22.8718232, 37.8890433 ], [ 22.8721715, 37.888928 ], [ 22.8725592, 37.888826 ], [ 22.8729019, 37.8887018 ], [ 22.873239, 37.8886797 ], [ 22.873621, 37.8886797 ], [ 22.873739, 37.8887728 ], [ 22.8737783, 37.8888836 ], [ 22.8740143, 37.8891009 ], [ 22.8745873, 37.8891718 ], [ 22.874975, 37.8890388 ], [ 22.8754188, 37.8889102 ], [ 22.8756492, 37.8889856 ], [ 22.8759244, 37.8890122 ], [ 22.876194465627414, 37.889018584021471 ] ] } }
]
}
