{
"type": "FeatureCollection",
"name": "patch_42882_features",
"crs": { "type": "name", "properties": { "name": "urn:ogc:def:crs:OGC:1.3:CRS84" } },
"features": [
{ "type": "Feature", "properties": { "@type": "way", "@id": 146857106, "access": null, "alt_name": null, "alt_name1": null, "amenity": null, "archaeological_site": null, "barrier": "city_wall", "building": null, "cables": null, "castle_type": null, "check_date:surface": null, "cuisine": null, "ele": null, "emergency": null, "entrance": null, "fee": null, "fortification_type": null, "handrail": null, "highway": null, "historic": "citywalls", "historic:civilization": "ancient_greek", "historic:period": "classical_greece", "incline": null, "indoor": null, "int_name": null, "int_ref": null, "landuse": null, "lanes": null, "layer": null, "leaf_type": null, "lit": null, "location": null, "man_made": null, "maxspeed": null, "name": null, "name:ar": null, "name:bg": null, "name:ca": null, "name:de": null, "name:el": null, "name:en": null, "name:es": null, "name:fr": null, "name:it": null, "name:mk": null, "name:nl": null, "name:pl": null, "name:prefix": null, "name:pt": null, "name:ro": null, "name:ru": null, "name:sq": null, "name:sr": null, "name:tr": null, "name:uk": null, "natural": null, "noexit": null, "oneway": null, "opening_hours": null, "operator": null, "parking": null, "power": null, "ramp": null, "ref": null, "religion": null, "ruin_type": null, "ruins": null, "sac_scale": null, "smoothness": null, "source": null, "source:ref": null, "start_date": null, "step_count": null, "substance": null, "surface": null, "toll": null, "tourism": null, "tower": null, "traffic_sign": null, "traffic_sign:direction": null, "tunnel": null, "voltage": null, "wall": null, "wheelchair": null, "wifi": null, "wikidata": null, "wikipedia": null, "label": "historic:citywalls" }, "geometry": { "type": "LineString", "coordinates": [ [ 22.87050693964132, 37.891309520105594 ], [ 22.8705305, 37.8912604 ], [ 22.8703479, 37.8912185 ], [ 22.8703876, 37.8911168 ], [ 22.8705198, 37.8911368 ], [ 22.8705363, 37.8910944 ], [ 22.8705539, 37.8910507 ], [ 22.8704263, 37.8910091 ], [ 22.8704855, 37.8908899 ], [ 22.8705728, 37.8909206 ], [ 22.8705899, 37.8907768 ], [ 22.8705011, 37.8907903 ], [ 22.8704622, 37.8906747 ], [ 22.8705696, 37.8906477 ], [ 22.8705073, 37.8904559 ], [ 22.8699047, 37.8904161 ] ] } },
{ "type": "Feature", "properties": { "@type": "way", "@id": 146863148, "access": null, "alt_name": null, "alt_name1": null, "amenity": null, "archaeological_site": null, "barrier": "wall", "building": null, "cables": null, "castle_type": null, "check_date:surface": null, "cuisine": null, "ele": null, "emergency": null, "entrance": null, "fee": null, "fortification_type": null, "handrail": null, "highway": null, "historic": "ruins", "historic:civilization": null, "historic:period": null, "incline": null, "indoor": null, "int_name": null, "int_ref": null, "landuse": null, "lanes": null, "layer": null, "leaf_type": null, "lit": null, "location": null, "man_made": null, "maxspeed": null, "name": null, "name:ar": null, "name:bg": null, "name:ca": null, "name:de": null, "name:el": null, "name:en": null, "name:es": null, "name:fr": null, "name:it": null, "name:mk": null, "name:nl": null, "name:pl": null, "name:prefix": null, "name:pt": null, "name:ro": null, "name:ru": null, "name:sq": null, "name:sr": null, "name:tr": null, "name:uk": null, "natural": null, "noexit": null, "oneway": null, "opening_hours": null, "operator": null, "parking": null, "power": null, "ramp": null, "ref": null, "religion": null, "ruin_type": "wall_medium", "ruins": null, "sac_scale": null, "smoothness": null, "source": null, "source:ref": null, "start_date": null, "step_count": null, "substance": null, "surface": null, "toll": null, "tourism": null, "tower": null, "traffic_sign": null, "traffic_sign:direction": null, "tunnel": null, "voltage": null, "wall": "castle_wall", "wheelchair": null, "wifi": null, "wikidata": null, "wikipedia": null, "label": "historic:ruins" }, "geometry": { "type": "LineString", "coordinates": [ [ 22.8686765, 37.8905855 ], [ 22.8685832, 37.8905015 ], [ 22.8684358, 37.8902363 ], [ 22.8684418, 37.8901508 ], [ 22.8685826, 37.8901045 ] ] } },
{ "type": "Feature", "properties": { "@type": "way", "@id": 146863150, "access": null, "alt_name": null, "alt_name1": null, "amenity": null, "archaeological_site": null, "barrier": "city_wall", "building": null, "cables": null, "castle_type": null, "check_date:surface": null, "cuisine": null, "ele": null, "emergency": null, "entrance": null, "fee": null, "fortification_type": null, "handrail": null, "highway": null, "historic": "citywalls", "historic:civilization": null, "historic:period": null, "incline": null, "indoor": null, "int_name": null, "int_ref": null, "landuse": null, "lanes": null, "layer": null, "leaf_type": null, "lit": null, "location": null, "man_made": null, "maxspeed": null, "name": null, "name:ar": null, "name:bg": null, "name:ca": null, "name:de": null, "name:el": null, "name:en": null, "name:es": null, "name:fr": null, "name:it": null, "name:mk": null, "name:nl": null, "name:pl": null, "name:prefix": null, "name:pt": null, "name:ro": null, "name:ru": null, "name:sq": null, "name:sr": null, "name:tr": null, "name:uk": null, "natural": null, "noexit": null, "oneway": null, "opening_hours": null, "operator": null, "parking": null, "power": null, "ramp": null, "ref": null, "religion": null, "ruin_type": null, "ruins": null, "sac_scale": null, "smoothness": null, "source": null, "source:ref": null, "start_date": null, "step_count": null, "substance": null, "surface": null, "toll": null, "tourism": null, "tower": null, "traffic_sign": null, "traffic_sign:direction": null, "tunnel": null, "voltage": null, "wall": "castle_wall", "wheelchair": null, "wifi": null, "wikidata": null, "wikipedia": null, "label": "historic:citywalls" }, "geometry": { "type": "LineString", "coordinates": [ [ 22.8687934, 37.8908316 ], [ 22.8687188, 37.8907942 ], [ 22.8687669, 37.8907448 ], [ 22.868804, 37.8907599 ], [ 22.8689461, 37.8905807 ], [ 22.8689207, 37.8905603 ], [ 22.868946, 37.8905308 ], [ 22.8689709, 37.890544 ], [ 22.8690935, 37.8904346 ] ] } },
{ "type": "Feature", "properties": { "@type": "way", "@id": 367158080, "access": null, "alt_name": null, "alt_name1": null, "amenity": null, "archaeological_site": null, "barrier": null, "building": null, "cables": null, "castle_type": null, "check_date:surface": null, "cuisine": null, "ele": null, "emergency": null, "entrance": null, "fee": null, "fortification_type": null, "handrail": null, "highway": null, "historic": null, "historic:civilization": null, "historic:period": null, "incline": null, "indoor": null, "int_name": null, "int_ref": null, "landuse": null, "lanes": null, "layer": null, "leaf_type": null, "lit": null, "location": null, "man_made": null, "maxspeed": null, "name": null, "name:ar": null, "name:bg": null, "name:ca": null, "name:de": null, "name:el": null, "name:en": null, "name:es": null, "name:fr": null, "name:it": null, "name:mk": null, "name:nl": null, "name:pl": null, "name:prefix": null, "name:pt": null, "name:ro": null, "name:ru": null, "name:sq": null, "name:sr": null, "name:tr": null, "name:uk": null, "natural": "cliff", "noexit": null, "oneway": null, "opening_hours": null, "operator": null, "parking": null, "power": null, "ramp": null, "ref": null, "religion": null, "ruin_type": null, "ruins": null, "sac_scale": null, "smoothness": null, "source": null, "source:ref": null, "start_date": null, "step_count": null, "substance": null, "surface": null, "toll": null, "tourism": null, "tower": null, "traffic_sign": null, "traffic_sign:direction": null, "tunnel": null, "voltage": null, "wall": null, "wheelchair": null, "wifi": null, "wikidata": null, "wikipedia": null, "label": "natural:cliff" }, "geometry": { "type": "LineString", "coordinates": [ [ 22.8695491, 37.8889291 ], [ 22.8693603, 37.8885362 ], [ 22.8693026, 37.8883707 ], [ 22.8692916, 37.8882788 ], [ 22.8691371, 37.8880891 ], [ 22.8689311, 37.8878859 ], [ 22.8687938, 37.8876827 ] ] } },
{ "type": "Feature", "properties": { "@type": "way", "@id": 519377873, "access": null, "alt_name": null, "alt_name1": null, "amenity": null, "archaeological_site": null, "barrier": null, "building": null, "cables": null, "castle_type": null, "check_date:surface": null, "cuisine": null, "ele": null, "emergency": null, "entrance": null, "fee": null, "fortification_type": null, "handrail": null, "highway": null, "historic": null, "historic:civilization": null, "historic:period": null, "incline": null, "indoor": null, "int_name": null, "int_ref": null, "landuse": null, "lanes": null, "layer": null, "leaf_type": null, "lit": null, "location": null, "man_made": null, "maxspeed": null, "name": null, "name:ar": null, "name:bg": null, "name:ca": null, "name:de": null, "name:el": null, "name:en": null, "name:es": null, "name:fr": null, "name:it": null, "name:mk": null, "name:nl": null, "name:pl": null, "name:prefix": null, "name:pt": null, "name:ro": null, "name:ru": null, "name:sq": null, "name:sr": null, "name:tr": null, "name:uk": null, "natural": "cliff", "noexit": null, "oneway": null, "opening_hours": null, "operator": null, "parking": null, "power": null, "ramp": null, "ref": null, "religion": null, "ruin_type": null, "ruins": null, "sac_scale": null, "smoothness": null, "source": null, "source:ref": null, "start_date": null, "step_count": null, "substance": null, "surface": null, "toll": null, "tourism": null, "tower": null, "traffic_sign": null, "traffic_sign:direction": null, "tunnel": null, "voltage": null, "wall": null, "wheelchair": null, "wifi": null, "wikidata": null, "wikipedia": null, "label": "natural:cliff" }, "geometry": { "type": "LineString", "coordinates": [ [ 22.8696602, 37.8891275 ], [ 22.8698007, 37.8892295 ], [ 22.8700928, 37.889194 ], [ 22.8703231, 37.8892025 ], [ 22.870767, 37.8891098 ], [ 22.8711715, 37.8890654 ], [ 22.8714412, 37.8890876 ], [ 22.8718232, 37.8890433 ], [ 22.8721715, 37.888928 ], [ 22.8725592, 37.888826 ], [ 22.8729019, 37.8887018 ], [ 22.873239, 37.8886797 ], [ 22.873621, 37.8886797 ], [ 22.873739, 37.8887728 ], [ 22.8737783, 37.8888836 ], [ 22.8740143, 37.8891009 ], [ 22.8745873, 37.8891718 ], [ 22.874975, 37.8890388 ], [ 22.8754188, 37.8889102 ], [ 22.8756492, 37.8889856 ], [ 22.8759244, 37.8890122 ], [ 22.876194465627414, 37.889018584021471 ] ] } },
{ "type": "Feature", "properties": { "@type": "node", "@id": 1600877616, "access": null, "alt_name": null, "alt_name1": null, "amenity": null, "archaeological_site": null, "barrier": null, "building": null, "cables": null, "castle_type": null, "check_date:surface": null, "cuisine": null, "ele": null, "emergency": null, "entrance": null, "fee": null, "fortification_type": null, "handrail": null, "highway": null, "historic": "city_gate", "historic:civilization": null, "historic:period": null, "incline": null, "indoor": null, "int_name": null, "int_ref": null, "landuse": null, "lanes": null, "layer": null, "leaf_type": null, "lit": null, "location": null, "man_made": null, "maxspeed": null, "name": null, "name:ar": null, "name:bg": null, "name:ca": null, "name:de": null, "name:el": null, "name:en": null, "name:es": null, "name:fr": null, "name:it": null, "name:mk": null, "name:nl": null, "name:pl": null, "name:prefix": null, "name:pt": null, "name:ro": null, "name:ru": null, "name:sq": null, "name:sr": null, "name:tr": null, "name:uk": null, "natural": null, "noexit": null, "oneway": null, "opening_hours": null, "operator": null, "parking": null, "power": null, "ramp": null, "ref": null, "religion": null, "ruin_type": null, "ruins": null, "sac_scale": null, "smoothness": null, "source": null, "source:ref": null, "start_date": null, "step_count": null, "substance": null, "surface": null, "toll": null, "tourism": null, "tower": null, "traffic_sign": null, "traffic_sign:direction": null, "tunnel": null, "voltage": null, "wall": null, "wheelchair": null, "wifi": null, "wikidata": null, "wikipedia": null, "label": "historic:city_gate" }, "geometry": { "type": "Point", "coordinates": [ 22.8688584, 37.8899913 ] } },
{ "type": "Feature", "properties": { "@type": "node", "@id": 1600877815, "access": null, "alt_name": null, "alt_name1": null, "amenity": null, "archaeological_site": null, "barrier": null, "building": null, "cables": null, "castle_type": null, "check_date:surface": null, "cuisine": null, "ele": null, "emergency": null, "entrance": null, "fee": null, "fortification_type": null, "handrail": null, "highway": null, "historic": "city_gate", "historic:civilization": null, "historic:period": null, "incline": null, "indoor": null, "int_name": null, "int_ref": null, "landuse": null, "lanes": null, "layer": null, "leaf_type": null, "lit": null, "location": null, "man_made": null, "maxspeed": null, "name": null, "name:ar": null, "name:bg": null, "name:ca": null, "name:de": null, "name:el": null, "name:en": null, "name:es": null, "name:fr": null, "name:it": null, "name:mk": null, "name:nl": null, "name:pl": null, "name:prefix": null, "name:pt": null, "name:ro": null, "name:ru": null, "name:sq": null, "name:sr": null, "name:tr": null, "name:uk": null, "natural": null, "noexit": null, "oneway": null, "opening_hours": null, "operator": null, "parking": null, "power": null, "ramp": null, "ref": null, "religion": null, "ruin_type": null, "ruins": null, "sac_scale": null, "smoothness": null, "source": null, "source:ref": null, "start_date": null, "step_count": null, "substance": null, "surface": null, "toll": null, "tourism": null, "tower": null, "traffic_sign": null, "traffic_sign:direction": null, "tunnel": null, "voltage": null, "wall": null, "wheelchair": null, "wifi": null, "wikidata": null, "wikipedia": null, "label": "historic:city_gate" }, "geometry": { "type": "Point", "coordinates": [ 22.8697287, 37.8906693 ] } },
{ "type": "Feature", "properties": { "@type": "node", "@id": 1600877961, "access": null, "alt_name": null, "alt_name1": null, "amenity": null, "archaeological_site": null, "barrier": null, "building": null, "cables": null, "castle_type": null, "check_date:surface": null, "cuisine": null, "ele": null, "emergency": null, "entrance": null, "fee": null, "fortification_type": null, "handrail": null, "highway": null, "historic": "city_gate", "historic:civilization": null, "historic:period": null, "incline": null, "indoor": null, "int_name": null, "int_ref": null, "landuse": null, "lanes": null, "layer": null, "leaf_type": null, "lit": null, "location": null, "man_made": null, "maxspeed": null, "name": null, "name:ar": null, "name:bg": null, "name:ca": null, "name:de": null, "name:el": null, "name:en": null, "name:es": null, "name:fr": null, "name:it": null, "name:mk": null, "name:nl": null, "name:pl": null, "name:prefix": null, "name:pt": null, "name:ro": null, "name:ru": null, "name:sq": null, "name:sr": null, "name:tr": null, "name:uk": null, "natural": null, "noexit": null, "oneway": null, "opening_hours": null, "operator": null, "parking": null, "power": null, "ramp": null, "ref": null, "religion": null, "ruin_type": null, "ruins": null, "sac_scale": null, "smoothness": null, "source": null, "source:ref": null, "start_date": null, "step_count": null, "substance": null, "surface": null, "toll": null, "tourism": null, "tower": null, "traffic_sign": null, "traffic_sign:direction": null, "tunnel": null, "voltage": null, "wall": null, "wheelchair": null, "wifi": null, "wikidata": null, "wikipedia": null, "label": "historic:city_gate" }, "geometry": { "type": "Point", "coordinates": [ 22.8705363, 37.8910944 ] } },
{ "type": "Feature", "properties": { "@type": "node", "@id": 2334442832, "access": null, "alt_name": null, "alt_name1": null, "amenity": "cafe", "archaeological_site": null, "barrier": null, "building": null, "cables": null, "castle_type": null, "check_date:surface": null, "cuisine": "greek", "ele": null, "emergency": null, "entrance": null, "fee": null, "fortification_type": null, "handrail": null, "highway": null, "historic": null, "historic:civilization": null, "historic:period": null, "incline": null, "indoor": null, "int_name": null, "int_ref": null, "landuse": null, "lanes": null, "layer": null, "leaf_type": null, "lit": null, "location": null, "man_made": null, "maxspeed": null, "name": null, "name:ar": null, "name:bg": null, "name:ca": null, "name:de": null, "name:el": null, "name:en": null, "name:es": null, "name:fr": null, "name:it": null, "name:mk": null, "name:nl": null, "name:pl": null, "name:prefix": null, "name:pt": null, "name:ro": null, "name:ru": null, "name:sq": null, "name:sr": null, "name:tr": null, "name:uk": null, "natural": null, "noexit": null, "oneway": null, "opening_hours": null, "operator": null, "parking": null, "power": null, "ramp": null, "ref": null, "religion": null, "ruin_type": null, "ruins": null, "sac_scale": null, "smoothness": null, "source": null, "source:ref": null, "start_date": null, "step_count": null, "substance": null, "surface": null, "toll": null, "tourism": null, "tower": null, "traffic_sign": null, "traffic_sign:direction": null, "tunnel": null, "voltage": null, "wall": null, "wheelchair": null, "wifi": "no", "wikidata": null, "wikipedia": null, "label": "amenity:cafe" }, "geometry": { "type": "Point", "coordinates": [ 22.8681029, 37.8895334 ] } },
{ "type": "Feature", "properties": { "@type": "node", "@id": 2338904852, "access": null, "alt_name": null, "alt_name1": null, "amenity": null, "archaeological_site": null, "barrier": null, "building": null, "cables": null, "castle_type": null, "check_date:surface": null, "cuisine": null, "ele": null, "emergency": null, "entrance": null, "fee": null, "fortification_type": null, "handrail": null, "highway": null, "historic": "ruins", "historic:civilization": null, "historic:period": null, "incline": null, "indoor": null, "int_name": null, "int_ref": null, "landuse": null, "lanes": null, "layer": null, "leaf_type": null, "lit": null, "location": null, "man_made": null, "maxspeed": null, "name": "Άγιος Δημήτριος", "name:ar": null, "name:bg": null, "name:ca": null, "name:de": null, "name:el": "Άγιος Δημήτριος", "name:en": "Aghios Dimitrios", "name:es": null, "name:fr": null, "name:it": null, "name:mk": null, "name:nl": null, "name:pl": null, "name:prefix": null, "name:pt": null, "name:ro": null, "name:ru": "Агиос Димитриос", "name:sq": null, "name:sr": null, "name:tr": null, "name:uk": null, "natural": null, "noexit": null, "oneway": null, "opening_hours": null, "operator": null, "parking": null, "power": null, "ramp": null, "ref": null, "religion": null, "ruin_type": null, "ruins": null, "sac_scale": null, "smoothness": null, "source": null, "source:ref": null, "start_date": null, "step_count": null, "substance": null, "surface": null, "toll": null, "tourism": null, "tower": null, "traffic_sign": null, "traffic_sign:direction": null, "tunnel": null, "voltage": null, "wall": null, "wheelchair": null, "wifi": null, "wikidata": null, "wikipedia": null, "label": "historic:ruins" }, "geometry": { "type": "Point", "coordinates": [ 22.8484151, 37.8857086 ] } },
{ "type": "Feature", "properties": { "@type": "node", "@id": 4887559731, "access": null, "alt_name": null, "alt_name1": null, "amenity": "toilets", "archaeological_site": null, "barrier": null, "building": null, "cables": null, "castle_type": null, "check_date:surface": null, "cuisine": null, "ele": null, "emergency": null, "entrance": null, "fee": null, "fortification_type": null, "handrail": null, "highway": null, "historic": null, "historic:civilization": null, "historic:period": null, "incline": null, "indoor": null, "int_name": null, "int_ref": null, "landuse": null, "lanes": null, "layer": null, "leaf_type": null, "lit": null, "location": null, "man_made": null, "maxspeed": null, "name": null, "name:ar": null, "name:bg": null, "name:ca": null, "name:de": null, "name:el": null, "name:en": null, "name:es": null, "name:fr": null, "name:it": null, "name:mk": null, "name:nl": null, "name:pl": null, "name:prefix": null, "name:pt": null, "name:ro": null, "name:ru": null, "name:sq": null, "name:sr": null, "name:tr": null, "name:uk": null, "natural": null, "noexit": null, "oneway": null, "opening_hours": null, "operator": null, "parking": null, "power": null, "ramp": null, "ref": null, "religion": null, "ruin_type": null, "ruins": null, "sac_scale": null, "smoothness": null, "source": null, "source:ref": null, "start_date": null, "step_count": null, "substance": null, "surface": null, "toll": null, "tourism": null, "tower": null, "traffic_sign": null, "traffic_sign:direction": null, "tunnel": null, "voltage": null, "wall": null, "wheelchair": "yes", "wifi": null, "wikidata": null, "wikipedia": null, "label": "amenity:toilets" }, "geometry": { "type": "Point", "coordinates": [ 22.8682222, 37.8894567 ] } },
{ "type": "Feature", "properties": { "@type": "node", "@id": 5405053627, "access": null, "alt_name": null, "alt_name1": null, "amenity": null, "archaeological_site": null, "barrier": null, "building": null, "cables": null, "castle_type": null, "check_date:surface": null, "cuisine": null, "ele": null, "emergency": null, "entrance": null, "fee": null, "fortification_type": null, "handrail": null, "highway": null, "historic": null, "historic:civilization": null, "historic:period": null, "incline": null, "indoor": null, "int_name": "Acrocorinth", "int_ref": null, "landuse": null, "lanes": null, "layer": null, "leaf_type": null, "lit": null, "location": null, "man_made": null, "maxspeed": null, "name": "Ακροκόρινθος", "name:ar": null, "name:bg": null, "name:ca": null, "name:de": null, "name:el": null, "name:en": null, "name:es": null, "name:fr": null, "name:it": null, "name:mk": null, "name:nl": null, "name:pl": null, "name:prefix": null, "name:pt": null, "name:ro": null, "name:ru": null, "name:sq": null, "name:sr": null, "name:tr": null, "name:uk": null, "natural": null, "noexit": null, "oneway": null, "opening_hours": null, "operator": null, "parking": null, "power": null, "ramp": null, "ref": null, "religion": null, "ruin_type": null, "ruins": null, "sac_scale": null, "smoothness": null, "source": null, "source:ref": null, "start_date": null, "step_count": null, "substance": null, "surface": null, "toll": null, "tourism": "attraction", "tower": null, "traffic_sign": null, "traffic_sign:direction": null, "tunnel": null, "voltage": null, "wall": null, "wheelchair": null, "wifi": null, "wikidata": null, "wikipedia": null, "label": "tourism:attraction" }, "geometry": { "type": "Point", "coordinates": [ 22.8696499, 37.8906845 ] } },
{ "type": "Feature", "properties": { "@type": "node", "@id": 5903955823, "access": null, "alt_name": null, "alt_name1": null, "amenity": null, "archaeological_site": null, "barrier": null, "building": null, "cables": null, "castle_type": null, "check_date:surface": null, "cuisine": null, "ele": null, "emergency": null, "entrance": null, "fee": null, "fortification_type": null, "handrail": null, "highway": null, "historic": null, "historic:civilization": null, "historic:period": null, "incline": null, "indoor": null, "int_name": null, "int_ref": null, "landuse": null, "lanes": null, "layer": null, "leaf_type": null, "lit": null, "location": null, "man_made": null, "maxspeed": null, "name": null, "name:ar": null, "name:bg": null, "name:ca": null, "name:de": null, "name:el": null, "name:en": null, "name:es": null, "name:fr": null, "name:it": null, "name:mk": null, "name:nl": null, "name:pl": null, "name:prefix": null, "name:pt": null, "name:ro": null, "name:ru": null, "name:sq": null, "name:sr": null, "name:tr": null, "name:uk": null, "natural": null, "noexit": null, "oneway": null, "opening_hours": null, "operator": null, "parking": null, "power": null, "ramp": null, "ref": null, "religion": null, "ruin_type": null, "ruins": null, "sac_scale": null, "smoothness": null, "source": null, "source:ref": null, "start_date": null, "step_count": null, "substance": null, "surface": null, "toll": null, "tourism": "viewpoint", "tower": null, "traffic_sign": null, "traffic_sign:direction": null, "tunnel": null, "voltage": null, "wall": null, "wheelchair": null, "wifi": null, "wikidata": null, "wikipedia": null, "label": "tourism:viewpoint" }, "geometry": { "type": "Point", "coordinates": [ 22.8712423, 37.8894717 ] } },
{ "type": "Feature", "properties": { "@type": "node", "@id": 8603647997, "access": null, "alt_name": null, "alt_name1": null, "amenity": null, "archaeological_site": null, "barrier": null, "building": null, "cables": null, "castle_type": null, "check_date:surface": null, "cuisine": null, "ele": null, "emergency": null, "entrance": null, "fee": null, "fortification_type": null, "handrail": null, "highway": null, "historic": null, "historic:civilization": null, "historic:period": null, "incline": null, "indoor": null, "int_name": null, "int_ref": null, "landuse": null, "lanes": null, "layer": null, "leaf_type": null, "lit": null, "location": null, "man_made": null, "maxspeed": null, "name": null, "name:ar": null, "name:bg": null, "name:ca": null, "name:de": null, "name:el": null, "name:en": null, "name:es": null, "name:fr": null, "name:it": null, "name:mk": null, "name:nl": null, "name:pl": null, "name:prefix": null, "name:pt": null, "name:ro": null, "name:ru": null, "name:sq": null, "name:sr": null, "name:tr": null, "name:uk": null, "natural": null, "noexit": null, "oneway": null, "opening_hours": null, "operator": null, "parking": null, "power": null, "ramp": null, "ref": null, "religion": null, "ruin_type": null, "ruins": null, "sac_scale": null, "smoothness": null, "source": null, "source:ref": null, "start_date": null, "step_count": null, "substance": null, "surface": null, "toll": null, "tourism": "viewpoint", "tower": null, "traffic_sign": null, "traffic_sign:direction": null, "tunnel": null, "voltage": null, "wall": null, "wheelchair": null, "wifi": null, "wikidata": null, "wikipedia": null, "label": "tourism:viewpoint" }, "geometry": { "type": "Point", "coordinates": [ 22.8573569, 37.8835385 ] } },
{ "type": "Feature", "properties": { "@type": "node", "@id": 8918491883, "access": null, "alt_name": null, "alt_name1": null, "amenity": null, "archaeological_site": null, "barrier": null, "building": null, "cables": null, "castle_type": "fortress", "check_date:surface": null, "cuisine": null, "ele": null, "emergency": null, "entrance": null, "fee": "no", "fortification_type": null, "handrail": null, "highway": null, "historic": "castle", "historic:civilization": "medieval", "historic:period": null, "incline": null, "indoor": null, "int_name": null, "int_ref": null, "landuse": null, "lanes": null, "layer": null, "leaf_type": null, "lit": null, "location": null, "man_made": null, "maxspeed": null, "name": "Ακροκόρινθος", "name:ar": null, "name:bg": null, "name:ca": null, "name:de": null, "name:el": "Ακροκόρινθος", "name:en": "Acrocorinth", "name:es": null, "name:fr": null, "name:it": null, "name:mk": null, "name:nl": null, "name:pl": null, "name:prefix": null, "name:pt": null, "name:ro": null, "name:ru": null, "name:sq": null, "name:sr": null, "name:tr": null, "name:uk": null, "natural": null, "noexit": null, "oneway": null, "opening_hours": "Mo-Su 08:30-15:30", "operator": null, "parking": null, "power": null, "ramp": null, "ref": null, "religion": null, "ruin_type": null, "ruins": null, "sac_scale": null, "smoothness": null, "source": "https://www.kastra.eu/castlegr.php?kastro=acrocorinth", "source:ref": null, "start_date": null, "step_count": null, "substance": null, "surface": null, "toll": null, "tourism": null, "tower": null, "traffic_sign": null, "traffic_sign:direction": null, "tunnel": null, "voltage": null, "wall": null, "wheelchair": null, "wifi": null, "wikidata": "Q420810", "wikipedia": "el:Ακροκόρινθος", "label": "historic:castle" }, "geometry": { "type": "Point", "coordinates": [ 22.8690521, 37.890077 ] } },
{ "type": "Feature", "properties": { "@type": "node", "@id": 8918491884, "access": null, "alt_name": null, "alt_name1": null, "amenity": null, "archaeological_site": null, "barrier": null, "building": null, "cables": null, "castle_type": "castle", "check_date:surface": null, "cuisine": null, "ele": null, "emergency": null, "entrance": null, "fee": null, "fortification_type": null, "handrail": null, "highway": null, "historic": "castle", "historic:civilization": "medieval", "historic:period": null, "incline": null, "indoor": null, "int_name": null, "int_ref": null, "landuse": null, "lanes": null, "layer": null, "leaf_type": null, "lit": null, "location": null, "man_made": null, "maxspeed": null, "name": "Καστέλι του Πεντεσκούφι", "name:ar": null, "name:bg": null, "name:ca": null, "name:de": null, "name:el": "Καστέλι του Πεντεσκούφι", "name:en": "Castle of Penteskoufi", "name:es": null, "name:fr": null, "name:it": null, "name:mk": null, "name:nl": null, "name:pl": null, "name:prefix": null, "name:pt": null, "name:ro": null, "name:ru": "замок Пентескуфи", "name:sq": null, "name:sr": null, "name:tr": null, "name:uk": null, "natural": null, "noexit": null, "oneway": null, "opening_hours": null, "operator": null, "parking": null, "power": null, "ramp": null, "ref": null, "religion": null, "ruin_type": null, "ruins": null, "sac_scale": null, "smoothness": null, "source": "https://www.kastra.eu/castlegr.php?kastro=penteskouf", "source:ref": null, "start_date": null, "step_count": null, "substance": null, "surface": null, "toll": null, "tourism": null, "tower": null, "traffic_sign": null, "traffic_sign:direction": null, "tunnel": null, "voltage": null, "wall": null, "wheelchair": null, "wifi": null, "wikidata": "Q38280817", "wikipedia": "de:Penteskouphi", "label": "historic:castle" }, "geometry": { "type": "Point", "coordinates": [ 22.8574628, 37.88358 ] } },
{ "type": "Feature", "properties": { "@type": "node", "@id": 10610413168, "access": null, "alt_name": null, "alt_name1": null, "amenity": "place_of_worship", "archaeological_site": null, "barrier": null, "building": null, "cables": null, "castle_type": null, "check_date:surface": null, "cuisine": null, "ele": null, "emergency": null, "entrance": null, "fee": null, "fortification_type": null, "handrail": null, "highway": null, "historic": null, "historic:civilization": null, "historic:period": null, "incline": null, "indoor": null, "int_name": null, "int_ref": null, "landuse": null, "lanes": null, "layer": null, "leaf_type": null, "lit": null, "location": null, "man_made": null, "maxspeed": null, "name": "Αγιος Ιωάννης Θεολόγος", "name:ar": null, "name:bg": null, "name:ca": null, "name:de": null, "name:el": null, "name:en": null, "name:es": null, "name:fr": null, "name:it": null, "name:mk": null, "name:nl": null, "name:pl": null, "name:prefix": null, "name:pt": null, "name:ro": null, "name:ru": null, "name:sq": null, "name:sr": null, "name:tr": null, "name:uk": null, "natural": null, "noexit": null, "oneway": null, "opening_hours": null, "operator": null, "parking": null, "power": null, "ramp": null, "ref": null, "religion": "christian", "ruin_type": null, "ruins": null, "sac_scale": null, "smoothness": null, "source": null, "source:ref": null, "start_date": null, "step_count": null, "substance": null, "surface": null, "toll": null, "tourism": null, "tower": null, "traffic_sign": null, "traffic_sign:direction": null, "tunnel": null, "voltage": null, "wall": null, "wheelchair": null, "wifi": null, "wikidata": null, "wikipedia": null, "label": "amenity:place_of_worship" }, "geometry": { "type": "Point", "coordinates": [ 22.8559818, 37.8751733 ] } },
{ "type": "Feature", "properties": { "@type": "node", "@id": 11940358269, "access": "yes", "alt_name": null, "alt_name1": null, "amenity": "parking", "archaeological_site": null, "barrier": null, "building": null, "cables": null, "castle_type": null, "check_date:surface": null, "cuisine": null, "ele": null, "emergency": null, "entrance": null, "fee": "no", "fortification_type": null, "handrail": null, "highway": null, "historic": null, "historic:civilization": null, "historic:period": null, "incline": null, "indoor": null, "int_name": null, "int_ref": null, "landuse": null, "lanes": null, "layer": null, "leaf_type": null, "lit": null, "location": null, "man_made": null, "maxspeed": null, "name": null, "name:ar": null, "name:bg": null, "name:ca": null, "name:de": null, "name:el": null, "name:en": null, "name:es": null, "name:fr": null, "name:it": null, "name:mk": null, "name:nl": null, "name:pl": null, "name:prefix": null, "name:pt": null, "name:ro": null, "name:ru": null, "name:sq": null, "name:sr": null, "name:tr": null, "name:uk": null, "natural": null, "noexit": null, "oneway": null, "opening_hours": null, "operator": null, "parking": "surface", "power": null, "ramp": null, "ref": null, "religion": null, "ruin_type": null, "ruins": null, "sac_scale": null, "smoothness": null, "source": null, "source:ref": null, "start_date": null, "step_count": null, "substance": null, "surface": null, "toll": null, "tourism": null, "tower": null, "traffic_sign": null, "traffic_sign:direction": null, "tunnel": null, "voltage": null, "wall": null, "wheelchair": null, "wifi": null, "wikidata": null, "wikipedia": null, "label": "amenity:parking" }, "geometry": { "type": "Point", "coordinates": [ 22.8682783, 37.8892667 ] } },
{ "type": "Feature", "properties": { "@type": "way", "@id": 135402996, "access": null, "alt_name": null, "alt_name1": null, "amenity": null, "archaeological_site": null, "barrier": null, "building": null, "cables": null, "castle_type": null, "check_date:surface": null, "cuisine": null, "ele": null, "emergency": null, "entrance": null, "fee": null, "fortification_type": null, "handrail": null, "highway": null, "historic": null, "historic:civilization": null, "historic:period": null, "incline": null, "indoor": null, "int_name": null, "int_ref": null, "landuse": null, "lanes": null, "layer": null, "leaf_type": "needleleaved", "lit": null, "location": null, "man_made": null, "maxspeed": null, "name": null, "name:ar": null, "name:bg": null, "name:ca": null, "name:de": null, "name:el": null, "name:en": null, "name:es": null, "name:fr": null, "name:it": null, "name:mk": null, "name:nl": null, "name:pl": null, "name:prefix": null, "name:pt": null, "name:ro": null, "name:ru": null, "name:sq": null, "name:sr": null, "name:tr": null, "name:uk": null, "natural": "wood", "noexit": null, "oneway": null, "opening_hours": null, "operator": null, "parking": null, "power": null, "ramp": null, "ref": null, "religion": null, "ruin_type": null, "ruins": null, "sac_scale": null, "smoothness": null, "source": "http://geodata.gov.gr/", "source:ref": null, "start_date": null, "step_count": null, "substance": null, "surface": null, "toll": null, "tourism": null, "tower": null, "traffic_sign": null, "traffic_sign:direction": null, "tunnel": null, "voltage": null, "wall": null, "wheelchair": null, "wifi": null, "wikidata": null, "wikipedia": null, "label": "natural:wood" }, "geometry": { "type": "Polygon", "coordinates": [ [ [ 22.861313, 37.868979 ], [ 22.861638, 37.869068 ], [ 22.862002, 37.868928 ], [ 22.862040357658969, 37.868708402402397 ], [ 22.861148206999381, 37.868708402402397 ], [ 22.861313, 37.868979 ] ] ] } },
{ "type": "Feature", "properties": { "@type": "way", "@id": 135403000, "access": null, "alt_name": null, "alt_name1": null, "amenity": null, "archaeological_site": null, "barrier": null, "building": null, "cables": null, "castle_type": null, "check_date:surface": null, "cuisine": null, "ele": null, "emergency": null, "entrance": null, "fee": null, "fortification_type": null, "handrail": null, "highway": null, "historic": null, "historic:civilization": null, "historic:period": null, "incline": null, "indoor": null, "int_name": null, "int_ref": null, "landuse": null, "lanes": null, "layer": null, "leaf_type": "needleleaved", "lit": null, "location": null, "man_made": null, "maxspeed": null, "name": null, "name:ar": null, "name:bg": null, "name:ca": null, "name:de": null, "name:el": null, "name:en": null, "name:es": null, "name:fr": null, "name:it": null, "name:mk": null, "name:nl": null, "name:pl": null, "name:prefix": null, "name:pt": null, "name:ro": null, "name:ru": null, "name:sq": null, "name:sr": null, "name:tr": null, "name:uk": null, "natural": "wood", "noexit": null, "oneway": null, "opening_hours": null, "operator": null, "parking": null, "power": null, "ramp": null, "ref": null, "religion": null, "ruin_type": null, "ruins": null, "sac_scale": null, "smoothness": null, "source": "http://geodata.gov.gr/", "source:ref": null, "start_date": null, "step_count": null, "substance": null, "surface": null, "toll": null, "tourism": null, "tower": null, "traffic_sign": null, "traffic_sign:direction": null, "tunnel": null, "voltage": null, "wall": null, "wheelchair": null, "wifi": null, "wikidata": null, "wikipedia": null, "label": "natural:wood" }, "geometry": { "type": "Polygon", "coordinates": [ [ [ 22.846999, 37.868975 ], [ 22.847305402100023, 37.868708402402397 ], [ 22.846518595096192, 37.868708402402397 ], [ 22.846518595096192, 37.869420592954256 ], [ 22.846999, 37.868975 ] ] ] } },
{ "type": "Feature", "properties": { "@type": "way", "@id": 146857061, "access": null, "alt_name": null, "alt_name1": null, "amenity": "fountain", "archaeological_site": null, "barrier": null, "building": null, "cables": null, "castle_type": null, "check_date:surface": null, "cuisine": null, "ele": "505", "emergency": null, "entrance": null, "fee": null, "fortification_type": null, "handrail": null, "highway": null, "historic": "ruins", "historic:civilization": null, "historic:period": null, "incline": null, "indoor": null, "int_name": null, "int_ref": null, "landuse": null, "lanes": null, "layer": null, "leaf_type": null, "lit": null, "location": null, "man_made": null, "maxspeed": null, "name": "Πειρήνη κρήνη", "name:ar": null, "name:bg": null, "name:ca": null, "name:de": null, "name:el": null, "name:en": null, "name:es": null, "name:fr": null, "name:it": null, "name:mk": null, "name:nl": null, "name:pl": null, "name:prefix": null, "name:pt": null, "name:ro": null, "name:ru": null, "name:sq": null, "name:sr": null, "name:tr": null, "name:uk": null, "natural": null, "noexit": null, "oneway": null, "opening_hours": null, "operator": null, "parking": null, "power": null, "ramp": null, "ref": null, "religion": null, "ruin_type": "fountain", "ruins": "fountain", "sac_scale": null, "smoothness": null, "source": null, "source:ref": null, "start_date": null, "step_count": null, "substance": null, "surface": null, "toll": null, "tourism": null, "tower": null, "traffic_sign": null, "traffic_sign:direction": null, "tunnel": null, "voltage": null, "wall": null, "wheelchair": null, "wifi": null, "wikidata": null, "wikipedia": null, "label": "amenity:fountain;historic:ruins" }, "geometry": { "type": "Polygon", "coordinates": [ [ [ 22.8759168, 37.8893893 ], [ 22.875924, 37.8893364 ], [ 22.8758557, 37.8893306 ], [ 22.8758485, 37.8893835 ], [ 22.8759168, 37.8893893 ] ] ] } },
{ "type": "Feature", "properties": { "@type": "way", "@id": 146857105, "access": null, "alt_name": null, "alt_name1": null, "amenity": null, "archaeological_site": null, "barrier": null, "building": null, "cables": null, "castle_type": null, "check_date:surface": null, "cuisine": null, "ele": null, "emergency": null, "entrance": null, "fee": null, "fortification_type": null, "handrail": null, "highway": null, "historic": "ruins", "historic:civilization": null, "historic:period": null, "incline": null, "indoor": null, "int_name": null, "int_ref": null, "landuse": null, "lanes": null, "layer": null, "leaf_type": null, "lit": null, "location": null, "man_made": null, "maxspeed": null, "name": null, "name:ar": null, "name:bg": null, "name:ca": null, "name:de": null, "name:el": null, "name:en": null, "name:es": null, "name:fr": null, "name:it": null, "name:mk": null, "name:nl": null, "name:pl": null, "name:prefix": null, "name:pt": null, "name:ro": null, "name:ru": null, "name:sq": null, "name:sr": null, "name:tr": null, "name:uk": null, "natural": null, "noexit": null, "oneway": null, "opening_hours": null, "operator": null, "parking": null, "power": null, "ramp": null, "ref": null, "religion": null, "ruin_type": "unknown", "ruins": null, "sac_scale": null, "smoothness": null, "source": null, "source:ref": null, "start_date": null, "step_count": null, "substance": null, "surface": null, "toll": null, "tourism": null, "tower": null, "traffic_sign": null, "traffic_sign:direction": null, "tunnel": null, "voltage": null, "wall": null, "wheelchair": null, "wifi": null, "wikidata": null, "wikipedia": null, "label": "historic:ruins" }, "geometry": { "type": "Polygon", "coordinates": [ [ [ 22.8712683, 37.8909129 ], [ 22.8714773, 37.8909489 ], [ 22.8716229, 37.8909603 ], [ 22.871677, 37.8909923 ], [ 22.8717939, 37.8909865 ], [ 22.8718633, 37.8909735 ], [ 22.8718785, 37.8909235 ], [ 22.8718785, 37.8909186 ], [ 22.8718621, 37.8908688 ], [ 22.8718268, 37.8908241 ], [ 22.8717633, 37.8907971 ], [ 22.8717282, 37.8907749 ], [ 22.871605, 37.8907783 ], [ 22.8714782, 37.8907518 ], [ 22.8713766, 37.8907076 ], [ 22.8712688, 37.8906809 ], [ 22.8712339, 37.8906762 ], [ 22.871179, 37.8908487 ], [ 22.8712683, 37.8909129 ] ] ] } },
{ "type": "Feature", "properties": { "@type": "way", "@id": 146857107, "access": null, "alt_name": null, "alt_name1": null, "amenity": null, "archaeological_site": null, "barrier": "city_wall", "building": null, "cables": null, "castle_type": null, "check_date:surface": null, "cuisine": null, "ele": null, "emergency": null, "entrance": null, "fee": null, "fortification_type": null, "handrail": null, "highway": null, "historic": "citywalls", "historic:civilization": "ancient_greek", "historic:period": "archaic_greece", "incline": null, "indoor": null, "int_name": null, "int_ref": null, "landuse": null, "lanes": null, "layer": null, "leaf_type": null, "lit": null, "location": null, "man_made": null, "maxspeed": null, "name": null, "name:ar": null, "name:bg": null, "name:ca": null, "name:de": null, "name:el": null, "name:en": null, "name:es": null, "name:fr": null, "name:it": null, "name:mk": null, "name:nl": null, "name:pl": null, "name:prefix": null, "name:pt": null, "name:ro": null, "name:ru": null, "name:sq": null, "name:sr": null, "name:tr": null, "name:uk": null, "natural": null, "noexit": null, "oneway": null, "opening_hours": null, "operator": null, "parking": null, "power": null, "ramp": null, "ref": null, "religion": null, "ruin_type": null, "ruins": null, "sac_scale": null, "smoothness": null, "source": null, "source:ref": null, "start_date": null, "step_count": null, "substance": null, "surface": null, "toll": null, "tourism": null, "tower": null, "traffic_sign": null, "traffic_sign:direction": null, "tunnel": null, "voltage": null, "wall": null, "wheelchair": null, "wifi": null, "wikidata": null, "wikipedia": null, "label": "historic:citywalls" }, "geometry": { "type": "Polygon", "coordinates": [ [ [ 22.8761132, 37.8893198 ], [ 22.8760322, 37.8892289 ], [ 22.8759957, 37.8891877 ], [ 22.8759466, 37.8891544 ], [ 22.8758019, 37.8891116 ], [ 22.8756862, 37.8890922 ], [ 22.8754981, 37.8890613 ], [ 22.8754505, 37.8890458 ], [ 22.8754152, 37.889015 ], [ 22.8753753, 37.8890073 ], [ 22.8753105, 37.8890054 ], [ 22.8752409, 37.8890285 ], [ 22.8749478, 37.8891486 ], [ 22.8747675, 37.8892467 ], [ 22.8745804, 37.8892736 ], [ 22.8744722, 37.8892787 ], [ 22.8743823, 37.8892734 ], [ 22.874208, 37.8892478 ], [ 22.8740151, 37.8892118 ], [ 22.8738624, 37.8891596 ], [ 22.8737593, 37.8890939 ], [ 22.8737023, 37.8890163 ], [ 22.873646, 37.8889968 ], [ 22.8735947, 37.8889789 ], [ 22.8735551, 37.8889752 ], [ 22.8735513, 37.8889259 ], [ 22.8735082, 37.8888929 ], [ 22.8735716, 37.8887972 ], [ 22.8734848, 37.8887742 ], [ 22.8733325, 37.8887721 ], [ 22.8731545, 37.8888296 ], [ 22.8730155, 37.8888492 ], [ 22.8729405, 37.8888641 ], [ 22.8728757, 37.8888859 ], [ 22.8728434, 37.8888966 ], [ 22.8728011, 37.888903 ], [ 22.8727453, 37.8889141 ], [ 22.8724793, 37.8889927 ], [ 22.8722263, 37.8890752 ], [ 22.872073, 37.8891105 ], [ 22.8719814, 37.8891371 ], [ 22.8719167, 37.8891729 ], [ 22.8718445, 37.8892192 ], [ 22.8717702, 37.8892625 ], [ 22.8717305, 37.8892882 ], [ 22.8716753, 37.8893041 ], [ 22.8715669, 37.8893299 ], [ 22.8715186, 37.88932 ], [ 22.8714071, 37.8893081 ], [ 22.8712452, 37.8893041 ], [ 22.870982, 37.889316 ], [ 22.8708247, 37.8893279 ], [ 22.8706843, 37.8893638 ], [ 22.8705462, 37.8893918 ], [ 22.8704747, 37.8893998 ], [ 22.8704241, 37.8893938 ], [ 22.8704058, 37.8894058 ], [ 22.8703612, 37.8894339 ], [ 22.8703128, 37.8894339 ], [ 22.870224, 37.8894279 ], [ 22.870158, 37.8894239 ], [ 22.8701375, 37.889451 ], [ 22.8701221, 37.889554 ], [ 22.8700333, 37.8896001 ], [ 22.8700338, 37.8896368 ], [ 22.8700195, 37.8896911 ], [ 22.8699899, 37.8897281 ], [ 22.8699598, 37.8897281 ], [ 22.869912, 37.8897223 ], [ 22.8699173, 37.8897614 ], [ 22.8699828, 37.8897653 ], [ 22.8700041, 37.889864 ], [ 22.87, 37.8899376 ], [ 22.8699093, 37.8900401 ], [ 22.8698636, 37.8900989 ], [ 22.8699956, 37.8902115 ], [ 22.8699575, 37.8902734 ], [ 22.8699423, 37.8903067 ], [ 22.8699062, 37.89034 ], [ 22.8699118, 37.8903881 ], [ 22.8699047, 37.8904161 ], [ 22.8698923, 37.8904665 ], [ 22.8698595, 37.8904776 ], [ 22.8698253, 37.8904874 ], [ 22.8697832, 37.8904874 ], [ 22.8697427, 37.8904936 ], [ 22.8697038, 37.8904997 ], [ 22.8696789, 37.8905169 ], [ 22.8697349, 37.8905649 ], [ 22.8697505, 37.8906091 ], [ 22.8697536, 37.8906632 ], [ 22.8697287, 37.8906693 ], [ 22.8696835, 37.8906693 ], [ 22.8696726, 37.8906411 ], [ 22.8695838, 37.8906509 ], [ 22.8695994, 37.890721 ], [ 22.8696555, 37.8907308 ], [ 22.8696337, 37.8909091 ], [ 22.869601, 37.8910074 ], [ 22.8695636, 37.8910984 ], [ 22.8695044, 37.8911684 ], [ 22.8694421, 37.8912373 ], [ 22.869525310121663, 37.891309520105594 ], [ 22.876194465627414, 37.891309520105594 ], [ 22.876194465627414, 37.889403967971248 ], [ 22.8761132, 37.8893198 ] ] ] } },
{ "type": "Feature", "properties": { "@type": "way", "@id": 146857109, "access": null, "alt_name": null, "alt_name1": null, "amenity": null, "archaeological_site": null, "barrier": null, "building": "yes", "cables": null, "castle_type": null, "check_date:surface": null, "cuisine": null, "ele": null, "emergency": null, "entrance": null, "fee": null, "fortification_type": null, "handrail": null, "highway": null, "historic": "ruins", "historic:civilization": null, "historic:period": null, "incline": null, "indoor": null, "int_name": null, "int_ref": null, "landuse": null, "lanes": null, "layer": null, "leaf_type": null, "lit": null, "location": null, "man_made": null, "maxspeed": null, "name": null, "name:ar": null, "name:bg": null, "name:ca": null, "name:de": null, "name:el": null, "name:en": null, "name:es": null, "name:fr": null, "name:it": null, "name:mk": null, "name:nl": null, "name:pl": null, "name:prefix": null, "name:pt": null, "name:ro": null, "name:ru": null, "name:sq": null, "name:sr": null, "name:tr": null, "name:uk": null, "natural": null, "noexit": null, "oneway": null, "opening_hours": null, "operator": null, "parking": null, "power": null, "ramp": null, "ref": null, "religion": null, "ruin_type": "unknown", "ruins": null, "sac_scale": null, "smoothness": null, "source": null, "source:ref": null, "start_date": null, "step_count": null, "substance": null, "surface": null, "toll": null, "tourism": null, "tower": null, "traffic_sign": null, "traffic_sign:direction": null, "tunnel": null, "voltage": null, "wall": null, "wheelchair": null, "wifi": null, "wikidata": null, "wikipedia": null, "label": "building:yes;historic:ruins" }, "geometry": { "type": "Polygon", "coordinates": [ [ [ 22.8758839, 37.889629 ], [ 22.8759407, 37.8895649 ], [ 22.875477, 37.8892889 ], [ 22.8754229, 37.8893438 ], [ 22.8758839, 37.889629 ] ] ] } },
{ "type": "Feature", "properties": { "@type": "way", "@id": 146857111, "access": null, "alt_name": null, "alt_name1": null, "amenity": null, "archaeological_site": null, "barrier": null, "building": "yes", "cables": null, "castle_type": null, "check_date:surface": null, "cuisine": null, "ele": null, "emergency": null, "entrance": null, "fee": null, "fortification_type": null, "handrail": null, "highway": null, "historic": "ruins", "historic:civilization": null, "historic:period": null, "incline": null, "indoor": null, "int_name": null, "int_ref": null, "landuse": null, "lanes": null, "layer": null, "leaf_type": null, "lit": null, "location": null, "man_made": null, "maxspeed": null, "name": null, "name:ar": null, "name:bg": null, "name:ca": null, "name:de": null, "name:el": null, "name:en": null, "name:es": null, "name:fr": null, "name:it": null, "name:mk": null, "name:nl": null, "name:pl": null, "name:prefix": null, "name:pt": null, "name:ro": null, "name:ru": null, "name:sq": null, "name:sr": null, "name:tr": null, "name:uk": null, "natural": null, "noexit": null, "oneway": null, "opening_hours": null, "operator": null, "parking": null, "power": null, "ramp": null, "ref": null, "religion": null, "ruin_type": "unknown", "ruins": null, "sac_scale": null, "smoothness": null, "source": null, "source:ref": null, "start_date": null, "step_count": null, "substance": null, "surface": null, "toll": null, "tourism": null, "tower": null, "traffic_sign": null, "traffic_sign:direction": null, "tunnel": null, "voltage": null, "wall": null, "wheelchair": null, "wifi": null, "wikidata": null, "wikipedia": null, "label": "building:yes;historic:ruins" }, "geometry": { "type": "Polygon", "coordinates": [ [ [ 22.8727448, 37.8894576 ], [ 22.8729005, 37.8893978 ], [ 22.8728475, 37.8893119 ], [ 22.8726918, 37.8893718 ], [ 22.8727448, 37.8894576 ] ] ] } },
{ "type": "Feature", "properties": { "@type": "way", "@id": 146857112, "access": null, "alt_name": null, "alt_name1": null, "amenity": null, "archaeological_site": null, "barrier": null, "building": "yes", "cables": null, "castle_type": null, "check_date:surface": null, "cuisine": null, "ele": null, "emergency": null, "entrance": null, "fee": null, "fortification_type": null, "handrail": null, "highway": null, "historic": "ruins", "historic:civilization": null, "historic:period": null, "incline": null, "indoor": null, "int_name": null, "int_ref": null, "landuse": null, "lanes": null, "layer": null, "leaf_type": null, "lit": null, "location": null, "man_made": null, "maxspeed": null, "name": null, "name:ar": null, "name:bg": null, "name:ca": null, "name:de": null, "name:el": null, "name:en": null, "name:es": null, "name:fr": null, "name:it": null, "name:mk": null, "name:nl": null, "name:pl": null, "name:prefix": null, "name:pt": null, "name:ro": null, "name:ru": null, "name:sq": null, "name:sr": null, "name:tr": null, "name:uk": null, "natural": null, "noexit": null, "oneway": null, "opening_hours": null, "operator": null, "parking": null, "power": null, "ramp": null, "ref": null, "religion": null, "ruin_type": "unknown", "ruins": null, "sac_scale": null, "smoothness": null, "source": null, "source:ref": null, "start_date": null, "step_count": null, "substance": null, "surface": null, "toll": null, "tourism": null, "tower": null, "traffic_sign": null, "traffic_sign:direction": null, "tunnel": null, "voltage": null, "wall": null, "wheelchair": null, "wifi": null, "wikidata": null, "wikipedia": null, "label": "building:yes;historic:ruins" }, "geometry": { "type": "Polygon", "coordinates": [ [ [ 22.8728127, 37.8900161 ], [ 22.8728241, 37.8899539 ], [ 22.8724181, 37.8899078 ], [ 22.8724068, 37.88997 ], [ 22.8728127, 37.8900161 ] ] ] } },
{ "type": "Feature", "properties": { "@type": "way", "@id": 146857117, "access": null, "alt_name": null, "alt_name1": null, "amenity": null, "archaeological_site": null, "barrier": null, "building": "yes", "cables": null, "castle_type": null, "check_date:surface": null, "cuisine": null, "ele": null, "emergency": null, "entrance": null, "fee": null, "fortification_type": null, "handrail": null, "highway": null, "historic": "ruins", "historic:civilization": null, "historic:period": null, "incline": null, "indoor": null, "int_name": null, "int_ref": null, "landuse": null, "lanes": null, "layer": null, "leaf_type": null, "lit": null, "location": null, "man_made": null, "maxspeed": null, "name": null, "name:ar": null, "name:bg": null, "name:ca": null, "name:de": null, "name:el": null, "name:en": null, "name:es": null, "name:fr": null, "name:it": null, "name:mk": null, "name:nl": null, "name:pl": null, "name:prefix": null, "name:pt": null, "name:ro": null, "name:ru": null, "name:sq": null, "name:sr": null, "name:tr": null, "name:uk": null, "natural": null, "noexit": null, "oneway": null, "opening_hours": null, "operator": null, "parking": null, "power": null, "ramp": null, "ref": null, "religion": null, "ruin_type": "unknown", "ruins": null, "sac_scale": null, "smoothness": null, "source": null, "source:ref": null, "start_date": null, "step_count": null, "substance": null, "surface": null, "toll": null, "tourism": null, "tower": null, "traffic_sign": null, "traffic_sign:direction": null, "tunnel": null, "voltage": null, "wall": null, "wheelchair": null, "wifi": null, "wikidata": null, "wikipedia": null, "label": "building:yes;historic:ruins" }, "geometry": { "type": "Polygon", "coordinates": [ [ [ 22.8721092, 37.8902552 ], [ 22.8722277, 37.8902397 ], [ 22.8722188, 37.8901974 ], [ 22.8721004, 37.8902129 ], [ 22.8721092, 37.8902552 ] ] ] } },
{ "type": "Feature", "properties": { "@type": "way", "@id": 146863144, "access": null, "alt_name": null, "alt_name1": null, "amenity": null, "archaeological_site": "fortification", "barrier": null, "building": null, "cables": null, "castle_type": null, "check_date:surface": null, "cuisine": null, "ele": null, "emergency": null, "entrance": null, "fee": "no", "fortification_type": "citadel", "handrail": null, "highway": null, "historic": "archaeological_site", "historic:civilization": "ancient_greek", "historic:period": "archaic_greece", "incline": null, "indoor": null, "int_name": null, "int_ref": null, "landuse": null, "lanes": null, "layer": null, "leaf_type": null, "lit": null, "location": null, "man_made": null, "maxspeed": null, "name": "Ακροκόρινθος", "name:ar": null, "name:bg": null, "name:ca": "Acrocorint", "name:de": "Akrokorinth", "name:el": "Ακροκόρινθος", "name:en": "Acrocorinth", "name:es": "Acrocorinto", "name:fr": "Acrocorinthe", "name:it": null, "name:mk": null, "name:nl": null, "name:pl": "Akrokorynt", "name:prefix": null, "name:pt": null, "name:ro": null, "name:ru": "Акрокоринф", "name:sq": null, "name:sr": null, "name:tr": null, "name:uk": null, "natural": null, "noexit": null, "oneway": null, "opening_hours": null, "operator": "ΛΖ΄ Εφορεία Προϊστορικών και Κλασικών Αρχαιοτήτων", "parking": null, "power": null, "ramp": null, "ref": null, "religion": null, "ruin_type": null, "ruins": null, "sac_scale": null, "smoothness": null, "source": null, "source:ref": null, "start_date": "C7 BC", "step_count": null, "substance": null, "surface": null, "toll": null, "tourism": null, "tower": null, "traffic_sign": null, "traffic_sign:direction": null, "tunnel": null, "voltage": null, "wall": null, "wheelchair": null, "wifi": null, "wikidata": "Q420810", "wikipedia": "el:Ακροκόρινθος", "label": "historic:archaeological_site" }, "geometry": { "type": "Polygon", "coordinates": [ [ [ 22.8757193, 37.8887564 ], [ 22.8744002, 37.8891325 ], [ 22.8739322, 37.8889713 ], [ 22.8730272, 37.8888119 ], [ 22.871566, 37.889141 ], [ 22.870645, 37.8891527 ], [ 22.8703231, 37.8892025 ], [ 22.8699522, 37.88926 ], [ 22.869543, 37.8895544 ], [ 22.8689052, 37.8895924 ], [ 22.8685115, 37.8900056 ], [ 22.8682987, 37.8902943 ], [ 22.8686221, 37.8909055 ], [ 22.8690901, 37.8912413 ], [ 22.869129336328776, 37.891309520105594 ], [ 22.876194465627414, 37.891309520105594 ], [ 22.876194465627414, 37.888884314223283 ], [ 22.8757193, 37.8887564 ] ] ] } },
{ "type": "Feature", "properties": { "@type": "way", "@id": 235083633, "access": null, "alt_name": null, "alt_name1": null, "amenity": null, "archaeological_site": null, "barrier": null, "building": "yes", "cables": null, "castle_type": null, "check_date:surface": null, "cuisine": null, "ele": null, "emergency": null, "entrance": null, "fee": null, "fortification_type": null, "handrail": null, "highway": null, "historic": null, "historic:civilization": null, "historic:period": null, "incline": null, "indoor": null, "int_name": null, "int_ref": null, "landuse": null, "lanes": null, "layer": null, "leaf_type": null, "lit": null, "location": null, "man_made": null, "maxspeed": null, "name": null, "name:ar": null, "name:bg": null, "name:ca": null, "name:de": null, "name:el": null, "name:en": null, "name:es": null, "name:fr": null, "name:it": null, "name:mk": null, "name:nl": null, "name:pl": null, "name:prefix": null, "name:pt": null, "name:ro": null, "name:ru": null, "name:sq": null, "name:sr": null, "name:tr": null, "name:uk": null, "natural": null, "noexit": null, "oneway": null, "opening_hours": null, "operator": null, "parking": null, "power": null, "ramp": null, "ref": null, "religion": null, "ruin_type": null, "ruins": null, "sac_scale": null, "smoothness": null, "source": null, "source:ref": null, "start_date": null, "step_count": null, "substance": null, "surface": null, "toll": null, "tourism": null, "tower": null, "traffic_sign": null, "traffic_sign:direction": null, "tunnel": null, "voltage": null, "wall": null, "wheelchair": null, "wifi": null, "wikidata": null, "wikipedia": null, "label": "building:yes" }, "geometry": { "type": "Polygon", "coordinates": [ [ [ 22.8680842, 37.8896144 ], [ 22.868169, 37.8895057 ], [ 22.8682067, 37.889524 ], [ 22.8682672, 37.8894465 ], [ 22.868204, 37.8894157 ], [ 22.8681518, 37.8894826 ], [ 22.8680981, 37.8894565 ], [ 22.8680049, 37.8895758 ], [ 22.8680842, 37.8896144 ] ] ] } },
{ "type": "Feature", "properties": { "@type": "way", "@id": 235083634, "access": "yes", "alt_name": null, "alt_name1": null, "amenity": "parking", "archaeological_site": null, "barrier": null, "building": null, "cables": null, "castle_type": null, "check_date:surface": null, "cuisine": null, "ele": null, "emergency": null, "entrance": null, "fee": "no", "fortification_type": null, "handrail": null, "highway": null, "historic": null, "historic:civilization": null, "historic:period": null, "incline": null, "indoor": null, "int_name": null, "int_ref": null, "landuse": null, "lanes": null, "layer": null, "leaf_type": null, "lit": null, "location": null, "man_made": null, "maxspeed": null, "name": null, "name:ar": null, "name:bg": null, "name:ca": null, "name:de": null, "name:el": null, "name:en": null, "name:es": null, "name:fr": null, "name:it": null, "name:mk": null, "name:nl": null, "name:pl": null, "name:prefix": null, "name:pt": null, "name:ro": null, "name:ru": null, "name:sq": null, "name:sr": null, "name:tr": null, "name:uk": null, "natural": null, "noexit": null, "oneway": null, "opening_hours": null, "operator": null, "parking": "surface", "power": null, "ramp": null, "ref": null, "religion": null, "ruin_type": null, "ruins": null, "sac_scale": null, "smoothness": null, "source": null, "source:ref": null, "start_date": null, "step_count": null, "substance": null, "surface": null, "toll": null, "tourism": null, "tower": null, "traffic_sign": null, "traffic_sign:direction": null, "tunnel": null, "voltage": null, "wall": null, "wheelchair": null, "wifi": null, "wikidata": null, "wikipedia": null, "label": "amenity:parking" }, "geometry": { "type": "Polygon", "coordinates": [ [ [ 22.8681515, 37.8900711 ], [ 22.8683368, 37.8900135 ], [ 22.8684651, 37.8899164 ], [ 22.8685132, 37.8898152 ], [ 22.8682317, 37.8897097 ], [ 22.8681301, 37.8897969 ], [ 22.868066, 37.8900163 ], [ 22.8681515, 37.8900711 ] ] ] } },
{ "type": "Feature", "properties": { "@type": "way", "@id": 296310679, "access": null, "alt_name": null, "alt_name1": null, "amenity": null, "archaeological_site": null, "barrier": null, "building": "tower", "cables": null, "castle_type": null, "check_date:surface": null, "cuisine": null, "ele": null, "emergency": null, "entrance": null, "fee": null, "fortification_type": null, "handrail": null, "highway": null, "historic": "yes", "historic:civilization": null, "historic:period": null, "incline": null, "indoor": null, "int_name": null, "int_ref": null, "landuse": null, "lanes": null, "layer": null, "leaf_type": null, "lit": null, "location": null, "man_made": "tower", "maxspeed": null, "name": null, "name:ar": null, "name:bg": null, "name:ca": null, "name:de": null, "name:el": null, "name:en": null, "name:es": null, "name:fr": null, "name:it": null, "name:mk": null, "name:nl": null, "name:pl": null, "name:prefix": null, "name:pt": null, "name:ro": null, "name:ru": null, "name:sq": null, "name:sr": null, "name:tr": null, "name:uk": null, "natural": null, "noexit": null, "oneway": null, "opening_hours": null, "operator": null, "parking": null, "power": null, "ramp": null, "ref": null, "religion": null, "ruin_type": null, "ruins": null, "sac_scale": null, "smoothness": null, "source": null, "source:ref": null, "start_date": null, "step_count": null, "substance": null, "surface": null, "toll": null, "tourism": null, "tower": "defensive", "traffic_sign": null, "traffic_sign:direction": null, "tunnel": null, "voltage": null, "wall": null, "wheelchair": null, "wifi": null, "wikidata": null, "wikipedia": null, "label": "historic:yes" }, "geometry": { "type": "Polygon", "coordinates": [ [ [ 22.8711863, 37.8895102 ], [ 22.8712995, 37.8895102 ], [ 22.8712995, 37.8894292 ], [ 22.871243, 37.8894292 ], [ 22.8711863, 37.8894292 ], [ 22.8711863, 37.8895102 ] ] ] } },
{ "type": "Feature", "properties": { "@type": "way", "@id": 296310680, "access": null, "alt_name": null, "alt_name1": null, "amenity": null, "archaeological_site": null, "barrier": null, "building": "yes", "cables": null, "castle_type": null, "check_date:surface": null, "cuisine": null, "ele": null, "emergency": null, "entrance": null, "fee": null, "fortification_type": null, "handrail": null, "highway": null, "historic": "ruins", "historic:civilization": null, "historic:period": null, "incline": null, "indoor": null, "int_name": null, "int_ref": null, "landuse": null, "lanes": null, "layer": null, "leaf_type": null, "lit": null, "location": null, "man_made": null, "maxspeed": null, "name": null, "name:ar": null, "name:bg": null, "name:ca": null, "name:de": null, "name:el": null, "name:en": null, "name:es": null, "name:fr": null, "name:it": null, "name:mk": null, "name:nl": null, "name:pl": null, "name:prefix": null, "name:pt": null, "name:ro": null, "name:ru": null, "name:sq": null, "name:sr": null, "name:tr": null, "name:uk": null, "natural": null, "noexit": null, "oneway": null, "opening_hours": null, "operator": null, "parking": null, "power": null, "ramp": null, "ref": null, "religion": null, "ruin_type": "minaret", "ruins": null, "sac_scale": null, "smoothness": null, "source": null, "source:ref": null, "start_date": null, "step_count": null, "substance": null, "surface": null, "toll": null, "tourism": null, "tower": null, "traffic_sign": null, "traffic_sign:direction": null, "tunnel": null, "voltage": null, "wall": null, "wheelchair": null, "wifi": null, "wikidata": null, "wikipedia": null, "label": "building:yes;historic:ruins" }, "geometry": { "type": "Polygon", "coordinates": [ [ [ 22.8720567, 37.8905116 ], [ 22.8720878, 37.8905249 ], [ 22.8721218, 37.8905169 ], [ 22.8721386, 37.8904923 ], [ 22.8721285, 37.8904655 ], [ 22.8720974, 37.8904523 ], [ 22.8720634, 37.8904602 ], [ 22.8720466, 37.8904848 ], [ 22.8720567, 37.8905116 ] ] ] } },
{ "type": "Feature", "properties": { "@type": "way", "@id": 1242735402, "access": null, "alt_name": null, "alt_name1": null, "amenity": null, "archaeological_site": null, "barrier": null, "building": null, "cables": null, "castle_type": null, "check_date:surface": null, "cuisine": null, "ele": null, "emergency": null, "entrance": null, "fee": null, "fortification_type": null, "handrail": null, "highway": null, "historic": null, "historic:civilization": null, "historic:period": null, "incline": null, "indoor": null, "int_name": null, "int_ref": null, "landuse": null, "lanes": null, "layer": null, "leaf_type": null, "lit": null, "location": null, "man_made": null, "maxspeed": null, "name": null, "name:ar": null, "name:bg": null, "name:ca": null, "name:de": null, "name:el": null, "name:en": null, "name:es": null, "name:fr": null, "name:it": null, "name:mk": null, "name:nl": null, "name:pl": null, "name:prefix": null, "name:pt": null, "name:ro": null, "name:ru": null, "name:sq": null, "name:sr": null, "name:tr": null, "name:uk": null, "natural": "heath", "noexit": null, "oneway": null, "opening_hours": null, "operator": null, "parking": null, "power": null, "ramp": null, "ref": null, "religion": null, "ruin_type": null, "ruins": null, "sac_scale": null, "smoothness": null, "source": null, "source:ref": null, "start_date": null, "step_count": null, "substance": null, "surface": null, "toll": null, "tourism": null, "tower": null, "traffic_sign": null, "traffic_sign:direction": null, "tunnel": null, "voltage": null, "wall": null, "wheelchair": null, "wifi": null, "wikidata": null, "wikipedia": null, "label": "natural:heath" }, "geometry": { "type": "Polygon", "coordinates": [ [ [ 22.8761022, 37.8733677 ], [ 22.8759469, 37.8733145 ], [ 22.8757904, 37.8732639 ], [ 22.8756389, 37.8732168 ], [ 22.8754863, 37.8731722 ], [ 22.8753268, 37.8731277 ], [ 22.8751693, 37.8730883 ], [ 22.8750104, 37.8730499 ], [ 22.8748422, 37.8730121 ], [ 22.8746795, 37.8729789 ], [ 22.874524, 37.8729498 ], [ 22.8743582, 37.8729221 ], [ 22.8741962, 37.8728949 ], [ 22.8740254, 37.8728707 ], [ 22.8738608, 37.8728495 ], [ 22.8736967, 37.8728301 ], [ 22.8735341, 37.8728141 ], [ 22.873369, 37.8727996 ], [ 22.8732, 37.8727874 ], [ 22.8730303, 37.872779 ], [ 22.8728685, 37.8727707 ], [ 22.8727065, 37.8727657 ], [ 22.8725401, 37.8727627 ], [ 22.8723741, 37.8727627 ], [ 22.8722072, 37.8727661 ], [ 22.8720345, 37.8727722 ], [ 22.8718673, 37.8727812 ], [ 22.8717038, 37.8727911 ], [ 22.8715403, 37.8728031 ], [ 22.8713762, 37.8728185 ], [ 22.8712118, 37.8728342 ], [ 22.8710451, 37.8728505 ], [ 22.8652402, 37.8734964 ], [ 22.8650782, 37.8735108 ], [ 22.8649181, 37.8735259 ], [ 22.8647491, 37.8735395 ], [ 22.8645865, 37.8735508 ], [ 22.86442, 37.8735627 ], [ 22.8642532, 37.8735701 ], [ 22.8640859, 37.8735765 ], [ 22.863926, 37.8735781 ], [ 22.863762, 37.8735804 ], [ 22.8635963, 37.8735805 ], [ 22.8634297, 37.8735753 ], [ 22.8632616, 37.8735682 ], [ 22.8630977, 37.8735618 ], [ 22.862929, 37.8735499 ], [ 22.8627613, 37.8735352 ], [ 22.8625954, 37.8735169 ], [ 22.8624314, 37.8734961 ], [ 22.8622671, 37.8734747 ], [ 22.8620972, 37.8734486 ], [ 22.8619393, 37.8734171 ], [ 22.8617783, 37.8733854 ], [ 22.8616162, 37.8733528 ], [ 22.8614554, 37.8733179 ], [ 22.8613052, 37.8732805 ], [ 22.8611472, 37.8732359 ], [ 22.860993, 37.8731887 ], [ 22.8608451, 37.8731404 ], [ 22.8606914, 37.8730898 ], [ 22.8605377, 37.8730353 ], [ 22.8603834, 37.8729787 ], [ 22.8602357, 37.8729209 ], [ 22.8600847, 37.8728608 ], [ 22.8599398, 37.8727979 ], [ 22.8598021, 37.8727363 ], [ 22.8596605, 37.8726676 ], [ 22.8595198, 37.8725926 ], [ 22.8593785, 37.8725172 ], [ 22.8592435, 37.8724421 ], [ 22.8591009, 37.8723632 ], [ 22.8589644, 37.8722881 ], [ 22.8588287, 37.8722071 ], [ 22.8586943, 37.8721272 ], [ 22.8585597, 37.8720436 ], [ 22.8584415, 37.8719734 ], [ 22.8579098, 37.8716403 ], [ 22.853189255915701, 37.868708402402397 ], [ 22.853123633942381, 37.868708402402397 ], [ 22.8578837, 37.8716648 ], [ 22.8585352, 37.8720691 ], [ 22.8586708, 37.8721532 ], [ 22.8588052, 37.8722331 ], [ 22.8589356, 37.872311 ], [ 22.8590745, 37.8723875 ], [ 22.8592185, 37.8724673 ], [ 22.8593547, 37.872543 ], [ 22.8594963, 37.8726186 ], [ 22.8596317, 37.8726905 ], [ 22.8597786, 37.8727623 ], [ 22.8599193, 37.8728257 ], [ 22.8600653, 37.8728892 ], [ 22.8602177, 37.8729501 ], [ 22.8603654, 37.8730079 ], [ 22.8605197, 37.8730645 ], [ 22.8606734, 37.873119 ], [ 22.8608271, 37.8731696 ], [ 22.860975, 37.8732179 ], [ 22.8611292, 37.8732651 ], [ 22.8612934, 37.8733113 ], [ 22.8614464, 37.8733493 ], [ 22.8616074, 37.8733842 ], [ 22.8617722, 37.8734175 ], [ 22.8619335, 37.8734493 ], [ 22.8620914, 37.8734808 ], [ 22.8622596, 37.8735065 ], [ 22.8624254, 37.8735283 ], [ 22.8625896, 37.8735491 ], [ 22.8627555, 37.8735674 ], [ 22.8629232, 37.8735821 ], [ 22.8630919, 37.873594 ], [ 22.8632587, 37.8736004 ], [ 22.8634239, 37.8736075 ], [ 22.8635905, 37.8736127 ], [ 22.8637562, 37.8736126 ], [ 22.8639268, 37.8736102 ], [ 22.8640864, 37.8736085 ], [ 22.8642564, 37.8736021 ], [ 22.8644271, 37.8735946 ], [ 22.8645936, 37.8735827 ], [ 22.8647496, 37.8735715 ], [ 22.8649123, 37.8735581 ], [ 22.8650787, 37.8735428 ], [ 22.8652473, 37.8735283 ], [ 22.8710522, 37.8728824 ], [ 22.8712161, 37.8728662 ], [ 22.8713833, 37.8728505 ], [ 22.8715474, 37.872835 ], [ 22.8717109, 37.872823 ], [ 22.8718678, 37.8728133 ], [ 22.872035, 37.8728042 ], [ 22.872208, 37.8727982 ], [ 22.8723683, 37.872795 ], [ 22.8725409, 37.8727949 ], [ 22.8727007, 37.8727979 ], [ 22.8728667, 37.8728028 ], [ 22.8730308, 37.872811 ], [ 22.8731963, 37.8728195 ], [ 22.8733632, 37.8728318 ], [ 22.8735283, 37.8728463 ], [ 22.8736909, 37.8728623 ], [ 22.873855, 37.8728817 ], [ 22.8740195, 37.8729029 ], [ 22.8741844, 37.8729257 ], [ 22.8743402, 37.8729513 ], [ 22.8745122, 37.8729806 ], [ 22.8746737, 37.8730111 ], [ 22.8748364, 37.8730443 ], [ 22.8749924, 37.8730792 ], [ 22.875155, 37.8731185 ], [ 22.8753088, 37.8731569 ], [ 22.8754683, 37.8732014 ], [ 22.8756209, 37.873246 ], [ 22.8757724, 37.8732931 ], [ 22.8759289, 37.8733437 ], [ 22.8760842, 37.8733969 ], [ 22.876194465627414, 37.873436572668815 ], [ 22.876194465627414, 37.873400896416371 ], [ 22.8761022, 37.8733677 ] ] ] } },
{ "type": "Feature", "properties": { "@type": "way", "@id": 1414047335, "access": null, "alt_name": null, "alt_name1": null, "amenity": null, "archaeological_site": null, "barrier": null, "building": null, "cables": null, "castle_type": null, "check_date:surface": null, "cuisine": null, "ele": null, "emergency": null, "entrance": null, "fee": null, "fortification_type": null, "handrail": null, "highway": null, "historic": null, "historic:civilization": null, "historic:period": null, "incline": null, "indoor": null, "int_name": null, "int_ref": null, "landuse": "orchard", "lanes": null, "layer": null, "leaf_type": null, "lit": null, "location": null, "man_made": null, "maxspeed": null, "name": null, "name:ar": null, "name:bg": null, "name:ca": null, "name:de": null, "name:el": null, "name:en": null, "name:es": null, "name:fr": null, "name:it": null, "name:mk": null, "name:nl": null, "name:pl": null, "name:prefix": null, "name:pt": null, "name:ro": null, "name:ru": null, "name:sq": null, "name:sr": null, "name:tr": null, "name:uk": null, "natural": null, "noexit": null, "oneway": null, "opening_hours": null, "operator": null, "parking": null, "power": null, "ramp": null, "ref": null, "religion": null, "ruin_type": null, "ruins": null, "sac_scale": null, "smoothness": null, "source": null, "source:ref": null, "start_date": null, "step_count": null, "substance": null, "surface": null, "toll": null, "tourism": null, "tower": null, "traffic_sign": null, "traffic_sign:direction": null, "tunnel": null, "voltage": null, "wall": null, "wheelchair": null, "wifi": null, "wikidata": null, "wikipedia": null, "label": "landuse:orchard" }, "geometry": { "type": "Polygon", "coordinates": [ [ [ 22.8740928, 37.8731619 ], [ 22.8741034, 37.8730836 ], [ 22.8737884, 37.8730585 ], [ 22.8735867, 37.8730808 ], [ 22.8734699, 37.8731674 ], [ 22.8734274, 37.873268 ], [ 22.8740928, 37.8731619 ] ] ] } },
{ "type": "Feature", "properties": { "@type": "way", "@id": 1414047336, "access": null, "alt_name": null, "alt_name1": null, "amenity": null, "archaeological_site": null, "barrier": null, "building": null, "cables": null, "castle_type": null, "check_date:surface": null, "cuisine": null, "ele": null, "emergency": null, "entrance": null, "fee": null, "fortification_type": null, "handrail": null, "highway": null, "historic": null, "historic:civilization": null, "historic:period": null, "incline": null, "indoor": null, "int_name": null, "int_ref": null, "landuse": "orchard", "lanes": null, "layer": null, "leaf_type": null, "lit": null, "location": null, "man_made": null, "maxspeed": null, "name": null, "name:ar": null, "name:bg": null, "name:ca": null, "name:de": null, "name:el": null, "name:en": null, "name:es": null, "name:fr": null, "name:it": null, "name:mk": null, "name:nl": null, "name:pl": null, "name:prefix": null, "name:pt": null, "name:ro": null, "name:ru": null, "name:sq": null, "name:sr": null, "name:tr": null, "name:uk": null, "natural": null, "noexit": null, "oneway": null, "opening_hours": null, "operator": null, "parking": null, "power": null, "ramp": null, "ref": null, "religion": null, "ruin_type": null, "ruins": null, "sac_scale": null, "smoothness": null, "source": null, "source:ref": null, "start_date": null, "step_count": null, "substance": null, "surface": null, "toll": null, "tourism": null, "tower": null, "traffic_sign": null, "traffic_sign:direction": null, "tunnel": null, "voltage": null, "wall": null, "wheelchair": null, "wifi": null, "wikidata": null, "wikipedia": null, "label": "landuse:orchard" }, "geometry": { "type": "Polygon", "coordinates": [ [ [ 22.8739241, 37.8726386 ], [ 22.8740057, 37.872635 ], [ 22.8740211, 37.8727347 ], [ 22.8741875, 37.8727675 ], [ 22.8742121, 37.8727432 ], [ 22.874528, 37.872776 ], [ 22.8744648, 37.8725523 ], [ 22.8741906, 37.8725596 ], [ 22.8739672, 37.8720318 ], [ 22.8738778, 37.8720355 ], [ 22.8737977, 37.8720403 ], [ 22.8737561, 37.8720659 ], [ 22.8737546, 37.8721109 ], [ 22.8739241, 37.8726386 ] ] ] } }
]
}
