{
"type": "FeatureCollection",
"name": "patch_61021_polygon",
"crs": { "type": "name", "properties": { "name": "urn:ogc:def:crs:OGC:1.3:CRS84" } },
"features": [
{ "type": "Feature", "properties": { "osm_id": -9070734, "name": null, "label": "natural:scrub", "natural": "scrub", "landuse": null }, "geometry": { "type": "Polygon", "coordinates": [ [ [ 22.9524568, 38.592278100066771 ], [ 22.9483099, 38.595285700067201 ], [ 22.9464581, 38.595736200067286 ], [ 22.9459775, 38.595890300067296 ], [ 22.9444805, 38.598030400067614 ], [ 22.941062, 38.59986990006788 ], [ 22.9372765, 38.600020400067898 ], [ 22.9352495, 38.597379800067515 ], [ 22.9327476, 38.594837000067137 ], [ 22.9320502, 38.594568700067114 ], [ 22.9294324, 38.592329700066777 ], [ 22.9267328, 38.592370000066779 ], [ 22.9246821, 38.591713900066694 ], [ 22.9243211, 38.591713900066694 ], [ 22.9241016, 38.591774800066716 ], [ 22.922460924048885, 38.592180577358256 ], [ 22.922460924048885, 38.611601998987076 ], [ 22.930904622488534, 38.611601998987076 ], [ 22.9309172, 38.611595900069567 ], [ 22.9310099, 38.611595400069568 ], [ 22.9311173, 38.611595400069568 ], [ 22.93117, 38.611567400069568 ], [ 22.931180875318415, 38.611601998987076 ], [ 22.952232996718223, 38.611601998987076 ], [ 22.9523025, 38.611559200069557 ], [ 22.9524244, 38.61155280006956 ], [ 22.952463522338672, 38.611538325311777 ], [ 22.952463522338672, 38.609630602610267 ], [ 22.9524511, 38.60963990006929 ], [ 22.9522151, 38.609648300069288 ], [ 22.9521078, 38.609589600069278 ], [ 22.952258, 38.609505800069272 ], [ 22.952463522338672, 38.609496861231165 ], [ 22.952463522338672, 38.607727300069016 ], [ 22.9522875, 38.607727300069016 ], [ 22.9519609, 38.60777060006901 ], [ 22.9521272, 38.607669500069001 ], [ 22.9522936, 38.60765510006901 ], [ 22.9524169, 38.607592500068989 ], [ 22.952463522338672, 38.607597689940398 ], [ 22.952463522338672, 38.592273297207342 ], [ 22.9524568, 38.592278100066771 ] ], [ [ 22.9338443, 38.601915000068168 ], [ 22.9339891, 38.601915000068168 ], [ 22.9342448, 38.601888500068178 ], [ 22.9346084, 38.601837900068162 ], [ 22.9348087, 38.601878900068172 ], [ 22.9349442, 38.601794600068153 ], [ 22.9350736, 38.601770500068149 ], [ 22.9350089, 38.60191980006816 ], [ 22.9349258, 38.601941500068172 ], [ 22.9348148, 38.602045000068181 ], [ 22.9346762, 38.602047400068187 ], [ 22.9347286, 38.602138900068191 ], [ 22.9346423, 38.602242500068215 ], [ 22.9345067, 38.602242500068215 ], [ 22.9342017, 38.602172600068208 ], [ 22.9340168, 38.602085900068197 ], [ 22.9338751, 38.602069100068199 ], [ 22.9340631, 38.602030600068183 ], [ 22.9340138, 38.601989600068187 ], [ 22.9338258, 38.601975200068175 ], [ 22.9338443, 38.601915000068168 ] ] ] } },
{ "type": "Feature", "properties": { "osm_id": 651741955, "name": null, "label": "natural:heath", "natural": "heath", "landuse": null }, "geometry": { "type": "Polygon", "coordinates": [ [ [ 22.9340138, 38.601989600068187 ], [ 22.9340631, 38.602030600068183 ], [ 22.9338751, 38.602069100068199 ], [ 22.9340168, 38.602085900068197 ], [ 22.9342017, 38.602172600068208 ], [ 22.9345067, 38.602242500068215 ], [ 22.9346423, 38.602242500068215 ], [ 22.9347286, 38.602138900068191 ], [ 22.9346762, 38.602047400068187 ], [ 22.9348148, 38.602045000068181 ], [ 22.9349258, 38.601941500068172 ], [ 22.9350089, 38.60191980006816 ], [ 22.9350736, 38.601770500068149 ], [ 22.9349442, 38.601794600068153 ], [ 22.9348087, 38.601878900068172 ], [ 22.9346084, 38.601837900068162 ], [ 22.9342448, 38.601888500068178 ], [ 22.9339891, 38.601915000068168 ], [ 22.9338443, 38.601915000068168 ], [ 22.9338258, 38.601975200068175 ], [ 22.9340138, 38.601989600068187 ] ] ] } },
{ "type": "Feature", "properties": { "osm_id": 36983731, "name": null, "label": "landuse:residential", "natural": null, "landuse": "residential" }, "geometry": { "type": "Polygon", "coordinates": [ [ [ 22.9398571, 38.589266800066333 ], [ 22.9393651, 38.589939500066436 ], [ 22.9407394, 38.5903919000665 ], [ 22.9425338, 38.590283300066496 ], [ 22.9437171, 38.590956000066576 ], [ 22.9458276, 38.5917357000667 ], [ 22.9471741, 38.590687900066541 ], [ 22.9471503, 38.589345900066334 ], [ 22.947187139287603, 38.589031186776253 ], [ 22.940091822549775, 38.589031186776253 ], [ 22.9398571, 38.589266800066333 ] ] ] } },
{ "type": "Feature", "properties": { "osm_id": 651741985, "name": null, "label": "natural:bare_rock", "natural": "bare_rock", "landuse": null }, "geometry": { "type": "Polygon", "coordinates": [ [ [ 22.9524169, 38.607592500068989 ], [ 22.9522936, 38.60765510006901 ], [ 22.9521272, 38.607669500069001 ], [ 22.9519609, 38.60777060006901 ], [ 22.9522875, 38.607727300069016 ], [ 22.952463522338672, 38.607727300069016 ], [ 22.952463522338672, 38.607597689940398 ], [ 22.9524169, 38.607592500068989 ] ] ] } },
{ "type": "Feature", "properties": { "osm_id": 651741990, "name": null, "label": "natural:bare_rock", "natural": "bare_rock", "landuse": null }, "geometry": { "type": "Polygon", "coordinates": [ [ [ 22.9524244, 38.61155280006956 ], [ 22.9523025, 38.611559200069557 ], [ 22.952232996718223, 38.611601998987076 ], [ 22.952463522338672, 38.611601998987076 ], [ 22.952463522338672, 38.611538325311777 ], [ 22.9524244, 38.61155280006956 ] ] ] } },
{ "type": "Feature", "properties": { "osm_id": 651741987, "name": null, "label": "natural:bare_rock", "natural": "bare_rock", "landuse": null }, "geometry": { "type": "Polygon", "coordinates": [ [ [ 22.952258, 38.609505800069272 ], [ 22.9521078, 38.609589600069278 ], [ 22.9522151, 38.609648300069288 ], [ 22.9524511, 38.60963990006929 ], [ 22.952463522338672, 38.609630602610267 ], [ 22.952463522338672, 38.609496861231165 ], [ 22.952258, 38.609505800069272 ] ] ] } }
]
}
