{
"type": "FeatureCollection",
"name": "patch_27928_point",
"crs": { "type": "name", "properties": { "name": "urn:ogc:def:crs:OGC:1.3:CRS84" } },
"features": [
{ "type": "Feature", "properties": { "element": "node", "id": 9049228294, "natural": "hot_spring", "ele": null, "name": null, "alt_name:bg": null, "alt_name:el": null, "historic": null, "name:bg": null, "name:el": null, "name:en": null, "ruins": null, "wikidata": null, "wikipedia": null, "boat": null, "waterway": null, "leaf_type": null, "source": null, "amenity": null, "bath:type": null, "name:mk": null, "type": null, "label": "natural:hot_spring" }, "geometry": { "type": "Point", "coordinates": [ 24.4507317, 41.4654078 ] } },
{ "type": "Feature", "properties": { "element": "node", "id": 9084410114, "natural": "spring", "ele": "524", "name": "Πηγή", "alt_name:bg": null, "alt_name:el": null, "historic": null, "name:bg": null, "name:el": null, "name:en": null, "ruins": null, "wikidata": null, "wikipedia": null, "boat": null, "waterway": null, "leaf_type": null, "source": null, "amenity": null, "bath:type": null, "name:mk": null, "type": null, "label": "natural:spring" }, "geometry": { "type": "Point", "coordinates": [ 24.4599378, 41.4592277 ] } },
{ "type": "Feature", "properties": { "element": "node", "id": 13265840018, "natural": null, "ele": null, "name": "Αυγό", "alt_name:bg": "Авго", "alt_name:el": "Τόμαλ", "historic": "ruins", "name:bg": "Томал", "name:el": "Αυγό", "name:en": "Avgo (Tomal)", "ruins": "village", "wikidata": "Q12296699", "wikipedia": "bg:Томал", "boat": null, "waterway": null, "leaf_type": null, "source": null, "amenity": null, "bath:type": null, "name:mk": null, "type": null, "label": "historic:ruins" }, "geometry": { "type": "Point", "coordinates": [ 24.4598094, 41.4554187 ] } }
]
}
