{
"type": "FeatureCollection",
"name": "patch_23825_linestring",
"crs": { "type": "name", "properties": { "name": "urn:ogc:def:crs:OGC:1.3:CRS84" } },
"features": [
{ "type": "Feature", "properties": { "osm_id": 691370827, "name": null, "label": "waterway:stream", "waterway": "stream" }, "geometry": { "type": "LineString", "coordinates": [ [ 22.6374228, 37.759351299948449 ], [ 22.637377, 37.758934299948379 ], [ 22.637377, 37.758857199948373 ], [ 22.6374136, 37.758775199948367 ], [ 22.6374807, 37.758701299948349 ], [ 22.6375082, 37.758641399948345 ], [ 22.6375153, 37.758529499948324 ], [ 22.6375542, 37.758414699948318 ], [ 22.6375719, 37.758263599948286 ], [ 22.6376002, 37.758101299948272 ], [ 22.6376144, 37.757899899948221 ], [ 22.637586, 37.757765599948222 ], [ 22.6375471, 37.757634099948191 ], [ 22.6375365, 37.757485799948178 ], [ 22.6374728, 37.757407399948164 ], [ 22.637356, 37.757354199948168 ], [ 22.6372003, 37.757340299948162 ], [ 22.6370658, 37.757289899948155 ], [ 22.6369277, 37.757217099948136 ], [ 22.6368039, 37.757189199948137 ], [ 22.6366859, 37.757187399948144 ], [ 22.636568, 37.757148799948141 ], [ 22.6364562, 37.75710379994814 ], [ 22.6363871, 37.757050799948118 ], [ 22.6363159, 37.756991299948119 ], [ 22.6362611, 37.756915799948104 ], [ 22.6362224, 37.756845099948087 ], [ 22.6361858, 37.75678879994809 ], [ 22.6361804, 37.756755499948078 ], [ 22.6361818, 37.756626499948062 ], [ 22.6361818, 37.75657829994806 ], [ 22.6361411, 37.756531699948042 ], [ 22.6360761, 37.756486699948042 ], [ 22.6360232, 37.756412799948023 ], [ 22.636021199260419, 37.756408142491203 ] ] } },
{ "type": "Feature", "properties": { "osm_id": 732795913, "name": null, "label": "waterway:stream", "waterway": "stream" }, "geometry": { "type": "LineString", "coordinates": [ [ 22.6374686, 37.759932799948515 ], [ 22.6374228, 37.759351299948449 ] ] } },
{ "type": "Feature", "properties": { "osm_id": 732795916, "name": null, "label": "waterway:stream", "waterway": "stream" }, "geometry": { "type": "LineString", "coordinates": [ [ 22.6364475, 37.760563299948608 ], [ 22.6365175, 37.7605078999486 ], [ 22.6366249, 37.760483899948596 ], [ 22.6367324, 37.760483899948596 ], [ 22.6368398, 37.760463599948594 ], [ 22.6369332, 37.760422999948581 ] ] } },
{ "type": "Feature", "properties": { "osm_id": 732795915, "name": null, "label": "waterway:stream", "waterway": "stream" }, "geometry": { "type": "LineString", "coordinates": [ [ 22.6369332, 37.760422999948581 ], [ 22.6371844, 37.760335399948573 ] ] } },
{ "type": "Feature", "properties": { "osm_id": 732795914, "name": null, "label": "waterway:stream", "waterway": "stream" }, "geometry": { "type": "LineString", "coordinates": [ [ 22.6371844, 37.760335399948573 ], [ 22.6372862, 37.760308099948581 ], [ 22.6373666, 37.760288999948571 ], [ 22.6374444, 37.760259299948572 ], [ 22.6374739, 37.760218999948556 ], [ 22.6374686, 37.759932799948515 ] ] } }
]
}
