{
"type": "FeatureCollection",
"name": "patch_96033_linestring",
"crs": { "type": "name", "properties": { "name": "urn:ogc:def:crs:OGC:1.3:CRS84" } },
"features": [
{ "type": "Feature", "properties": { "@type": "way", "@id": 534332808, "access": null, "addr:city": null, "addr:postcode": null, "admin_level": null, "amenity": null, "boundary": null, "branch": null, "brand": null, "brand:wikidata": null, "building": null, "building:levels": null, "bus": null, "cables": null, "crop": null, "denomination": null, "description": null, "design": null, "direction": null, "embankment": null, "ford": null, "height": null, "highway": null, "horse": null, "incline": null, "intermittent": null, "landuse": null, "lanes": null, "layer": null, "leaf_type": null, "leisure": null, "man_made": null, "material": null, "maxspeed": null, "motor_vehicle": null, "motorcar": null, "motorcycle": null, "name": null, "name:el": null, "name:en": null, "natural": null, "network": null, "noexit": null, "note": null, "old_name": null, "oneway": null, "operator": null, "operator:wikidata": null, "payment:cash": null, "payment:credit_cards": null, "place": null, "population": null, "power": null, "public_transport": null, "ref": null, "reg_ref": null, "religion": null, "service": null, "shop": null, "smoothness": null, "source": null, "source:population": null, "sport": null, "stop": null, "surface": null, "tracktype": null, "transformer": null, "trees": null, "tunnel": null, "voltage": null, "water": null, "waterway": "stream", "wetland": null, "width": null, "wikidata": null, "wikipedia": null, "label": "waterway:stream" }, "geometry": { "type": "LineString", "coordinates": [ [ 23.2134032, 38.2747774 ], [ 23.2141971, 38.2745416 ], [ 23.2148192, 38.2739237 ], [ 23.2152486, 38.2734971 ], [ 23.2164073, 38.2724022 ], [ 23.2170296, 38.2714588 ], [ 23.2179811, 38.2709441 ], [ 23.2181024, 38.2701448 ], [ 23.217802, 38.2694541 ], [ 23.2175955, 38.2691045 ], [ 23.2175955, 38.268677 ], [ 23.2183143, 38.2671776 ], [ 23.219077987167331, 38.266403586428645 ] ] } },
{ "type": "Feature", "properties": { "@type": "way", "@id": 555249778, "access": null, "addr:city": null, "addr:postcode": null, "admin_level": null, "amenity": null, "boundary": null, "branch": null, "brand": null, "brand:wikidata": null, "building": null, "building:levels": null, "bus": null, "cables": null, "crop": null, "denomination": null, "description": null, "design": null, "direction": null, "embankment": null, "ford": null, "height": null, "highway": null, "horse": null, "incline": null, "intermittent": null, "landuse": null, "lanes": null, "layer": null, "leaf_type": null, "leisure": null, "man_made": null, "material": null, "maxspeed": null, "motor_vehicle": null, "motorcar": null, "motorcycle": null, "name": "Παραποταμος Ασωπου", "name:el": null, "name:en": null, "natural": null, "network": null, "noexit": null, "note": null, "old_name": null, "oneway": null, "operator": null, "operator:wikidata": null, "payment:cash": null, "payment:credit_cards": null, "place": null, "population": null, "power": null, "public_transport": null, "ref": null, "reg_ref": null, "religion": null, "service": null, "shop": null, "smoothness": null, "source": null, "source:population": null, "sport": null, "stop": null, "surface": null, "tracktype": null, "transformer": null, "trees": null, "tunnel": null, "voltage": null, "water": null, "waterway": "drain", "wetland": null, "width": "2", "wikidata": null, "wikipedia": null, "label": "waterway:drain" }, "geometry": { "type": "LineString", "coordinates": [ [ 23.2292115, 38.2697697 ], [ 23.2315658, 38.2699764 ] ] } },
{ "type": "Feature", "properties": { "@type": "way", "@id": 557044682, "access": null, "addr:city": null, "addr:postcode": null, "admin_level": null, "amenity": null, "boundary": null, "branch": null, "brand": null, "brand:wikidata": null, "building": null, "building:levels": null, "bus": null, "cables": null, "crop": null, "denomination": null, "description": null, "design": null, "direction": null, "embankment": null, "ford": null, "height": null, "highway": null, "horse": null, "incline": null, "intermittent": null, "landuse": null, "lanes": null, "layer": null, "leaf_type": null, "leisure": null, "man_made": null, "material": null, "maxspeed": null, "motor_vehicle": null, "motorcar": null, "motorcycle": null, "name": "Παραποταμος Ασωπου", "name:el": null, "name:en": null, "natural": null, "network": null, "noexit": null, "note": null, "old_name": null, "oneway": null, "operator": null, "operator:wikidata": null, "payment:cash": null, "payment:credit_cards": null, "place": null, "population": null, "power": null, "public_transport": null, "ref": null, "reg_ref": null, "religion": null, "service": null, "shop": null, "smoothness": null, "source": null, "source:population": null, "sport": null, "stop": null, "surface": null, "tracktype": null, "transformer": null, "trees": null, "tunnel": null, "voltage": null, "water": null, "waterway": "drain", "wetland": null, "width": "2", "wikidata": null, "wikipedia": null, "label": "waterway:drain" }, "geometry": { "type": "LineString", "coordinates": [ [ 23.2356469, 38.2694912 ], [ 23.23657, 38.269366 ], [ 23.2378396, 38.2690482 ] ] } },
{ "type": "Feature", "properties": { "@type": "way", "@id": 557044684, "access": null, "addr:city": null, "addr:postcode": null, "admin_level": null, "amenity": null, "boundary": null, "branch": null, "brand": null, "brand:wikidata": null, "building": null, "building:levels": null, "bus": null, "cables": null, "crop": null, "denomination": null, "description": null, "design": null, "direction": null, "embankment": null, "ford": null, "height": null, "highway": null, "horse": null, "incline": null, "intermittent": null, "landuse": null, "lanes": null, "layer": null, "leaf_type": null, "leisure": null, "man_made": null, "material": null, "maxspeed": null, "motor_vehicle": null, "motorcar": null, "motorcycle": null, "name": "Παραποταμος Ασωπου", "name:el": null, "name:en": null, "natural": null, "network": null, "noexit": null, "note": null, "old_name": null, "oneway": null, "operator": null, "operator:wikidata": null, "payment:cash": null, "payment:credit_cards": null, "place": null, "population": null, "power": null, "public_transport": null, "ref": null, "reg_ref": null, "religion": null, "service": null, "shop": null, "smoothness": null, "source": null, "source:population": null, "sport": null, "stop": null, "surface": null, "tracktype": null, "transformer": null, "trees": null, "tunnel": null, "voltage": null, "water": null, "waterway": "drain", "wetland": null, "width": "2", "wikidata": null, "wikipedia": null, "label": "waterway:drain" }, "geometry": { "type": "LineString", "coordinates": [ [ 23.23795, 38.2690219 ], [ 23.238027, 38.2690074 ], [ 23.2381164, 38.2689965 ], [ 23.2388712, 38.2689204 ], [ 23.2390191, 38.268901 ], [ 23.2391378, 38.2688816 ], [ 23.2393996, 38.2688248 ], [ 23.2397185, 38.2687583 ], [ 23.2398228, 38.2687436 ], [ 23.2399253, 38.2687399 ], [ 23.2399957, 38.2687371 ], [ 23.2400581, 38.2687482 ], [ 23.2401112, 38.2687496 ], [ 23.2401784, 38.2687399 ] ] } },
{ "type": "Feature", "properties": { "@type": "way", "@id": 737112660, "access": null, "addr:city": null, "addr:postcode": null, "admin_level": null, "amenity": null, "boundary": null, "branch": null, "brand": null, "brand:wikidata": null, "building": null, "building:levels": null, "bus": null, "cables": null, "crop": null, "denomination": null, "description": null, "design": null, "direction": null, "embankment": null, "ford": null, "height": null, "highway": null, "horse": null, "incline": null, "intermittent": null, "landuse": null, "lanes": null, "layer": "-1", "leaf_type": null, "leisure": null, "man_made": null, "material": null, "maxspeed": null, "motor_vehicle": null, "motorcar": null, "motorcycle": null, "name": "Παραποταμος Ασωπου", "name:el": null, "name:en": null, "natural": null, "network": null, "noexit": null, "note": null, "old_name": null, "oneway": null, "operator": null, "operator:wikidata": null, "payment:cash": null, "payment:credit_cards": null, "place": null, "population": null, "power": null, "public_transport": null, "ref": null, "reg_ref": null, "religion": null, "service": null, "shop": null, "smoothness": null, "source": null, "source:population": null, "sport": null, "stop": null, "surface": null, "tracktype": null, "transformer": null, "trees": null, "tunnel": "culvert", "voltage": null, "water": null, "waterway": "drain", "wetland": null, "width": "2", "wikidata": null, "wikipedia": null, "label": "waterway:drain" }, "geometry": { "type": "LineString", "coordinates": [ [ 23.2378396, 38.2690482 ], [ 23.23795, 38.2690219 ] ] } },
{ "type": "Feature", "properties": { "@type": "way", "@id": 737112665, "access": null, "addr:city": null, "addr:postcode": null, "admin_level": null, "amenity": null, "boundary": null, "branch": null, "brand": null, "brand:wikidata": null, "building": null, "building:levels": null, "bus": null, "cables": null, "crop": null, "denomination": null, "description": null, "design": null, "direction": null, "embankment": null, "ford": null, "height": null, "highway": null, "horse": null, "incline": null, "intermittent": null, "landuse": null, "lanes": null, "layer": null, "leaf_type": null, "leisure": null, "man_made": null, "material": null, "maxspeed": null, "motor_vehicle": null, "motorcar": null, "motorcycle": null, "name": "Παραποταμος Ασωπου", "name:el": null, "name:en": null, "natural": null, "network": null, "noexit": null, "note": null, "old_name": null, "oneway": null, "operator": null, "operator:wikidata": null, "payment:cash": null, "payment:credit_cards": null, "place": null, "population": null, "power": null, "public_transport": null, "ref": null, "reg_ref": null, "religion": null, "service": null, "shop": null, "smoothness": null, "source": "Maxar Premium Imagery (2019-10-20)", "source:population": null, "sport": null, "stop": null, "surface": null, "tracktype": null, "transformer": null, "trees": null, "tunnel": null, "voltage": null, "water": null, "waterway": "stream", "wetland": null, "width": null, "wikidata": null, "wikipedia": null, "label": "waterway:stream" }, "geometry": { "type": "LineString", "coordinates": [ [ 23.2401784, 38.2687399 ], [ 23.2403324, 38.2686787 ], [ 23.2405429, 38.2685926 ], [ 23.240586752453915, 38.268573862150561 ] ] } },
{ "type": "Feature", "properties": { "@type": "way", "@id": 737112668, "access": null, "addr:city": null, "addr:postcode": null, "admin_level": null, "amenity": null, "boundary": null, "branch": null, "brand": null, "brand:wikidata": null, "building": null, "building:levels": null, "bus": null, "cables": null, "crop": null, "denomination": null, "description": null, "design": null, "direction": null, "embankment": null, "ford": null, "height": null, "highway": null, "horse": null, "incline": null, "intermittent": null, "landuse": null, "lanes": null, "layer": null, "leaf_type": null, "leisure": null, "man_made": null, "material": null, "maxspeed": null, "motor_vehicle": null, "motorcar": null, "motorcycle": null, "name": "Παραποταμος Ασωπου", "name:el": null, "name:en": null, "natural": null, "network": null, "noexit": null, "note": null, "old_name": null, "oneway": null, "operator": null, "operator:wikidata": null, "payment:cash": null, "payment:credit_cards": null, "place": null, "population": null, "power": null, "public_transport": null, "ref": null, "reg_ref": null, "religion": null, "service": null, "shop": null, "smoothness": null, "source": "Maxar Premium Imagery (2019-10-20)", "source:population": null, "sport": null, "stop": null, "surface": null, "tracktype": null, "transformer": null, "trees": null, "tunnel": null, "voltage": null, "water": null, "waterway": "drain", "wetland": null, "width": null, "wikidata": null, "wikipedia": null, "label": "waterway:drain" }, "geometry": { "type": "LineString", "coordinates": [ [ 23.2399296, 38.269998 ], [ 23.2399395, 38.2699986 ], [ 23.2399448, 38.2699222 ], [ 23.2399501, 38.2698499 ], [ 23.2399696, 38.2697527 ], [ 23.2399891, 38.2696763 ], [ 23.2399997, 38.2695901 ], [ 23.240005, 38.2694095 ], [ 23.2400138, 38.2692664 ], [ 23.2400439, 38.2689816 ], [ 23.2400563, 38.2688788 ], [ 23.240074, 38.268819 ], [ 23.2401058, 38.2687829 ], [ 23.2401784, 38.2687399 ] ] } },
{ "type": "Feature", "properties": { "@type": "way", "@id": 737112674, "access": null, "addr:city": null, "addr:postcode": null, "admin_level": null, "amenity": null, "boundary": null, "branch": null, "brand": null, "brand:wikidata": null, "building": null, "building:levels": null, "bus": null, "cables": null, "crop": null, "denomination": null, "description": null, "design": null, "direction": null, "embankment": null, "ford": null, "height": null, "highway": null, "horse": null, "incline": null, "intermittent": null, "landuse": null, "lanes": null, "layer": "-1", "leaf_type": null, "leisure": null, "man_made": null, "material": null, "maxspeed": null, "motor_vehicle": null, "motorcar": null, "motorcycle": null, "name": "Παραποταμος Ασωπου", "name:el": null, "name:en": null, "natural": null, "network": null, "noexit": null, "note": null, "old_name": null, "oneway": null, "operator": null, "operator:wikidata": null, "payment:cash": null, "payment:credit_cards": null, "place": null, "population": null, "power": null, "public_transport": null, "ref": null, "reg_ref": null, "religion": null, "service": null, "shop": null, "smoothness": null, "source": null, "source:population": null, "sport": null, "stop": null, "surface": null, "tracktype": null, "transformer": null, "trees": null, "tunnel": "culvert", "voltage": null, "water": null, "waterway": "drain", "wetland": null, "width": "2", "wikidata": null, "wikipedia": null, "label": "waterway:drain" }, "geometry": { "type": "LineString", "coordinates": [ [ 23.2355535, 38.2694992 ], [ 23.2356469, 38.2694912 ] ] } },
{ "type": "Feature", "properties": { "@type": "way", "@id": 737112675, "access": null, "addr:city": null, "addr:postcode": null, "admin_level": null, "amenity": null, "boundary": null, "branch": null, "brand": null, "brand:wikidata": null, "building": null, "building:levels": null, "bus": null, "cables": null, "crop": null, "denomination": null, "description": null, "design": null, "direction": null, "embankment": null, "ford": null, "height": null, "highway": null, "horse": null, "incline": null, "intermittent": null, "landuse": null, "lanes": null, "layer": null, "leaf_type": null, "leisure": null, "man_made": null, "material": null, "maxspeed": null, "motor_vehicle": null, "motorcar": null, "motorcycle": null, "name": "Παραποταμος Ασωπου", "name:el": null, "name:en": null, "natural": null, "network": null, "noexit": null, "note": null, "old_name": null, "oneway": null, "operator": null, "operator:wikidata": null, "payment:cash": null, "payment:credit_cards": null, "place": null, "population": null, "power": null, "public_transport": null, "ref": null, "reg_ref": null, "religion": null, "service": null, "shop": null, "smoothness": null, "source": null, "source:population": null, "sport": null, "stop": null, "surface": null, "tracktype": null, "transformer": null, "trees": null, "tunnel": null, "voltage": null, "water": null, "waterway": "drain", "wetland": null, "width": "2", "wikidata": null, "wikipedia": null, "label": "waterway:drain" }, "geometry": { "type": "LineString", "coordinates": [ [ 23.2317297, 38.2699795 ], [ 23.2355535, 38.2694992 ] ] } },
{ "type": "Feature", "properties": { "@type": "way", "@id": 737112676, "access": null, "addr:city": null, "addr:postcode": null, "admin_level": null, "amenity": null, "boundary": null, "branch": null, "brand": null, "brand:wikidata": null, "building": null, "building:levels": null, "bus": null, "cables": null, "crop": null, "denomination": null, "description": null, "design": null, "direction": null, "embankment": null, "ford": null, "height": null, "highway": null, "horse": null, "incline": null, "intermittent": null, "landuse": null, "lanes": null, "layer": "-1", "leaf_type": null, "leisure": null, "man_made": null, "material": null, "maxspeed": null, "motor_vehicle": null, "motorcar": null, "motorcycle": null, "name": "Παραποταμος Ασωπου", "name:el": null, "name:en": null, "natural": null, "network": null, "noexit": null, "note": null, "old_name": null, "oneway": null, "operator": null, "operator:wikidata": null, "payment:cash": null, "payment:credit_cards": null, "place": null, "population": null, "power": null, "public_transport": null, "ref": null, "reg_ref": null, "religion": null, "service": null, "shop": null, "smoothness": null, "source": null, "source:population": null, "sport": null, "stop": null, "surface": null, "tracktype": null, "transformer": null, "trees": null, "tunnel": "culvert", "voltage": null, "water": null, "waterway": "drain", "wetland": null, "width": "2", "wikidata": null, "wikipedia": null, "label": "waterway:drain" }, "geometry": { "type": "LineString", "coordinates": [ [ 23.2315658, 38.2699764 ], [ 23.2317297, 38.2699795 ] ] } },
{ "type": "Feature", "properties": { "@type": "way", "@id": 807177573, "access": null, "addr:city": null, "addr:postcode": null, "admin_level": null, "amenity": null, "boundary": null, "branch": null, "brand": null, "brand:wikidata": null, "building": null, "building:levels": null, "bus": null, "cables": null, "crop": null, "denomination": null, "description": null, "design": null, "direction": null, "embankment": null, "ford": null, "height": null, "highway": null, "horse": null, "incline": null, "intermittent": "yes", "landuse": null, "lanes": null, "layer": null, "leaf_type": null, "leisure": null, "man_made": null, "material": null, "maxspeed": null, "motor_vehicle": null, "motorcar": null, "motorcycle": null, "name": null, "name:el": null, "name:en": null, "natural": null, "network": null, "noexit": null, "note": null, "old_name": null, "oneway": null, "operator": null, "operator:wikidata": null, "payment:cash": null, "payment:credit_cards": null, "place": null, "population": null, "power": null, "public_transport": null, "ref": null, "reg_ref": null, "religion": null, "service": null, "shop": null, "smoothness": null, "source": null, "source:population": null, "sport": null, "stop": null, "surface": null, "tracktype": null, "transformer": null, "trees": null, "tunnel": null, "voltage": null, "water": null, "waterway": "stream", "wetland": null, "width": null, "wikidata": null, "wikipedia": null, "label": "waterway:stream" }, "geometry": { "type": "LineString", "coordinates": [ [ 23.2174289, 38.2870869 ], [ 23.2176412, 38.288037 ], [ 23.2177049, 38.2888148 ], [ 23.21766743854921, 38.288903028092513 ] ] } },
{ "type": "Feature", "properties": { "@type": "way", "@id": 807264913, "access": null, "addr:city": null, "addr:postcode": null, "admin_level": null, "amenity": null, "boundary": null, "branch": null, "brand": null, "brand:wikidata": null, "building": null, "building:levels": null, "bus": null, "cables": null, "crop": null, "denomination": null, "description": null, "design": null, "direction": null, "embankment": null, "ford": null, "height": null, "highway": null, "horse": null, "incline": null, "intermittent": null, "landuse": null, "lanes": null, "layer": null, "leaf_type": null, "leisure": null, "man_made": null, "material": null, "maxspeed": null, "motor_vehicle": null, "motorcar": null, "motorcycle": null, "name": null, "name:el": null, "name:en": null, "natural": null, "network": null, "noexit": null, "note": null, "old_name": null, "oneway": null, "operator": null, "operator:wikidata": null, "payment:cash": null, "payment:credit_cards": null, "place": null, "population": null, "power": null, "public_transport": null, "ref": null, "reg_ref": null, "religion": null, "service": null, "shop": null, "smoothness": null, "source": null, "source:population": null, "sport": null, "stop": null, "surface": null, "tracktype": null, "transformer": null, "trees": null, "tunnel": null, "voltage": null, "water": null, "waterway": "stream", "wetland": null, "width": null, "wikidata": null, "wikipedia": null, "label": "waterway:stream" }, "geometry": { "type": "LineString", "coordinates": [ [ 23.2362815, 38.2833746 ], [ 23.2362441, 38.283206 ], [ 23.2360853, 38.2829861 ], [ 23.2359826, 38.2825168 ], [ 23.2358051, 38.2820843 ], [ 23.2352354, 38.2816077 ], [ 23.2344135, 38.2809112 ], [ 23.2341706, 38.2806839 ], [ 23.234208, 38.2805446 ], [ 23.2345722, 38.2801487 ], [ 23.2347829, 38.2799429 ], [ 23.2349925, 38.2797381 ], [ 23.2356837, 38.2787263 ], [ 23.2360947, 38.2780371 ], [ 23.2363468, 38.2775825 ], [ 23.2368138, 38.2772233 ], [ 23.2372622, 38.2766807 ], [ 23.2378879, 38.2758155 ], [ 23.238439, 38.2749869 ], [ 23.2390461, 38.2741584 ], [ 23.2396532, 38.2734984 ], [ 23.2397074, 38.2733454 ], [ 23.2397215, 38.2732333 ] ] } },
{ "type": "Feature", "properties": { "@type": "way", "@id": 807264914, "access": null, "addr:city": null, "addr:postcode": null, "admin_level": null, "amenity": null, "boundary": null, "branch": null, "brand": null, "brand:wikidata": null, "building": null, "building:levels": null, "bus": null, "cables": null, "crop": null, "denomination": null, "description": null, "design": null, "direction": null, "embankment": null, "ford": null, "height": null, "highway": null, "horse": null, "incline": null, "intermittent": "yes", "landuse": null, "lanes": null, "layer": "-1", "leaf_type": null, "leisure": null, "man_made": null, "material": null, "maxspeed": null, "motor_vehicle": null, "motorcar": null, "motorcycle": null, "name": null, "name:el": null, "name:en": null, "natural": null, "network": null, "noexit": null, "note": null, "old_name": null, "oneway": null, "operator": null, "operator:wikidata": null, "payment:cash": null, "payment:credit_cards": null, "place": null, "population": null, "power": null, "public_transport": null, "ref": null, "reg_ref": null, "religion": null, "service": null, "shop": null, "smoothness": null, "source": null, "source:population": null, "sport": null, "stop": null, "surface": null, "tracktype": null, "transformer": null, "trees": null, "tunnel": "yes", "voltage": null, "water": null, "waterway": "stream", "wetland": null, "width": null, "wikidata": null, "wikipedia": null, "label": "waterway:stream" }, "geometry": { "type": "LineString", "coordinates": [ [ 23.2325323, 38.2821419 ], [ 23.2326192, 38.2821397 ] ] } },
{ "type": "Feature", "properties": { "@type": "way", "@id": 807264915, "access": null, "addr:city": null, "addr:postcode": null, "admin_level": null, "amenity": null, "boundary": null, "branch": null, "brand": null, "brand:wikidata": null, "building": null, "building:levels": null, "bus": null, "cables": null, "crop": null, "denomination": null, "description": null, "design": null, "direction": null, "embankment": null, "ford": null, "height": null, "highway": null, "horse": null, "incline": null, "intermittent": null, "landuse": null, "lanes": null, "layer": null, "leaf_type": null, "leisure": null, "man_made": null, "material": null, "maxspeed": null, "motor_vehicle": null, "motorcar": null, "motorcycle": null, "name": null, "name:el": null, "name:en": null, "natural": null, "network": null, "noexit": null, "note": null, "old_name": null, "oneway": null, "operator": null, "operator:wikidata": null, "payment:cash": null, "payment:credit_cards": null, "place": null, "population": null, "power": null, "public_transport": null, "ref": null, "reg_ref": null, "religion": null, "service": null, "shop": null, "smoothness": null, "source": null, "source:population": null, "sport": null, "stop": null, "surface": null, "tracktype": null, "transformer": null, "trees": null, "tunnel": null, "voltage": null, "water": null, "waterway": "stream", "wetland": null, "width": null, "wikidata": null, "wikipedia": null, "label": "waterway:stream" }, "geometry": { "type": "LineString", "coordinates": [ [ 23.2397215, 38.2732333 ], [ 23.2397534, 38.2729356 ], [ 23.2398118, 38.2725285 ], [ 23.239978, 38.2720087 ], [ 23.2399005, 38.2713699 ], [ 23.2398614, 38.2710286 ], [ 23.2399855, 38.2706446 ], [ 23.2399807, 38.2703172 ], [ 23.239961, 38.2701776 ] ] } },
{ "type": "Feature", "properties": { "@type": "way", "@id": 807264916, "access": null, "addr:city": null, "addr:postcode": null, "admin_level": null, "amenity": null, "boundary": null, "branch": null, "brand": null, "brand:wikidata": null, "building": null, "building:levels": null, "bus": null, "cables": null, "crop": null, "denomination": null, "description": null, "design": null, "direction": null, "embankment": null, "ford": null, "height": null, "highway": null, "horse": null, "incline": null, "intermittent": null, "landuse": null, "lanes": null, "layer": null, "leaf_type": null, "leisure": null, "man_made": null, "material": null, "maxspeed": null, "motor_vehicle": null, "motorcar": null, "motorcycle": null, "name": null, "name:el": null, "name:en": null, "natural": null, "network": null, "noexit": null, "note": null, "old_name": null, "oneway": null, "operator": null, "operator:wikidata": null, "payment:cash": null, "payment:credit_cards": null, "place": null, "population": null, "power": null, "public_transport": null, "ref": null, "reg_ref": null, "religion": null, "service": null, "shop": null, "smoothness": null, "source": null, "source:population": null, "sport": null, "stop": null, "surface": null, "tracktype": null, "transformer": null, "trees": null, "tunnel": null, "voltage": null, "water": null, "waterway": "stream", "wetland": null, "width": null, "wikidata": null, "wikipedia": null, "label": "waterway:stream" }, "geometry": { "type": "LineString", "coordinates": [ [ 23.2399365, 38.2700978 ], [ 23.2399296, 38.269998 ] ] } },
{ "type": "Feature", "properties": { "@type": "way", "@id": 807264917, "access": null, "addr:city": null, "addr:postcode": null, "admin_level": null, "amenity": null, "boundary": null, "branch": null, "brand": null, "brand:wikidata": null, "building": null, "building:levels": null, "bus": null, "cables": null, "crop": null, "denomination": null, "description": null, "design": null, "direction": null, "embankment": null, "ford": null, "height": null, "highway": null, "horse": null, "incline": null, "intermittent": null, "landuse": null, "lanes": null, "layer": "-1", "leaf_type": null, "leisure": null, "man_made": null, "material": null, "maxspeed": null, "motor_vehicle": null, "motorcar": null, "motorcycle": null, "name": null, "name:el": null, "name:en": null, "natural": null, "network": null, "noexit": null, "note": null, "old_name": null, "oneway": null, "operator": null, "operator:wikidata": null, "payment:cash": null, "payment:credit_cards": null, "place": null, "population": null, "power": null, "public_transport": null, "ref": null, "reg_ref": null, "religion": null, "service": null, "shop": null, "smoothness": null, "source": null, "source:population": null, "sport": null, "stop": null, "surface": null, "tracktype": null, "transformer": null, "trees": null, "tunnel": "culvert", "voltage": null, "water": null, "waterway": "stream", "wetland": null, "width": null, "wikidata": null, "wikipedia": null, "label": "waterway:stream" }, "geometry": { "type": "LineString", "coordinates": [ [ 23.239961, 38.2701776 ], [ 23.2399365, 38.2700978 ] ] } },
{ "type": "Feature", "properties": { "@type": "way", "@id": 807264918, "access": null, "addr:city": null, "addr:postcode": null, "admin_level": null, "amenity": null, "boundary": null, "branch": null, "brand": null, "brand:wikidata": null, "building": null, "building:levels": null, "bus": null, "cables": null, "crop": null, "denomination": null, "description": null, "design": null, "direction": null, "embankment": null, "ford": null, "height": null, "highway": null, "horse": null, "incline": null, "intermittent": null, "landuse": null, "lanes": null, "layer": null, "leaf_type": null, "leisure": null, "man_made": null, "material": null, "maxspeed": null, "motor_vehicle": null, "motorcar": null, "motorcycle": null, "name": null, "name:el": null, "name:en": null, "natural": null, "network": null, "noexit": null, "note": null, "old_name": null, "oneway": null, "operator": null, "operator:wikidata": null, "payment:cash": null, "payment:credit_cards": null, "place": null, "population": null, "power": null, "public_transport": null, "ref": null, "reg_ref": null, "religion": null, "service": null, "shop": null, "smoothness": null, "source": null, "source:population": null, "sport": null, "stop": null, "surface": null, "tracktype": null, "transformer": null, "trees": null, "tunnel": null, "voltage": null, "water": null, "waterway": "stream", "wetland": null, "width": null, "wikidata": null, "wikipedia": null, "label": "waterway:stream" }, "geometry": { "type": "LineString", "coordinates": [ [ 23.240586752453915, 38.27401673078527 ], [ 23.2404955, 38.273883 ], [ 23.2400918, 38.2735085 ], [ 23.2397215, 38.2732333 ] ] } },
{ "type": "Feature", "properties": { "@type": "way", "@id": 956455389, "access": null, "addr:city": null, "addr:postcode": null, "admin_level": null, "amenity": null, "boundary": null, "branch": null, "brand": null, "brand:wikidata": null, "building": null, "building:levels": null, "bus": null, "cables": null, "crop": null, "denomination": null, "description": null, "design": null, "direction": null, "embankment": null, "ford": null, "height": null, "highway": null, "horse": null, "incline": null, "intermittent": "yes", "landuse": null, "lanes": null, "layer": null, "leaf_type": null, "leisure": null, "man_made": null, "material": null, "maxspeed": null, "motor_vehicle": null, "motorcar": null, "motorcycle": null, "name": null, "name:el": null, "name:en": null, "natural": null, "network": null, "noexit": null, "note": null, "old_name": null, "oneway": null, "operator": null, "operator:wikidata": null, "payment:cash": null, "payment:credit_cards": null, "place": null, "population": null, "power": null, "public_transport": null, "ref": null, "reg_ref": null, "religion": null, "service": null, "shop": null, "smoothness": null, "source": null, "source:population": null, "sport": null, "stop": null, "surface": null, "tracktype": null, "transformer": null, "trees": null, "tunnel": null, "voltage": null, "water": null, "waterway": "stream", "wetland": null, "width": null, "wikidata": null, "wikipedia": null, "label": "waterway:stream" }, "geometry": { "type": "LineString", "coordinates": [ [ 23.2326192, 38.2821397 ], [ 23.232745, 38.2821232 ], [ 23.2334117, 38.2816254 ], [ 23.2340785, 38.2808084 ], [ 23.2341706, 38.2806839 ] ] } },
{ "type": "Feature", "properties": { "@type": "way", "@id": 956455390, "access": null, "addr:city": null, "addr:postcode": null, "admin_level": null, "amenity": null, "boundary": null, "branch": null, "brand": null, "brand:wikidata": null, "building": null, "building:levels": null, "bus": null, "cables": null, "crop": null, "denomination": null, "description": null, "design": null, "direction": null, "embankment": null, "ford": null, "height": null, "highway": null, "horse": null, "incline": null, "intermittent": "yes", "landuse": null, "lanes": null, "layer": null, "leaf_type": null, "leisure": null, "man_made": null, "material": null, "maxspeed": null, "motor_vehicle": null, "motorcar": null, "motorcycle": null, "name": null, "name:el": null, "name:en": null, "natural": null, "network": null, "noexit": null, "note": null, "old_name": null, "oneway": null, "operator": null, "operator:wikidata": null, "payment:cash": null, "payment:credit_cards": null, "place": null, "population": null, "power": null, "public_transport": null, "ref": null, "reg_ref": null, "religion": null, "service": null, "shop": null, "smoothness": null, "source": null, "source:population": null, "sport": null, "stop": null, "surface": null, "tracktype": null, "transformer": null, "trees": null, "tunnel": null, "voltage": null, "water": null, "waterway": "stream", "wetland": null, "width": null, "wikidata": null, "wikipedia": null, "label": "waterway:stream" }, "geometry": { "type": "LineString", "coordinates": [ [ 23.227281, 38.2807446 ], [ 23.2284031, 38.2813956 ], [ 23.2288238, 38.281635 ], [ 23.2290535, 38.2817658 ], [ 23.2302572, 38.2821365 ], [ 23.2323279, 38.2821514 ], [ 23.2325323, 38.2821419 ] ] } }
]
}
