{
"type": "FeatureCollection",
"name": "patch_88130_point",
"crs": { "type": "name", "properties": { "name": "urn:ogc:def:crs:OGC:1.3:CRS84" } },
"features": [
{ "type": "Feature", "properties": { "element": "node", "id": 1344970271, "addr:city": "Μαραθιά", "amenity": "fuel", "brand": "ΑΠ", "name": "ΑΠ", "operator": "ΠΑΓΚΑΛΙΔΗΣ", "outdoor_seating": null, "cuisine": null, "boat": null, "layer": null, "waterway": null, "width": null, "date": null, "landuse": null, "source": null, "brand:wikidata": null, "brand:wikipedia": null, "shop": null, "building": null, "tunnel": null, "denomination": null, "religion": null, "phone": null, "addr:country": null, "addr:postcode": null, "car_wash": null, "fuel:diesel": null, "fuel:lpg": null, "fuel:octane_100": null, "fuel:octane_95": null, "fuel:octane_98": null, "self_service": null, "website": null, "label": "amenity:fuel" }, "geometry": { "type": "Point", "coordinates": [ 21.3080842, 37.7985998 ] } },
{ "type": "Feature", "properties": { "element": "node", "id": 9779182443, "addr:city": null, "amenity": "cafe", "brand": null, "name": null, "operator": null, "outdoor_seating": "yes", "cuisine": null, "boat": null, "layer": null, "waterway": null, "width": null, "date": null, "landuse": null, "source": null, "brand:wikidata": null, "brand:wikipedia": null, "shop": null, "building": null, "tunnel": null, "denomination": null, "religion": null, "phone": null, "addr:country": null, "addr:postcode": null, "car_wash": null, "fuel:diesel": null, "fuel:lpg": null, "fuel:octane_100": null, "fuel:octane_95": null, "fuel:octane_98": null, "self_service": null, "website": null, "label": "amenity:cafe" }, "geometry": { "type": "Point", "coordinates": [ 21.3095917, 37.796793 ] } },
{ "type": "Feature", "properties": { "element": "node", "id": 9779182444, "addr:city": null, "amenity": "fast_food", "brand": null, "name": null, "operator": null, "outdoor_seating": "yes", "cuisine": "kebab;barbecue", "boat": null, "layer": null, "waterway": null, "width": null, "date": null, "landuse": null, "source": null, "brand:wikidata": null, "brand:wikipedia": null, "shop": null, "building": null, "tunnel": null, "denomination": null, "religion": null, "phone": null, "addr:country": null, "addr:postcode": null, "car_wash": null, "fuel:diesel": null, "fuel:lpg": null, "fuel:octane_100": null, "fuel:octane_95": null, "fuel:octane_98": null, "self_service": null, "website": null, "label": "amenity:fast_food" }, "geometry": { "type": "Point", "coordinates": [ 21.3090552, 37.7967452 ] } },
{ "type": "Feature", "properties": { "element": "node", "id": 9779182480, "addr:city": null, "amenity": "cafe", "brand": null, "name": null, "operator": null, "outdoor_seating": "yes", "cuisine": null, "boat": null, "layer": null, "waterway": null, "width": null, "date": null, "landuse": null, "source": null, "brand:wikidata": null, "brand:wikipedia": null, "shop": null, "building": null, "tunnel": null, "denomination": null, "religion": null, "phone": null, "addr:country": null, "addr:postcode": null, "car_wash": null, "fuel:diesel": null, "fuel:lpg": null, "fuel:octane_100": null, "fuel:octane_95": null, "fuel:octane_98": null, "self_service": null, "website": null, "label": "amenity:cafe" }, "geometry": { "type": "Point", "coordinates": [ 21.3091552, 37.7966222 ] } }
]
}
