{
"type": "FeatureCollection",
"name": "patch_56154_linestring",
"crs": { "type": "name", "properties": { "name": "urn:ogc:def:crs:OGC:1.3:CRS84" } },
"features": [
{ "type": "Feature", "properties": { "@type": "way", "@id": 865684958, "access": null, "addr:city": null, "addr:country": null, "addr:postcode": null, "amenity": null, "area": null, "bridge": null, "building": null, "bus": null, "cables": null, "castle_type": null, "denomination": null, "direction": null, "ele": null, "email": null, "ford": null, "healthcare": null, "highway": null, "historic": null, "historic:civilization": null, "int_name": null, "intermittent": "yes", "junction": null, "landuse": null, "lanes": null, "layer": null, "leisure": null, "location": null, "man_made": null, "maxspeed": null, "maxspeed:advisory": null, "maxspeed:backward": null, "maxspeed:forward": null, "name": "Λήλας", "name:el": "Λήλας", "name:en": "Lilas", "name:etymology:wikidata": null, "name:ru": "Лилас", "natural": null, "noexit": null, "old_ref": null, "oneway": null, "operator": null, "operator:wikidata": null, "phone": null, "power": null, "public_transport": null, "reg_ref": null, "religion": null, "roundabout": null, "service": null, "shelter": null, "smoothness": null, "source": null, "sport": null, "stop": null, "surface": null, "tourism": null, "tracktype": null, "traffic_sign:direction": null, "type": null, "voltage": null, "waterway": "river", "website": null, "wikidata": "Q25019552", "label": "waterway:river" }, "geometry": { "type": "LineString", "coordinates": [ [ 23.682402037943138, 38.456968418326113 ], [ 23.6823542, 38.4569046 ], [ 23.681453, 38.4555604 ], [ 23.6808951, 38.4547202 ], [ 23.6804231, 38.4537792 ], [ 23.6797364, 38.4528382 ], [ 23.6789648, 38.4516133 ], [ 23.6781093, 38.4506971 ], [ 23.6778911, 38.4503512 ], [ 23.6772314, 38.4495567 ], [ 23.6767894, 38.4489625 ], [ 23.6762633, 38.4483906 ], [ 23.6755739, 38.4479541 ], [ 23.6748192, 38.4472445 ], [ 23.6745049, 38.4468568 ], [ 23.6743177, 38.4466209 ], [ 23.674098, 38.4458768 ], [ 23.6740771, 38.4448733 ], [ 23.6739832, 38.4444008 ], [ 23.6738114, 38.4439751 ], [ 23.6735398, 38.443545 ], [ 23.6734708, 38.4434778 ], [ 23.6729129, 38.4429568 ], [ 23.672689713877705, 38.442741693375325 ] ] } }
]
}
