{
"type": "FeatureCollection",
"name": "patch_56154_point",
"crs": { "type": "name", "properties": { "name": "urn:ogc:def:crs:OGC:1.3:CRS84" } },
"features": [
{ "type": "Feature", "properties": { "@type": "node", "@id": 5632432115, "access": null, "addr:city": null, "addr:country": null, "addr:postcode": null, "amenity": "place_of_worship", "area": null, "bridge": null, "building": null, "bus": null, "cables": null, "castle_type": null, "denomination": "greek_orthodox", "direction": null, "ele": null, "email": null, "ford": null, "healthcare": null, "highway": null, "historic": null, "historic:civilization": null, "int_name": null, "intermittent": null, "junction": null, "landuse": null, "lanes": null, "layer": null, "leisure": null, "location": null, "man_made": null, "maxspeed": null, "maxspeed:advisory": null, "maxspeed:backward": null, "maxspeed:forward": null, "name": "Ιερός ναός Ευαγγελίστριας", "name:el": null, "name:en": null, "name:etymology:wikidata": null, "name:ru": null, "natural": null, "noexit": null, "old_ref": null, "oneway": null, "operator": null, "operator:wikidata": null, "phone": null, "power": null, "public_transport": null, "reg_ref": null, "religion": null, "roundabout": null, "service": null, "shelter": null, "smoothness": null, "source": null, "sport": null, "stop": null, "surface": null, "tourism": null, "tracktype": null, "traffic_sign:direction": null, "type": null, "voltage": null, "waterway": null, "website": null, "wikidata": null, "label": "amenity:place_of_worship" }, "geometry": { "type": "Point", "coordinates": [ 23.6684569, 38.4440717 ] } },
{ "type": "Feature", "properties": { "@type": "node", "@id": 5632987391, "access": null, "addr:city": null, "addr:country": null, "addr:postcode": null, "amenity": "restaurant", "area": null, "bridge": null, "building": null, "bus": null, "cables": null, "castle_type": null, "denomination": null, "direction": null, "ele": null, "email": null, "ford": null, "healthcare": null, "highway": null, "historic": null, "historic:civilization": null, "int_name": null, "intermittent": null, "junction": null, "landuse": null, "lanes": null, "layer": null, "leisure": null, "location": null, "man_made": null, "maxspeed": null, "maxspeed:advisory": null, "maxspeed:backward": null, "maxspeed:forward": null, "name": "Κτήμα ΑΜΠΕΛΙΣ", "name:el": null, "name:en": null, "name:etymology:wikidata": null, "name:ru": null, "natural": null, "noexit": null, "old_ref": null, "oneway": null, "operator": null, "operator:wikidata": null, "phone": "6934588481,2221051469", "power": null, "public_transport": null, "reg_ref": null, "religion": null, "roundabout": null, "service": null, "shelter": null, "smoothness": null, "source": null, "sport": null, "stop": null, "surface": null, "tourism": null, "tracktype": null, "traffic_sign:direction": null, "type": null, "voltage": null, "waterway": null, "website": "https://www.ktimaampelis.gr/", "wikidata": null, "label": "amenity:restaurant" }, "geometry": { "type": "Point", "coordinates": [ 23.663848, 38.4490024 ] } },
{ "type": "Feature", "properties": { "@type": "node", "@id": 6046828217, "access": null, "addr:city": "Φύλλα", "addr:country": "GR", "addr:postcode": "34100", "amenity": null, "area": null, "bridge": null, "building": null, "bus": null, "cables": null, "castle_type": null, "denomination": null, "direction": null, "ele": null, "email": "madcatfarm@gmail.com", "ford": null, "healthcare": null, "highway": null, "historic": null, "historic:civilization": null, "int_name": null, "intermittent": null, "junction": null, "landuse": null, "lanes": null, "layer": null, "leisure": null, "location": null, "man_made": null, "maxspeed": null, "maxspeed:advisory": null, "maxspeed:backward": null, "maxspeed:forward": null, "name": "Madcat Farm", "name:el": null, "name:en": null, "name:etymology:wikidata": null, "name:ru": null, "natural": null, "noexit": null, "old_ref": null, "oneway": null, "operator": null, "operator:wikidata": null, "phone": "+302221052336", "power": null, "public_transport": null, "reg_ref": null, "religion": null, "roundabout": null, "service": null, "shelter": null, "smoothness": null, "source": null, "sport": null, "stop": null, "surface": null, "tourism": "guest_house", "tracktype": null, "traffic_sign:direction": null, "type": null, "voltage": null, "waterway": null, "website": "http://www.madcatfarm.gr/", "wikidata": null, "label": "tourism:guest_house" }, "geometry": { "type": "Point", "coordinates": [ 23.6794156, 38.4471641 ] } },
{ "type": "Feature", "properties": { "@type": "node", "@id": 8767014714, "access": null, "addr:city": null, "addr:country": null, "addr:postcode": null, "amenity": null, "area": null, "bridge": null, "building": null, "bus": null, "cables": null, "castle_type": null, "denomination": null, "direction": null, "ele": "146", "email": null, "ford": null, "healthcare": null, "highway": null, "historic": null, "historic:civilization": null, "int_name": null, "intermittent": null, "junction": null, "landuse": null, "lanes": null, "layer": null, "leisure": null, "location": null, "man_made": "survey_point", "maxspeed": null, "maxspeed:advisory": null, "maxspeed:backward": null, "maxspeed:forward": null, "name": "Γιδοτόπι", "name:el": null, "name:en": null, "name:etymology:wikidata": null, "name:ru": null, "natural": "peak", "noexit": null, "old_ref": null, "oneway": null, "operator": null, "operator:wikidata": null, "phone": null, "power": null, "public_transport": null, "reg_ref": null, "religion": null, "roundabout": null, "service": null, "shelter": null, "smoothness": null, "source": null, "sport": null, "stop": null, "surface": null, "tourism": null, "tracktype": null, "traffic_sign:direction": null, "type": null, "voltage": null, "waterway": null, "website": null, "wikidata": null, "label": "natural:peak" }, "geometry": { "type": "Point", "coordinates": [ 23.67495, 38.4631601 ] } },
{ "type": "Feature", "properties": { "@type": "node", "@id": 9099177491, "access": null, "addr:city": "Φύλλα", "addr:country": null, "addr:postcode": null, "amenity": "pharmacy", "area": null, "bridge": null, "building": null, "bus": null, "cables": null, "castle_type": null, "denomination": null, "direction": null, "ele": null, "email": null, "ford": null, "healthcare": "pharmacy", "highway": null, "historic": null, "historic:civilization": null, "int_name": null, "intermittent": null, "junction": null, "landuse": null, "lanes": null, "layer": null, "leisure": null, "location": null, "man_made": null, "maxspeed": null, "maxspeed:advisory": null, "maxspeed:backward": null, "maxspeed:forward": null, "name": null, "name:el": null, "name:en": null, "name:etymology:wikidata": null, "name:ru": null, "natural": null, "noexit": null, "old_ref": null, "oneway": null, "operator": "Αρτσίτας Ανδρέας", "operator:wikidata": null, "phone": "+302221051151", "power": null, "public_transport": null, "reg_ref": null, "religion": null, "roundabout": null, "service": null, "shelter": null, "smoothness": null, "source": null, "sport": null, "stop": null, "surface": null, "tourism": null, "tracktype": null, "traffic_sign:direction": null, "type": null, "voltage": null, "waterway": null, "website": null, "wikidata": null, "label": "amenity:pharmacy" }, "geometry": { "type": "Point", "coordinates": [ 23.6819997, 38.443144 ] } }
]
}
