{
"type": "FeatureCollection",
"name": "patch_72868_linestring",
"crs": { "type": "name", "properties": { "name": "urn:ogc:def:crs:OGC:1.3:CRS84" } },
"features": [
{ "type": "Feature", "properties": { "@type": "way", "@id": 27105370, "admin_level": null, "boat": "no", "boundary": null, "ele": null, "ford": null, "highway": null, "int_name": null, "leaf_type": null, "lit": null, "name": "Εύηνος", "name:de": "Evinos", "name:el": "Εύηνος", "name:en": "Evinos", "name:fr": "Evinos", "natural": null, "old_name": "Φιδάρης", "source": null, "surface": null, "tracktype": null, "waterway": "river", "width": "100", "label": "waterway:river" }, "geometry": { "type": "LineString", "coordinates": [ [ 22.099577, 38.7268438 ], [ 22.0991469, 38.7267438 ], [ 22.0987511, 38.7270256 ], [ 22.0987154, 38.727408 ], [ 22.0984521, 38.7281202 ], [ 22.0978603, 38.7281745 ], [ 22.0970409, 38.7280401 ], [ 22.0967616, 38.7282535 ], [ 22.0963813, 38.7285051 ], [ 22.0959634, 38.7286436 ], [ 22.0953179, 38.7285283 ], [ 22.0947415, 38.7284113 ], [ 22.0938515, 38.7278707 ], [ 22.0932927, 38.7280571 ], [ 22.0927206, 38.7275414 ], [ 22.0919955, 38.7277402 ], [ 22.0914053, 38.7274337 ], [ 22.0914493, 38.7266577 ], [ 22.0901103, 38.7255864 ], [ 22.0897127, 38.7255716 ], [ 22.0892903, 38.7258612 ], [ 22.0889559, 38.7256071 ], [ 22.0885229, 38.7258144 ], [ 22.0882783, 38.7260014 ], [ 22.088097771029783, 38.725944832386951 ] ] } },
{ "type": "Feature", "properties": { "@type": "way", "@id": 538324495, "admin_level": null, "boat": null, "boundary": null, "ele": null, "ford": null, "highway": null, "int_name": "Evinos", "leaf_type": null, "lit": null, "name": "Εύηνος", "name:de": null, "name:el": null, "name:en": null, "name:fr": null, "natural": null, "old_name": null, "source": null, "surface": null, "tracktype": null, "waterway": "stream", "width": null, "label": "waterway:stream" }, "geometry": { "type": "LineString", "coordinates": [ [ 22.113803423173433, 38.717545874503969 ], [ 22.1138912, 38.7177825 ], [ 22.1138268, 38.7180504 ], [ 22.1134084, 38.7181424 ], [ 22.1128934, 38.7182848 ], [ 22.112593, 38.718494 ], [ 22.112314, 38.7188038 ], [ 22.1122282, 38.7190047 ], [ 22.1122711, 38.7194567 ], [ 22.1122818, 38.7199003 ], [ 22.1125608, 38.7205533 ], [ 22.1125072, 38.7208211 ], [ 22.112357, 38.7210053 ], [ 22.1120887, 38.7210387 ], [ 22.1118205, 38.7210304 ], [ 22.1116167, 38.7211727 ], [ 22.1114772, 38.721474 ], [ 22.111445, 38.7217419 ], [ 22.111563, 38.7219511 ], [ 22.1117454, 38.7221269 ], [ 22.1117239, 38.7222525 ], [ 22.1115308, 38.722286 ], [ 22.1112626, 38.7223278 ], [ 22.1112197, 38.7225036 ], [ 22.111048, 38.7232318 ], [ 22.1108335, 38.7235164 ], [ 22.110576, 38.7240354 ], [ 22.1104365, 38.7243032 ], [ 22.1101361, 38.7245878 ], [ 22.1097391, 38.7249394 ], [ 22.1090739, 38.7252825 ], [ 22.1086662, 38.7254834 ], [ 22.1074002, 38.7257596 ], [ 22.107014, 38.7258099 ], [ 22.1065419, 38.7258099 ], [ 22.1060269, 38.7257847 ], [ 22.1057587, 38.7259019 ], [ 22.1054798, 38.7259019 ], [ 22.1051579, 38.7258684 ], [ 22.1048682, 38.7259103 ], [ 22.1047502, 38.7261279 ], [ 22.1047073, 38.7263707 ], [ 22.1045356, 38.7266134 ], [ 22.1043103, 38.7266385 ], [ 22.1040421, 38.7267138 ], [ 22.1039455, 38.7270486 ], [ 22.1036022, 38.7270821 ], [ 22.1029907, 38.7269817 ], [ 22.1024328, 38.7270737 ], [ 22.1020573, 38.7271072 ], [ 22.1017354, 38.7270486 ], [ 22.1014672, 38.7270988 ], [ 22.1009415, 38.7272579 ], [ 22.1006089, 38.7272579 ], [ 22.1000832, 38.7271574 ], [ 22.0998471, 38.7270151 ], [ 22.099577, 38.7268438 ] ] } }
]
}
