{
"type": "FeatureCollection",
"name": "patch_72035_linestring",
"crs": { "type": "name", "properties": { "name": "urn:ogc:def:crs:OGC:1.3:CRS84" } },
"features": [
{ "type": "Feature", "properties": { "osm_id": 444880989, "name": null, "label": "waterway:stream", "waterway": "stream" }, "geometry": { "type": "LineString", "coordinates": [ [ 20.9705541, 40.07332410027719 ], [ 20.9718617, 40.073695800277235 ], [ 20.9726369, 40.073981700277294 ], [ 20.9730572, 40.07420320027731 ], [ 20.973900265342682, 40.074165590299337 ] ] } },
{ "type": "Feature", "properties": { "osm_id": 445477530, "name": null, "label": "waterway:stream", "waterway": "stream" }, "geometry": { "type": "LineString", "coordinates": [ [ 20.9667996, 40.081197600278252 ], [ 20.9677915, 40.08130960027826 ], [ 20.9687185, 40.081682900278317 ], [ 20.9696454, 40.081620700278314 ], [ 20.970745, 40.081544100278307 ], [ 20.9712305, 40.081548400278308 ], [ 20.9713114, 40.081549200278303 ], [ 20.971831, 40.0815538002783 ], [ 20.97257, 40.082083300278377 ], [ 20.9729436, 40.082351000278415 ], [ 20.973288, 40.082884800278485 ], [ 20.973900265342682, 40.083306760613155 ] ] } },
{ "type": "Feature", "properties": { "osm_id": 656205596, "name": null, "label": "waterway:stream", "waterway": "stream" }, "geometry": { "type": "LineString", "coordinates": [ [ 20.9720745, 40.07633870027761 ], [ 20.9729526, 40.077695000277785 ], [ 20.9737657, 40.07888950027796 ], [ 20.973900265342682, 40.07899667334172 ] ] } },
{ "type": "Feature", "properties": { "osm_id": 656205597, "name": null, "label": "waterway:stream", "waterway": "stream" }, "geometry": { "type": "LineString", "coordinates": [ [ 20.9713752, 40.074397500277357 ], [ 20.9730339, 40.075119200277442 ], [ 20.973900265342682, 40.075735471650368 ] ] } },
{ "type": "Feature", "properties": { "osm_id": 444880988, "name": null, "label": "waterway:stream", "waterway": "stream" }, "geometry": { "type": "LineString", "coordinates": [ [ 20.9725289, 40.072496500277076 ], [ 20.9731675, 40.072492500277093 ], [ 20.973900265342682, 40.072247181543588 ] ] } },
{ "type": "Feature", "properties": { "osm_id": 444880987, "name": null, "label": "waterway:stream", "waterway": "stream" }, "geometry": { "type": "LineString", "coordinates": [ [ 20.9711998, 40.071223200276911 ], [ 20.9718521, 40.071273600276918 ], [ 20.9723869, 40.071142300276911 ], [ 20.9735009, 40.070924500276874 ], [ 20.973900265342682, 40.070877737257618 ] ] } },
{ "type": "Feature", "properties": { "osm_id": 444880986, "name": null, "label": "waterway:stream", "waterway": "stream" }, "geometry": { "type": "LineString", "coordinates": [ [ 20.9702287, 40.069560500276687 ], [ 20.9712909, 40.068895500276611 ], [ 20.9716986, 40.068452100276538 ], [ 20.973265, 40.067967700276483 ], [ 20.973900265342682, 40.068035119563987 ] ] } },
{ "type": "Feature", "properties": { "osm_id": 655863473, "name": null, "label": "waterway:stream", "waterway": "stream" }, "geometry": { "type": "LineString", "coordinates": [ [ 20.9444179, 40.069861900276734 ], [ 20.9440424, 40.069517100276677 ], [ 20.943889850879689, 40.069407894289967 ] ] } },
{ "type": "Feature", "properties": { "osm_id": 655863471, "name": null, "label": "waterway:stream", "waterway": "stream" }, "geometry": { "type": "LineString", "coordinates": [ [ 20.9456097, 40.079423000278013 ], [ 20.9455247, 40.078653900277907 ], [ 20.9451849, 40.077874000277809 ], [ 20.9452416, 40.077332400277747 ], [ 20.9452557, 40.076888200277672 ], [ 20.9450292, 40.07634660027761 ], [ 20.9446114, 40.075867000277533 ], [ 20.9445196, 40.075761600277545 ], [ 20.9442081, 40.075599200277502 ], [ 20.9442506, 40.075035900277427 ], [ 20.9443072, 40.074559200277363 ], [ 20.9440524, 40.073844200277264 ], [ 20.943889850879689, 40.07368114144861 ] ] } },
{ "type": "Feature", "properties": { "osm_id": 655863470, "name": null, "label": "waterway:stream", "waterway": "stream" }, "geometry": { "type": "LineString", "coordinates": [ [ 20.9504366, 40.067960100276487 ], [ 20.9504613, 40.067667700276445 ], [ 20.9503134, 40.067394200276404 ], [ 20.9500176, 40.06722440027638 ], [ 20.9500115, 40.067059400276349 ], [ 20.9501409, 40.066917900276344 ], [ 20.9502148, 40.066762300276309 ], [ 20.9504366, 40.066597200276298 ], [ 20.950603, 40.066535900276293 ], [ 20.9506153, 40.066403900276256 ], [ 20.9505106, 40.066276500276246 ], [ 20.9503812, 40.065951200276203 ], [ 20.9503689, 40.065441800276147 ], [ 20.9503997, 40.065116400276089 ], [ 20.950357925630517, 40.065016497776092 ] ] } },
{ "type": "Feature", "properties": { "osm_id": 655863467, "name": null, "label": "waterway:stream", "waterway": "stream" }, "geometry": { "type": "LineString", "coordinates": [ [ 20.9489376, 40.072947400277144 ], [ 20.9487975, 40.072440000277076 ], [ 20.9489937, 40.071925400277003 ], [ 20.9492832, 40.071546600276967 ], [ 20.949909, 40.071074900276898 ], [ 20.95032, 40.07074610027685 ], [ 20.9506095, 40.070410100276803 ], [ 20.9504974, 40.070174300276776 ], [ 20.9505908, 40.069952700276758 ], [ 20.9505254, 40.069766900276726 ], [ 20.9502919, 40.06962390027671 ], [ 20.9500958, 40.069316600276657 ], [ 20.9499744, 40.068916300276605 ], [ 20.9492926, 40.068473200276543 ], [ 20.9490217, 40.068094300276499 ], [ 20.9487882, 40.067443900276402 ], [ 20.948536, 40.067143700276368 ], [ 20.9485454, 40.066886300276344 ], [ 20.9488816, 40.066514700276279 ], [ 20.9490124, 40.066107200276228 ], [ 20.9491992, 40.065435300276143 ], [ 20.949326574486374, 40.065016497776092 ] ] } },
{ "type": "Feature", "properties": { "osm_id": 27844576, "name": null, "label": "waterway:stream", "waterway": "stream" }, "geometry": { "type": "LineString", "coordinates": [ [ 20.9516474, 40.072457400277081 ], [ 20.9516474, 40.072174500277065 ], [ 20.9516474, 40.071806600276986 ], [ 20.951783, 40.071316200276932 ], [ 20.9521034, 40.070816400276868 ], [ 20.9521034, 40.070587800276819 ], [ 20.9521034, 40.070146800276781 ], [ 20.9522883, 40.069826100276735 ], [ 20.9527196, 40.069656400276706 ], [ 20.9529415, 40.069420600276665 ], [ 20.9527885, 40.069003700276618 ], [ 20.9527885, 40.068817900276592 ], [ 20.9530407, 40.068703500276563 ], [ 20.9531434, 40.068403300276543 ], [ 20.9531341, 40.068146000276499 ], [ 20.953022, 40.067795800276457 ], [ 20.9527979, 40.067509900276413 ], [ 20.9527512, 40.067231100276388 ], [ 20.9526484, 40.06693090027634 ], [ 20.9524056, 40.066759400276318 ], [ 20.9520133, 40.066687900276307 ], [ 20.9519199, 40.066387700276266 ], [ 20.9519853, 40.066259000276254 ], [ 20.9521441, 40.065865900276201 ], [ 20.9520974, 40.065630000276151 ], [ 20.95206, 40.06532260027614 ], [ 20.951941523988818, 40.065016497776092 ] ] } },
{ "type": "Feature", "properties": { "osm_id": 656205587, "name": null, "label": "waterway:stream", "waterway": "stream" }, "geometry": { "type": "LineString", "coordinates": [ [ 20.95001, 40.074506000277367 ], [ 20.9504064, 40.074386900277325 ], [ 20.9509585, 40.074430200277355 ], [ 20.9515389, 40.074755200277394 ], [ 20.9523459, 40.074961000277426 ], [ 20.9529263, 40.074961000277426 ], [ 20.9539597, 40.074939300277407 ], [ 20.9546393, 40.074798500277389 ], [ 20.9551489, 40.074571000277373 ], [ 20.9555453, 40.07415940027731 ], [ 20.95597, 40.073726000277247 ], [ 20.956508, 40.073108600277166 ], [ 20.957145, 40.072534400277107 ], [ 20.9576405, 40.071873600277009 ], [ 20.9580794, 40.071461900276951 ], [ 20.9584899, 40.071191100276927 ], [ 20.9591836, 40.070931100276887 ], [ 20.9601887, 40.070465200276814 ], [ 20.9610664, 40.069988600276766 ], [ 20.9615902, 40.069869400276744 ], [ 20.9621565, 40.069511900276687 ], [ 20.962383, 40.06903520027663 ], [ 20.9628219, 40.068688500276572 ], [ 20.9629649, 40.068275900276525 ], [ 20.9630059, 40.068157700276508 ], [ 20.9629918, 40.067572600276414 ], [ 20.9632324, 40.067030900276343 ], [ 20.9634448, 40.066684200276299 ], [ 20.9634589, 40.066380900276272 ], [ 20.9634884, 40.066180500276239 ] ] } },
{ "type": "Feature", "properties": { "osm_id": 444880983, "name": null, "label": "waterway:stream", "waterway": "stream" }, "geometry": { "type": "LineString", "coordinates": [ [ 20.9684213, 40.07057960027683 ], [ 20.9682711, 40.070341500276797 ], [ 20.9677346, 40.070193700276768 ], [ 20.9670694, 40.069848900276718 ], [ 20.9662004, 40.069495800276677 ], [ 20.9660287, 40.068904700276612 ], [ 20.9658356, 40.068510600276547 ], [ 20.9657927, 40.068149300276517 ], [ 20.9654387, 40.067656700276444 ], [ 20.9656103, 40.067410400276401 ], [ 20.966136, 40.067024500276361 ], [ 20.9662541, 40.066556400276298 ], [ 20.9666188, 40.066474300276276 ], [ 20.9674879, 40.066285500276244 ], [ 20.9677775, 40.065981700276211 ], [ 20.9680136, 40.065193400276094 ], [ 20.968104767729187, 40.065016497776092 ] ] } },
{ "type": "Feature", "properties": { "osm_id": 656205588, "name": null, "label": "waterway:stream", "waterway": "stream" }, "geometry": { "type": "LineString", "coordinates": [ [ 20.965469, 40.074816200277404 ], [ 20.965925, 40.075118000277442 ], [ 20.9663564, 40.075184000277453 ] ] } },
{ "type": "Feature", "properties": { "osm_id": 656205589, "name": null, "label": "waterway:stream", "waterway": "stream" }, "geometry": { "type": "LineString", "coordinates": [ [ 20.9652102, 40.075410300277476 ], [ 20.9654321, 40.076155300277584 ], [ 20.9658388, 40.076862600277671 ], [ 20.9664057, 40.077494400277764 ], [ 20.9668986, 40.077843300277806 ], [ 20.9675148, 40.078390300277874 ], [ 20.9680201, 40.078673200277912 ], [ 20.9681939, 40.078719400277919 ] ] } },
{ "type": "Feature", "properties": { "osm_id": 656205594, "name": null, "label": "waterway:stream", "waterway": "stream" }, "geometry": { "type": "LineString", "coordinates": [ [ 20.9671677, 40.074050500277302 ], [ 20.9676237, 40.074248500277328 ], [ 20.9679688, 40.074550300277366 ], [ 20.9684494, 40.074955800277422 ], [ 20.9692998, 40.075653700277513 ], [ 20.9696942, 40.07610630027758 ], [ 20.9702611, 40.076804200277657 ], [ 20.9709143, 40.077662300277773 ], [ 20.971284, 40.078218700277866 ], [ 20.9714072, 40.07877510027793 ], [ 20.9716044, 40.079076800277974 ], [ 20.971703, 40.079224500278002 ], [ 20.9719002, 40.079520000278038 ], [ 20.9722206, 40.080085800278106 ], [ 20.9724548, 40.080783600278188 ], [ 20.9726397, 40.081283400278274 ], [ 20.9726766, 40.081707700278336 ], [ 20.97257, 40.082083300278377 ] ] } },
{ "type": "Feature", "properties": { "osm_id": 656205595, "name": null, "label": "waterway:stream", "waterway": "stream" }, "geometry": { "type": "LineString", "coordinates": [ [ 20.969078, 40.074625700277359 ], [ 20.9696079, 40.075097300277449 ], [ 20.9701132, 40.07567250027752 ], [ 20.9706678, 40.076455200277614 ], [ 20.9714196, 40.077219100277723 ], [ 20.9717277, 40.077945200277817 ], [ 20.9718756, 40.078671300277918 ], [ 20.971982, 40.079200500277985 ], [ 20.9719988, 40.079284300277997 ], [ 20.9719002, 40.079520000278038 ] ] } },
{ "type": "Feature", "properties": { "osm_id": 444881016, "name": null, "label": "waterway:stream", "waterway": "stream" }, "geometry": { "type": "LineString", "coordinates": [ [ 20.9666522, 40.074118300277306 ], [ 20.9666275, 40.074401200277343 ], [ 20.9665289, 40.074778500277382 ], [ 20.9663564, 40.075184000277453 ], [ 20.9663933, 40.075438600277479 ], [ 20.9666029, 40.075900700277543 ], [ 20.9670096, 40.076692800277641 ], [ 20.9673053, 40.077635900277777 ], [ 20.9677983, 40.078409100277881 ], [ 20.9681939, 40.078719400277919 ], [ 20.9682913, 40.078795800277923 ], [ 20.9689075, 40.079220100278 ], [ 20.9695258, 40.079413900278013 ], [ 20.9697541, 40.079485400278031 ], [ 20.9702567, 40.079707500278062 ], [ 20.9703699, 40.0800324002781 ], [ 20.9706672, 40.080292400278125 ], [ 20.9707876, 40.080557800278171 ], [ 20.9707309, 40.080790700278207 ], [ 20.9711132, 40.081321400278263 ], [ 20.9713114, 40.081549200278303 ] ] } },
{ "type": "Feature", "properties": { "osm_id": 444881014, "name": null, "label": "waterway:stream", "waterway": "stream" }, "geometry": { "type": "LineString", "coordinates": [ [ 20.9664017, 40.085868700278873 ], [ 20.9675225, 40.085397100278819 ], [ 20.9679147, 40.085197000278789 ], [ 20.9684004, 40.085147000278781 ], [ 20.9689048, 40.085211300278786 ], [ 20.9692877, 40.085061200278766 ], [ 20.970231, 40.084911200278754 ], [ 20.9710716, 40.084539600278703 ], [ 20.9716134, 40.084253700278666 ], [ 20.9721364, 40.084375200278686 ], [ 20.972977, 40.084396700278688 ], [ 20.973900265342682, 40.084474547656619 ] ] } },
{ "type": "Feature", "properties": { "osm_id": 444881015, "name": null, "label": "waterway:stream", "waterway": "stream" }, "geometry": { "type": "LineString", "coordinates": [ [ 20.96317, 40.085161300278799 ], [ 20.9633319, 40.085086200278781 ], [ 20.9643562, 40.08461100027872 ], [ 20.9651594, 40.084303800278676 ], [ 20.9655517, 40.08421090027867 ], [ 20.9660467, 40.083817800278609 ], [ 20.9665791, 40.083324700278538 ], [ 20.9673357, 40.082660200278447 ], [ 20.9680362, 40.082302800278399 ], [ 20.9684378, 40.082310000278412 ], [ 20.9688954, 40.082209900278393 ], [ 20.969652, 40.082109900278382 ], [ 20.9703618, 40.081902700278349 ], [ 20.9707523, 40.081743400278327 ], [ 20.9712305, 40.081548400278308 ] ] } },
{ "type": "Feature", "properties": { "osm_id": 27844528, "name": null, "label": "waterway:stream", "waterway": "stream" }, "geometry": { "type": "LineString", "coordinates": [ [ 20.9539202, 40.083375000278544 ], [ 20.9544568, 40.083412300278553 ], [ 20.9552211, 40.083225700278533 ], [ 20.9560342, 40.082914700278494 ], [ 20.9569449, 40.082479200278421 ], [ 20.9575791, 40.082454300278428 ], [ 20.9585711, 40.082242800278401 ], [ 20.9588056, 40.082092300278383 ], [ 20.9590752, 40.081919300278365 ], [ 20.9595037, 40.081348500278274 ], [ 20.9595142, 40.081334500278274 ], [ 20.959966, 40.081268600278271 ], [ 20.9601972, 40.081234900278268 ], [ 20.9611892, 40.081247400278265 ], [ 20.9623601, 40.081334500278274 ], [ 20.9627178, 40.08155840027829 ], [ 20.9631406, 40.081384300278287 ], [ 20.965027, 40.081147800278252 ], [ 20.9657263, 40.081234900278268 ], [ 20.9667996, 40.081197600278252 ] ] } },
{ "type": "Feature", "properties": { "osm_id": 444881017, "name": null, "label": "waterway:stream", "waterway": "stream" }, "geometry": { "type": "LineString", "coordinates": [ [ 20.9606726, 40.075820600277531 ], [ 20.9609515, 40.07604230027755 ], [ 20.9614343, 40.076108000277578 ], [ 20.9619278, 40.076255700277599 ], [ 20.9622068, 40.076846800277671 ], [ 20.9623999, 40.077429700277754 ], [ 20.9630544, 40.078291700277859 ], [ 20.9630589, 40.078368200277886 ], [ 20.9630758, 40.078652900277923 ], [ 20.9635372, 40.07924400027801 ], [ 20.9640951, 40.079416400278028 ], [ 20.9645886, 40.079506700278039 ], [ 20.9648139, 40.079843200278063 ], [ 20.9653611, 40.0800403002781 ], [ 20.9659619, 40.080352200278142 ], [ 20.9661443, 40.080680600278193 ], [ 20.966155, 40.080820100278203 ], [ 20.9667996, 40.081197600278252 ] ] } },
{ "type": "Feature", "properties": { "osm_id": 444881018, "name": null, "label": "waterway:stream", "waterway": "stream" }, "geometry": { "type": "LineString", "coordinates": [ [ 20.9618849, 40.07506530027743 ], [ 20.9618098, 40.075401900277477 ], [ 20.962121, 40.075672900277503 ], [ 20.9621531, 40.075878100277542 ], [ 20.9619278, 40.076255700277599 ] ] } },
{ "type": "Feature", "properties": { "osm_id": 656205592, "name": null, "label": "waterway:stream", "waterway": "stream" }, "geometry": { "type": "LineString", "coordinates": [ [ 20.9555481, 40.077315200277738 ], [ 20.9563245, 40.077419000277757 ], [ 20.9569284, 40.077617000277776 ], [ 20.957483, 40.077928200277817 ], [ 20.9580074, 40.078240700277867 ] ] } },
{ "type": "Feature", "properties": { "osm_id": 631840122, "name": null, "label": "waterway:stream", "waterway": "stream" }, "geometry": { "type": "LineString", "coordinates": [ [ 20.952894, 40.080975700278231 ], [ 20.9531515, 40.080721300278185 ], [ 20.9537094, 40.080639200278185 ], [ 20.9545838, 40.080786900278213 ], [ 20.9549721, 40.080862400278214 ], [ 20.9555333, 40.080971600278225 ], [ 20.9558712, 40.081078400278237 ], [ 20.9563647, 40.081057800278238 ], [ 20.9567832, 40.081037300278233 ], [ 20.9571694, 40.081082500278242 ], [ 20.9576468, 40.081246600278263 ], [ 20.9580599, 40.081304100278267 ], [ 20.9582272, 40.081312600278267 ], [ 20.9586232, 40.081332800278268 ], [ 20.9590899, 40.081378000278278 ], [ 20.9595037, 40.081348500278274 ] ] } },
{ "type": "Feature", "properties": { "osm_id": 656205593, "name": null, "label": "waterway:stream", "waterway": "stream" }, "geometry": { "type": "LineString", "coordinates": [ [ 20.9553755, 40.07854110027791 ], [ 20.9559301, 40.078456300277885 ], [ 20.9562505, 40.078465700277896 ], [ 20.9566326, 40.078597700277903 ], [ 20.9573474, 40.079229500277989 ], [ 20.957828, 40.079455900278013 ], [ 20.9582159, 40.079790000278074 ] ] } },
{ "type": "Feature", "properties": { "osm_id": 656205590, "name": null, "label": "waterway:stream", "waterway": "stream" }, "geometry": { "type": "LineString", "coordinates": [ [ 20.9588386, 40.075617800277513 ], [ 20.9588633, 40.076145900277581 ], [ 20.958777, 40.076674000277649 ], [ 20.9588263, 40.077051200277708 ], [ 20.958814, 40.077428400277761 ], [ 20.9582347, 40.077598100277775 ], [ 20.9580129, 40.07816390027785 ], [ 20.9580074, 40.078240700277867 ], [ 20.9579759, 40.078682600277908 ], [ 20.9580868, 40.079182400277993 ], [ 20.9582159, 40.079790000278074 ], [ 20.9582471, 40.079936800278077 ], [ 20.9584254, 40.080216100278122 ], [ 20.9585059, 40.080342300278147 ], [ 20.9590481, 40.080662900278185 ], [ 20.9596274, 40.080945800278222 ], [ 20.959966, 40.081268600278271 ] ] } },
{ "type": "Feature", "properties": { "osm_id": 444881013, "name": null, "label": "waterway:stream", "waterway": "stream" }, "geometry": { "type": "LineString", "coordinates": [ [ 20.968351817015218, 40.088091934737662 ], [ 20.9691269, 40.087654300279112 ], [ 20.9700174, 40.087678900279116 ], [ 20.9705002, 40.087752800279127 ], [ 20.9710151, 40.087613200279122 ], [ 20.9716052, 40.087391600279069 ], [ 20.9728498, 40.087096100279041 ], [ 20.9729892, 40.086808800279009 ], [ 20.973472, 40.086529700278966 ], [ 20.973900265342682, 40.086185718099507 ] ] } },
{ "type": "Feature", "properties": { "osm_id": 451174382, "name": null, "label": "waterway:stream", "waterway": "stream" }, "geometry": { "type": "LineString", "coordinates": [ [ 20.943889850879689, 40.086657406368303 ], [ 20.9438922, 40.086657300278986 ], [ 20.9442217, 40.08655700027898 ], [ 20.9443626, 40.086572200278979 ], [ 20.9444063, 40.086596500278972 ], [ 20.944448, 40.086672500278986 ], [ 20.944712, 40.086900300279019 ], [ 20.9449026, 40.086909400279033 ], [ 20.9453691, 40.086789400279017 ], [ 20.9454286, 40.086804600279002 ], [ 20.9454584, 40.086851700279006 ], [ 20.9454504, 40.086909400279033 ], [ 20.9453135, 40.087125000279052 ], [ 20.9451308, 40.087389300279078 ], [ 20.9446624, 40.087519900279091 ], [ 20.9444996, 40.087630800279115 ], [ 20.9443249, 40.087796300279152 ], [ 20.9439735, 40.087887400279151 ], [ 20.943889850879689, 40.087929365362029 ] ] } }
]
}
