{
"type": "FeatureCollection",
"name": "patch_72035_point",
"crs": { "type": "name", "properties": { "name": "urn:ogc:def:crs:OGC:1.3:CRS84" } },
"features": [
{ "type": "Feature", "properties": { "osm_id": 356502610, "name": null, "label": "natural:peak", "natural": "peak" }, "geometry": { "type": "Point", "coordinates": [ 20.9650671, 40.074306500277316 ] } },
{ "type": "Feature", "properties": { "osm_id": 356502949, "name": null, "label": "natural:peak", "natural": "peak" }, "geometry": { "type": "Point", "coordinates": [ 20.9608787, 40.08715490027906 ] } },
{ "type": "Feature", "properties": { "osm_id": 356502560, "name": "Μόσια", "label": "natural:peak", "natural": "peak" }, "geometry": { "type": "Point", "coordinates": [ 20.9500534, 40.085317600278813 ] } }
]
}
