{
"type": "FeatureCollection",
"name": "patch_71204_linestring",
"crs": { "type": "name", "properties": { "name": "urn:ogc:def:crs:OGC:1.3:CRS84" } },
"features": [
{ "type": "Feature", "properties": { "@type": "way", "@id": 8810098, "access": null, "addr:postcode": null, "alt_name": null, "alt_name_1": null, "amenity": null, "barrier": null, "bath:open_air": null, "bath:type": null, "bridge": null, "building": null, "created_by": null, "ele": null, "entrance": null, "fee": null, "ford": null, "highway": null, "int_name": null, "lanes": null, "lanes:backward": null, "lanes:forward": null, "layer": null, "leaf_type": null, "leisure": null, "lit": null, "maxspeed:backward": null, "name": null, "name:de": null, "name:el": null, "name:en": null, "name:mk": null, "natural": "coastline", "noexit": null, "nudism": null, "oneway": null, "place": null, "population": null, "ref:esye": null, "reg_ref": null, "service": null, "smoothness": null, "source": "PGS", "source:ref:esye": null, "surface": null, "tourism": null, "turn:lanes:forward": null, "waterway": null, "wikidata": null, "wikipedia": null, "label": "natural:coastline" }, "geometry": { "type": "LineString", "coordinates": [ [ 24.08737258033009, 40.721922580820987 ], [ 24.0887038, 40.7220651 ], [ 24.0892406, 40.7222017 ], [ 24.0897622, 40.7224414 ], [ 24.0904339, 40.7229006 ], [ 24.091499, 40.7234453 ], [ 24.0920014, 40.7236489 ], [ 24.0927303, 40.7236808 ], [ 24.0930438, 40.7238101 ], [ 24.0933215, 40.7239892 ], [ 24.0936188, 40.724073 ], [ 24.0941428, 40.7240881 ], [ 24.0962047, 40.7247701 ], [ 24.0971876, 40.7253011 ], [ 24.0972569, 40.7253492 ], [ 24.0974233, 40.7254648 ], [ 24.0978829, 40.7257841 ], [ 24.0987746, 40.7262442 ], [ 24.0998839, 40.726714 ], [ 24.1017069, 40.7273521 ], [ 24.101995, 40.727514 ], [ 24.10263, 40.7279784 ], [ 24.1030833, 40.7282678 ], [ 24.1037482, 40.7284542 ], [ 24.1043988, 40.7287707 ], [ 24.1049506, 40.7291292 ], [ 24.1056219, 40.7294626 ], [ 24.1061034, 40.7295924 ], [ 24.1065042, 40.7295612 ], [ 24.1066227, 40.7295444 ], [ 24.1068725, 40.7295091 ], [ 24.1070946, 40.7295581 ], [ 24.1073855, 40.7295751 ], [ 24.1078351, 40.7296911 ], [ 24.1082608, 40.7298744 ], [ 24.1087273, 40.7300356 ], [ 24.1091291, 40.7301836 ], [ 24.1093977, 40.7302825 ], [ 24.1099049, 40.7303439 ], [ 24.111496, 40.7312419 ], [ 24.1120743, 40.7315683 ], [ 24.1144929, 40.7326897 ], [ 24.1152824, 40.7329827 ], [ 24.1155761, 40.7330302 ], [ 24.1162776, 40.7329861 ], [ 24.116647474378489, 40.733003583921473 ] ] } },
{ "type": "Feature", "properties": { "@type": "way", "@id": 345579522, "access": null, "addr:postcode": null, "alt_name": null, "alt_name_1": null, "amenity": null, "barrier": null, "bath:open_air": null, "bath:type": null, "bridge": null, "building": null, "created_by": null, "ele": null, "entrance": null, "fee": null, "ford": null, "highway": null, "int_name": null, "lanes": null, "lanes:backward": null, "lanes:forward": null, "layer": null, "leaf_type": null, "leisure": null, "lit": null, "maxspeed:backward": null, "name": null, "name:de": null, "name:el": null, "name:en": null, "name:mk": null, "natural": null, "noexit": null, "nudism": null, "oneway": null, "place": null, "population": null, "ref:esye": null, "reg_ref": null, "service": null, "smoothness": null, "source": null, "source:ref:esye": null, "surface": null, "tourism": null, "turn:lanes:forward": null, "waterway": "river", "wikidata": null, "wikipedia": null, "label": "waterway:river" }, "geometry": { "type": "LineString", "coordinates": [ [ 24.091867324196098, 40.736673731188084 ], [ 24.0918965, 40.736652 ], [ 24.0920293, 40.7363662 ], [ 24.0920979, 40.735788 ], [ 24.0921837, 40.73495 ], [ 24.0922737, 40.7344368 ], [ 24.0924666, 40.7341866 ], [ 24.0929681, 40.733969 ], [ 24.0938426, 40.7341022 ], [ 24.0945499, 40.7342159 ], [ 24.0952229, 40.7342191 ], [ 24.0955616, 40.7339593 ], [ 24.0956488, 40.7338462 ], [ 24.0958809, 40.733193 ], [ 24.0961274, 40.7328906 ], [ 24.0967061, 40.73266 ], [ 24.0974606, 40.7321955 ], [ 24.0979922, 40.7318576 ], [ 24.0980922, 40.7316198 ], [ 24.0980333, 40.7313524 ], [ 24.0978973, 40.7311113 ], [ 24.0978592, 40.7306131 ], [ 24.0979878, 40.7303082 ], [ 24.0975129, 40.7291317 ], [ 24.0974714, 40.7289865 ], [ 24.0974609, 40.7288622 ], [ 24.0974745, 40.7287483 ], [ 24.0975363, 40.7286344 ], [ 24.0976159, 40.7285401 ], [ 24.0977368, 40.7284354 ], [ 24.0978882, 40.7283209 ], [ 24.0980707, 40.728217 ], [ 24.0983117, 40.7280872 ], [ 24.0988487, 40.727833 ], [ 24.0996853, 40.7273962 ], [ 24.0997972, 40.7273395 ], [ 24.0998746, 40.7273115 ], [ 24.0999703, 40.7272991 ], [ 24.1001007, 40.7273033 ], [ 24.1001898, 40.7272893 ], [ 24.1004003, 40.7272099 ], [ 24.100447, 40.7271663 ], [ 24.1004532, 40.7271158 ], [ 24.1004494, 40.7270722 ], [ 24.1003974, 40.7270235 ], [ 24.1002776, 40.726954 ], [ 24.1001303, 40.7268896 ], [ 24.1000291, 40.7268523 ], [ 24.0999493, 40.7268127 ], [ 24.0999073, 40.7267705 ], [ 24.0998839, 40.726714 ] ] } }
]
}
