{
"type": "FeatureCollection",
"name": "patch_71204_point",
"crs": { "type": "name", "properties": { "name": "urn:ogc:def:crs:OGC:1.3:CRS84" } },
"features": [
{ "type": "Feature", "properties": { "@type": "node", "@id": 5389096793, "access": null, "addr:postcode": null, "alt_name": null, "alt_name_1": null, "amenity": "parking", "barrier": null, "bath:open_air": null, "bath:type": null, "bridge": null, "building": null, "created_by": null, "ele": null, "entrance": null, "fee": null, "ford": null, "highway": null, "int_name": null, "lanes": null, "lanes:backward": null, "lanes:forward": null, "layer": null, "leaf_type": null, "leisure": null, "lit": null, "maxspeed:backward": null, "name": null, "name:de": null, "name:el": null, "name:en": null, "name:mk": null, "natural": null, "noexit": null, "nudism": null, "oneway": null, "place": null, "population": null, "ref:esye": null, "reg_ref": null, "service": null, "smoothness": null, "source": null, "source:ref:esye": null, "surface": null, "tourism": null, "turn:lanes:forward": null, "waterway": null, "wikidata": null, "wikipedia": null, "label": "amenity:parking" }, "geometry": { "type": "Point", "coordinates": [ 24.0891189, 40.722493 ] } },
{ "type": "Feature", "properties": { "@type": "node", "@id": 5389096815, "access": null, "addr:postcode": null, "alt_name": null, "alt_name_1": null, "amenity": "parking", "barrier": null, "bath:open_air": null, "bath:type": null, "bridge": null, "building": null, "created_by": null, "ele": null, "entrance": null, "fee": null, "ford": null, "highway": null, "int_name": null, "lanes": null, "lanes:backward": null, "lanes:forward": null, "layer": null, "leaf_type": null, "leisure": null, "lit": null, "maxspeed:backward": null, "name": null, "name:de": null, "name:el": null, "name:en": null, "name:mk": null, "natural": null, "noexit": null, "nudism": null, "oneway": null, "place": null, "population": null, "ref:esye": null, "reg_ref": null, "service": null, "smoothness": null, "source": null, "source:ref:esye": null, "surface": null, "tourism": null, "turn:lanes:forward": null, "waterway": null, "wikidata": null, "wikipedia": null, "label": "amenity:parking" }, "geometry": { "type": "Point", "coordinates": [ 24.103099, 40.7288538 ] } },
{ "type": "Feature", "properties": { "@type": "node", "@id": 5389097045, "access": null, "addr:postcode": null, "alt_name": null, "alt_name_1": null, "amenity": "parking", "barrier": null, "bath:open_air": null, "bath:type": null, "bridge": null, "building": null, "created_by": null, "ele": null, "entrance": null, "fee": null, "ford": null, "highway": null, "int_name": null, "lanes": null, "lanes:backward": null, "lanes:forward": null, "layer": null, "leaf_type": null, "leisure": null, "lit": null, "maxspeed:backward": null, "name": null, "name:de": null, "name:el": null, "name:en": null, "name:mk": null, "natural": null, "noexit": null, "nudism": null, "oneway": null, "place": null, "population": null, "ref:esye": null, "reg_ref": null, "service": null, "smoothness": null, "source": null, "source:ref:esye": null, "surface": null, "tourism": null, "turn:lanes:forward": null, "waterway": null, "wikidata": null, "wikipedia": null, "label": "amenity:parking" }, "geometry": { "type": "Point", "coordinates": [ 24.1117527, 40.7322515 ] } },
{ "type": "Feature", "properties": { "@type": "node", "@id": 5395056573, "access": null, "addr:postcode": null, "alt_name": null, "alt_name_1": null, "amenity": "parking", "barrier": null, "bath:open_air": null, "bath:type": null, "bridge": null, "building": null, "created_by": null, "ele": null, "entrance": null, "fee": null, "ford": null, "highway": null, "int_name": null, "lanes": null, "lanes:backward": null, "lanes:forward": null, "layer": null, "leaf_type": null, "leisure": null, "lit": null, "maxspeed:backward": null, "name": null, "name:de": null, "name:el": null, "name:en": null, "name:mk": null, "natural": null, "noexit": null, "nudism": null, "oneway": null, "place": null, "population": null, "ref:esye": null, "reg_ref": null, "service": null, "smoothness": null, "source": null, "source:ref:esye": null, "surface": null, "tourism": null, "turn:lanes:forward": null, "waterway": null, "wikidata": null, "wikipedia": null, "label": "amenity:parking" }, "geometry": { "type": "Point", "coordinates": [ 24.1113463, 40.7324417 ] } },
{ "type": "Feature", "properties": { "@type": "node", "@id": 12772000002, "access": null, "addr:postcode": null, "alt_name": null, "alt_name_1": null, "amenity": "public_bath", "barrier": null, "bath:open_air": "no", "bath:type": "hot_spring", "bridge": null, "building": null, "created_by": null, "ele": null, "entrance": null, "fee": "no", "ford": null, "highway": null, "int_name": null, "lanes": null, "lanes:backward": null, "lanes:forward": null, "layer": null, "leaf_type": null, "leisure": null, "lit": null, "maxspeed:backward": null, "name": null, "name:de": null, "name:el": null, "name:en": null, "name:mk": null, "natural": null, "noexit": null, "nudism": "yes", "oneway": null, "place": null, "population": null, "ref:esye": null, "reg_ref": null, "service": null, "smoothness": null, "source": null, "source:ref:esye": null, "surface": null, "tourism": null, "turn:lanes:forward": null, "waterway": null, "wikidata": null, "wikipedia": null, "label": "amenity:public_bath" }, "geometry": { "type": "Point", "coordinates": [ 24.0913791, 40.7364323 ] } },
{ "type": "Feature", "properties": { "@type": "node", "@id": 12772000003, "access": null, "addr:postcode": null, "alt_name": null, "alt_name_1": null, "amenity": "public_bath", "barrier": null, "bath:open_air": "yes", "bath:type": "hot_spring", "bridge": null, "building": null, "created_by": null, "ele": null, "entrance": null, "fee": "no", "ford": null, "highway": null, "int_name": null, "lanes": null, "lanes:backward": null, "lanes:forward": null, "layer": null, "leaf_type": null, "leisure": null, "lit": null, "maxspeed:backward": null, "name": null, "name:de": null, "name:el": null, "name:en": null, "name:mk": null, "natural": null, "noexit": null, "nudism": "yes", "oneway": null, "place": null, "population": null, "ref:esye": null, "reg_ref": null, "service": null, "smoothness": null, "source": null, "source:ref:esye": null, "surface": null, "tourism": null, "turn:lanes:forward": null, "waterway": null, "wikidata": null, "wikipedia": null, "label": "amenity:public_bath" }, "geometry": { "type": "Point", "coordinates": [ 24.0918426, 40.7365882 ] } }
]
}
