{
"type": "FeatureCollection",
"name": "patch_71204_polygon",
"crs": { "type": "name", "properties": { "name": "urn:ogc:def:crs:OGC:1.3:CRS84" } },
"features": [
{ "type": "Feature", "properties": { "@type": "way", "@id": 136783946, "access": null, "addr:postcode": null, "alt_name": null, "alt_name_1": null, "amenity": null, "barrier": null, "bath:open_air": null, "bath:type": null, "bridge": null, "building": null, "created_by": null, "ele": null, "entrance": null, "fee": null, "ford": null, "highway": null, "int_name": null, "lanes": null, "lanes:backward": null, "lanes:forward": null, "layer": null, "leaf_type": "broadleaved", "leisure": null, "lit": null, "maxspeed:backward": null, "name": null, "name:de": null, "name:el": null, "name:en": null, "name:mk": null, "natural": "wood", "noexit": null, "nudism": null, "oneway": null, "place": null, "population": null, "ref:esye": null, "reg_ref": null, "service": null, "smoothness": null, "source": "http://geodata.gov.gr", "source:ref:esye": null, "surface": null, "tourism": null, "turn:lanes:forward": null, "waterway": null, "wikidata": null, "wikipedia": null, "label": "natural:wood" }, "geometry": { "type": "Polygon", "coordinates": [ [ [ 24.096603, 40.736292 ], [ 24.094882, 40.735857 ], [ 24.093446, 40.735204 ], [ 24.094163, 40.734658 ], [ 24.095739, 40.733674 ], [ 24.094733, 40.732038 ], [ 24.09301, 40.731276 ], [ 24.089997, 40.730624 ], [ 24.087557, 40.729316 ], [ 24.08737258033009, 40.729281066349564 ], [ 24.08737258033009, 40.736673731188084 ], [ 24.097282481514789, 40.736673731188084 ], [ 24.096603, 40.736292 ] ] ] } },
{ "type": "Feature", "properties": { "@type": "way", "@id": 561249506, "access": null, "addr:postcode": null, "alt_name": null, "alt_name_1": null, "amenity": null, "barrier": null, "bath:open_air": null, "bath:type": null, "bridge": null, "building": null, "created_by": null, "ele": null, "entrance": null, "fee": null, "ford": null, "highway": null, "int_name": null, "lanes": null, "lanes:backward": null, "lanes:forward": null, "layer": null, "leaf_type": null, "leisure": "swimming_pool", "lit": null, "maxspeed:backward": null, "name": null, "name:de": null, "name:el": null, "name:en": null, "name:mk": null, "natural": null, "noexit": null, "nudism": null, "oneway": null, "place": null, "population": null, "ref:esye": null, "reg_ref": null, "service": null, "smoothness": null, "source": null, "source:ref:esye": null, "surface": null, "tourism": null, "turn:lanes:forward": null, "waterway": null, "wikidata": null, "wikipedia": null, "label": "leisure:swimming_pool" }, "geometry": { "type": "Polygon", "coordinates": [ [ [ 24.1094538, 40.7306935 ], [ 24.1094833, 40.7306967 ], [ 24.109496, 40.7307052 ], [ 24.1095016, 40.7307201 ], [ 24.1095199, 40.7307297 ], [ 24.1095409, 40.730735 ], [ 24.109576, 40.7307414 ], [ 24.1095915, 40.7307372 ], [ 24.1095985, 40.7307276 ], [ 24.1095999, 40.7307159 ], [ 24.1095999, 40.7306988 ], [ 24.1094749, 40.7306286 ], [ 24.1094468, 40.7306509 ], [ 24.1094342, 40.7306754 ], [ 24.1094538, 40.7306935 ] ] ] } },
{ "type": "Feature", "properties": { "@type": "way", "@id": 672687434, "access": null, "addr:postcode": null, "alt_name": null, "alt_name_1": null, "amenity": null, "barrier": null, "bath:open_air": null, "bath:type": null, "bridge": null, "building": null, "created_by": null, "ele": null, "entrance": null, "fee": null, "ford": null, "highway": null, "int_name": null, "lanes": null, "lanes:backward": null, "lanes:forward": null, "layer": null, "leaf_type": null, "leisure": null, "lit": null, "maxspeed:backward": null, "name": null, "name:de": null, "name:el": null, "name:en": null, "name:mk": null, "natural": "bare_rock", "noexit": null, "nudism": null, "oneway": null, "place": null, "population": null, "ref:esye": null, "reg_ref": null, "service": null, "smoothness": null, "source": null, "source:ref:esye": null, "surface": null, "tourism": null, "turn:lanes:forward": null, "waterway": null, "wikidata": null, "wikipedia": null, "label": "natural:bare_rock" }, "geometry": { "type": "Polygon", "coordinates": [ [ [ 24.0925508, 40.7236255 ], [ 24.0925654, 40.7236476 ], [ 24.0925837, 40.7236504 ], [ 24.0926001, 40.7236448 ], [ 24.0926147, 40.7236227 ], [ 24.0925928, 40.7236061 ], [ 24.0925672, 40.7235964 ], [ 24.0925508, 40.7236061 ], [ 24.0925508, 40.7236255 ] ] ] } },
{ "type": "Feature", "properties": { "@type": "way", "@id": 672687436, "access": null, "addr:postcode": null, "alt_name": null, "alt_name_1": null, "amenity": null, "barrier": null, "bath:open_air": null, "bath:type": null, "bridge": null, "building": null, "created_by": null, "ele": null, "entrance": null, "fee": null, "ford": null, "highway": null, "int_name": null, "lanes": null, "lanes:backward": null, "lanes:forward": null, "layer": null, "leaf_type": null, "leisure": null, "lit": null, "maxspeed:backward": null, "name": null, "name:de": null, "name:el": null, "name:en": null, "name:mk": null, "natural": "bare_rock", "noexit": null, "nudism": null, "oneway": null, "place": null, "population": null, "ref:esye": null, "reg_ref": null, "service": null, "smoothness": null, "source": null, "source:ref:esye": null, "surface": null, "tourism": null, "turn:lanes:forward": null, "waterway": null, "wikidata": null, "wikipedia": null, "label": "natural:bare_rock" }, "geometry": { "type": "Polygon", "coordinates": [ [ [ 24.0923681, 40.7234995 ], [ 24.0923863, 40.7235202 ], [ 24.0923991, 40.7235313 ], [ 24.0924174, 40.7235313 ], [ 24.0924357, 40.7235189 ], [ 24.0924247, 40.7235036 ], [ 24.0924101, 40.7234953 ], [ 24.0923937, 40.723487 ], [ 24.0923663, 40.7234815 ], [ 24.0923681, 40.7234995 ] ] ] } },
{ "type": "Feature", "properties": { "@type": "way", "@id": 672687438, "access": null, "addr:postcode": null, "alt_name": null, "alt_name_1": null, "amenity": null, "barrier": null, "bath:open_air": null, "bath:type": null, "bridge": null, "building": null, "created_by": null, "ele": null, "entrance": null, "fee": null, "ford": null, "highway": null, "int_name": null, "lanes": null, "lanes:backward": null, "lanes:forward": null, "layer": null, "leaf_type": null, "leisure": null, "lit": null, "maxspeed:backward": null, "name": null, "name:de": null, "name:el": null, "name:en": null, "name:mk": null, "natural": "bare_rock", "noexit": null, "nudism": null, "oneway": null, "place": null, "population": null, "ref:esye": null, "reg_ref": null, "service": null, "smoothness": null, "source": null, "source:ref:esye": null, "surface": null, "tourism": null, "turn:lanes:forward": null, "waterway": null, "wikidata": null, "wikipedia": null, "label": "natural:bare_rock" }, "geometry": { "type": "Polygon", "coordinates": [ [ [ 24.092443, 40.7235632 ], [ 24.0924686, 40.7235715 ], [ 24.0925106, 40.7235687 ], [ 24.0925234, 40.723559 ], [ 24.0925088, 40.7235438 ], [ 24.0924887, 40.7235382 ], [ 24.0924631, 40.7235355 ], [ 24.0924412, 40.7235396 ], [ 24.092443, 40.7235632 ] ] ] } },
{ "type": "Feature", "properties": { "@type": "way", "@id": 1108098860, "access": null, "addr:postcode": null, "alt_name": null, "alt_name_1": null, "amenity": null, "barrier": null, "bath:open_air": null, "bath:type": null, "bridge": null, "building": "yes", "created_by": null, "ele": null, "entrance": null, "fee": null, "ford": null, "highway": null, "int_name": null, "lanes": null, "lanes:backward": null, "lanes:forward": null, "layer": null, "leaf_type": null, "leisure": null, "lit": null, "maxspeed:backward": null, "name": null, "name:de": null, "name:el": null, "name:en": null, "name:mk": null, "natural": null, "noexit": null, "nudism": null, "oneway": null, "place": null, "population": null, "ref:esye": null, "reg_ref": null, "service": null, "smoothness": null, "source": null, "source:ref:esye": null, "surface": null, "tourism": null, "turn:lanes:forward": null, "waterway": null, "wikidata": null, "wikipedia": null, "label": "building:yes" }, "geometry": { "type": "Polygon", "coordinates": [ [ [ 24.0912097, 40.7366445 ], [ 24.0911833, 40.736669 ], [ 24.0911711, 40.7366614 ], [ 24.091157770159363, 40.736673731188084 ], [ 24.091256915328565, 40.736673731188084 ], [ 24.0912097, 40.7366445 ] ] ] } },
{ "type": "Feature", "properties": { "@type": "way", "@id": 1367278915, "access": null, "addr:postcode": null, "alt_name": null, "alt_name_1": null, "amenity": null, "barrier": null, "bath:open_air": null, "bath:type": null, "bridge": null, "building": null, "created_by": null, "ele": null, "entrance": null, "fee": null, "ford": null, "highway": null, "int_name": null, "lanes": null, "lanes:backward": null, "lanes:forward": null, "layer": null, "leaf_type": null, "leisure": null, "lit": null, "maxspeed:backward": null, "name": null, "name:de": null, "name:el": null, "name:en": null, "name:mk": null, "natural": "beach", "noexit": null, "nudism": null, "oneway": null, "place": null, "population": null, "ref:esye": null, "reg_ref": null, "service": null, "smoothness": null, "source": null, "source:ref:esye": null, "surface": null, "tourism": null, "turn:lanes:forward": null, "waterway": null, "wikidata": null, "wikipedia": null, "label": "natural:beach" }, "geometry": { "type": "Polygon", "coordinates": [ [ [ 24.0974752, 40.725691 ], [ 24.0979687, 40.7259959 ], [ 24.0991811, 40.7265732 ], [ 24.0999267, 40.7268699 ], [ 24.1008333, 40.7272074 ], [ 24.1015897, 40.727435 ], [ 24.1019062, 40.7277358 ], [ 24.1023031, 40.7280042 ], [ 24.1028825, 40.7282887 ], [ 24.1037482, 40.7284542 ], [ 24.1030833, 40.7282678 ], [ 24.10263, 40.7279784 ], [ 24.101995, 40.727514 ], [ 24.1017069, 40.7273521 ], [ 24.0998839, 40.726714 ], [ 24.0987746, 40.7262442 ], [ 24.0978829, 40.7257841 ], [ 24.0974233, 40.7254648 ], [ 24.0972569, 40.7253492 ], [ 24.0974752, 40.725691 ] ] ] } },
{ "type": "Feature", "properties": { "@type": "way", "@id": 1367278916, "access": null, "addr:postcode": null, "alt_name": null, "alt_name_1": null, "amenity": null, "barrier": null, "bath:open_air": null, "bath:type": null, "bridge": null, "building": null, "created_by": null, "ele": null, "entrance": null, "fee": null, "ford": null, "highway": null, "int_name": null, "lanes": null, "lanes:backward": null, "lanes:forward": null, "layer": null, "leaf_type": null, "leisure": null, "lit": null, "maxspeed:backward": null, "name": null, "name:de": null, "name:el": null, "name:en": null, "name:mk": null, "natural": "beach", "noexit": null, "nudism": null, "oneway": null, "place": null, "population": null, "ref:esye": null, "reg_ref": null, "service": null, "smoothness": null, "source": null, "source:ref:esye": null, "surface": null, "tourism": null, "turn:lanes:forward": null, "waterway": null, "wikidata": null, "wikipedia": null, "label": "natural:beach" }, "geometry": { "type": "Polygon", "coordinates": [ [ [ 24.1070617, 40.7296614 ], [ 24.1075101, 40.7297392 ], [ 24.1078416, 40.7298702 ], [ 24.1082713, 40.7300436 ], [ 24.1086822, 40.7301639 ], [ 24.1091291, 40.7301836 ], [ 24.1087273, 40.7300356 ], [ 24.1082608, 40.7298744 ], [ 24.1078351, 40.7296911 ], [ 24.1073855, 40.7295751 ], [ 24.1070946, 40.7295581 ], [ 24.1068725, 40.7295091 ], [ 24.1066227, 40.7295444 ], [ 24.1070617, 40.7296614 ] ] ] } },
{ "type": "Feature", "properties": { "@type": "way", "@id": 1367278917, "access": null, "addr:postcode": null, "alt_name": null, "alt_name_1": null, "amenity": null, "barrier": null, "bath:open_air": null, "bath:type": null, "bridge": null, "building": null, "created_by": null, "ele": null, "entrance": null, "fee": null, "ford": null, "highway": null, "int_name": null, "lanes": null, "lanes:backward": null, "lanes:forward": null, "layer": null, "leaf_type": null, "leisure": null, "lit": null, "maxspeed:backward": null, "name": null, "name:de": null, "name:el": null, "name:en": null, "name:mk": null, "natural": "beach", "noexit": null, "nudism": null, "oneway": null, "place": null, "population": null, "ref:esye": null, "reg_ref": null, "service": null, "smoothness": null, "source": null, "source:ref:esye": null, "surface": null, "tourism": null, "turn:lanes:forward": null, "waterway": null, "wikidata": null, "wikipedia": null, "label": "natural:beach" }, "geometry": { "type": "Polygon", "coordinates": [ [ [ 24.1116337, 40.7315582 ], [ 24.1118531, 40.7317316 ], [ 24.1131981, 40.7323014 ], [ 24.1138472, 40.7325986 ], [ 24.1144683, 40.732864 ], [ 24.1151408, 40.7330339 ], [ 24.1155798, 40.7330763 ], [ 24.1162616, 40.733041 ], [ 24.1162776, 40.7329861 ], [ 24.1155761, 40.7330302 ], [ 24.1152824, 40.7329827 ], [ 24.1144929, 40.7326897 ], [ 24.1120743, 40.7315683 ], [ 24.111496, 40.7312419 ], [ 24.1116337, 40.7315582 ] ] ] } },
{ "type": "Feature", "properties": { "@type": "way", "@id": 1367278918, "access": null, "addr:postcode": null, "alt_name": null, "alt_name_1": null, "amenity": null, "barrier": null, "bath:open_air": null, "bath:type": null, "bridge": null, "building": null, "created_by": null, "ele": null, "entrance": null, "fee": null, "ford": null, "highway": null, "int_name": null, "lanes": null, "lanes:backward": null, "lanes:forward": null, "layer": null, "leaf_type": null, "leisure": null, "lit": null, "maxspeed:backward": null, "name": null, "name:de": null, "name:el": null, "name:en": null, "name:mk": null, "natural": "beach", "noexit": null, "nudism": null, "oneway": null, "place": null, "population": null, "ref:esye": null, "reg_ref": null, "service": null, "smoothness": null, "source": null, "source:ref:esye": null, "surface": null, "tourism": null, "turn:lanes:forward": null, "waterway": null, "wikidata": null, "wikipedia": null, "label": "natural:beach" }, "geometry": { "type": "Polygon", "coordinates": [ [ [ 24.1162776, 40.7329861 ], [ 24.1162616, 40.733041 ], [ 24.116647474378489, 40.733062480949172 ], [ 24.116647474378489, 40.733003583921473 ], [ 24.1162776, 40.7329861 ] ] ] } },
{ "type": "Feature", "properties": { "@type": "way", "@id": 1379297377, "access": null, "addr:postcode": null, "alt_name": null, "alt_name_1": null, "amenity": null, "barrier": null, "bath:open_air": null, "bath:type": null, "bridge": null, "building": "yes", "created_by": null, "ele": null, "entrance": null, "fee": null, "ford": null, "highway": null, "int_name": null, "lanes": null, "lanes:backward": null, "lanes:forward": null, "layer": null, "leaf_type": null, "leisure": null, "lit": null, "maxspeed:backward": null, "name": null, "name:de": null, "name:el": null, "name:en": null, "name:mk": null, "natural": null, "noexit": null, "nudism": null, "oneway": null, "place": null, "population": null, "ref:esye": null, "reg_ref": null, "service": null, "smoothness": null, "source": null, "source:ref:esye": null, "surface": null, "tourism": null, "turn:lanes:forward": null, "waterway": null, "wikidata": null, "wikipedia": null, "label": "building:yes" }, "geometry": { "type": "Polygon", "coordinates": [ [ [ 24.0914162, 40.7364918 ], [ 24.0914419, 40.7364035 ], [ 24.0913358, 40.7363857 ], [ 24.0913101, 40.7364741 ], [ 24.0914162, 40.7364918 ] ] ] } }
]
}
