{
"type": "FeatureCollection",
"name": "patch_83188_features",
"crs": { "type": "name", "properties": { "name": "urn:ogc:def:crs:OGC:1.3:CRS84" } },
"features": [
{ "type": "Feature", "properties": { "osm_id": 1289164608, "name": null, "label": "landuse:residential", "landuse": "residential", "natural": null, "amenity": null }, "geometry": { "type": "Polygon", "coordinates": [ [ [ 23.7749679, 40.766170400365198 ], [ 23.7751864, 40.766552100365246 ], [ 23.7757348, 40.766670300365256 ], [ 23.7762253, 40.766812100365271 ], [ 23.7763457, 40.76691340036529 ], [ 23.7764706, 40.767068800365308 ], [ 23.7766088, 40.767335600365335 ], [ 23.7769522, 40.767599000365372 ], [ 23.7770681, 40.767636100365351 ], [ 23.7775765, 40.767612500365367 ], [ 23.778067, 40.767700300365377 ], [ 23.7749679, 40.765815800365147 ], [ 23.7748742, 40.765937400365161 ], [ 23.7749679, 40.766170400365198 ] ] ] } },
{ "type": "Feature", "properties": { "osm_id": 235207988, "name": "Κυανή Ακτή", "label": "natural:beach", "landuse": null, "natural": "beach", "amenity": null }, "geometry": { "type": "Polygon", "coordinates": [ [ [ 23.7730728, 40.763860400364919 ], [ 23.7741741, 40.764699400365011 ], [ 23.7764202, 40.766298200365213 ], [ 23.7772908, 40.766611500365258 ], [ 23.7758039, 40.765541500365117 ], [ 23.775051, 40.76490770036505 ], [ 23.7740639, 40.764121300364963 ], [ 23.7723963, 40.762840700364798 ], [ 23.771867465193452, 40.762397947732183 ], [ 23.771867465193452, 40.762831164241824 ], [ 23.7730728, 40.763860400364919 ] ] ] } },
{ "type": "Feature", "properties": { "osm_id": 1289164607, "name": null, "label": "landuse:residential", "landuse": "residential", "natural": null, "amenity": null }, "geometry": { "type": "Polygon", "coordinates": [ [ [ 23.7718872, 40.764571600365009 ], [ 23.7720614, 40.764669400365037 ], [ 23.7723486, 40.764820900365031 ], [ 23.7731456, 40.765138600365077 ], [ 23.7732683, 40.765021300365063 ], [ 23.7730198, 40.764796500365037 ], [ 23.772255, 40.764420100365001 ], [ 23.7718743, 40.76418550036496 ], [ 23.772297, 40.763867800364935 ], [ 23.7721066, 40.763740700364906 ], [ 23.771867465193452, 40.763891665310815 ], [ 23.771867465193452, 40.764571495532039 ], [ 23.7718872, 40.764571600365009 ] ] ] } },
{ "type": "Feature", "properties": { "osm_id": 175762144, "name": null, "label": "natural:coastline", "landuse": null, "natural": "coastline", "amenity": null }, "geometry": { "type": "LineString", "coordinates": [ [ 23.771867465193452, 40.762397947732183 ], [ 23.7723963, 40.762840700364798 ], [ 23.7740639, 40.764121300364963 ], [ 23.775051, 40.76490770036505 ], [ 23.7758039, 40.765541500365117 ], [ 23.7772908, 40.766611500365258 ], [ 23.7782395, 40.767279700365336 ], [ 23.779780077226881, 40.76818770242356 ] ] } },
{ "type": "Feature", "properties": { "osm_id": 5388629529, "name": null, "label": "amenity:parking", "landuse": null, "natural": null, "amenity": "parking" }, "geometry": { "type": "Point", "coordinates": [ 23.772141, 40.763379500364877 ] } }
]
}
