{
"type": "FeatureCollection",
"name": "patch_32840_point",
"crs": { "type": "name", "properties": { "name": "urn:ogc:def:crs:OGC:1.3:CRS84" } },
"features": [
{ "type": "Feature", "properties": { "@type": "node", "@id": 6704617015, "access": null, "addr:housename": null, "amenity": "place_of_worship", "area": null, "bicycle": null, "building": null, "changing_table": null, "cuisine": null, "depth": null, "disused": null, "ele": null, "ferry": null, "foot": null, "ford": null, "highchair": null, "highway": null, "horse": null, "int_name": null, "intermittent": null, "landuse": null, "layer": null, "leisure": null, "lit": null, "man_made": null, "motor_vehicle": null, "name": null, "name:de": null, "name:el": null, "name:en": null, "name:fr": null, "name:ru": null, "natural": null, "outdoor_seating": null, "parking": null, "place": null, "public_transport": null, "religion": "christian", "route": null, "ruins": null, "service": null, "smoothness": null, "source": null, "surface": null, "toilets": null, "toilets:access": null, "toilets:wheelchair": null, "tracktype": null, "trees": null, "tunnel": null, "unisex": null, "waterway": null, "website": null, "wheelchair": null, "wikidata": null, "label": "amenity:place_of_worship" }, "geometry": { "type": "Point", "coordinates": [ 24.5144125, 35.1501786 ] } },
{ "type": "Feature", "properties": { "@type": "node", "@id": 6704636857, "access": null, "addr:housename": null, "amenity": "place_of_worship", "area": null, "bicycle": null, "building": null, "changing_table": null, "cuisine": null, "depth": null, "disused": null, "ele": null, "ferry": null, "foot": null, "ford": null, "highchair": null, "highway": null, "horse": null, "int_name": null, "intermittent": null, "landuse": null, "layer": null, "leisure": null, "lit": null, "man_made": null, "motor_vehicle": null, "name": null, "name:de": null, "name:el": null, "name:en": null, "name:fr": null, "name:ru": null, "natural": null, "outdoor_seating": null, "parking": null, "place": null, "public_transport": null, "religion": "christian", "route": null, "ruins": null, "service": null, "smoothness": null, "source": null, "surface": null, "toilets": null, "toilets:access": null, "toilets:wheelchair": null, "tracktype": null, "trees": null, "tunnel": null, "unisex": null, "waterway": null, "website": null, "wheelchair": null, "wikidata": null, "label": "amenity:place_of_worship" }, "geometry": { "type": "Point", "coordinates": [ 24.5041674, 35.1528677 ] } },
{ "type": "Feature", "properties": { "@type": "node", "@id": 7105542411, "access": null, "addr:housename": null, "amenity": null, "area": null, "bicycle": null, "building": null, "changing_table": null, "cuisine": null, "depth": null, "disused": null, "ele": "350", "ferry": null, "foot": null, "ford": null, "highchair": null, "highway": null, "horse": null, "int_name": null, "intermittent": null, "landuse": null, "layer": null, "leisure": null, "lit": null, "man_made": null, "motor_vehicle": null, "name": "Κατσογριδο", "name:de": null, "name:el": "Κατσογριδο", "name:en": "Katsogrído", "name:fr": null, "name:ru": null, "natural": "peak", "outdoor_seating": null, "parking": null, "place": null, "public_transport": null, "religion": null, "route": null, "ruins": null, "service": null, "smoothness": null, "source": null, "surface": null, "toilets": null, "toilets:access": null, "toilets:wheelchair": null, "tracktype": null, "trees": null, "tunnel": null, "unisex": null, "waterway": null, "website": null, "wheelchair": null, "wikidata": "Q25027721", "label": "natural:peak" }, "geometry": { "type": "Point", "coordinates": [ 24.4944159, 35.1589516 ] } },
{ "type": "Feature", "properties": { "@type": "node", "@id": 9979391527, "access": "yes", "addr:housename": null, "amenity": "shower", "area": null, "bicycle": null, "building": null, "changing_table": null, "cuisine": null, "depth": null, "disused": null, "ele": null, "ferry": null, "foot": null, "ford": null, "highchair": null, "highway": null, "horse": null, "int_name": null, "intermittent": null, "landuse": null, "layer": null, "leisure": null, "lit": null, "man_made": null, "motor_vehicle": null, "name": null, "name:de": null, "name:el": null, "name:en": null, "name:fr": null, "name:ru": null, "natural": null, "outdoor_seating": null, "parking": null, "place": null, "public_transport": null, "religion": null, "route": null, "ruins": null, "service": null, "smoothness": null, "source": null, "surface": null, "toilets": null, "toilets:access": null, "toilets:wheelchair": null, "tracktype": null, "trees": null, "tunnel": null, "unisex": null, "waterway": null, "website": null, "wheelchair": null, "wikidata": null, "label": "amenity:shower" }, "geometry": { "type": "Point", "coordinates": [ 24.4920372, 35.1501011 ] } }
]
}
