{
"type": "FeatureCollection",
"name": "patch_2795_features",
"crs": { "type": "name", "properties": { "name": "urn:ogc:def:crs:OGC:1.3:CRS84" } },
"features": [
{ "type": "Feature", "properties": { "osm_id": 687245861, "name": null, "label": "landuse:farmland", "landuse": "farmland", "natural": null, "waterway": null }, "geometry": { "type": "Polygon", "coordinates": [ [ [ 22.1673437, 39.059102800134454 ], [ 22.167871, 39.058492700134387 ], [ 22.1675631, 39.058374500134377 ], [ 22.1672977, 39.058294800134355 ], [ 22.166558, 39.058105200134328 ], [ 22.1662678, 39.058762000134422 ], [ 22.1673437, 39.059102800134454 ] ] ] } },
{ "type": "Feature", "properties": { "osm_id": -7327623, "name": null, "label": "natural:scrub", "landuse": null, "natural": "scrub", "waterway": null }, "geometry": { "type": "Polygon", "coordinates": [ [ [ 22.1594958, 39.038484200131492 ], [ 22.1597769, 39.038986700131559 ], [ 22.1597653, 39.039218800131586 ], [ 22.1598821, 39.039484200131625 ], [ 22.159925, 39.040034200131714 ], [ 22.1605043, 39.040367500131765 ], [ 22.1612554, 39.040134200131725 ], [ 22.1617081, 39.03982000013167 ], [ 22.1619442, 39.040086700131724 ], [ 22.163017, 39.039903300131691 ], [ 22.1636586, 39.040050800131702 ], [ 22.1643024, 39.040434200131777 ], [ 22.1650126, 39.040570000131787 ], [ 22.1658495, 39.040570000131787 ], [ 22.1674159, 39.041220000131872 ], [ 22.1682527, 39.041686600131953 ], [ 22.1689587, 39.042334100132052 ], [ 22.1696024, 39.043000700132133 ], [ 22.1703341, 39.043703200132256 ], [ 22.170788159363386, 39.043965935344538 ], [ 22.170788159363386, 39.038201021378676 ], [ 22.159497142081115, 39.038201021378676 ], [ 22.1594958, 39.038484200131492 ] ] ] } },
{ "type": "Feature", "properties": { "osm_id": -1829653, "name": null, "label": "natural:wood", "landuse": null, "natural": "wood", "waterway": null }, "geometry": { "type": "Polygon", "coordinates": [ [ [ 22.146636, 39.060474000134654 ], [ 22.146642, 39.060235000134632 ], [ 22.146647, 39.060045000134615 ], [ 22.146589, 39.059901000134595 ], [ 22.146413, 39.059612000134543 ], [ 22.146235, 39.059418000134528 ], [ 22.146057, 39.059225000134489 ], [ 22.145944, 39.058841000134422 ], [ 22.145833, 39.058411000134377 ], [ 22.1453903, 39.057950400134303 ], [ 22.1452095, 39.057772700134279 ], [ 22.1452803, 39.057651700134265 ], [ 22.1452591, 39.057486800134242 ], [ 22.1451529, 39.057349400134214 ], [ 22.1451175, 39.057190000134199 ], [ 22.1451812, 39.056948200134158 ], [ 22.1452733, 39.056711800134124 ], [ 22.1455068, 39.056612900134098 ], [ 22.1458112, 39.056475500134084 ], [ 22.1456838, 39.056255600134058 ], [ 22.1455139, 39.056013800134032 ], [ 22.1453157, 39.056079700134028 ], [ 22.1450467, 39.056173200134054 ], [ 22.1450467, 39.055964300134015 ], [ 22.1449689, 39.055859900134003 ], [ 22.1449193, 39.055782900133991 ], [ 22.1450821, 39.055634500133969 ], [ 22.1453653, 39.055464100133953 ], [ 22.1452095, 39.055387200133929 ], [ 22.1450043, 39.05534320013394 ], [ 22.1448698, 39.055293700133923 ], [ 22.1448698, 39.055183800133904 ], [ 22.1447848, 39.055018900133881 ], [ 22.1446645, 39.055073800133883 ], [ 22.1445159, 39.055216800133906 ], [ 22.1443531, 39.055095800133905 ], [ 22.1441619, 39.054930900133876 ], [ 22.1440373, 39.054759300133846 ], [ 22.1442823, 39.054590200133816 ], [ 22.1442577, 39.054480100133802 ], [ 22.1443132, 39.054365300133782 ], [ 22.1444302, 39.054327000133767 ], [ 22.1446274, 39.054298300133773 ], [ 22.1447383, 39.054188200133751 ], [ 22.1447753, 39.054049400133735 ], [ 22.1448801, 39.054020700133748 ], [ 22.144991, 39.054030300133746 ], [ 22.1450896, 39.053795800133706 ], [ 22.1449848, 39.053771900133704 ], [ 22.1447568, 39.053848500133718 ], [ 22.1446028, 39.053867600133714 ], [ 22.1446336, 39.053786300133694 ], [ 22.1448061, 39.053728800133698 ], [ 22.1449109, 39.053647500133678 ], [ 22.1450526, 39.053594800133673 ], [ 22.145219, 39.053594800133673 ], [ 22.1453545, 39.053547000133669 ], [ 22.1453977, 39.053436900133654 ], [ 22.1453977, 39.053293400133633 ], [ 22.1454223, 39.053164200133615 ], [ 22.1452744, 39.05303500013359 ], [ 22.1452005, 39.052886600133576 ], [ 22.145028, 39.052843600133571 ], [ 22.1450326, 39.052688300133539 ], [ 22.14516, 39.052556300133524 ], [ 22.145337, 39.052440900133512 ], [ 22.1455068, 39.052314500133498 ], [ 22.1453086, 39.052006600133446 ], [ 22.1451104, 39.051951700133429 ], [ 22.1448132, 39.051990200133439 ], [ 22.1445937, 39.052122100133467 ], [ 22.1443743, 39.052034100133447 ], [ 22.1442115, 39.051830700133408 ], [ 22.1439637, 39.051643800133391 ], [ 22.1437585, 39.051533900133386 ], [ 22.1434895, 39.051473400133375 ], [ 22.1434046, 39.051314000133338 ], [ 22.1432276, 39.051176600133324 ], [ 22.1431639, 39.050989700133307 ], [ 22.142945, 39.05088700013328 ], [ 22.142251, 39.050232000133192 ], [ 22.142075, 39.049942000133157 ], [ 22.142081, 39.04972700013311 ], [ 22.142176, 39.04958600013309 ], [ 22.142461, 39.049232000133038 ], [ 22.142666, 39.048447000132931 ], [ 22.142504, 39.047585000132798 ], [ 22.142154, 39.046934000132708 ], [ 22.14134, 39.046420000132628 ], [ 22.14083355971216, 39.046008233658178 ], [ 22.14083355971216, 39.051598306078823 ], [ 22.141598, 39.051487000133392 ], [ 22.1421234, 39.05091280013329 ], [ 22.1423351, 39.051035600133297 ], [ 22.1424489, 39.05114300013333 ], [ 22.1425993, 39.051187200133327 ], [ 22.1426562, 39.051288200133342 ], [ 22.1427498, 39.051449200133369 ], [ 22.142888, 39.051550200133384 ], [ 22.1431441, 39.051723900133396 ], [ 22.1433677, 39.051850200133423 ], [ 22.1436564, 39.051919600133438 ], [ 22.1437499, 39.052042800133449 ], [ 22.1437742, 39.052203800133476 ], [ 22.1436685, 39.052298500133489 ], [ 22.1438108, 39.052333200133489 ], [ 22.14401, 39.052390000133499 ], [ 22.1441849, 39.05246900013352 ], [ 22.1443637, 39.05246900013352 ], [ 22.1445548, 39.052383700133504 ], [ 22.14475, 39.052386900133499 ], [ 22.1449166, 39.052446900133504 ], [ 22.1447825, 39.052570000133528 ], [ 22.144754, 39.052712100133547 ], [ 22.1448, 39.052901000133573 ], [ 22.1446582, 39.052819600133567 ], [ 22.144498, 39.052752600133559 ], [ 22.1443624, 39.052814800133554 ], [ 22.1443255, 39.052939300133581 ], [ 22.1444056, 39.053068500133605 ], [ 22.1444056, 39.053231200133624 ], [ 22.1442947, 39.053393900133649 ], [ 22.1441653, 39.053609200133678 ], [ 22.1441653, 39.053733600133711 ], [ 22.144079, 39.05383410013372 ], [ 22.1439496, 39.053805400133712 ], [ 22.143851, 39.053891500133716 ], [ 22.1437955, 39.053996800133739 ], [ 22.143814, 39.054130800133755 ], [ 22.14366, 39.054250400133768 ], [ 22.1434975, 39.054370500133786 ], [ 22.1433196, 39.054463700133795 ], [ 22.1433055, 39.054282300133771 ], [ 22.1431851, 39.054139400133749 ], [ 22.1429657, 39.054002000133728 ], [ 22.1426896, 39.053738100133685 ], [ 22.1425268, 39.053578700133677 ], [ 22.1424631, 39.053446800133663 ], [ 22.1425339, 39.053226900133616 ], [ 22.1424207, 39.053078500133601 ], [ 22.1422649, 39.053029100133585 ], [ 22.142088, 39.053155500133613 ], [ 22.1418332, 39.053281900133634 ], [ 22.1416916, 39.053166500133621 ], [ 22.141635, 39.052968600133568 ], [ 22.1413943, 39.052919100133572 ], [ 22.1413306, 39.053155500133613 ], [ 22.1413943, 39.053408300133654 ], [ 22.14155, 39.053595200133678 ], [ 22.141642, 39.0537491001337 ], [ 22.1414722, 39.053903000133715 ], [ 22.1414438, 39.054029500133737 ], [ 22.141642, 39.054035000133744 ], [ 22.1418708, 39.054119300133749 ], [ 22.1419181, 39.054276800133771 ], [ 22.141922, 39.054561000133816 ], [ 22.141674, 39.055160000133903 ], [ 22.140889, 39.055629000133969 ], [ 22.14083355971216, 39.055645600672484 ], [ 22.14083355971216, 39.056344503755412 ], [ 22.140859, 39.056321000134069 ], [ 22.1415642, 39.05592580013402 ], [ 22.1419181, 39.055909300134012 ], [ 22.1422437, 39.055832400134001 ], [ 22.1424065, 39.055832400134001 ], [ 22.1426401, 39.055892800134018 ], [ 22.1428878, 39.055892800134018 ], [ 22.143178, 39.055903800134004 ], [ 22.1433338, 39.055821400134 ], [ 22.1434541, 39.055574000133959 ], [ 22.143447, 39.055502600133941 ], [ 22.1433125, 39.055469600133947 ], [ 22.1433196, 39.05528270013393 ], [ 22.1434258, 39.055145300133887 ], [ 22.1435886, 39.055040900133889 ], [ 22.1438788, 39.055013400133873 ], [ 22.1440912, 39.055112300133885 ], [ 22.1442894, 39.055271700133915 ], [ 22.1444309, 39.055524600133957 ], [ 22.1446362, 39.055892800134018 ], [ 22.1446928, 39.056228100134064 ], [ 22.1448627, 39.056492000134092 ], [ 22.1448556, 39.056695300134123 ], [ 22.1448202, 39.056893200134148 ], [ 22.1447282, 39.057272500134218 ], [ 22.14455, 39.057331900134216 ], [ 22.1443835, 39.057301000134224 ], [ 22.144142, 39.057621000134255 ], [ 22.144133, 39.057954000134316 ], [ 22.144592, 39.059118000134482 ], [ 22.144127, 39.059349000134503 ], [ 22.143584, 39.059054000134473 ], [ 22.142734, 39.058632000134402 ], [ 22.141731, 39.058592000134382 ], [ 22.14083355971216, 39.058681654515397 ], [ 22.14083355971216, 39.060972039238223 ], [ 22.146292925060735, 39.060972039238223 ], [ 22.146636, 39.060474000134654 ] ] ] } },
{ "type": "Feature", "properties": { "osm_id": 1429216892, "name": null, "label": "natural:wood", "landuse": null, "natural": "wood", "waterway": null }, "geometry": { "type": "Polygon", "coordinates": [ [ [ 22.1597142, 39.053255900133621 ], [ 22.1598526, 39.053341600133649 ], [ 22.1599574, 39.053436000133637 ], [ 22.1600565, 39.053483900133664 ], [ 22.1602249, 39.053530400133667 ], [ 22.1602791, 39.053620400133681 ], [ 22.160397, 39.0537047001337 ], [ 22.1605185, 39.053741000133698 ], [ 22.1607168, 39.053758400133695 ], [ 22.1608926, 39.053725000133696 ], [ 22.1610011, 39.053645100133686 ], [ 22.1610647, 39.05352460013367 ], [ 22.1610647, 39.053385100133646 ], [ 22.1610984, 39.053277600133626 ], [ 22.1610273, 39.053141100133601 ], [ 22.1609431, 39.053051000133607 ], [ 22.1607056, 39.053112100133603 ], [ 22.1604867, 39.053132400133606 ], [ 22.1602454, 39.053176000133611 ], [ 22.1600827, 39.053173100133613 ], [ 22.1599349, 39.053099000133599 ], [ 22.1597965, 39.05296970013358 ], [ 22.159718, 39.052865100133566 ], [ 22.1596618, 39.052799800133556 ], [ 22.1595384, 39.05279100013356 ], [ 22.1595552, 39.052882500133578 ], [ 22.159559, 39.053020500133584 ], [ 22.1595365, 39.053157100133603 ], [ 22.1597142, 39.053255900133621 ] ] ] } },
{ "type": "Feature", "properties": { "osm_id": 1429216893, "name": null, "label": "natural:wood", "landuse": null, "natural": "wood", "waterway": null }, "geometry": { "type": "Polygon", "coordinates": [ [ [ 22.156843, 39.053022000133588 ], [ 22.1569758, 39.053022000133588 ], [ 22.1570319, 39.05307860013361 ], [ 22.1571629, 39.0531033001336 ], [ 22.1573349, 39.05305980013361 ], [ 22.1574696, 39.052963900133591 ], [ 22.1575631, 39.052824400133566 ], [ 22.1575631, 39.052709700133555 ], [ 22.1576324, 39.052670500133537 ], [ 22.1578063, 39.052676300133534 ], [ 22.1579167, 39.052744600133543 ], [ 22.1580195, 39.052840400133562 ], [ 22.1581879, 39.052933400133576 ], [ 22.1583375, 39.052990000133583 ], [ 22.158489, 39.05296240013358 ], [ 22.1586237, 39.053032200133593 ], [ 22.1587902, 39.053010400133594 ], [ 22.1589193, 39.052968300133585 ], [ 22.159097, 39.05299730013359 ], [ 22.1591867, 39.053080100133599 ], [ 22.1593102, 39.053173100133613 ], [ 22.1593869, 39.053205000133623 ], [ 22.159458, 39.053177400133606 ], [ 22.1594823, 39.053046700133606 ], [ 22.1594823, 39.052910100133573 ], [ 22.159458, 39.052744600133543 ], [ 22.1593944, 39.052596400133531 ], [ 22.1593008, 39.052488900133504 ], [ 22.1591175, 39.052448200133504 ], [ 22.15888, 39.052448200133504 ], [ 22.1586686, 39.052490400133514 ], [ 22.1584872, 39.052571700133527 ], [ 22.1582833, 39.052660300133539 ], [ 22.1582534, 39.052581900133525 ], [ 22.1581898, 39.052494700133508 ], [ 22.1581149, 39.052484500133509 ], [ 22.1580888, 39.052435200133502 ], [ 22.1579934, 39.052406100133503 ], [ 22.1579391, 39.052452600133506 ], [ 22.1578026, 39.052413400133503 ], [ 22.1576118, 39.052355300133499 ], [ 22.1574303, 39.052355300133499 ], [ 22.1572751, 39.05239590013349 ], [ 22.1571909, 39.052454000133501 ], [ 22.1571198, 39.052542600133528 ], [ 22.1571011, 39.052655900133523 ], [ 22.1570394, 39.052743100133554 ], [ 22.1568804, 39.05279100013356 ], [ 22.1568243, 39.052913100133559 ], [ 22.156843, 39.053022000133588 ] ] ] } },
{ "type": "Feature", "properties": { "osm_id": 1429216896, "name": null, "label": "waterway:stream", "landuse": null, "natural": null, "waterway": "stream" }, "geometry": { "type": "LineString", "coordinates": [ [ 22.15958, 39.052936100133579 ], [ 22.1596419, 39.052985600133589 ], [ 22.1597247, 39.053067200133604 ], [ 22.1598388, 39.053159300133615 ], [ 22.1599797, 39.053225300133619 ], [ 22.1601273, 39.053287800133617 ], [ 22.1602481, 39.053353800133635 ], [ 22.1603465, 39.053416300133662 ], [ 22.1604941, 39.053452800133655 ], [ 22.1606216, 39.053458000133652 ], [ 22.1607379, 39.053428500133656 ], [ 22.1608296, 39.053343400133642 ], [ 22.1608721, 39.053256500133621 ], [ 22.160937, 39.053197500133621 ], [ 22.1610757, 39.05314190013361 ], [ 22.1611674, 39.053126300133606 ], [ 22.1613106, 39.053122800133593 ], [ 22.1614198, 39.053148500133609 ], [ 22.1615122, 39.053180400133613 ], [ 22.1616559, 39.053214200133624 ], [ 22.1618227, 39.053226200133622 ], [ 22.161992, 39.053200300133618 ], [ 22.162146, 39.053134500133609 ], [ 22.1623076, 39.053086700133612 ], [ 22.1624744, 39.053094700133606 ], [ 22.1626489, 39.053112600133609 ], [ 22.1627951, 39.053136500133611 ], [ 22.1629824, 39.053176400133616 ], [ 22.163176, 39.05327880013364 ] ] } },
{ "type": "Feature", "properties": { "osm_id": 1429216898, "name": null, "label": "waterway:stream", "landuse": null, "natural": null, "waterway": "stream" }, "geometry": { "type": "LineString", "coordinates": [ [ 22.1594542, 39.052845000133566 ], [ 22.15958, 39.052936100133579 ] ] } },
{ "type": "Feature", "properties": { "osm_id": 1429216897, "name": null, "label": "waterway:stream", "landuse": null, "natural": null, "waterway": "stream" }, "geometry": { "type": "LineString", "coordinates": [ [ 22.1573066, 39.040237300131729 ], [ 22.1573918, 39.040330800131755 ], [ 22.1574511, 39.040434400131765 ], [ 22.1575566, 39.040540900131788 ], [ 22.1576511, 39.040594100131798 ], [ 22.1577197, 39.040668900131813 ], [ 22.1577697, 39.04077690013181 ], [ 22.1578586, 39.040868900131827 ], [ 22.1579568, 39.040938000131838 ], [ 22.1580624, 39.040991200131856 ], [ 22.1581346, 39.04107760013185 ], [ 22.1581605, 39.041189800131882 ], [ 22.1581513, 39.041287600131888 ], [ 22.1580938, 39.041376800131907 ], [ 22.1580494, 39.041438700131906 ], [ 22.1580494, 39.04151350013192 ], [ 22.1581087, 39.041573900131937 ], [ 22.1582457, 39.041598400131939 ], [ 22.1583624, 39.04160560013193 ], [ 22.1584792, 39.041641600131932 ], [ 22.1585718, 39.041690500131949 ], [ 22.1585996, 39.041769600131957 ], [ 22.1585699, 39.041847300131977 ], [ 22.1585088, 39.041913500131983 ], [ 22.1583847, 39.041952300131989 ], [ 22.1582643, 39.041965300131984 ], [ 22.1581809, 39.042018500132002 ], [ 22.1581309, 39.042100500132008 ], [ 22.1581383, 39.042235800132033 ], [ 22.1581476, 39.042352300132052 ], [ 22.1581883, 39.04245880013206 ], [ 22.1582661, 39.042559500132086 ], [ 22.1583736, 39.042642900132087 ], [ 22.1584403, 39.042700500132099 ], [ 22.1585014, 39.042782500132105 ], [ 22.1585551, 39.042886100132122 ], [ 22.1585458, 39.042999700132142 ], [ 22.1585162, 39.043099000132159 ], [ 22.158531, 39.043185300132166 ], [ 22.1585959, 39.043254400132184 ], [ 22.1587422, 39.043290400132179 ], [ 22.1588645, 39.043306200132193 ], [ 22.1589756, 39.043346500132181 ], [ 22.159033, 39.043389600132194 ], [ 22.159059, 39.0434558001322 ], [ 22.159059, 39.043530600132208 ], [ 22.1590849, 39.043575200132217 ], [ 22.1591516, 39.043606900132225 ], [ 22.159259, 39.043614100132238 ], [ 22.159372, 39.043635700132228 ], [ 22.1594517, 39.04368600013224 ], [ 22.159498, 39.043759400132245 ], [ 22.1595869, 39.043824100132262 ], [ 22.159724, 39.043873000132265 ], [ 22.1598092, 39.043917600132275 ], [ 22.1598722, 39.043988100132282 ], [ 22.1598759, 39.044077300132287 ], [ 22.1598203, 39.0441867001323 ], [ 22.1597796, 39.044344900132337 ], [ 22.1597462, 39.044485900132351 ], [ 22.1597462, 39.044606800132371 ], [ 22.1597703, 39.044711800132383 ], [ 22.1598166, 39.044796700132402 ], [ 22.1598185, 39.044903200132424 ], [ 22.1597632, 39.044977500132426 ], [ 22.1597248, 39.045078200132437 ], [ 22.1596959, 39.045160300132451 ], [ 22.1596959, 39.045269800132466 ], [ 22.1596687, 39.045356800132488 ], [ 22.1595982, 39.045429000132486 ], [ 22.159539, 39.045512300132508 ], [ 22.1595198, 39.045621800132515 ], [ 22.1595214, 39.045727500132529 ], [ 22.1595454, 39.045812100132551 ], [ 22.1595614, 39.045910300132554 ], [ 22.1595358, 39.045989900132568 ], [ 22.1595422, 39.04607570013259 ], [ 22.1595838, 39.0461665001326 ], [ 22.1595918, 39.046283400132616 ], [ 22.1595614, 39.046399100132632 ], [ 22.1595566, 39.046563300132661 ], [ 22.159555, 39.046728700132682 ], [ 22.1595534, 39.046863000132696 ], [ 22.1595822, 39.046968800132717 ], [ 22.1595918, 39.047175200132749 ], [ 22.159595, 39.047276000132754 ], [ 22.159595, 39.047384200132782 ], [ 22.159595, 39.047487400132788 ], [ 22.1596319, 39.047613000132799 ], [ 22.1596319, 39.047717500132819 ], [ 22.1596111, 39.047820700132853 ], [ 22.1596271, 39.047942600132863 ], [ 22.1596447, 39.048077000132878 ], [ 22.1596399, 39.048191400132893 ], [ 22.1596046, 39.048293400132899 ], [ 22.1595678, 39.048390400132924 ], [ 22.1595742, 39.048475000132939 ], [ 22.1596143, 39.048550800132944 ], [ 22.1597055, 39.048609300132952 ], [ 22.1598289, 39.048642900132954 ], [ 22.1599394, 39.048672700132954 ], [ 22.1599938, 39.048712500132972 ], [ 22.1600515, 39.048795800132972 ], [ 22.1600643, 39.048875400132992 ], [ 22.1600226, 39.048957500133014 ], [ 22.1600322, 39.04906080013302 ], [ 22.1600114, 39.049190100133039 ], [ 22.1600018, 39.049295800133052 ], [ 22.1599666, 39.049386600133062 ], [ 22.1598833, 39.049469900133069 ], [ 22.1597936, 39.049514700133088 ], [ 22.1597296, 39.049565700133087 ], [ 22.1597184, 39.049635400133106 ], [ 22.1597376, 39.049710000133103 ], [ 22.1597392, 39.049788300133116 ], [ 22.1597007, 39.049876600133139 ], [ 22.1596271, 39.049973700133151 ], [ 22.1595774, 39.050086800133172 ], [ 22.1595614, 39.050188800133178 ], [ 22.1595614, 39.050307000133195 ], [ 22.159579, 39.050453700133211 ], [ 22.1595838, 39.050591800133247 ], [ 22.1595941, 39.050772300133275 ], [ 22.1595941, 39.050867800133283 ], [ 22.1595701, 39.050975400133296 ], [ 22.1595432, 39.051091800133314 ], [ 22.1595079, 39.051177400133319 ], [ 22.1595079, 39.051254300133337 ], [ 22.1595347, 39.051320100133346 ], [ 22.1595729, 39.051400300133352 ], [ 22.1595743, 39.051512200133367 ], [ 22.159539, 39.051620900133393 ], [ 22.1594867, 39.051710900133401 ], [ 22.1594344, 39.051793300133419 ], [ 22.1594273, 39.051869000133422 ], [ 22.1594344, 39.051974400133439 ], [ 22.1594655, 39.052110500133459 ], [ 22.1594739, 39.052207200133481 ], [ 22.1594641, 39.052313600133495 ], [ 22.1594358, 39.052417900133513 ], [ 22.1593877, 39.052499200133511 ], [ 22.1593623, 39.052617700133517 ], [ 22.1593679, 39.052704500133544 ], [ 22.1593976, 39.052786800133553 ], [ 22.1594542, 39.052845000133566 ] ] } },
{ "type": "Feature", "properties": { "osm_id": 140680603, "name": null, "label": "waterway:stream", "landuse": null, "natural": null, "waterway": "stream" }, "geometry": { "type": "LineString", "coordinates": [ [ 22.163176, 39.05327880013364 ], [ 22.1633063, 39.053390600133646 ], [ 22.1635775, 39.053539000133668 ], [ 22.1637175, 39.053763400133697 ], [ 22.1638597, 39.053980800133729 ], [ 22.1641642, 39.054346700133785 ], [ 22.1644175, 39.054655600133835 ], [ 22.1645531, 39.054890300133856 ], [ 22.1646864, 39.055018000133877 ], [ 22.1648931, 39.054980000133874 ], [ 22.1651042, 39.05489550013386 ], [ 22.1653353, 39.055019700133883 ], [ 22.1652998, 39.055183700133902 ], [ 22.1652687, 39.05544080013393 ], [ 22.1653798, 39.055611700133959 ], [ 22.165562, 39.055760100133995 ], [ 22.1657909, 39.055808400133998 ], [ 22.1661087, 39.056074200134034 ], [ 22.1662332, 39.056234600134061 ], [ 22.1662843, 39.056497000134094 ], [ 22.1663954, 39.056571200134101 ], [ 22.1666043, 39.056636700134113 ], [ 22.1667065, 39.05662120013411 ], [ 22.1667843, 39.056667800134107 ], [ 22.166891, 39.056899000134152 ], [ 22.1669754, 39.056995700134173 ], [ 22.1671754, 39.057037100134174 ], [ 22.1674555, 39.05703880013418 ], [ 22.1676732, 39.057145800134187 ], [ 22.1680555, 39.057347700134223 ], [ 22.1687711, 39.057684200134261 ], [ 22.1690955, 39.057827500134309 ], [ 22.1691955, 39.058015600134311 ], [ 22.1693911, 39.058272700134353 ], [ 22.1695667, 39.058415900134378 ], [ 22.1696656, 39.058401500134359 ], [ 22.1697711, 39.05825540013435 ], [ 22.1699222, 39.058253700134358 ], [ 22.1700245, 39.058426300134371 ], [ 22.1702045, 39.058678200134409 ], [ 22.1704334, 39.058755900134408 ], [ 22.1707734, 39.058771400134418 ], [ 22.170788159363386, 39.058774556762359 ] ] } }
]
}
