{
"type": "FeatureCollection",
"name": "patch_2795_polygon",
"crs": { "type": "name", "properties": { "name": "urn:ogc:def:crs:OGC:1.3:CRS84" } },
"features": [
{ "type": "Feature", "properties": { "osm_id": 687245861, "name": null, "label": "landuse:farmland", "landuse": "farmland", "natural": null }, "geometry": { "type": "Polygon", "coordinates": [ [ [ 22.1673437, 39.059102800134454 ], [ 22.167871, 39.058492700134387 ], [ 22.1675631, 39.058374500134377 ], [ 22.1672977, 39.058294800134355 ], [ 22.166558, 39.058105200134328 ], [ 22.1662678, 39.058762000134422 ], [ 22.1673437, 39.059102800134454 ] ] ] } },
{ "type": "Feature", "properties": { "osm_id": -7327623, "name": null, "label": "natural:scrub", "landuse": null, "natural": "scrub" }, "geometry": { "type": "Polygon", "coordinates": [ [ [ 22.1594958, 39.038484200131492 ], [ 22.1597769, 39.038986700131559 ], [ 22.1597653, 39.039218800131586 ], [ 22.1598821, 39.039484200131625 ], [ 22.159925, 39.040034200131714 ], [ 22.1605043, 39.040367500131765 ], [ 22.1612554, 39.040134200131725 ], [ 22.1617081, 39.03982000013167 ], [ 22.1619442, 39.040086700131724 ], [ 22.163017, 39.039903300131691 ], [ 22.1636586, 39.040050800131702 ], [ 22.1643024, 39.040434200131777 ], [ 22.1650126, 39.040570000131787 ], [ 22.1658495, 39.040570000131787 ], [ 22.1674159, 39.041220000131872 ], [ 22.1682527, 39.041686600131953 ], [ 22.1689587, 39.042334100132052 ], [ 22.1696024, 39.043000700132133 ], [ 22.1703341, 39.043703200132256 ], [ 22.170788159363386, 39.043965935344538 ], [ 22.170788159363386, 39.038201021378676 ], [ 22.159497142081115, 39.038201021378676 ], [ 22.1594958, 39.038484200131492 ] ] ] } },
{ "type": "Feature", "properties": { "osm_id": -1829653, "name": null, "label": "natural:wood", "landuse": null, "natural": "wood" }, "geometry": { "type": "Polygon", "coordinates": [ [ [ 22.146636, 39.060474000134654 ], [ 22.146642, 39.060235000134632 ], [ 22.146647, 39.060045000134615 ], [ 22.146589, 39.059901000134595 ], [ 22.146413, 39.059612000134543 ], [ 22.146235, 39.059418000134528 ], [ 22.146057, 39.059225000134489 ], [ 22.145944, 39.058841000134422 ], [ 22.145833, 39.058411000134377 ], [ 22.1453903, 39.057950400134303 ], [ 22.1452095, 39.057772700134279 ], [ 22.1452803, 39.057651700134265 ], [ 22.1452591, 39.057486800134242 ], [ 22.1451529, 39.057349400134214 ], [ 22.1451175, 39.057190000134199 ], [ 22.1451812, 39.056948200134158 ], [ 22.1452733, 39.056711800134124 ], [ 22.1455068, 39.056612900134098 ], [ 22.1458112, 39.056475500134084 ], [ 22.1456838, 39.056255600134058 ], [ 22.1455139, 39.056013800134032 ], [ 22.1453157, 39.056079700134028 ], [ 22.1450467, 39.056173200134054 ], [ 22.1450467, 39.055964300134015 ], [ 22.1449689, 39.055859900134003 ], [ 22.1449193, 39.055782900133991 ], [ 22.1450821, 39.055634500133969 ], [ 22.1453653, 39.055464100133953 ], [ 22.1452095, 39.055387200133929 ], [ 22.1450043, 39.05534320013394 ], [ 22.1448698, 39.055293700133923 ], [ 22.1448698, 39.055183800133904 ], [ 22.1447848, 39.055018900133881 ], [ 22.1446645, 39.055073800133883 ], [ 22.1445159, 39.055216800133906 ], [ 22.1443531, 39.055095800133905 ], [ 22.1441619, 39.054930900133876 ], [ 22.1440373, 39.054759300133846 ], [ 22.1442823, 39.054590200133816 ], [ 22.1442577, 39.054480100133802 ], [ 22.1443132, 39.054365300133782 ], [ 22.1444302, 39.054327000133767 ], [ 22.1446274, 39.054298300133773 ], [ 22.1447383, 39.054188200133751 ], [ 22.1447753, 39.054049400133735 ], [ 22.1448801, 39.054020700133748 ], [ 22.144991, 39.054030300133746 ], [ 22.1450896, 39.053795800133706 ], [ 22.1449848, 39.053771900133704 ], [ 22.1447568, 39.053848500133718 ], [ 22.1446028, 39.053867600133714 ], [ 22.1446336, 39.053786300133694 ], [ 22.1448061, 39.053728800133698 ], [ 22.1449109, 39.053647500133678 ], [ 22.1450526, 39.053594800133673 ], [ 22.145219, 39.053594800133673 ], [ 22.1453545, 39.053547000133669 ], [ 22.1453977, 39.053436900133654 ], [ 22.1453977, 39.053293400133633 ], [ 22.1454223, 39.053164200133615 ], [ 22.1452744, 39.05303500013359 ], [ 22.1452005, 39.052886600133576 ], [ 22.145028, 39.052843600133571 ], [ 22.1450326, 39.052688300133539 ], [ 22.14516, 39.052556300133524 ], [ 22.145337, 39.052440900133512 ], [ 22.1455068, 39.052314500133498 ], [ 22.1453086, 39.052006600133446 ], [ 22.1451104, 39.051951700133429 ], [ 22.1448132, 39.051990200133439 ], [ 22.1445937, 39.052122100133467 ], [ 22.1443743, 39.052034100133447 ], [ 22.1442115, 39.051830700133408 ], [ 22.1439637, 39.051643800133391 ], [ 22.1437585, 39.051533900133386 ], [ 22.1434895, 39.051473400133375 ], [ 22.1434046, 39.051314000133338 ], [ 22.1432276, 39.051176600133324 ], [ 22.1431639, 39.050989700133307 ], [ 22.142945, 39.05088700013328 ], [ 22.142251, 39.050232000133192 ], [ 22.142075, 39.049942000133157 ], [ 22.142081, 39.04972700013311 ], [ 22.142176, 39.04958600013309 ], [ 22.142461, 39.049232000133038 ], [ 22.142666, 39.048447000132931 ], [ 22.142504, 39.047585000132798 ], [ 22.142154, 39.046934000132708 ], [ 22.14134, 39.046420000132628 ], [ 22.14083355971216, 39.046008233658178 ], [ 22.14083355971216, 39.051598306078823 ], [ 22.141598, 39.051487000133392 ], [ 22.1421234, 39.05091280013329 ], [ 22.1423351, 39.051035600133297 ], [ 22.1424489, 39.05114300013333 ], [ 22.1425993, 39.051187200133327 ], [ 22.1426562, 39.051288200133342 ], [ 22.1427498, 39.051449200133369 ], [ 22.142888, 39.051550200133384 ], [ 22.1431441, 39.051723900133396 ], [ 22.1433677, 39.051850200133423 ], [ 22.1436564, 39.051919600133438 ], [ 22.1437499, 39.052042800133449 ], [ 22.1437742, 39.052203800133476 ], [ 22.1436685, 39.052298500133489 ], [ 22.1438108, 39.052333200133489 ], [ 22.14401, 39.052390000133499 ], [ 22.1441849, 39.05246900013352 ], [ 22.1443637, 39.05246900013352 ], [ 22.1445548, 39.052383700133504 ], [ 22.14475, 39.052386900133499 ], [ 22.1449166, 39.052446900133504 ], [ 22.1447825, 39.052570000133528 ], [ 22.144754, 39.052712100133547 ], [ 22.1448, 39.052901000133573 ], [ 22.1446582, 39.052819600133567 ], [ 22.144498, 39.052752600133559 ], [ 22.1443624, 39.052814800133554 ], [ 22.1443255, 39.052939300133581 ], [ 22.1444056, 39.053068500133605 ], [ 22.1444056, 39.053231200133624 ], [ 22.1442947, 39.053393900133649 ], [ 22.1441653, 39.053609200133678 ], [ 22.1441653, 39.053733600133711 ], [ 22.144079, 39.05383410013372 ], [ 22.1439496, 39.053805400133712 ], [ 22.143851, 39.053891500133716 ], [ 22.1437955, 39.053996800133739 ], [ 22.143814, 39.054130800133755 ], [ 22.14366, 39.054250400133768 ], [ 22.1434975, 39.054370500133786 ], [ 22.1433196, 39.054463700133795 ], [ 22.1433055, 39.054282300133771 ], [ 22.1431851, 39.054139400133749 ], [ 22.1429657, 39.054002000133728 ], [ 22.1426896, 39.053738100133685 ], [ 22.1425268, 39.053578700133677 ], [ 22.1424631, 39.053446800133663 ], [ 22.1425339, 39.053226900133616 ], [ 22.1424207, 39.053078500133601 ], [ 22.1422649, 39.053029100133585 ], [ 22.142088, 39.053155500133613 ], [ 22.1418332, 39.053281900133634 ], [ 22.1416916, 39.053166500133621 ], [ 22.141635, 39.052968600133568 ], [ 22.1413943, 39.052919100133572 ], [ 22.1413306, 39.053155500133613 ], [ 22.1413943, 39.053408300133654 ], [ 22.14155, 39.053595200133678 ], [ 22.141642, 39.0537491001337 ], [ 22.1414722, 39.053903000133715 ], [ 22.1414438, 39.054029500133737 ], [ 22.141642, 39.054035000133744 ], [ 22.1418708, 39.054119300133749 ], [ 22.1419181, 39.054276800133771 ], [ 22.141922, 39.054561000133816 ], [ 22.141674, 39.055160000133903 ], [ 22.140889, 39.055629000133969 ], [ 22.14083355971216, 39.055645600672484 ], [ 22.14083355971216, 39.056344503755412 ], [ 22.140859, 39.056321000134069 ], [ 22.1415642, 39.05592580013402 ], [ 22.1419181, 39.055909300134012 ], [ 22.1422437, 39.055832400134001 ], [ 22.1424065, 39.055832400134001 ], [ 22.1426401, 39.055892800134018 ], [ 22.1428878, 39.055892800134018 ], [ 22.143178, 39.055903800134004 ], [ 22.1433338, 39.055821400134 ], [ 22.1434541, 39.055574000133959 ], [ 22.143447, 39.055502600133941 ], [ 22.1433125, 39.055469600133947 ], [ 22.1433196, 39.05528270013393 ], [ 22.1434258, 39.055145300133887 ], [ 22.1435886, 39.055040900133889 ], [ 22.1438788, 39.055013400133873 ], [ 22.1440912, 39.055112300133885 ], [ 22.1442894, 39.055271700133915 ], [ 22.1444309, 39.055524600133957 ], [ 22.1446362, 39.055892800134018 ], [ 22.1446928, 39.056228100134064 ], [ 22.1448627, 39.056492000134092 ], [ 22.1448556, 39.056695300134123 ], [ 22.1448202, 39.056893200134148 ], [ 22.1447282, 39.057272500134218 ], [ 22.14455, 39.057331900134216 ], [ 22.1443835, 39.057301000134224 ], [ 22.144142, 39.057621000134255 ], [ 22.144133, 39.057954000134316 ], [ 22.144592, 39.059118000134482 ], [ 22.144127, 39.059349000134503 ], [ 22.143584, 39.059054000134473 ], [ 22.142734, 39.058632000134402 ], [ 22.141731, 39.058592000134382 ], [ 22.14083355971216, 39.058681654515397 ], [ 22.14083355971216, 39.060972039238223 ], [ 22.146292925060735, 39.060972039238223 ], [ 22.146636, 39.060474000134654 ] ] ] } },
{ "type": "Feature", "properties": { "osm_id": 1429216892, "name": null, "label": "natural:wood", "landuse": null, "natural": "wood" }, "geometry": { "type": "Polygon", "coordinates": [ [ [ 22.1597142, 39.053255900133621 ], [ 22.1598526, 39.053341600133649 ], [ 22.1599574, 39.053436000133637 ], [ 22.1600565, 39.053483900133664 ], [ 22.1602249, 39.053530400133667 ], [ 22.1602791, 39.053620400133681 ], [ 22.160397, 39.0537047001337 ], [ 22.1605185, 39.053741000133698 ], [ 22.1607168, 39.053758400133695 ], [ 22.1608926, 39.053725000133696 ], [ 22.1610011, 39.053645100133686 ], [ 22.1610647, 39.05352460013367 ], [ 22.1610647, 39.053385100133646 ], [ 22.1610984, 39.053277600133626 ], [ 22.1610273, 39.053141100133601 ], [ 22.1609431, 39.053051000133607 ], [ 22.1607056, 39.053112100133603 ], [ 22.1604867, 39.053132400133606 ], [ 22.1602454, 39.053176000133611 ], [ 22.1600827, 39.053173100133613 ], [ 22.1599349, 39.053099000133599 ], [ 22.1597965, 39.05296970013358 ], [ 22.159718, 39.052865100133566 ], [ 22.1596618, 39.052799800133556 ], [ 22.1595384, 39.05279100013356 ], [ 22.1595552, 39.052882500133578 ], [ 22.159559, 39.053020500133584 ], [ 22.1595365, 39.053157100133603 ], [ 22.1597142, 39.053255900133621 ] ] ] } },
{ "type": "Feature", "properties": { "osm_id": 1429216893, "name": null, "label": "natural:wood", "landuse": null, "natural": "wood" }, "geometry": { "type": "Polygon", "coordinates": [ [ [ 22.156843, 39.053022000133588 ], [ 22.1569758, 39.053022000133588 ], [ 22.1570319, 39.05307860013361 ], [ 22.1571629, 39.0531033001336 ], [ 22.1573349, 39.05305980013361 ], [ 22.1574696, 39.052963900133591 ], [ 22.1575631, 39.052824400133566 ], [ 22.1575631, 39.052709700133555 ], [ 22.1576324, 39.052670500133537 ], [ 22.1578063, 39.052676300133534 ], [ 22.1579167, 39.052744600133543 ], [ 22.1580195, 39.052840400133562 ], [ 22.1581879, 39.052933400133576 ], [ 22.1583375, 39.052990000133583 ], [ 22.158489, 39.05296240013358 ], [ 22.1586237, 39.053032200133593 ], [ 22.1587902, 39.053010400133594 ], [ 22.1589193, 39.052968300133585 ], [ 22.159097, 39.05299730013359 ], [ 22.1591867, 39.053080100133599 ], [ 22.1593102, 39.053173100133613 ], [ 22.1593869, 39.053205000133623 ], [ 22.159458, 39.053177400133606 ], [ 22.1594823, 39.053046700133606 ], [ 22.1594823, 39.052910100133573 ], [ 22.159458, 39.052744600133543 ], [ 22.1593944, 39.052596400133531 ], [ 22.1593008, 39.052488900133504 ], [ 22.1591175, 39.052448200133504 ], [ 22.15888, 39.052448200133504 ], [ 22.1586686, 39.052490400133514 ], [ 22.1584872, 39.052571700133527 ], [ 22.1582833, 39.052660300133539 ], [ 22.1582534, 39.052581900133525 ], [ 22.1581898, 39.052494700133508 ], [ 22.1581149, 39.052484500133509 ], [ 22.1580888, 39.052435200133502 ], [ 22.1579934, 39.052406100133503 ], [ 22.1579391, 39.052452600133506 ], [ 22.1578026, 39.052413400133503 ], [ 22.1576118, 39.052355300133499 ], [ 22.1574303, 39.052355300133499 ], [ 22.1572751, 39.05239590013349 ], [ 22.1571909, 39.052454000133501 ], [ 22.1571198, 39.052542600133528 ], [ 22.1571011, 39.052655900133523 ], [ 22.1570394, 39.052743100133554 ], [ 22.1568804, 39.05279100013356 ], [ 22.1568243, 39.052913100133559 ], [ 22.156843, 39.053022000133588 ] ] ] } }
]
}
