{
"type": "FeatureCollection",
"name": "patch_2795_linestring",
"crs": { "type": "name", "properties": { "name": "urn:ogc:def:crs:OGC:1.3:CRS84" } },
"features": [
{ "type": "Feature", "properties": { "osm_id": 1429216896, "name": null, "label": "waterway:stream", "waterway": "stream" }, "geometry": { "type": "LineString", "coordinates": [ [ 22.15958, 39.052936100133579 ], [ 22.1596419, 39.052985600133589 ], [ 22.1597247, 39.053067200133604 ], [ 22.1598388, 39.053159300133615 ], [ 22.1599797, 39.053225300133619 ], [ 22.1601273, 39.053287800133617 ], [ 22.1602481, 39.053353800133635 ], [ 22.1603465, 39.053416300133662 ], [ 22.1604941, 39.053452800133655 ], [ 22.1606216, 39.053458000133652 ], [ 22.1607379, 39.053428500133656 ], [ 22.1608296, 39.053343400133642 ], [ 22.1608721, 39.053256500133621 ], [ 22.160937, 39.053197500133621 ], [ 22.1610757, 39.05314190013361 ], [ 22.1611674, 39.053126300133606 ], [ 22.1613106, 39.053122800133593 ], [ 22.1614198, 39.053148500133609 ], [ 22.1615122, 39.053180400133613 ], [ 22.1616559, 39.053214200133624 ], [ 22.1618227, 39.053226200133622 ], [ 22.161992, 39.053200300133618 ], [ 22.162146, 39.053134500133609 ], [ 22.1623076, 39.053086700133612 ], [ 22.1624744, 39.053094700133606 ], [ 22.1626489, 39.053112600133609 ], [ 22.1627951, 39.053136500133611 ], [ 22.1629824, 39.053176400133616 ], [ 22.163176, 39.05327880013364 ] ] } },
{ "type": "Feature", "properties": { "osm_id": 1429216898, "name": null, "label": "waterway:stream", "waterway": "stream" }, "geometry": { "type": "LineString", "coordinates": [ [ 22.1594542, 39.052845000133566 ], [ 22.15958, 39.052936100133579 ] ] } },
{ "type": "Feature", "properties": { "osm_id": 1429216897, "name": null, "label": "waterway:stream", "waterway": "stream" }, "geometry": { "type": "LineString", "coordinates": [ [ 22.1573066, 39.040237300131729 ], [ 22.1573918, 39.040330800131755 ], [ 22.1574511, 39.040434400131765 ], [ 22.1575566, 39.040540900131788 ], [ 22.1576511, 39.040594100131798 ], [ 22.1577197, 39.040668900131813 ], [ 22.1577697, 39.04077690013181 ], [ 22.1578586, 39.040868900131827 ], [ 22.1579568, 39.040938000131838 ], [ 22.1580624, 39.040991200131856 ], [ 22.1581346, 39.04107760013185 ], [ 22.1581605, 39.041189800131882 ], [ 22.1581513, 39.041287600131888 ], [ 22.1580938, 39.041376800131907 ], [ 22.1580494, 39.041438700131906 ], [ 22.1580494, 39.04151350013192 ], [ 22.1581087, 39.041573900131937 ], [ 22.1582457, 39.041598400131939 ], [ 22.1583624, 39.04160560013193 ], [ 22.1584792, 39.041641600131932 ], [ 22.1585718, 39.041690500131949 ], [ 22.1585996, 39.041769600131957 ], [ 22.1585699, 39.041847300131977 ], [ 22.1585088, 39.041913500131983 ], [ 22.1583847, 39.041952300131989 ], [ 22.1582643, 39.041965300131984 ], [ 22.1581809, 39.042018500132002 ], [ 22.1581309, 39.042100500132008 ], [ 22.1581383, 39.042235800132033 ], [ 22.1581476, 39.042352300132052 ], [ 22.1581883, 39.04245880013206 ], [ 22.1582661, 39.042559500132086 ], [ 22.1583736, 39.042642900132087 ], [ 22.1584403, 39.042700500132099 ], [ 22.1585014, 39.042782500132105 ], [ 22.1585551, 39.042886100132122 ], [ 22.1585458, 39.042999700132142 ], [ 22.1585162, 39.043099000132159 ], [ 22.158531, 39.043185300132166 ], [ 22.1585959, 39.043254400132184 ], [ 22.1587422, 39.043290400132179 ], [ 22.1588645, 39.043306200132193 ], [ 22.1589756, 39.043346500132181 ], [ 22.159033, 39.043389600132194 ], [ 22.159059, 39.0434558001322 ], [ 22.159059, 39.043530600132208 ], [ 22.1590849, 39.043575200132217 ], [ 22.1591516, 39.043606900132225 ], [ 22.159259, 39.043614100132238 ], [ 22.159372, 39.043635700132228 ], [ 22.1594517, 39.04368600013224 ], [ 22.159498, 39.043759400132245 ], [ 22.1595869, 39.043824100132262 ], [ 22.159724, 39.043873000132265 ], [ 22.1598092, 39.043917600132275 ], [ 22.1598722, 39.043988100132282 ], [ 22.1598759, 39.044077300132287 ], [ 22.1598203, 39.0441867001323 ], [ 22.1597796, 39.044344900132337 ], [ 22.1597462, 39.044485900132351 ], [ 22.1597462, 39.044606800132371 ], [ 22.1597703, 39.044711800132383 ], [ 22.1598166, 39.044796700132402 ], [ 22.1598185, 39.044903200132424 ], [ 22.1597632, 39.044977500132426 ], [ 22.1597248, 39.045078200132437 ], [ 22.1596959, 39.045160300132451 ], [ 22.1596959, 39.045269800132466 ], [ 22.1596687, 39.045356800132488 ], [ 22.1595982, 39.045429000132486 ], [ 22.159539, 39.045512300132508 ], [ 22.1595198, 39.045621800132515 ], [ 22.1595214, 39.045727500132529 ], [ 22.1595454, 39.045812100132551 ], [ 22.1595614, 39.045910300132554 ], [ 22.1595358, 39.045989900132568 ], [ 22.1595422, 39.04607570013259 ], [ 22.1595838, 39.0461665001326 ], [ 22.1595918, 39.046283400132616 ], [ 22.1595614, 39.046399100132632 ], [ 22.1595566, 39.046563300132661 ], [ 22.159555, 39.046728700132682 ], [ 22.1595534, 39.046863000132696 ], [ 22.1595822, 39.046968800132717 ], [ 22.1595918, 39.047175200132749 ], [ 22.159595, 39.047276000132754 ], [ 22.159595, 39.047384200132782 ], [ 22.159595, 39.047487400132788 ], [ 22.1596319, 39.047613000132799 ], [ 22.1596319, 39.047717500132819 ], [ 22.1596111, 39.047820700132853 ], [ 22.1596271, 39.047942600132863 ], [ 22.1596447, 39.048077000132878 ], [ 22.1596399, 39.048191400132893 ], [ 22.1596046, 39.048293400132899 ], [ 22.1595678, 39.048390400132924 ], [ 22.1595742, 39.048475000132939 ], [ 22.1596143, 39.048550800132944 ], [ 22.1597055, 39.048609300132952 ], [ 22.1598289, 39.048642900132954 ], [ 22.1599394, 39.048672700132954 ], [ 22.1599938, 39.048712500132972 ], [ 22.1600515, 39.048795800132972 ], [ 22.1600643, 39.048875400132992 ], [ 22.1600226, 39.048957500133014 ], [ 22.1600322, 39.04906080013302 ], [ 22.1600114, 39.049190100133039 ], [ 22.1600018, 39.049295800133052 ], [ 22.1599666, 39.049386600133062 ], [ 22.1598833, 39.049469900133069 ], [ 22.1597936, 39.049514700133088 ], [ 22.1597296, 39.049565700133087 ], [ 22.1597184, 39.049635400133106 ], [ 22.1597376, 39.049710000133103 ], [ 22.1597392, 39.049788300133116 ], [ 22.1597007, 39.049876600133139 ], [ 22.1596271, 39.049973700133151 ], [ 22.1595774, 39.050086800133172 ], [ 22.1595614, 39.050188800133178 ], [ 22.1595614, 39.050307000133195 ], [ 22.159579, 39.050453700133211 ], [ 22.1595838, 39.050591800133247 ], [ 22.1595941, 39.050772300133275 ], [ 22.1595941, 39.050867800133283 ], [ 22.1595701, 39.050975400133296 ], [ 22.1595432, 39.051091800133314 ], [ 22.1595079, 39.051177400133319 ], [ 22.1595079, 39.051254300133337 ], [ 22.1595347, 39.051320100133346 ], [ 22.1595729, 39.051400300133352 ], [ 22.1595743, 39.051512200133367 ], [ 22.159539, 39.051620900133393 ], [ 22.1594867, 39.051710900133401 ], [ 22.1594344, 39.051793300133419 ], [ 22.1594273, 39.051869000133422 ], [ 22.1594344, 39.051974400133439 ], [ 22.1594655, 39.052110500133459 ], [ 22.1594739, 39.052207200133481 ], [ 22.1594641, 39.052313600133495 ], [ 22.1594358, 39.052417900133513 ], [ 22.1593877, 39.052499200133511 ], [ 22.1593623, 39.052617700133517 ], [ 22.1593679, 39.052704500133544 ], [ 22.1593976, 39.052786800133553 ], [ 22.1594542, 39.052845000133566 ] ] } },
{ "type": "Feature", "properties": { "osm_id": 140680603, "name": null, "label": "waterway:stream", "waterway": "stream" }, "geometry": { "type": "LineString", "coordinates": [ [ 22.163176, 39.05327880013364 ], [ 22.1633063, 39.053390600133646 ], [ 22.1635775, 39.053539000133668 ], [ 22.1637175, 39.053763400133697 ], [ 22.1638597, 39.053980800133729 ], [ 22.1641642, 39.054346700133785 ], [ 22.1644175, 39.054655600133835 ], [ 22.1645531, 39.054890300133856 ], [ 22.1646864, 39.055018000133877 ], [ 22.1648931, 39.054980000133874 ], [ 22.1651042, 39.05489550013386 ], [ 22.1653353, 39.055019700133883 ], [ 22.1652998, 39.055183700133902 ], [ 22.1652687, 39.05544080013393 ], [ 22.1653798, 39.055611700133959 ], [ 22.165562, 39.055760100133995 ], [ 22.1657909, 39.055808400133998 ], [ 22.1661087, 39.056074200134034 ], [ 22.1662332, 39.056234600134061 ], [ 22.1662843, 39.056497000134094 ], [ 22.1663954, 39.056571200134101 ], [ 22.1666043, 39.056636700134113 ], [ 22.1667065, 39.05662120013411 ], [ 22.1667843, 39.056667800134107 ], [ 22.166891, 39.056899000134152 ], [ 22.1669754, 39.056995700134173 ], [ 22.1671754, 39.057037100134174 ], [ 22.1674555, 39.05703880013418 ], [ 22.1676732, 39.057145800134187 ], [ 22.1680555, 39.057347700134223 ], [ 22.1687711, 39.057684200134261 ], [ 22.1690955, 39.057827500134309 ], [ 22.1691955, 39.058015600134311 ], [ 22.1693911, 39.058272700134353 ], [ 22.1695667, 39.058415900134378 ], [ 22.1696656, 39.058401500134359 ], [ 22.1697711, 39.05825540013435 ], [ 22.1699222, 39.058253700134358 ], [ 22.1700245, 39.058426300134371 ], [ 22.1702045, 39.058678200134409 ], [ 22.1704334, 39.058755900134408 ], [ 22.1707734, 39.058771400134418 ], [ 22.170788159363386, 39.058774556762359 ] ] } }
]
}
