{
"type": "FeatureCollection",
"name": "patch_31100_polygon",
"crs": { "type": "name", "properties": { "name": "urn:ogc:def:crs:OGC:1.3:CRS84" } },
"features": [
{ "type": "Feature", "properties": { "osm_id": -9135811, "name": "Σαρωνικός Κόλπος", "label": "natural:bay", "natural": "bay" }, "geometry": { "type": "Polygon", "coordinates": [ [ [ 23.612105759803264, 37.600245209592543 ], [ 23.641882908800362, 37.600245209592543 ], [ 23.641882908800362, 37.577840013441332 ], [ 23.612105759803264, 37.577840013441332 ], [ 23.612105759803264, 37.600245209592543 ] ] ] } }
]
}
