{
"type": "FeatureCollection",
"name": "patch_52396_linestring",
"crs": { "type": "name", "properties": { "name": "urn:ogc:def:crs:OGC:1.3:CRS84" } },
"features": [
{ "type": "Feature", "properties": { "osm_id": 340543275, "name": null, "label": "natural:cliff", "natural": "cliff" }, "geometry": { "type": "LineString", "coordinates": [ [ 21.8159887, 40.715675800359179 ], [ 21.8159887, 40.71572450035918 ], [ 21.8160485, 40.71579020035918 ], [ 21.8161021, 40.715843100359209 ], [ 21.8161236, 40.715891900359203 ], [ 21.816129, 40.7159488003592 ], [ 21.8161719, 40.715989400359199 ], [ 21.8162202, 40.716005700359204 ], [ 21.8162255, 40.716038200359208 ], [ 21.8162408, 40.716090500359208 ], [ 21.8163106, 40.716127100359223 ], [ 21.8163865, 40.716139900359224 ], [ 21.8164562, 40.716180500359236 ], [ 21.8165581, 40.716213100359248 ], [ 21.8166914, 40.716228700359238 ], [ 21.8168263, 40.716196800359235 ], [ 21.8169658, 40.716144000359222 ], [ 21.8170508, 40.716062000359223 ], [ 21.8171375, 40.715973200359201 ], [ 21.8172287, 40.7159488003592 ], [ 21.8173083, 40.715976600359213 ], [ 21.8174915, 40.716095200359227 ], [ 21.8175935, 40.716180500359236 ], [ 21.8177383, 40.716253700359246 ], [ 21.8178885, 40.716355400359248 ], [ 21.8180602, 40.716461100359275 ], [ 21.8182265, 40.716497700359277 ], [ 21.8184357, 40.716554600359281 ], [ 21.8185966, 40.71661560035929 ], [ 21.8187307, 40.716701000359301 ], [ 21.8188058, 40.716790400359308 ], [ 21.8189238, 40.716896200359322 ], [ 21.8189989, 40.71695710035933 ], [ 21.8190687, 40.716977500359349 ], [ 21.8191483, 40.716972800359329 ], [ 21.8192181, 40.716944300359337 ], [ 21.8193039, 40.716944300359337 ], [ 21.8193905, 40.717001900359335 ], [ 21.8195185, 40.717086600359345 ], [ 21.8195989, 40.717074400359351 ], [ 21.8196748, 40.717115700359351 ], [ 21.8197768, 40.717213300359347 ] ] } },
{ "type": "Feature", "properties": { "osm_id": 340543273, "name": null, "label": "natural:cliff", "natural": "cliff" }, "geometry": { "type": "LineString", "coordinates": [ [ 21.8146806, 40.710866100358594 ], [ 21.8146001, 40.710707500358588 ], [ 21.8145135, 40.710584900358562 ], [ 21.8144223, 40.710479200358556 ], [ 21.8143104, 40.710345600358536 ], [ 21.8140897, 40.710076600358512 ], [ 21.8135747, 40.709519600358441 ] ] } },
{ "type": "Feature", "properties": { "osm_id": 340543272, "name": null, "label": "natural:cliff", "natural": "cliff" }, "geometry": { "type": "LineString", "coordinates": [ [ 21.8160906, 40.712418800358783 ], [ 21.8155005, 40.711825100358723 ] ] } },
{ "type": "Feature", "properties": { "osm_id": 340543448, "name": null, "label": "natural:cliff", "natural": "cliff" }, "geometry": { "type": "LineString", "coordinates": [ [ 21.815184, 40.711752000358693 ], [ 21.8152599, 40.711878600358709 ], [ 21.8153726, 40.712004700358733 ], [ 21.8154852, 40.712126700358745 ], [ 21.8155917, 40.712244000358751 ], [ 21.8156998, 40.712334000358766 ], [ 21.8158178, 40.712435700358789 ], [ 21.8160431, 40.712655300358811 ] ] } }
]
}
