{
"type": "FeatureCollection",
"name": "patch_87243_linestring",
"crs": { "type": "name", "properties": { "name": "urn:ogc:def:crs:OGC:1.3:CRS84" } },
"features": [
{ "type": "Feature", "properties": { "@type": "way", "@id": 10131626, "abandoned": null, "access": null, "addr:country": null, "addr:housename": null, "addr:place": null, "addr:postcode": null, "air_conditioning": null, "amenity": null, "barrier": null, "board_type": null, "building": null, "cargo": null, "check_date": null, "contact:email": null, "contact:phone": null, "created_by": null, "description": null, "designation": null, "email": null, "fee": null, "ferry": null, "foot": null, "highway": null, "historic": null, "informal": null, "information": null, "int_name": null, "internet_access": null, "internet_access:fee": null, "landuse": null, "lane_markings": null, "lanes": null, "leaf_type": null, "leisure": null, "lit": null, "name": null, "name:el": null, "name:en": null, "name:ru": null, "natural": "coastline", "opening_hours": null, "parking": null, "payment:cash": null, "payment:mastercard": null, "payment:visa": null, "phone": null, "place": null, "public_transport": null, "reg_ref": null, "religion": null, "service": null, "shop": null, "source": "PGS", "source:ref": null, "source:reg_ref": null, "surface": null, "tourism": null, "tracktype": null, "wall": null, "website": null, "wikidata": null, "wikipedia": null, "label": "natural:coastline" }, "geometry": { "type": "MultiLineString", "coordinates": [ [ [ 20.555824527866182, 38.472599831443333 ], [ 20.555732, 38.4725372 ], [ 20.5556976, 38.4723721 ], [ 20.5555321, 38.4714373 ], [ 20.5553773, 38.4716533 ], [ 20.5551643, 38.471724 ], [ 20.5549991, 38.4716467 ], [ 20.5548951, 38.4716963 ], [ 20.5549772, 38.4717715 ], [ 20.5546534, 38.471809 ], [ 20.5542868, 38.4717542 ], [ 20.5541066, 38.4716333 ], [ 20.5539206, 38.471782 ], [ 20.5536569, 38.4719582 ], [ 20.5531754, 38.4718872 ], [ 20.5525801, 38.4716506 ], [ 20.5524688, 38.4718098 ], [ 20.5525595, 38.4720995 ], [ 20.5524795, 38.4721664 ], [ 20.5516045, 38.4719415 ], [ 20.5504042, 38.4718439 ], [ 20.5498674, 38.4717907 ], [ 20.5486252, 38.4714658 ], [ 20.5484846, 38.4717738 ], [ 20.5487973, 38.4719364 ], [ 20.549485779905169, 38.472599831443333 ] ], [ [ 20.539349510048162, 38.472599831443333 ], [ 20.539211, 38.4724933 ], [ 20.5388536, 38.4717239 ], [ 20.5388358, 38.4712216 ], [ 20.5390862, 38.4705177 ], [ 20.5388064, 38.4702359 ], [ 20.5381301, 38.4702883 ], [ 20.5372662, 38.470222 ], [ 20.5368744, 38.4700046 ], [ 20.5365531, 38.4690586 ], [ 20.5366658, 38.4688564 ], [ 20.5370146, 38.4685701 ], [ 20.5364246, 38.4680984 ], [ 20.5367253, 38.467785 ], [ 20.537086, 38.4675376 ], [ 20.5375238, 38.4677079 ], [ 20.5376139, 38.4676334 ], [ 20.5380367, 38.4674498 ], [ 20.5376566, 38.4666906 ], [ 20.5377015, 38.4662735 ], [ 20.5379503, 38.4660412 ], [ 20.5380893, 38.4657446 ], [ 20.5383198, 38.4652603 ], [ 20.5386818, 38.4650181 ], [ 20.539076, 38.4649188 ], [ 20.5390779, 38.4642036 ], [ 20.5394115, 38.4638545 ], [ 20.5397123, 38.4636841 ], [ 20.5400776, 38.4635473 ], [ 20.5400397, 38.4632156 ], [ 20.5402568, 38.4630497 ], [ 20.540592, 38.4631359 ], [ 20.5403247, 38.4623056 ], [ 20.5401434, 38.4616181 ], [ 20.5401919, 38.4610336 ], [ 20.5403049, 38.4605164 ], [ 20.5401533, 38.459838 ], [ 20.5404732, 38.4593358 ], [ 20.5408341, 38.4591478 ], [ 20.5410115, 38.4592612 ], [ 20.5411249, 38.4594096 ], [ 20.5412555, 38.4591461 ], [ 20.5414108, 38.4589211 ], [ 20.541546, 38.4583132 ], [ 20.5418662, 38.4577246 ], [ 20.5424054, 38.4575873 ], [ 20.5423631, 38.457261 ], [ 20.5424618, 38.4571411 ], [ 20.5422285, 38.4569756 ], [ 20.5420288, 38.4567967 ], [ 20.5420692, 38.4566662 ], [ 20.5423807, 38.4567963 ], [ 20.5421534, 38.4563424 ], [ 20.5421177, 38.4560232 ], [ 20.5420402, 38.4554523 ], [ 20.5420384, 38.454612 ], [ 20.5422101, 38.4542256 ], [ 20.5423139, 38.4536944 ], [ 20.5425324, 38.453611 ], [ 20.5427078, 38.4534398 ], [ 20.5428859, 38.4531547 ], [ 20.543092, 38.4530943 ], [ 20.5429568, 38.4525301 ], [ 20.5427841, 38.4522349 ], [ 20.5426345, 38.4519484 ], [ 20.5423969, 38.4519937 ], [ 20.5423135, 38.4519221 ], [ 20.5422647, 38.4516202 ], [ 20.542028, 38.4513196 ], [ 20.5419025, 38.4510473 ], [ 20.5419885, 38.4507671 ], [ 20.5418686, 38.4503996 ], [ 20.541678, 38.4495999 ], [ 20.541697513810341, 38.449415375323973 ] ] ] } }
]
}
