{
"type": "FeatureCollection",
"name": "patch_87243_point",
"crs": { "type": "name", "properties": { "name": "urn:ogc:def:crs:OGC:1.3:CRS84" } },
"features": [
{ "type": "Feature", "properties": { "@type": "node", "@id": 2917303856, "abandoned": null, "access": null, "addr:country": null, "addr:housename": null, "addr:place": null, "addr:postcode": null, "air_conditioning": null, "amenity": null, "barrier": null, "board_type": null, "building": null, "cargo": null, "check_date": null, "contact:email": null, "contact:phone": null, "created_by": null, "description": null, "designation": null, "email": null, "fee": null, "ferry": null, "foot": null, "highway": null, "historic": "archaeological_site", "informal": null, "information": null, "int_name": null, "internet_access": null, "internet_access:fee": null, "landuse": null, "lane_markings": null, "lanes": null, "leaf_type": null, "leisure": null, "lit": null, "name": "WW2 gun emplacement", "name:el": null, "name:en": null, "name:ru": null, "natural": null, "opening_hours": null, "parking": null, "payment:cash": null, "payment:mastercard": null, "payment:visa": null, "phone": null, "place": null, "public_transport": null, "reg_ref": null, "religion": null, "service": null, "shop": null, "source": null, "source:ref": null, "source:reg_ref": null, "surface": null, "tourism": null, "tracktype": null, "wall": null, "website": null, "wikidata": null, "wikipedia": null, "label": "historic:archaeological_site" }, "geometry": { "type": "Point", "coordinates": [ 20.541081, 38.4711264 ] } },
{ "type": "Feature", "properties": { "@type": "node", "@id": 2917303857, "abandoned": null, "access": null, "addr:country": null, "addr:housename": null, "addr:place": null, "addr:postcode": null, "air_conditioning": null, "amenity": null, "barrier": null, "board_type": null, "building": null, "cargo": null, "check_date": null, "contact:email": null, "contact:phone": null, "created_by": null, "description": null, "designation": null, "email": null, "fee": null, "ferry": null, "foot": null, "highway": null, "historic": "archaeological_site", "informal": null, "information": null, "int_name": null, "internet_access": null, "internet_access:fee": null, "landuse": null, "lane_markings": null, "lanes": null, "leaf_type": null, "leisure": null, "lit": null, "name": "WW2 gun emplacement", "name:el": null, "name:en": null, "name:ru": null, "natural": null, "opening_hours": null, "parking": null, "payment:cash": null, "payment:mastercard": null, "payment:visa": null, "phone": null, "place": null, "public_transport": null, "reg_ref": null, "religion": null, "service": null, "shop": null, "source": null, "source:ref": null, "source:reg_ref": null, "surface": null, "tourism": null, "tracktype": null, "wall": null, "website": null, "wikidata": null, "wikipedia": null, "label": "historic:archaeological_site" }, "geometry": { "type": "Point", "coordinates": [ 20.5418238, 38.4713803 ] } },
{ "type": "Feature", "properties": { "@type": "node", "@id": 2917306116, "abandoned": null, "access": null, "addr:country": null, "addr:housename": null, "addr:place": null, "addr:postcode": null, "air_conditioning": null, "amenity": null, "barrier": null, "board_type": null, "building": null, "cargo": null, "check_date": null, "contact:email": null, "contact:phone": null, "created_by": null, "description": null, "designation": null, "email": null, "fee": null, "ferry": null, "foot": null, "highway": null, "historic": null, "informal": null, "information": null, "int_name": null, "internet_access": null, "internet_access:fee": null, "landuse": null, "lane_markings": null, "lanes": null, "leaf_type": null, "leisure": null, "lit": null, "name": null, "name:el": null, "name:en": null, "name:ru": null, "natural": null, "opening_hours": null, "parking": null, "payment:cash": null, "payment:mastercard": null, "payment:visa": null, "phone": null, "place": null, "public_transport": null, "reg_ref": null, "religion": null, "service": null, "shop": null, "source": null, "source:ref": null, "source:reg_ref": null, "surface": null, "tourism": "viewpoint", "tracktype": null, "wall": null, "website": null, "wikidata": null, "wikipedia": null, "label": "tourism:viewpoint" }, "geometry": { "type": "Point", "coordinates": [ 20.5409255, 38.4705727 ] } },
{ "type": "Feature", "properties": { "@type": "node", "@id": 2917306117, "abandoned": null, "access": "yes", "addr:country": null, "addr:housename": null, "addr:place": null, "addr:postcode": null, "air_conditioning": null, "amenity": "parking", "barrier": null, "board_type": null, "building": null, "cargo": null, "check_date": null, "contact:email": null, "contact:phone": null, "created_by": null, "description": null, "designation": null, "email": null, "fee": "no", "ferry": null, "foot": null, "highway": null, "historic": null, "informal": null, "information": null, "int_name": null, "internet_access": null, "internet_access:fee": null, "landuse": null, "lane_markings": null, "lanes": null, "leaf_type": null, "leisure": null, "lit": null, "name": null, "name:el": null, "name:en": null, "name:ru": null, "natural": null, "opening_hours": null, "parking": "lane", "payment:cash": null, "payment:mastercard": null, "payment:visa": null, "phone": null, "place": null, "public_transport": null, "reg_ref": null, "religion": null, "service": null, "shop": null, "source": null, "source:ref": null, "source:reg_ref": null, "surface": null, "tourism": null, "tracktype": null, "wall": null, "website": null, "wikidata": null, "wikipedia": null, "label": "amenity:parking" }, "geometry": { "type": "Point", "coordinates": [ 20.5439334, 38.4705849 ] } },
{ "type": "Feature", "properties": { "@type": "node", "@id": 2921511453, "abandoned": null, "access": null, "addr:country": null, "addr:housename": null, "addr:place": null, "addr:postcode": null, "air_conditioning": null, "amenity": null, "barrier": null, "board_type": "Walking Route Map and Description", "building": null, "cargo": null, "check_date": null, "contact:email": null, "contact:phone": null, "created_by": null, "description": null, "designation": null, "email": null, "fee": null, "ferry": null, "foot": null, "highway": null, "historic": null, "informal": null, "information": "board", "int_name": null, "internet_access": null, "internet_access:fee": null, "landuse": null, "lane_markings": null, "lanes": null, "leaf_type": null, "leisure": null, "lit": null, "name": "Fiscardo Walking Routes", "name:el": null, "name:en": null, "name:ru": null, "natural": null, "opening_hours": null, "parking": null, "payment:cash": null, "payment:mastercard": null, "payment:visa": null, "phone": null, "place": null, "public_transport": null, "reg_ref": null, "religion": null, "service": null, "shop": null, "source": null, "source:ref": null, "source:reg_ref": null, "surface": null, "tourism": "information", "tracktype": null, "wall": null, "website": null, "wikidata": null, "wikipedia": null, "label": "tourism:information" }, "geometry": { "type": "Point", "coordinates": [ 20.5530116, 38.4624522 ] } },
{ "type": "Feature", "properties": { "@type": "node", "@id": 2921512464, "abandoned": null, "access": null, "addr:country": null, "addr:housename": null, "addr:place": null, "addr:postcode": null, "air_conditioning": null, "amenity": "telephone", "barrier": null, "board_type": null, "building": null, "cargo": null, "check_date": "2023-08-28T00:00:00", "contact:email": null, "contact:phone": null, "created_by": null, "description": null, "designation": null, "email": null, "fee": null, "ferry": null, "foot": null, "highway": null, "historic": null, "informal": null, "information": null, "int_name": null, "internet_access": null, "internet_access:fee": null, "landuse": null, "lane_markings": null, "lanes": null, "leaf_type": null, "leisure": null, "lit": null, "name": null, "name:el": null, "name:en": null, "name:ru": null, "natural": null, "opening_hours": null, "parking": null, "payment:cash": null, "payment:mastercard": null, "payment:visa": null, "phone": null, "place": null, "public_transport": null, "reg_ref": null, "religion": null, "service": null, "shop": null, "source": null, "source:ref": null, "source:reg_ref": null, "surface": null, "tourism": null, "tracktype": null, "wall": null, "website": null, "wikidata": null, "wikipedia": null, "label": "amenity:telephone" }, "geometry": { "type": "Point", "coordinates": [ 20.5530245, 38.4624836 ] } },
{ "type": "Feature", "properties": { "@type": "node", "@id": 2925344569, "abandoned": null, "access": null, "addr:country": null, "addr:housename": null, "addr:place": null, "addr:postcode": null, "air_conditioning": null, "amenity": null, "barrier": null, "board_type": null, "building": null, "cargo": null, "check_date": null, "contact:email": null, "contact:phone": null, "created_by": null, "description": null, "designation": null, "email": null, "fee": null, "ferry": null, "foot": null, "highway": null, "historic": null, "informal": null, "information": "guidepost", "int_name": null, "internet_access": null, "internet_access:fee": null, "landuse": null, "lane_markings": null, "lanes": null, "leaf_type": null, "leisure": null, "lit": null, "name": null, "name:el": null, "name:en": null, "name:ru": null, "natural": null, "opening_hours": null, "parking": null, "payment:cash": null, "payment:mastercard": null, "payment:visa": null, "phone": null, "place": null, "public_transport": null, "reg_ref": null, "religion": null, "service": null, "shop": null, "source": "survey;gps", "source:ref": null, "source:reg_ref": null, "surface": null, "tourism": "information", "tracktype": null, "wall": null, "website": null, "wikidata": null, "wikipedia": null, "label": "tourism:information" }, "geometry": { "type": "Point", "coordinates": [ 20.5518254, 38.4583495 ] } },
{ "type": "Feature", "properties": { "@type": "node", "@id": 2925344723, "abandoned": null, "access": null, "addr:country": null, "addr:housename": null, "addr:place": null, "addr:postcode": null, "air_conditioning": null, "amenity": null, "barrier": null, "board_type": null, "building": null, "cargo": null, "check_date": null, "contact:email": null, "contact:phone": null, "created_by": null, "description": null, "designation": null, "email": null, "fee": null, "ferry": null, "foot": null, "highway": null, "historic": null, "informal": null, "information": "guidepost", "int_name": null, "internet_access": null, "internet_access:fee": null, "landuse": null, "lane_markings": null, "lanes": null, "leaf_type": null, "leisure": null, "lit": null, "name": null, "name:el": null, "name:en": null, "name:ru": null, "natural": null, "opening_hours": null, "parking": null, "payment:cash": null, "payment:mastercard": null, "payment:visa": null, "phone": null, "place": null, "public_transport": null, "reg_ref": null, "religion": null, "service": null, "shop": null, "source": "survey;gps", "source:ref": null, "source:reg_ref": null, "surface": null, "tourism": "information", "tracktype": null, "wall": null, "website": null, "wikidata": null, "wikipedia": null, "label": "tourism:information" }, "geometry": { "type": "Point", "coordinates": [ 20.5462474, 38.4589001 ] } },
{ "type": "Feature", "properties": { "@type": "node", "@id": 2926477554, "abandoned": null, "access": null, "addr:country": null, "addr:housename": null, "addr:place": null, "addr:postcode": null, "air_conditioning": null, "amenity": null, "barrier": null, "board_type": null, "building": null, "cargo": null, "check_date": null, "contact:email": null, "contact:phone": null, "created_by": null, "description": null, "designation": null, "email": null, "fee": null, "ferry": null, "foot": null, "highway": null, "historic": null, "informal": null, "information": "guidepost", "int_name": null, "internet_access": null, "internet_access:fee": null, "landuse": null, "lane_markings": null, "lanes": null, "leaf_type": null, "leisure": null, "lit": null, "name": null, "name:el": null, "name:en": null, "name:ru": null, "natural": null, "opening_hours": null, "parking": null, "payment:cash": null, "payment:mastercard": null, "payment:visa": null, "phone": null, "place": null, "public_transport": null, "reg_ref": null, "religion": null, "service": null, "shop": null, "source": "survey;gps", "source:ref": null, "source:reg_ref": null, "surface": null, "tourism": "information", "tracktype": null, "wall": null, "website": null, "wikidata": null, "wikipedia": null, "label": "tourism:information" }, "geometry": { "type": "Point", "coordinates": [ 20.5468506, 38.4667183 ] } },
{ "type": "Feature", "properties": { "@type": "node", "@id": 2926477557, "abandoned": null, "access": null, "addr:country": null, "addr:housename": null, "addr:place": null, "addr:postcode": null, "air_conditioning": null, "amenity": null, "barrier": null, "board_type": null, "building": null, "cargo": null, "check_date": null, "contact:email": null, "contact:phone": null, "created_by": null, "description": null, "designation": null, "email": null, "fee": null, "ferry": null, "foot": null, "highway": null, "historic": null, "informal": null, "information": "guidepost", "int_name": null, "internet_access": null, "internet_access:fee": null, "landuse": null, "lane_markings": null, "lanes": null, "leaf_type": null, "leisure": null, "lit": null, "name": null, "name:el": null, "name:en": null, "name:ru": null, "natural": null, "opening_hours": null, "parking": null, "payment:cash": null, "payment:mastercard": null, "payment:visa": null, "phone": null, "place": null, "public_transport": null, "reg_ref": null, "religion": null, "service": null, "shop": null, "source": "survey;gps", "source:ref": null, "source:reg_ref": null, "surface": null, "tourism": "information", "tracktype": null, "wall": null, "website": null, "wikidata": null, "wikipedia": null, "label": "tourism:information" }, "geometry": { "type": "Point", "coordinates": [ 20.5425206, 38.4712459 ] } },
{ "type": "Feature", "properties": { "@type": "node", "@id": 4246735333, "abandoned": null, "access": null, "addr:country": null, "addr:housename": null, "addr:place": null, "addr:postcode": null, "air_conditioning": null, "amenity": null, "barrier": null, "board_type": null, "building": null, "cargo": null, "check_date": null, "contact:email": null, "contact:phone": null, "created_by": null, "description": null, "designation": null, "email": null, "fee": null, "ferry": null, "foot": null, "highway": null, "historic": null, "informal": null, "information": null, "int_name": null, "internet_access": null, "internet_access:fee": null, "landuse": null, "lane_markings": null, "lanes": null, "leaf_type": null, "leisure": null, "lit": null, "name": "Dafnoudi Hotel Apartments", "name:el": null, "name:en": null, "name:ru": null, "natural": null, "opening_hours": null, "parking": null, "payment:cash": null, "payment:mastercard": null, "payment:visa": null, "phone": null, "place": null, "public_transport": null, "reg_ref": null, "religion": null, "service": null, "shop": null, "source": null, "source:ref": null, "source:reg_ref": null, "surface": null, "tourism": "hotel", "tracktype": null, "wall": null, "website": null, "wikidata": null, "wikipedia": null, "label": "tourism:hotel" }, "geometry": { "type": "Point", "coordinates": [ 20.5518873, 38.4602043 ] } },
{ "type": "Feature", "properties": { "@type": "node", "@id": 6759013715, "abandoned": null, "access": null, "addr:country": "GR", "addr:housename": null, "addr:place": "Steliata", "addr:postcode": null, "air_conditioning": "yes", "amenity": null, "barrier": null, "board_type": null, "building": null, "cargo": null, "check_date": null, "contact:email": null, "contact:phone": null, "created_by": null, "description": "Villa Gaia & Villa Nemus are situated in a small village called Steliata at the northern part of Kefalonia. Both Villas are recently restored olive oil mills, built of traditional stone and dating back to 1895.", "designation": null, "email": "villas@steliata.gr", "fee": null, "ferry": null, "foot": null, "highway": null, "historic": null, "informal": null, "information": null, "int_name": null, "internet_access": "wlan", "internet_access:fee": "customers", "landuse": null, "lane_markings": null, "lanes": null, "leaf_type": null, "leisure": null, "lit": null, "name": "Fiscardo Stone Villas Gaia & Nemus", "name:el": null, "name:en": null, "name:ru": null, "natural": null, "opening_hours": null, "parking": null, "payment:cash": "yes", "payment:mastercard": "yes", "payment:visa": "yes", "phone": "+306934216620", "place": null, "public_transport": null, "reg_ref": null, "religion": null, "service": null, "shop": null, "source": null, "source:ref": null, "source:reg_ref": null, "surface": null, "tourism": "chalet", "tracktype": null, "wall": null, "website": "https://www.steliata.gr", "wikidata": null, "wikipedia": null, "label": "tourism:chalet" }, "geometry": { "type": "Point", "coordinates": [ 20.5503499, 38.4506473 ] } },
{ "type": "Feature", "properties": { "@type": "node", "@id": 9064282177, "abandoned": null, "access": null, "addr:country": null, "addr:housename": null, "addr:place": null, "addr:postcode": null, "air_conditioning": null, "amenity": null, "barrier": null, "board_type": null, "building": null, "cargo": null, "check_date": null, "contact:email": null, "contact:phone": null, "created_by": null, "description": null, "designation": null, "email": null, "fee": null, "ferry": null, "foot": null, "highway": null, "historic": "archaeological_site", "informal": null, "information": null, "int_name": null, "internet_access": null, "internet_access:fee": null, "landuse": null, "lane_markings": null, "lanes": null, "leaf_type": null, "leisure": null, "lit": null, "name": "WW2 Gun Emplacement", "name:el": null, "name:en": null, "name:ru": null, "natural": null, "opening_hours": null, "parking": null, "payment:cash": null, "payment:mastercard": null, "payment:visa": null, "phone": null, "place": null, "public_transport": null, "reg_ref": null, "religion": null, "service": null, "shop": null, "source": null, "source:ref": null, "source:reg_ref": null, "surface": null, "tourism": null, "tracktype": null, "wall": null, "website": null, "wikidata": null, "wikipedia": null, "label": "historic:archaeological_site" }, "geometry": { "type": "Point", "coordinates": [ 20.5416143, 38.4710237 ] } }
]
}
