{
"type": "FeatureCollection",
"name": "patch_73309_features",
"crs": { "type": "name", "properties": { "name": "urn:ogc:def:crs:OGC:1.3:CRS84" } },
"features": [
{ "type": "Feature", "properties": { "osm_id": 677355487, "name": "Η Ταβέρνα του Χασάπη", "label": "amenity:restaurant;building:yes", "amenity": "restaurant", "building": "yes", "landuse": null, "sport": null, "leisure": null, "natural": null, "waterway": null }, "geometry": { "type": "Polygon", "coordinates": [ [ [ 24.3761341, 41.026531400395108 ], [ 24.3763232, 41.026530300395081 ], [ 24.376283, 41.026344200395066 ], [ 24.3761019, 41.026352300395075 ], [ 24.3761341, 41.026531400395108 ] ] ] } },
{ "type": "Feature", "properties": { "osm_id": 622349585, "name": "Ιερός Ναός Αγίας Τριάδος", "label": "amenity:place_of_worship;building:church", "amenity": "place_of_worship", "building": "church", "landuse": null, "sport": null, "leisure": null, "natural": null, "waterway": null }, "geometry": { "type": "Polygon", "coordinates": [ [ [ 24.3767738, 41.026270300395083 ], [ 24.3768104, 41.026182500395059 ], [ 24.3765797, 41.026127900395068 ], [ 24.3765432, 41.02621570039507 ], [ 24.3767738, 41.026270300395083 ] ] ] } },
{ "type": "Feature", "properties": { "osm_id": 681403064, "name": null, "label": "building:house", "amenity": null, "building": "house", "landuse": null, "sport": null, "leisure": null, "natural": null, "waterway": null }, "geometry": { "type": "Polygon", "coordinates": [ [ [ 24.3766213, 41.022917600394706 ], [ 24.3766749, 41.022808300394686 ], [ 24.3765365, 41.022769600394682 ], [ 24.3764828, 41.022878900394709 ], [ 24.3766213, 41.022917600394706 ] ] ] } },
{ "type": "Feature", "properties": { "osm_id": 681437740, "name": null, "label": "building:house", "amenity": null, "building": "house", "landuse": null, "sport": null, "leisure": null, "natural": null, "waterway": null }, "geometry": { "type": "Polygon", "coordinates": [ [ [ 24.3766476, 41.022447700394643 ], [ 24.3766923, 41.022357900394645 ], [ 24.376554, 41.022318700394635 ], [ 24.3765094, 41.022408500394633 ], [ 24.3766476, 41.022447700394643 ] ] ] } },
{ "type": "Feature", "properties": { "osm_id": 681403065, "name": null, "label": "building:house", "amenity": null, "building": "house", "landuse": null, "sport": null, "leisure": null, "natural": null, "waterway": null }, "geometry": { "type": "Polygon", "coordinates": [ [ [ 24.3755646, 41.022921000394696 ], [ 24.3756236, 41.022789500394701 ], [ 24.3754823, 41.022753400394677 ], [ 24.3754233, 41.022885000394702 ], [ 24.3755646, 41.022921000394696 ] ] ] } },
{ "type": "Feature", "properties": { "osm_id": 247861123, "name": null, "label": "amenity:grave_yard", "amenity": "grave_yard", "building": null, "landuse": null, "sport": null, "leisure": null, "natural": null, "waterway": null }, "geometry": { "type": "Polygon", "coordinates": [ [ [ 24.3773489, 41.014587900393785 ], [ 24.3774374, 41.014485700393763 ], [ 24.3780185, 41.014742500393787 ], [ 24.3783891, 41.014195700393735 ], [ 24.3782428, 41.014124800393716 ], [ 24.3778156, 41.013987800393721 ], [ 24.3777378, 41.013995900393695 ], [ 24.3776869, 41.014052600393697 ], [ 24.3776144, 41.014024300393707 ], [ 24.3776279, 41.013937200393698 ], [ 24.3775715, 41.01390490039369 ], [ 24.3772148, 41.013783400393692 ], [ 24.3768259, 41.01428940039375 ], [ 24.3773489, 41.014587900393785 ] ] ] } },
{ "type": "Feature", "properties": { "osm_id": 681140576, "name": "Δημοτικό Σχολείο Ζυγού Καβάλας", "label": "amenity:school", "amenity": "school", "building": null, "landuse": null, "sport": null, "leisure": null, "natural": null, "waterway": null }, "geometry": { "type": "Polygon", "coordinates": [ [ [ 24.3833037, 41.013335000393624 ], [ 24.38331259806532, 41.013325748458165 ], [ 24.383288113147994, 41.013325748458165 ], [ 24.3833037, 41.013335000393624 ] ] ] } },
{ "type": "Feature", "properties": { "osm_id": 30594323, "name": null, "label": "landuse:residential", "amenity": null, "building": null, "landuse": "residential", "sport": null, "leisure": null, "natural": null, "waterway": null }, "geometry": { "type": "Polygon", "coordinates": [ [ [ 24.3785878, 41.013718600393666 ], [ 24.3780185, 41.014742500393787 ], [ 24.3776762, 41.014633000393779 ], [ 24.3777496, 41.015178800393855 ], [ 24.3772035, 41.015621500393891 ], [ 24.3776381, 41.015879700393924 ], [ 24.37787, 41.015645000393889 ], [ 24.3783799, 41.01772500039413 ], [ 24.3793493, 41.018440900394197 ], [ 24.3789549, 41.019506400394327 ], [ 24.3798992, 41.020075500394391 ], [ 24.3795907, 41.020420000394438 ], [ 24.3812973, 41.021195300394517 ], [ 24.3822113, 41.02163570039454 ], [ 24.3830875, 41.022570100394667 ], [ 24.3846371, 41.023222900394735 ], [ 24.3865758, 41.024116700394835 ], [ 24.3880307, 41.024689800394889 ], [ 24.3892906, 41.022842500394702 ], [ 24.3884308, 41.02246990039464 ], [ 24.3886599, 41.022021300394591 ], [ 24.3875722, 41.021403600394542 ], [ 24.3860951, 41.020771100394462 ], [ 24.3857193, 41.021341800394524 ], [ 24.3838921, 41.020573600394435 ], [ 24.3854509, 41.018217900394177 ], [ 24.3863574, 41.017166100394057 ], [ 24.3861697, 41.016447800393991 ], [ 24.3851931, 41.015426800393868 ], [ 24.3844973, 41.014492300393762 ], [ 24.3841407, 41.01377060039367 ], [ 24.3845109, 41.013369200393655 ], [ 24.384616902141296, 41.013325748458165 ], [ 24.377318867756259, 41.013325748458165 ], [ 24.3785878, 41.013718600393666 ] ] ] } },
{ "type": "Feature", "properties": { "osm_id": 247861111, "name": "Γήπεδο Α.Μ.Σ. Άρη Ζυγού", "label": "sport:soccer;leisure:pitch", "amenity": null, "building": null, "landuse": null, "sport": "soccer", "leisure": "pitch", "natural": null, "waterway": null }, "geometry": { "type": "Polygon", "coordinates": [ [ [ 24.3812945, 41.021076200394496 ], [ 24.381631, 41.020583000394438 ], [ 24.3805939, 41.020180200394393 ], [ 24.3802574, 41.020673400394465 ], [ 24.3812945, 41.021076200394496 ] ] ] } },
{ "type": "Feature", "properties": { "osm_id": 247847027, "name": "Δημοτικό Γήπεδο Κρυονερίου", "label": "sport:soccer;leisure:pitch", "amenity": null, "building": null, "landuse": null, "sport": "soccer", "leisure": "pitch", "natural": null, "waterway": null }, "geometry": { "type": "Polygon", "coordinates": [ [ [ 24.379347, 41.021453800394553 ], [ 24.3795776, 41.020921900394477 ], [ 24.3784093, 41.02063360039444 ], [ 24.3781787, 41.021165500394517 ], [ 24.379347, 41.021453800394553 ] ] ] } },
{ "type": "Feature", "properties": { "osm_id": 681437742, "name": null, "label": "building:house", "amenity": null, "building": "house", "landuse": null, "sport": null, "leisure": null, "natural": null, "waterway": null }, "geometry": { "type": "Polygon", "coordinates": [ [ [ 24.3778567, 41.02498460039493 ], [ 24.3778929, 41.024874300394913 ], [ 24.3777837, 41.024853900394923 ], [ 24.3777475, 41.024964200394926 ], [ 24.3778567, 41.02498460039493 ] ] ] } },
{ "type": "Feature", "properties": { "osm_id": 681437741, "name": null, "label": "building:house", "amenity": null, "building": "house", "landuse": null, "sport": null, "leisure": null, "natural": null, "waterway": null }, "geometry": { "type": "Polygon", "coordinates": [ [ [ 24.377891, 41.022479200394649 ], [ 24.3779369, 41.022363400394646 ], [ 24.37778, 41.022327900394629 ], [ 24.3777341, 41.022443800394655 ], [ 24.377891, 41.022479200394649 ] ] ] } },
{ "type": "Feature", "properties": { "osm_id": 677354199, "name": null, "label": "building:roof", "amenity": null, "building": "roof", "landuse": null, "sport": null, "leisure": null, "natural": null, "waterway": null }, "geometry": { "type": "Polygon", "coordinates": [ [ [ 24.3796117, 41.02201800039461 ], [ 24.3796423, 41.021952100394579 ], [ 24.3795995, 41.021940800394596 ], [ 24.3795689, 41.022006700394599 ], [ 24.3796117, 41.02201800039461 ] ] ] } },
{ "type": "Feature", "properties": { "osm_id": 681401631, "name": null, "label": "building:yes", "amenity": null, "building": "yes", "landuse": null, "sport": null, "leisure": null, "natural": null, "waterway": null }, "geometry": { "type": "Polygon", "coordinates": [ [ [ 24.3812116, 41.022209100394619 ], [ 24.3812471, 41.022130700394605 ], [ 24.3810862, 41.02208920039461 ], [ 24.3810507, 41.022167600394624 ], [ 24.3812116, 41.022209100394619 ] ] ] } },
{ "type": "Feature", "properties": { "osm_id": 681407113, "name": null, "label": "building:house", "amenity": null, "building": "house", "landuse": null, "sport": null, "leisure": null, "natural": null, "waterway": null }, "geometry": { "type": "Polygon", "coordinates": [ [ [ 24.3811271, 41.025146800394964 ], [ 24.3811682, 41.025078700394928 ], [ 24.381077, 41.025047300394945 ], [ 24.3810359, 41.025115400394945 ], [ 24.3811271, 41.025146800394964 ] ] ] } },
{ "type": "Feature", "properties": { "osm_id": 247844813, "name": null, "label": "landuse:residential", "amenity": null, "building": null, "landuse": "residential", "sport": null, "leisure": null, "natural": null, "waterway": null }, "geometry": { "type": "Polygon", "coordinates": [ [ [ 24.3761845, 41.029399400395434 ], [ 24.3794772, 41.029497000395438 ], [ 24.381015, 41.029215000395403 ], [ 24.3818068, 41.027415700395203 ], [ 24.3825488, 41.027653500395225 ], [ 24.3835967, 41.027471600395216 ], [ 24.3847858, 41.026911000395145 ], [ 24.3851635, 41.025903300395022 ], [ 24.3846785, 41.025130300394949 ], [ 24.3839833, 41.024203600394856 ], [ 24.3832538, 41.023102800394732 ], [ 24.3825456, 41.022228600394619 ], [ 24.3797014, 41.021425700394538 ], [ 24.3796329, 41.021555700394558 ], [ 24.3773529, 41.021063000394498 ], [ 24.3763015, 41.021338200394538 ], [ 24.3754088, 41.021827900394584 ], [ 24.375331847300298, 41.021813639793677 ], [ 24.375331847300298, 41.02948392336819 ], [ 24.3761845, 41.029399400395434 ] ] ] } },
{ "type": "Feature", "properties": { "osm_id": 681401634, "name": null, "label": "building:house", "amenity": null, "building": "house", "landuse": null, "sport": null, "leisure": null, "natural": null, "waterway": null }, "geometry": { "type": "Polygon", "coordinates": [ [ [ 24.3798685, 41.025915100395032 ], [ 24.3799355, 41.025812900395032 ], [ 24.3798383, 41.025776600395019 ], [ 24.3797712, 41.025878800395027 ], [ 24.3798685, 41.025915100395032 ] ] ] } },
{ "type": "Feature", "properties": { "osm_id": 681401633, "name": null, "label": "building:house", "amenity": null, "building": "house", "landuse": null, "sport": null, "leisure": null, "natural": null, "waterway": null }, "geometry": { "type": "Polygon", "coordinates": [ [ [ 24.3802339, 41.026132700395067 ], [ 24.3802803, 41.02607110039505 ], [ 24.3801717, 41.026024500395046 ], [ 24.3801253, 41.026086200395063 ], [ 24.3802339, 41.026132700395067 ] ] ] } },
{ "type": "Feature", "properties": { "osm_id": 681401632, "name": null, "label": "building:house", "amenity": null, "building": "house", "landuse": null, "sport": null, "leisure": null, "natural": null, "waterway": null }, "geometry": { "type": "Polygon", "coordinates": [ [ [ 24.3806803, 41.025756600395013 ], [ 24.380738, 41.025671600395007 ], [ 24.3806483, 41.025637000395001 ], [ 24.3805906, 41.025722000395007 ], [ 24.3806803, 41.025756600395013 ] ] ] } },
{ "type": "Feature", "properties": { "osm_id": 681401635, "name": null, "label": "building:house", "amenity": null, "building": "house", "landuse": null, "sport": null, "leisure": null, "natural": null, "waterway": null }, "geometry": { "type": "Polygon", "coordinates": [ [ [ 24.3777986, 41.026549200395102 ], [ 24.3778214, 41.026437900395095 ], [ 24.3777032, 41.026424100395083 ], [ 24.3776804, 41.026535400395105 ], [ 24.3777986, 41.026549200395102 ] ] ] } },
{ "type": "Feature", "properties": { "osm_id": 681444582, "name": null, "label": "building:yes", "amenity": null, "building": "yes", "landuse": null, "sport": null, "leisure": null, "natural": null, "waterway": null }, "geometry": { "type": "Polygon", "coordinates": [ [ [ 24.3767494, 41.026592200395115 ], [ 24.3768098, 41.026475800395097 ], [ 24.3767135, 41.026447400395107 ], [ 24.3766531, 41.026563700395094 ], [ 24.3767494, 41.026592200395115 ] ] ] } },
{ "type": "Feature", "properties": { "osm_id": 681444583, "name": null, "label": "building:yes", "amenity": null, "building": "yes", "landuse": null, "sport": null, "leisure": null, "natural": null, "waterway": null }, "geometry": { "type": "Polygon", "coordinates": [ [ [ 24.3771173, 41.026657000395119 ], [ 24.3771601, 41.026565800395119 ], [ 24.3768114, 41.026472700395104 ], [ 24.3767686, 41.026563900395104 ], [ 24.3771173, 41.026657000395119 ] ] ] } },
{ "type": "Feature", "properties": { "osm_id": 681407114, "name": null, "label": "building:house", "amenity": null, "building": "house", "landuse": null, "sport": null, "leisure": null, "natural": null, "waterway": null }, "geometry": { "type": "Polygon", "coordinates": [ [ [ 24.3814501, 41.026635800395113 ], [ 24.3815049, 41.026522300395108 ], [ 24.3813816, 41.026488500395097 ], [ 24.3813268, 41.026602000395108 ], [ 24.3814501, 41.026635800395113 ] ] ] } },
{ "type": "Feature", "properties": { "osm_id": 681401629, "name": null, "label": "building:roof", "amenity": null, "building": "roof", "landuse": null, "sport": null, "leisure": null, "natural": null, "waterway": null }, "geometry": { "type": "Polygon", "coordinates": [ [ [ 24.3812929, 41.022103400394613 ], [ 24.3813458, 41.021988000394607 ], [ 24.3812799, 41.021970800394591 ], [ 24.381227, 41.02208610039461 ], [ 24.3812929, 41.022103400394613 ] ] ] } },
{ "type": "Feature", "properties": { "osm_id": 136783244, "name": null, "label": "natural:wood", "amenity": null, "building": null, "landuse": null, "sport": null, "leisure": null, "natural": "wood", "waterway": null }, "geometry": { "type": "Polygon", "coordinates": [ [ [ 24.38381, 41.013670000393674 ], [ 24.384148, 41.014615000393775 ], [ 24.385406, 41.015873000393917 ], [ 24.385827, 41.016629000394005 ], [ 24.385833, 41.017765000394121 ], [ 24.38582, 41.017840000394152 ], [ 24.386669, 41.018141000394166 ], [ 24.390922, 41.018632000394213 ], [ 24.391444, 41.018689000394239 ], [ 24.391987, 41.01874800039424 ], [ 24.392162, 41.018742000394248 ], [ 24.392359, 41.018735000394237 ], [ 24.392959, 41.017689000394128 ], [ 24.393454, 41.016930000394034 ], [ 24.394618, 41.016463000393983 ], [ 24.395338, 41.016040000393922 ], [ 24.396337, 41.01591000039393 ], [ 24.396715, 41.015708000393886 ], [ 24.397445, 41.015317000393864 ], [ 24.397719, 41.014769000393798 ], [ 24.397438, 41.014181000393734 ], [ 24.397935, 41.013675000393675 ], [ 24.397982100430397, 41.013325748458165 ], [ 24.384034607205241, 41.013325748458165 ], [ 24.38381, 41.013670000393674 ] ] ] } },
{ "type": "Feature", "properties": { "osm_id": 136783218, "name": null, "label": "natural:wood", "amenity": null, "building": null, "landuse": null, "sport": null, "leisure": null, "natural": "wood", "waterway": null }, "geometry": { "type": "Polygon", "coordinates": [ [ [ 24.397935, 41.013675000393675 ], [ 24.397438, 41.014181000393734 ], [ 24.397719, 41.014769000393798 ], [ 24.397445, 41.015317000393864 ], [ 24.396715, 41.015708000393886 ], [ 24.397162, 41.01575200039391 ], [ 24.399041, 41.015460000393858 ], [ 24.399569, 41.015636000393897 ], [ 24.399625, 41.015394000393876 ], [ 24.399862, 41.015119000393838 ], [ 24.40022, 41.014862000393812 ], [ 24.400579, 41.014677000393789 ], [ 24.401, 41.014536000393775 ], [ 24.40139, 41.014440000393762 ], [ 24.401781, 41.01432200039374 ], [ 24.402262, 41.014204000393732 ], [ 24.402652, 41.014086000393718 ], [ 24.403074, 41.014013000393696 ], [ 24.403405, 41.013917000393697 ], [ 24.403765, 41.013777000393695 ], [ 24.404337, 41.013658000393669 ], [ 24.404841025290153, 41.013380191183209 ], [ 24.404841025290153, 41.013325748458165 ], [ 24.397982100430397, 41.013325748458165 ], [ 24.397935, 41.013675000393675 ] ] ] } },
{ "type": "Feature", "properties": { "osm_id": 136787411, "name": null, "label": "natural:wood", "amenity": null, "building": null, "landuse": null, "sport": null, "leisure": null, "natural": "wood", "waterway": null }, "geometry": { "type": "Polygon", "coordinates": [ [ [ 24.404525, 41.032717000395785 ], [ 24.404104, 41.032835000395806 ], [ 24.403473, 41.033003000395823 ], [ 24.40287, 41.033145000395834 ], [ 24.401908, 41.033381000395863 ], [ 24.401323, 41.033567000395891 ], [ 24.400854, 41.033551000395896 ], [ 24.400429, 41.033489000395889 ], [ 24.399793, 41.033379000395861 ], [ 24.399195, 41.033258000395854 ], [ 24.39818, 41.03255100039577 ], [ 24.396498, 41.031952000395705 ], [ 24.39466, 41.031958000395704 ], [ 24.393462, 41.032144000395725 ], [ 24.392431, 41.032681000395776 ], [ 24.392347, 41.0328740003958 ], [ 24.392113, 41.03378200039591 ], [ 24.392358, 41.034689000396 ], [ 24.392538, 41.035257000396079 ], [ 24.392789, 41.035459000396102 ], [ 24.393369, 41.035821000396119 ], [ 24.394258, 41.036520000396209 ], [ 24.394687, 41.036833000396243 ], [ 24.394993, 41.03703900039627 ], [ 24.395008107317196, 41.03705204464827 ], [ 24.404841025290153, 41.03705204464827 ], [ 24.404841025290153, 41.032616968240355 ], [ 24.404525, 41.032717000395785 ] ] ] } },
{ "type": "Feature", "properties": { "osm_id": 864496556, "name": null, "label": "waterway:stream", "amenity": null, "building": null, "landuse": null, "sport": null, "leisure": null, "natural": null, "waterway": "stream" }, "geometry": { "type": "LineString", "coordinates": [ [ 24.3756371, 41.02358860039476 ], [ 24.3757339, 41.023531900394779 ] ] } },
{ "type": "Feature", "properties": { "osm_id": 864496562, "name": null, "label": "waterway:stream", "amenity": null, "building": null, "landuse": null, "sport": null, "leisure": null, "natural": null, "waterway": "stream" }, "geometry": { "type": "LineString", "coordinates": [ [ 24.3761269, 41.022883000394707 ], [ 24.3761642, 41.022803300394685 ] ] } },
{ "type": "Feature", "properties": { "osm_id": 864496560, "name": null, "label": "waterway:stream", "amenity": null, "building": null, "landuse": null, "sport": null, "leisure": null, "natural": null, "waterway": "stream" }, "geometry": { "type": "LineString", "coordinates": [ [ 24.3761642, 41.022803300394685 ], [ 24.3763091, 41.022493400394659 ] ] } },
{ "type": "Feature", "properties": { "osm_id": 864496559, "name": null, "label": "waterway:stream", "amenity": null, "building": null, "landuse": null, "sport": null, "leisure": null, "natural": null, "waterway": "stream" }, "geometry": { "type": "LineString", "coordinates": [ [ 24.3763468, 41.02241280039464 ], [ 24.3764482, 41.022208800394623 ] ] } },
{ "type": "Feature", "properties": { "osm_id": 864496566, "name": null, "label": "waterway:stream", "amenity": null, "building": null, "landuse": null, "sport": null, "leisure": null, "natural": null, "waterway": "stream" }, "geometry": { "type": "LineString", "coordinates": [ [ 24.376617, 41.021818000394589 ], [ 24.3766638, 41.021700800394569 ] ] } },
{ "type": "Feature", "properties": { "osm_id": 864496563, "name": null, "label": "waterway:stream", "amenity": null, "building": null, "landuse": null, "sport": null, "leisure": null, "natural": null, "waterway": "stream" }, "geometry": { "type": "LineString", "coordinates": [ [ 24.3764887, 41.022113200394614 ], [ 24.376617, 41.021818000394589 ] ] } },
{ "type": "Feature", "properties": { "osm_id": 864496564, "name": null, "label": "waterway:stream", "amenity": null, "building": null, "landuse": null, "sport": null, "leisure": null, "natural": null, "waterway": "stream" }, "geometry": { "type": "LineString", "coordinates": [ [ 24.3764482, 41.022208800394623 ], [ 24.3764887, 41.022113200394614 ] ] } },
{ "type": "Feature", "properties": { "osm_id": 864496561, "name": null, "label": "waterway:stream", "amenity": null, "building": null, "landuse": null, "sport": null, "leisure": null, "natural": null, "waterway": "stream" }, "geometry": { "type": "LineString", "coordinates": [ [ 24.3763091, 41.022493400394659 ], [ 24.3763468, 41.02241280039464 ] ] } },
{ "type": "Feature", "properties": { "osm_id": 864496557, "name": null, "label": "waterway:stream", "amenity": null, "building": null, "landuse": null, "sport": null, "leisure": null, "natural": null, "waterway": "stream" }, "geometry": { "type": "LineString", "coordinates": [ [ 24.3759839, 41.023188800394742 ], [ 24.3761269, 41.022883000394707 ] ] } },
{ "type": "Feature", "properties": { "osm_id": 864496558, "name": null, "label": "waterway:stream", "amenity": null, "building": null, "landuse": null, "sport": null, "leisure": null, "natural": null, "waterway": "stream" }, "geometry": { "type": "LineString", "coordinates": [ [ 24.3759309, 41.023273900394734 ], [ 24.3759839, 41.023188800394742 ] ] } },
{ "type": "Feature", "properties": { "osm_id": 864496555, "name": null, "label": "waterway:stream", "amenity": null, "building": null, "landuse": null, "sport": null, "leisure": null, "natural": null, "waterway": "stream" }, "geometry": { "type": "LineString", "coordinates": [ [ 24.3757339, 41.023531900394779 ], [ 24.3759309, 41.023273900394734 ] ] } },
{ "type": "Feature", "properties": { "osm_id": 799738310, "name": null, "label": "waterway:stream", "amenity": null, "building": null, "landuse": null, "sport": null, "leisure": null, "natural": null, "waterway": "stream" }, "geometry": { "type": "MultiLineString", "coordinates": [ [ [ 24.375331847300298, 41.026757073681594 ], [ 24.375392, 41.026591200395117 ], [ 24.3755422, 41.025579400394996 ], [ 24.3754296, 41.025336600394979 ], [ 24.375331847300298, 41.025171370306566 ] ], [ [ 24.375331847300298, 41.023689697251889 ], [ 24.3753813, 41.023669200394785 ], [ 24.3756371, 41.02358860039476 ] ] ] } },
{ "type": "Feature", "properties": { "osm_id": 864482842, "name": null, "label": "waterway:stream", "amenity": null, "building": null, "landuse": null, "sport": null, "leisure": null, "natural": null, "waterway": "stream" }, "geometry": { "type": "LineString", "coordinates": [ [ 24.3783107, 41.014027100393726 ], [ 24.3779216, 41.013896700393694 ], [ 24.3770227, 41.013616300393664 ], [ 24.3766794, 41.013383900393642 ], [ 24.376585437817621, 41.013325748458165 ] ] } },
{ "type": "Feature", "properties": { "osm_id": 864482843, "name": null, "label": "waterway:stream", "amenity": null, "building": null, "landuse": null, "sport": null, "leisure": null, "natural": null, "waterway": "stream" }, "geometry": { "type": "LineString", "coordinates": [ [ 24.378856, 41.014382700393753 ], [ 24.3783107, 41.014027100393726 ] ] } },
{ "type": "Feature", "properties": { "osm_id": 864496572, "name": null, "label": "waterway:stream", "amenity": null, "building": null, "landuse": null, "sport": null, "leisure": null, "natural": null, "waterway": "stream" }, "geometry": { "type": "LineString", "coordinates": [ [ 24.3791399, 41.014719000393796 ], [ 24.378856, 41.014382700393753 ] ] } },
{ "type": "Feature", "properties": { "osm_id": 864496573, "name": null, "label": "waterway:stream", "amenity": null, "building": null, "landuse": null, "sport": null, "leisure": null, "natural": null, "waterway": "stream" }, "geometry": { "type": "LineString", "coordinates": [ [ 24.3792041, 41.014906400393819 ], [ 24.3791399, 41.014719000393796 ] ] } },
{ "type": "Feature", "properties": { "osm_id": 864812212, "name": null, "label": "waterway:stream", "amenity": null, "building": null, "landuse": null, "sport": null, "leisure": null, "natural": null, "waterway": "stream" }, "geometry": { "type": "LineString", "coordinates": [ [ 24.3861388, 41.028158800395282 ], [ 24.3861388, 41.027911900395253 ], [ 24.3861182, 41.027393400395205 ], [ 24.3859541, 41.026983300395152 ], [ 24.3855848, 41.026518900395104 ], [ 24.3851027, 41.025969400395034 ], [ 24.3849898, 41.025512800394992 ], [ 24.3848736, 41.025319600394972 ] ] } },
{ "type": "Feature", "properties": { "osm_id": 864496958, "name": null, "label": "waterway:stream", "amenity": null, "building": null, "landuse": null, "sport": null, "leisure": null, "natural": null, "waterway": "stream" }, "geometry": { "type": "LineString", "coordinates": [ [ 24.3848736, 41.025319600394972 ], [ 24.3847584, 41.025127900394956 ] ] } },
{ "type": "Feature", "properties": { "osm_id": 864812213, "name": null, "label": "waterway:stream", "amenity": null, "building": null, "landuse": null, "sport": null, "leisure": null, "natural": null, "waterway": "stream" }, "geometry": { "type": "LineString", "coordinates": [ [ 24.3861388, 41.0283531003953 ], [ 24.3861388, 41.028158800395282 ] ] } },
{ "type": "Feature", "properties": { "osm_id": 799738280, "name": null, "label": "waterway:stream", "amenity": null, "building": null, "landuse": null, "sport": null, "leisure": null, "natural": null, "waterway": "stream" }, "geometry": { "type": "LineString", "coordinates": [ [ 24.404841025290153, 41.025015860056683 ], [ 24.4047501, 41.025006200394934 ], [ 24.4043804, 41.024973700394931 ], [ 24.4041154, 41.024983000394926 ], [ 24.4038627, 41.024992300394942 ], [ 24.4035793, 41.024843500394915 ], [ 24.403265, 41.024587800394883 ], [ 24.4030925, 41.024425100394865 ], [ 24.4028583, 41.024192700394849 ], [ 24.4026242, 41.023960200394818 ], [ 24.402427, 41.023690600394787 ], [ 24.4021558, 41.023425600394766 ], [ 24.4018662, 41.023174600394725 ], [ 24.4016074, 41.023104800394727 ], [ 24.4012623, 41.023114100394722 ], [ 24.4006708, 41.023137400394745 ], [ 24.4002764, 41.023081600394725 ], [ 24.3999005, 41.022970000394707 ], [ 24.3997157, 41.022835200394709 ], [ 24.3995739, 41.022630600394663 ], [ 24.3994199, 41.022500500394642 ], [ 24.3992473, 41.02247260039465 ], [ 24.3990378, 41.022500500394642 ], [ 24.3988961, 41.022463300394641 ], [ 24.3986927, 41.022342400394642 ], [ 24.3983723, 41.022156400394621 ], [ 24.3982368, 41.022040200394606 ], [ 24.3979533, 41.021984400394594 ], [ 24.3977561, 41.021821700394575 ], [ 24.3974603, 41.021459100394544 ], [ 24.3971584, 41.021249900394515 ], [ 24.3967948, 41.021124300394497 ], [ 24.396382, 41.021063900394502 ], [ 24.3957719, 41.020980200394483 ], [ 24.395396, 41.020864000394489 ], [ 24.3949031, 41.020743100394469 ], [ 24.3945457, 41.020529300394436 ], [ 24.3941266, 41.020343300394408 ], [ 24.3937939, 41.020231700394405 ], [ 24.3935351, 41.020055000394386 ], [ 24.3932639, 41.019785400394362 ], [ 24.3929065, 41.019515700394329 ], [ 24.392506, 41.019218200394285 ], [ 24.3921486, 41.01903220039425 ], [ 24.3917727, 41.018892700394261 ], [ 24.3912921, 41.018771900394242 ], [ 24.3909716, 41.018646300394231 ], [ 24.3907067, 41.018530100394209 ], [ 24.3903678, 41.018506800394221 ], [ 24.3899118, 41.018530100394209 ], [ 24.3894434, 41.018604500394225 ], [ 24.3890367, 41.018627700394227 ], [ 24.3885869, 41.018618400394232 ], [ 24.3882295, 41.018623100394223 ], [ 24.3878721, 41.018585900394228 ], [ 24.3874284, 41.018544000394208 ], [ 24.3870094, 41.018399900394193 ], [ 24.3867136, 41.018255800394186 ], [ 24.3861467, 41.018172100394175 ], [ 24.3857462, 41.01808840039417 ], [ 24.3854196, 41.018037300394163 ], [ 24.3851361, 41.017916400394142 ], [ 24.3848958, 41.017711800394132 ], [ 24.3845754, 41.017544400394115 ], [ 24.3837885, 41.017307600394091 ], [ 24.3834292, 41.017158500394046 ], [ 24.3829917, 41.016977200394038 ], [ 24.3825312, 41.016894900394043 ] ] } },
{ "type": "Feature", "properties": { "osm_id": 799738281, "name": null, "label": "waterway:stream", "amenity": null, "building": null, "landuse": null, "sport": null, "leisure": null, "natural": null, "waterway": "stream" }, "geometry": { "type": "LineString", "coordinates": [ [ 24.404841025290153, 41.026315993962761 ], [ 24.4043692, 41.025999100395047 ], [ 24.4041073, 41.02576410039503 ], [ 24.4039233, 41.025411600394975 ], [ 24.4038171, 41.025117900394939 ], [ 24.4038627, 41.024992300394942 ] ] } },
{ "type": "Feature", "properties": { "osm_id": 375496142, "name": null, "label": "waterway:stream", "amenity": null, "building": null, "landuse": null, "sport": null, "leisure": null, "natural": null, "waterway": "stream" }, "geometry": { "type": "MultiLineString", "coordinates": [ [ [ 24.394891444925339, 41.03705204464827 ], [ 24.3947523, 41.036977400396268 ], [ 24.394376587038575, 41.03705204464827 ] ], [ [ 24.393445522953616, 41.03705204464827 ], [ 24.3933826, 41.036891700396254 ], [ 24.3934385, 41.036602800396224 ], [ 24.3934151, 41.03616160039617 ], [ 24.3930403, 41.035900500396131 ], [ 24.3922015, 41.035464600396089 ], [ 24.3918732, 41.035433700396084 ], [ 24.3912987, 41.035309800396064 ], [ 24.3907448, 41.034551500395999 ], [ 24.3906217, 41.034272900395962 ], [ 24.3896984, 41.033762200395905 ], [ 24.3889803, 41.033236000395846 ], [ 24.3888983, 41.032694400395791 ], [ 24.3890522, 41.03193600039571 ], [ 24.3890419, 41.031703800395675 ], [ 24.388888, 41.031448500395648 ], [ 24.3883443, 41.03124730039562 ], [ 24.387616, 41.030953200395601 ], [ 24.3874313, 41.030752000395566 ], [ 24.3872672, 41.030365100395528 ], [ 24.3871031, 41.030055500395505 ], [ 24.3868876, 41.029591200395458 ], [ 24.3861388, 41.028531000395326 ], [ 24.3861388, 41.0283531003953 ] ] ] } },
{ "type": "Feature", "properties": { "osm_id": 864494046, "name": null, "label": "waterway:stream", "amenity": null, "building": null, "landuse": null, "sport": null, "leisure": null, "natural": null, "waterway": "stream" }, "geometry": { "type": "LineString", "coordinates": [ [ 24.3825312, 41.016894900394043 ], [ 24.3823072, 41.01683820039402 ] ] } },
{ "type": "Feature", "properties": { "osm_id": 864494045, "name": null, "label": "waterway:stream", "amenity": null, "building": null, "landuse": null, "sport": null, "leisure": null, "natural": null, "waterway": "stream" }, "geometry": { "type": "LineString", "coordinates": [ [ 24.3823072, 41.01683820039402 ], [ 24.3820797, 41.016781900394015 ], [ 24.3817577, 41.016691700394013 ], [ 24.3814389, 41.016693600394021 ], [ 24.3811616, 41.016744700394014 ], [ 24.3808966, 41.016768000394016 ], [ 24.3806933, 41.016698200394003 ], [ 24.3804653, 41.016568100393997 ], [ 24.379831, 41.016411100393981 ] ] } },
{ "type": "Feature", "properties": { "osm_id": 864496571, "name": null, "label": "waterway:stream", "amenity": null, "building": null, "landuse": null, "sport": null, "leisure": null, "natural": null, "waterway": "stream" }, "geometry": { "type": "LineString", "coordinates": [ [ 24.379831, 41.016411100393981 ], [ 24.3797082, 41.016352500393985 ], [ 24.3796027, 41.016238700393963 ] ] } },
{ "type": "Feature", "properties": { "osm_id": 864496570, "name": null, "label": "waterway:stream", "amenity": null, "building": null, "landuse": null, "sport": null, "leisure": null, "natural": null, "waterway": "stream" }, "geometry": { "type": "LineString", "coordinates": [ [ 24.3796027, 41.016238700393963 ], [ 24.3795496, 41.015982300393929 ], [ 24.379539, 41.015685900393898 ], [ 24.3795001, 41.015397500393853 ], [ 24.3792041, 41.014906400393819 ] ] } },
{ "type": "Feature", "properties": { "osm_id": 864496567, "name": null, "label": "waterway:stream", "amenity": null, "building": null, "landuse": null, "sport": null, "leisure": null, "natural": null, "waterway": "stream" }, "geometry": { "type": "LineString", "coordinates": [ [ 24.3768622, 41.019490900394317 ], [ 24.3768834, 41.019330600394305 ], [ 24.3769079, 41.019150800394279 ] ] } },
{ "type": "Feature", "properties": { "osm_id": 864496568, "name": null, "label": "waterway:stream", "amenity": null, "building": null, "landuse": null, "sport": null, "leisure": null, "natural": null, "waterway": "stream" }, "geometry": { "type": "LineString", "coordinates": [ [ 24.3768927, 41.019769400394352 ], [ 24.3768622, 41.019490900394317 ] ] } },
{ "type": "Feature", "properties": { "osm_id": 864496565, "name": null, "label": "waterway:stream", "amenity": null, "building": null, "landuse": null, "sport": null, "leisure": null, "natural": null, "waterway": "stream" }, "geometry": { "type": "LineString", "coordinates": [ [ 24.3766638, 41.021700800394569 ], [ 24.3767868, 41.021342100394527 ], [ 24.3768404, 41.021026400394483 ], [ 24.3769424, 41.020775500394464 ], [ 24.3771194, 41.020569100394447 ], [ 24.377334, 41.020419300394423 ], [ 24.3771891, 41.020176500394399 ], [ 24.3769638, 41.019921500394382 ], [ 24.3768927, 41.019769400394352 ] ] } },
{ "type": "Feature", "properties": { "osm_id": 799738285, "name": null, "label": "waterway:stream", "amenity": null, "building": null, "landuse": null, "sport": null, "leisure": null, "natural": null, "waterway": "stream" }, "geometry": { "type": "LineString", "coordinates": [ [ 24.3957674, 41.014986400393809 ], [ 24.3954701, 41.014815500393794 ], [ 24.3951586, 41.014580500393777 ], [ 24.3947976, 41.014334900393749 ], [ 24.3943655, 41.014183300393732 ], [ 24.3936792, 41.013955600393707 ], [ 24.3930776, 41.013774000393695 ], [ 24.3918003, 41.013509800393649 ], [ 24.3912018, 41.013453600393639 ], [ 24.3906285, 41.013341400393628 ], [ 24.390587004311922, 41.013325748458165 ] ] } },
{ "type": "Feature", "properties": { "osm_id": 799738284, "name": null, "label": "waterway:stream", "amenity": null, "building": null, "landuse": null, "sport": null, "leisure": null, "natural": null, "waterway": "stream" }, "geometry": { "type": "LineString", "coordinates": [ [ 24.404841025290153, 41.02023658862074 ], [ 24.4047371, 41.020409900394419 ], [ 24.4045672, 41.020703600394455 ], [ 24.404454, 41.020976000394484 ], [ 24.4043619, 41.021280400394531 ], [ 24.4043621, 41.02145390039454 ], [ 24.404277, 41.021910600394577 ], [ 24.4042133, 41.022166900394616 ], [ 24.4040099, 41.022544300394664 ] ] } },
{ "type": "Feature", "properties": { "osm_id": 799738282, "name": null, "label": "waterway:stream", "amenity": null, "building": null, "landuse": null, "sport": null, "leisure": null, "natural": null, "waterway": "stream" }, "geometry": { "type": "LineString", "coordinates": [ [ 24.404841025290153, 41.022387236557577 ], [ 24.4046877, 41.022395500394644 ], [ 24.4042625, 41.022451300394664 ], [ 24.4040099, 41.022544300394664 ], [ 24.4035662, 41.022707000394675 ], [ 24.4030979, 41.022874400394699 ], [ 24.4027467, 41.022990600394721 ], [ 24.4023461, 41.02314400039473 ], [ 24.4018662, 41.023174600394725 ] ] } },
{ "type": "Feature", "properties": { "osm_id": 799738283, "name": null, "label": "waterway:stream", "amenity": null, "building": null, "landuse": null, "sport": null, "leisure": null, "natural": null, "waterway": "stream" }, "geometry": { "type": "LineString", "coordinates": [ [ 24.404841025290153, 41.022708244225747 ], [ 24.4045891, 41.022618700394659 ], [ 24.4042625, 41.022451300394664 ] ] } },
{ "type": "Feature", "properties": { "osm_id": 864496957, "name": null, "label": "waterway:stream", "amenity": null, "building": null, "landuse": null, "sport": null, "leisure": null, "natural": null, "waterway": "stream" }, "geometry": { "type": "LineString", "coordinates": [ [ 24.3847584, 41.025127900394956 ], [ 24.3844872, 41.024677000394888 ], [ 24.3839642, 41.023908700394806 ], [ 24.3834254, 41.023179500394725 ], [ 24.382929, 41.022557900394673 ], [ 24.3821526, 41.021928300394585 ], [ 24.3810381, 41.021211000394523 ], [ 24.3800397, 41.020838700394471 ], [ 24.3780857, 41.019908000394366 ], [ 24.3778691, 41.01968080039434 ], [ 24.3772617, 41.019389900394316 ], [ 24.3769079, 41.019150800394279 ], [ 24.3767177, 41.018712500394237 ], [ 24.3766385, 41.018417600394194 ], [ 24.3764801, 41.018027100394157 ], [ 24.3763058, 41.016883300394042 ], [ 24.3763691, 41.016548600393996 ], [ 24.3761632, 41.015779500393919 ], [ 24.3760955, 41.015650800393885 ], [ 24.37601, 41.015488500393872 ], [ 24.3759202, 41.015090000393826 ], [ 24.3760734, 41.014739300393799 ], [ 24.3761315, 41.014500200393783 ], [ 24.3759677, 41.014285000393741 ], [ 24.3758779, 41.014100000393732 ], [ 24.3759417, 41.013754900393685 ], [ 24.3759071, 41.013445300393649 ], [ 24.375788215102755, 41.013325748458165 ] ] } },
{ "type": "Feature", "properties": { "osm_id": 9206220902, "name": "CYCLON", "label": "amenity:fuel", "amenity": "fuel", "building": null, "landuse": null, "sport": null, "leisure": null, "natural": null, "waterway": null }, "geometry": { "type": "Point", "coordinates": [ 24.3796064, 41.021982100394602 ] } }
]
}
