{
"type": "FeatureCollection",
"name": "patch_88893_point",
"crs": { "type": "name", "properties": { "name": "urn:ogc:def:crs:OGC:1.3:CRS84" } },
"features": [
{ "type": "Feature", "properties": { "element": "node", "id": 8733492157, "ele": "1409", "name": "Ελατιάς", "name:de": null, "name:el": null, "name:en": null, "name:es": null, "name:fr": null, "name:it": null, "name:la": null, "name:pt": null, "natural": "peak", "wikidata": null, "wikipedia": null, "leisure": null, "amenity": null, "wheelchair": null, "operator": null, "source": null, "access": null, "alt_name": "Kithairón Óros", "man_made": "survey_point", "prominence": "827", "summit": "yes", "surface": null, "waterway": null, "building": null, "height": null, "tower:type": null, "denomination": null, "religion": null, "tourism": null, "intermittent": null, "free_flying:site": null, "sport": null, "type": null, "leaf_type": null, "alt_name:cs": null, "alt_name:nl": null, "alt_name:nn": null, "alt_name:sk": null, "name:als": null, "name:am": null, "name:ar": null, "name:az": null, "name:be": null, "name:bg": null, "name:br": null, "name:ca": null, "name:cs": null, "name:cy": null, "name:da": null, "name:eo": null, "name:eu": null, "name:fa": null, "name:fi": null, "name:ga": null, "name:gl": null, "name:he": null, "name:hu": null, "name:hy": null, "name:id": null, "name:ja": null, "name:jv": null, "name:kk": null, "name:ko": null, "name:li": null, "name:lt": null, "name:lv": null, "name:mk": null, "name:ms": null, "name:nl": null, "name:nn": null, "name:no": null, "name:os": null, "name:pl": null, "name:ro": null, "name:ru": null, "name:scn": null, "name:sco": null, "name:sh": null, "name:sk": null, "name:sl": null, "name:sr": null, "name:sv": null, "name:tg": null, "name:uk": null, "name:uz": null, "name:vec": null, "name:vi": null, "name:war": null, "name:yi": null, "name:zh": null, "label": "natural:peak" }, "geometry": { "type": "Point", "coordinates": [ 23.2497497, 38.1842004 ] } }
]
}
