{
"type": "FeatureCollection",
"name": "patch_88893_polygon",
"crs": { "type": "name", "properties": { "name": "urn:ogc:def:crs:OGC:1.3:CRS84" } },
"features": [
{ "type": "Feature", "properties": { "element": "relation", "id": 1830965, "ele": null, "name": null, "name:de": null, "name:el": null, "name:en": null, "name:es": null, "name:fr": null, "name:it": null, "name:la": null, "name:pt": null, "natural": "wood", "wikidata": null, "wikipedia": null, "leisure": null, "amenity": null, "wheelchair": null, "operator": null, "source": "http://geodata.gov.gr/", "access": null, "alt_name": null, "man_made": null, "prominence": null, "summit": null, "surface": null, "waterway": null, "building": null, "height": null, "tower:type": null, "denomination": null, "religion": null, "tourism": null, "intermittent": null, "free_flying:site": null, "sport": null, "type": "multipolygon", "leaf_type": "mixed", "alt_name:cs": null, "alt_name:nl": null, "alt_name:nn": null, "alt_name:sk": null, "name:als": null, "name:am": null, "name:ar": null, "name:az": null, "name:be": null, "name:bg": null, "name:br": null, "name:ca": null, "name:cs": null, "name:cy": null, "name:da": null, "name:eo": null, "name:eu": null, "name:fa": null, "name:fi": null, "name:ga": null, "name:gl": null, "name:he": null, "name:hu": null, "name:hy": null, "name:id": null, "name:ja": null, "name:jv": null, "name:kk": null, "name:ko": null, "name:li": null, "name:lt": null, "name:lv": null, "name:mk": null, "name:ms": null, "name:nl": null, "name:nn": null, "name:no": null, "name:os": null, "name:pl": null, "name:ro": null, "name:ru": null, "name:scn": null, "name:sco": null, "name:sh": null, "name:sk": null, "name:sl": null, "name:sr": null, "name:sv": null, "name:tg": null, "name:uk": null, "name:uz": null, "name:vec": null, "name:vi": null, "name:war": null, "name:yi": null, "name:zh": null, "label": "natural:wood" }, "geometry": { "type": "Polygon", "coordinates": [ [ [ 23.2478587, 38.1720269 ], [ 23.2482654, 38.1721335 ], [ 23.2488076, 38.1721335 ], [ 23.2491527, 38.1719106 ], [ 23.2495101, 38.1719397 ], [ 23.2495717, 38.1715037 ], [ 23.2499538, 38.1714262 ], [ 23.2502742, 38.1716781 ], [ 23.2503728, 38.1719494 ], [ 23.250496, 38.1721431 ], [ 23.250496, 38.1724047 ], [ 23.2507672, 38.1724047 ], [ 23.2509151, 38.1721722 ], [ 23.2511369, 38.1719687 ], [ 23.2510506, 38.171649 ], [ 23.2511739, 38.1715134 ], [ 23.2514696, 38.1717072 ], [ 23.2515559, 38.1719591 ], [ 23.2517285, 38.1721238 ], [ 23.2517161, 38.1723272 ], [ 23.251938, 38.1724338 ], [ 23.2523693, 38.1723563 ], [ 23.2527144, 38.1720172 ], [ 23.2524309, 38.1717944 ], [ 23.2520366, 38.1717944 ], [ 23.2519256, 38.1715715 ], [ 23.2520982, 38.1714552 ], [ 23.2524433, 38.1715715 ], [ 23.2530102, 38.1714359 ], [ 23.2534415, 38.1713487 ], [ 23.2535401, 38.1710289 ], [ 23.2538359, 38.1707964 ], [ 23.254181, 38.1706511 ], [ 23.2541933, 38.1703701 ], [ 23.2542919, 38.17006 ], [ 23.2546739, 38.1699922 ], [ 23.2550437, 38.1700891 ], [ 23.2553518, 38.1701279 ], [ 23.2556599, 38.1701182 ], [ 23.2559926, 38.1700697 ], [ 23.2561528, 38.170186 ], [ 23.2563747, 38.1703313 ], [ 23.2565102, 38.1706026 ], [ 23.2566458, 38.1708642 ], [ 23.256843, 38.1710192 ], [ 23.2570279, 38.1708448 ], [ 23.257225, 38.1707576 ], [ 23.2573483, 38.1709611 ], [ 23.2576317, 38.1711549 ], [ 23.257762, 38.171598 ], [ 23.257445, 38.17138 ], [ 23.2572956, 38.1711524 ], [ 23.2569967, 38.1710129 ], [ 23.2569687, 38.1714681 ], [ 23.2570621, 38.1717031 ], [ 23.2573423, 38.1719748 ], [ 23.2573796, 38.1722832 ], [ 23.2576318, 38.1724887 ], [ 23.2577252, 38.1726797 ], [ 23.2577252, 38.172922 ], [ 23.2574917, 38.1731569 ], [ 23.2574263, 38.1733478 ], [ 23.2575851, 38.173781 ], [ 23.2575664, 38.1740527 ], [ 23.2577439, 38.1742289 ], [ 23.2580708, 38.174295 ], [ 23.258351, 38.1741261 ], [ 23.2586872, 38.173994 ], [ 23.2591636, 38.1740601 ], [ 23.2596026, 38.1741335 ], [ 23.2599388, 38.1743538 ], [ 23.2603311, 38.1742803 ], [ 23.260686, 38.1743758 ], [ 23.2608448, 38.1745814 ], [ 23.2608448, 38.1748017 ], [ 23.2606767, 38.1750366 ], [ 23.2608541, 38.1752716 ], [ 23.2609849, 38.175602 ], [ 23.2612744, 38.1758149 ], [ 23.2615826, 38.1760719 ], [ 23.2618535, 38.1762481 ], [ 23.2619562, 38.1765491 ], [ 23.2621897, 38.1767767 ], [ 23.2625073, 38.1768869 ], [ 23.2627688, 38.1768869 ], [ 23.262993, 38.1770264 ], [ 23.262993, 38.1772246 ], [ 23.2632078, 38.1774522 ], [ 23.2634413, 38.1774008 ], [ 23.2636188, 38.1776358 ], [ 23.2638523, 38.1777533 ], [ 23.2641511, 38.1777459 ], [ 23.2645714, 38.1779441 ], [ 23.2648143, 38.1781571 ], [ 23.2648797, 38.178414 ], [ 23.2651599, 38.1785902 ], [ 23.2652252, 38.1788179 ], [ 23.2655241, 38.1790087 ], [ 23.2655241, 38.178693 ], [ 23.2654587, 38.1783553 ], [ 23.2652533, 38.1780102 ], [ 23.2653186, 38.1778193 ], [ 23.2655988, 38.1776945 ], [ 23.2658697, 38.1778781 ], [ 23.266318, 38.1779074 ], [ 23.2668224, 38.1779441 ], [ 23.267196, 38.1780616 ], [ 23.26728, 38.1782452 ], [ 23.2676723, 38.1783406 ], [ 23.2679899, 38.1783259 ], [ 23.268214, 38.1782452 ], [ 23.2682887, 38.1784361 ], [ 23.2682887, 38.1787444 ], [ 23.2682514, 38.1789427 ], [ 23.2679805, 38.1790528 ], [ 23.2679151, 38.1792217 ], [ 23.2680366, 38.1794566 ], [ 23.2680366, 38.1796989 ], [ 23.2678591, 38.1798824 ], [ 23.2680366, 38.1799265 ], [ 23.268369387954447, 38.179919468590256 ], [ 23.268369387954447, 38.176345556556846 ], [ 23.2681767, 38.1762114 ], [ 23.2676349, 38.1762775 ], [ 23.26728, 38.1761526 ], [ 23.2668597, 38.1763656 ], [ 23.2663927, 38.1764757 ], [ 23.2663927, 38.1767988 ], [ 23.2661312, 38.1770925 ], [ 23.2655802, 38.1770337 ], [ 23.2653467, 38.1765271 ], [ 23.2650945, 38.1762775 ], [ 23.2645808, 38.1763582 ], [ 23.2641325, 38.176138 ], [ 23.2639457, 38.175859 ], [ 23.2638242, 38.1755139 ], [ 23.2638709, 38.1750733 ], [ 23.2638709, 38.1745961 ], [ 23.2640951, 38.174251 ], [ 23.2640017, 38.1738985 ], [ 23.2643846, 38.1736195 ], [ 23.2645853, 38.1733624 ], [ 23.265194, 38.173036 ], [ 23.265369, 38.172543 ], [ 23.265373, 38.172139 ], [ 23.26504, 38.171419 ], [ 23.265003, 38.170649 ], [ 23.265835, 38.170175 ], [ 23.2667127, 38.1698136 ], [ 23.266729, 38.1696911 ], [ 23.2668222, 38.1695916 ], [ 23.266992, 38.1695465 ], [ 23.2671306, 38.1695247 ], [ 23.2672785, 38.1695732 ], [ 23.267374, 38.1696773 ], [ 23.267374, 38.1698105 ], [ 23.2672785, 38.1699462 ], [ 23.2671337, 38.1700116 ], [ 23.2670813, 38.1701763 ], [ 23.2670752, 38.1703337 ], [ 23.267183, 38.1705227 ], [ 23.2674233, 38.1705372 ], [ 23.2676421, 38.1705614 ], [ 23.2678519, 38.1706589 ], [ 23.2680227, 38.1706589 ], [ 23.2682382, 38.170726 ], [ 23.2682695, 38.1708929 ], [ 23.2682566, 38.1710428 ], [ 23.2683486, 38.1711652 ], [ 23.268369387954447, 38.171157030883528 ], [ 23.268369387954447, 38.167206215455153 ], [ 23.256075211406749, 38.167206215455153 ], [ 23.2559557, 38.1676668 ], [ 23.255438, 38.16788 ], [ 23.2551176, 38.1681513 ], [ 23.2550437, 38.1684516 ], [ 23.2549697, 38.1687326 ], [ 23.2545384, 38.168878 ], [ 23.2544028, 38.1690911 ], [ 23.2540577, 38.1692074 ], [ 23.2539345, 38.169469 ], [ 23.2541193, 38.1697791 ], [ 23.2537619, 38.1696046 ], [ 23.2536017, 38.1693624 ], [ 23.2534662, 38.1690814 ], [ 23.2530841, 38.1688392 ], [ 23.2524433, 38.1687908 ], [ 23.2519873, 38.1687423 ], [ 23.2516668, 38.168752 ], [ 23.2516299, 38.1690814 ], [ 23.2517161, 38.1693818 ], [ 23.2519749, 38.169624 ], [ 23.2520119, 38.1699728 ], [ 23.2517285, 38.1702926 ], [ 23.2513834, 38.1705639 ], [ 23.2513341, 38.1708836 ], [ 23.2511739, 38.1710677 ], [ 23.25095, 38.170657 ], [ 23.2504636, 38.170494 ], [ 23.249308, 38.170063 ], [ 23.248969, 38.169792 ], [ 23.248803, 38.169387 ], [ 23.248865, 38.168894 ], [ 23.249554, 38.16827 ], [ 23.24973, 38.167687 ], [ 23.249771011805006, 38.167206215455153 ], [ 23.238452637419144, 38.167206215455153 ], [ 23.238452637419144, 38.167572877546498 ], [ 23.239174, 38.167664 ], [ 23.242716, 38.169187 ], [ 23.243811, 38.170148 ], [ 23.24577, 38.171143 ], [ 23.2463888, 38.1713724 ], [ 23.2472671, 38.1718331 ], [ 23.2478587, 38.1720269 ] ] ] } },
{ "type": "Feature", "properties": { "element": "relation", "id": 5685658, "ele": null, "name": "Αττική", "name:de": "Attika", "name:el": "Αττική", "name:en": "Attica", "name:es": "Ática", "name:fr": "Attique", "name:it": "Attica", "name:la": "Attica", "name:pt": "Ática", "natural": "peninsula", "wikidata": "Q122443", "wikipedia": "el:Αττική", "leisure": null, "amenity": null, "wheelchair": null, "operator": null, "source": null, "access": null, "alt_name": null, "man_made": null, "prominence": null, "summit": null, "surface": null, "waterway": null, "building": null, "height": null, "tower:type": null, "denomination": null, "religion": null, "tourism": null, "intermittent": null, "free_flying:site": null, "sport": null, "type": "multipolygon", "leaf_type": null, "alt_name:cs": "Attika", "alt_name:nl": "Attika", "alt_name:nn": "Attika", "alt_name:sk": "Attiki", "name:als": "Attika", "name:am": "አቲካ", "name:ar": "أتيكا", "name:az": "Attika", "name:be": "Атыка", "name:bg": "Атика", "name:br": "Attika", "name:ca": "Àtica", "name:cs": "Atika", "name:cy": "Attica", "name:da": "Attika", "name:eo": "Atiko", "name:eu": "Atika", "name:fa": "آتیک", "name:fi": "Attika", "name:ga": "an Ataic", "name:gl": "Ática", "name:he": "אַטִיקָה", "name:hu": "Attika", "name:hy": "Ատտիկե", "name:id": "Attika", "name:ja": "アッティカ", "name:jv": "Attika", "name:kk": "А́ттика", "name:ko": "아티키", "name:li": "Attika", "name:lt": "Atika", "name:lv": "Atika", "name:mk": "Атика", "name:ms": "Attika", "name:nl": "Attica", "name:nn": "Attikí", "name:no": "Attika", "name:os": "Аттикæ", "name:pl": "Attyka", "name:ro": "Attica", "name:ru": "А́ттика", "name:scn": "Àttica", "name:sco": "Attica", "name:sh": "Atika", "name:sk": "Atika", "name:sl": "Atika", "name:sr": "Атика", "name:sv": "Attika", "name:tg": "Аттика", "name:uk": "Аттика", "name:uz": "Attika", "name:vec": "Atica", "name:vi": "Attica", "name:war": "Attika", "name:yi": "אטיקע", "name:zh": "阿提卡", "label": "natural:peninsula" }, "geometry": { "type": "Polygon", "coordinates": [ [ [ 23.2395474, 38.1840207 ], [ 23.2412506, 38.1837189 ], [ 23.24876, 38.1834404 ], [ 23.2495968, 38.1841015 ], [ 23.2498811, 38.1843009 ], [ 23.2504481, 38.1843711 ], [ 23.2529625, 38.1846824 ], [ 23.2567686, 38.1848225 ], [ 23.2602038, 38.1849141 ], [ 23.2649723, 38.1841411 ], [ 23.268369387954447, 38.183175761829091 ], [ 23.268369387954447, 38.167206215455153 ], [ 23.238452637419144, 38.167206215455153 ], [ 23.238452637419144, 38.184324277266093 ], [ 23.2395474, 38.1840207 ] ] ] } },
{ "type": "Feature", "properties": { "element": "relation", "id": 10165470, "ele": null, "name": null, "name:de": null, "name:el": null, "name:en": null, "name:es": null, "name:fr": null, "name:it": null, "name:la": null, "name:pt": null, "natural": "wood", "wikidata": null, "wikipedia": null, "leisure": null, "amenity": null, "wheelchair": null, "operator": null, "source": null, "access": null, "alt_name": null, "man_made": null, "prominence": null, "summit": null, "surface": null, "waterway": null, "building": null, "height": null, "tower:type": null, "denomination": null, "religion": null, "tourism": null, "intermittent": null, "free_flying:site": null, "sport": null, "type": "multipolygon", "leaf_type": null, "alt_name:cs": null, "alt_name:nl": null, "alt_name:nn": null, "alt_name:sk": null, "name:als": null, "name:am": null, "name:ar": null, "name:az": null, "name:be": null, "name:bg": null, "name:br": null, "name:ca": null, "name:cs": null, "name:cy": null, "name:da": null, "name:eo": null, "name:eu": null, "name:fa": null, "name:fi": null, "name:ga": null, "name:gl": null, "name:he": null, "name:hu": null, "name:hy": null, "name:id": null, "name:ja": null, "name:jv": null, "name:kk": null, "name:ko": null, "name:li": null, "name:lt": null, "name:lv": null, "name:mk": null, "name:ms": null, "name:nl": null, "name:nn": null, "name:no": null, "name:os": null, "name:pl": null, "name:ro": null, "name:ru": null, "name:scn": null, "name:sco": null, "name:sh": null, "name:sk": null, "name:sl": null, "name:sr": null, "name:sv": null, "name:tg": null, "name:uk": null, "name:uz": null, "name:vec": null, "name:vi": null, "name:war": null, "name:yi": null, "name:zh": null, "label": "natural:wood" }, "geometry": { "type": "Polygon", "coordinates": [ [ [ 23.2682389, 38.183671 ], [ 23.2672023, 38.1840114 ], [ 23.2665061, 38.1840704 ], [ 23.2664493, 38.1839793 ], [ 23.2663315, 38.1838962 ], [ 23.266116, 38.183893 ], [ 23.2661038, 38.1839889 ], [ 23.2661485, 38.1840528 ], [ 23.2660509, 38.1841742 ], [ 23.2658639, 38.1841934 ], [ 23.2657892, 38.1841312 ], [ 23.2656241, 38.1842094 ], [ 23.2655387, 38.1843148 ], [ 23.2653964, 38.1843532 ], [ 23.2652175, 38.1842893 ], [ 23.265119, 38.184188 ], [ 23.2651687, 38.1840049 ], [ 23.2652297, 38.1839282 ], [ 23.2651321, 38.1838195 ], [ 23.2650264, 38.183941 ], [ 23.2648598, 38.1839889 ], [ 23.2647906, 38.1840848 ], [ 23.2645061, 38.1841678 ], [ 23.2642346, 38.1842058 ], [ 23.2639247, 38.1842509 ], [ 23.2636076, 38.1842925 ], [ 23.2634368, 38.1842925 ], [ 23.263445, 38.1844746 ], [ 23.263384, 38.1846248 ], [ 23.2632092, 38.1848006 ], [ 23.2632051, 38.1846568 ], [ 23.2632336, 38.1845417 ], [ 23.2631279, 38.1843883 ], [ 23.2628758, 38.1843212 ], [ 23.2625343, 38.1843724 ], [ 23.2624408, 38.184449 ], [ 23.2624001, 38.1846472 ], [ 23.2622985, 38.1846695 ], [ 23.2622375, 38.1847974 ], [ 23.2622213, 38.1849316 ], [ 23.2621481, 38.1850914 ], [ 23.2621481, 38.1849156 ], [ 23.2620871, 38.1847878 ], [ 23.2620424, 38.1845577 ], [ 23.2619326, 38.1844586 ], [ 23.2617049, 38.1844331 ], [ 23.2615505, 38.184366 ], [ 23.2614163, 38.1843404 ], [ 23.2613431, 38.1844075 ], [ 23.2614285, 38.1845385 ], [ 23.2614285, 38.1846408 ], [ 23.2612943, 38.1845737 ], [ 23.2611683, 38.1844746 ], [ 23.2609732, 38.1844203 ], [ 23.2608065, 38.1843276 ], [ 23.2606886, 38.1843276 ], [ 23.2605747, 38.1843947 ], [ 23.2604609, 38.1842989 ], [ 23.2602984, 38.1842537 ], [ 23.2601073, 38.1842524 ], [ 23.2601682, 38.1843468 ], [ 23.2601235, 38.1844267 ], [ 23.2599812, 38.1844586 ], [ 23.2597291, 38.1844267 ], [ 23.2594811, 38.1844618 ], [ 23.2592575, 38.1844746 ], [ 23.2590136, 38.1845034 ], [ 23.2587819, 38.1845992 ], [ 23.2588266, 38.1846919 ], [ 23.2589608, 38.1847366 ], [ 23.2589038, 38.1848133 ], [ 23.2588388, 38.1849987 ], [ 23.2587168, 38.1850818 ], [ 23.2586152, 38.185216 ], [ 23.2584932, 38.1851968 ], [ 23.2582859, 38.1851329 ], [ 23.2581233, 38.1850945 ], [ 23.2579485, 38.1851041 ], [ 23.2578671, 38.1851776 ], [ 23.2577452, 38.1851968 ], [ 23.2575907, 38.1850977 ], [ 23.2573834, 38.1850402 ], [ 23.2571963, 38.1850051 ], [ 23.2571679, 38.1849316 ], [ 23.2572411, 38.1847047 ], [ 23.2571882, 38.1845321 ], [ 23.2571703, 38.1843477 ], [ 23.2572167, 38.1842701 ], [ 23.2573915, 38.1842541 ], [ 23.2575338, 38.1842445 ], [ 23.257611, 38.1841103 ], [ 23.2573834, 38.1840752 ], [ 23.2571963, 38.1841039 ], [ 23.2570906, 38.1840879 ], [ 23.256989, 38.184024 ], [ 23.2567857, 38.1838547 ], [ 23.2566312, 38.1838067 ], [ 23.2564605, 38.1838355 ], [ 23.2564442, 38.1839473 ], [ 23.2565621, 38.1840784 ], [ 23.256554, 38.1841998 ], [ 23.2565133, 38.1844459 ], [ 23.2565743, 38.1845577 ], [ 23.256802, 38.1846887 ], [ 23.2566678, 38.1847366 ], [ 23.2565753, 38.1848509 ], [ 23.2567004, 38.1849539 ], [ 23.2565743, 38.1850306 ], [ 23.2564402, 38.185037 ], [ 23.2562979, 38.1850818 ], [ 23.2561678, 38.1851776 ], [ 23.2559564, 38.1852799 ], [ 23.255749, 38.1853278 ], [ 23.2557002, 38.1852288 ], [ 23.2555905, 38.1851361 ], [ 23.2553059, 38.1851201 ], [ 23.2551433, 38.1850466 ], [ 23.255001, 38.1849284 ], [ 23.2550294, 38.1848453 ], [ 23.2552774, 38.1848485 ], [ 23.2555783, 38.1847111 ], [ 23.2557897, 38.1846919 ], [ 23.2559035, 38.1846376 ], [ 23.2559645, 38.1845481 ], [ 23.2559198, 38.1845034 ], [ 23.2558263, 38.1845449 ], [ 23.2556881, 38.1845545 ], [ 23.2555702, 38.184497 ], [ 23.2554482, 38.1843212 ], [ 23.2554157, 38.184171 ], [ 23.2554075, 38.1839857 ], [ 23.2552287, 38.1839218 ], [ 23.2549888, 38.1839633 ], [ 23.2548424, 38.1839633 ], [ 23.2546676, 38.1839985 ], [ 23.2545172, 38.184072 ], [ 23.2543912, 38.184171 ], [ 23.2543586, 38.1842701 ], [ 23.2542529, 38.1843116 ], [ 23.2539521, 38.1843148 ], [ 23.253944, 38.1844075 ], [ 23.2539931, 38.1845075 ], [ 23.2538627, 38.1845705 ], [ 23.2538139, 38.1846536 ], [ 23.2536431, 38.1847846 ], [ 23.2535374, 38.1849412 ], [ 23.2534073, 38.1849316 ], [ 23.2532772, 38.1848421 ], [ 23.2530902, 38.1847558 ], [ 23.2528626, 38.1847239 ], [ 23.2527447, 38.1848453 ], [ 23.2526471, 38.1848485 ], [ 23.2526146, 38.1847271 ], [ 23.2524072, 38.1846536 ], [ 23.2522121, 38.1846568 ], [ 23.2519722, 38.1846759 ], [ 23.2517242, 38.1846376 ], [ 23.2514925, 38.1846695 ], [ 23.251212, 38.1846919 ], [ 23.251029, 38.1846759 ], [ 23.250777, 38.1847015 ], [ 23.250529, 38.1846568 ], [ 23.2502932, 38.1846887 ], [ 23.2501712, 38.1847878 ], [ 23.2500371, 38.1847271 ], [ 23.2497972, 38.1847335 ], [ 23.2495939, 38.1848038 ], [ 23.249411, 38.1848549 ], [ 23.2493396, 38.185001 ], [ 23.248753, 38.185037 ], [ 23.246522, 38.184876 ], [ 23.2452605, 38.1849507 ], [ 23.241947, 38.185147 ], [ 23.238452637419144, 38.185493188073693 ], [ 23.238452637419144, 38.189699903936464 ], [ 23.268369387954447, 38.189699903936464 ], [ 23.268369387954447, 38.183638806684037 ], [ 23.2682389, 38.183671 ] ] ] } },
{ "type": "Feature", "properties": { "element": "way", "id": 535757225, "ele": null, "name": null, "name:de": null, "name:el": null, "name:en": null, "name:es": null, "name:fr": null, "name:it": null, "name:la": null, "name:pt": null, "natural": null, "wikidata": null, "wikipedia": null, "leisure": null, "amenity": null, "wheelchair": null, "operator": null, "source": null, "access": null, "alt_name": null, "man_made": "tower", "prominence": null, "summit": null, "surface": null, "waterway": null, "building": "yes", "height": "30", "tower:type": "communication", "denomination": null, "religion": null, "tourism": null, "intermittent": null, "free_flying:site": null, "sport": null, "type": null, "leaf_type": null, "alt_name:cs": null, "alt_name:nl": null, "alt_name:nn": null, "alt_name:sk": null, "name:als": null, "name:am": null, "name:ar": null, "name:az": null, "name:be": null, "name:bg": null, "name:br": null, "name:ca": null, "name:cs": null, "name:cy": null, "name:da": null, "name:eo": null, "name:eu": null, "name:fa": null, "name:fi": null, "name:ga": null, "name:gl": null, "name:he": null, "name:hu": null, "name:hy": null, "name:id": null, "name:ja": null, "name:jv": null, "name:kk": null, "name:ko": null, "name:li": null, "name:lt": null, "name:lv": null, "name:mk": null, "name:ms": null, "name:nl": null, "name:nn": null, "name:no": null, "name:os": null, "name:pl": null, "name:ro": null, "name:ru": null, "name:scn": null, "name:sco": null, "name:sh": null, "name:sk": null, "name:sl": null, "name:sr": null, "name:sv": null, "name:tg": null, "name:uk": null, "name:uz": null, "name:vec": null, "name:vi": null, "name:war": null, "name:yi": null, "name:zh": null, "label": "building:yes" }, "geometry": { "type": "Polygon", "coordinates": [ [ [ 23.2516235, 38.1844212 ], [ 23.2516253, 38.1843316 ], [ 23.2514546, 38.1843295 ], [ 23.2514529, 38.1844191 ], [ 23.2516235, 38.1844212 ] ] ] } },
{ "type": "Feature", "properties": { "element": "way", "id": 669080192, "ele": null, "name": "Πρ.Ηλίας", "name:de": null, "name:el": null, "name:en": null, "name:es": null, "name:fr": null, "name:it": null, "name:la": null, "name:pt": null, "natural": null, "wikidata": null, "wikipedia": null, "leisure": null, "amenity": "place_of_worship", "wheelchair": "no", "operator": null, "source": null, "access": null, "alt_name": null, "man_made": null, "prominence": null, "summit": null, "surface": null, "waterway": null, "building": "yes", "height": null, "tower:type": null, "denomination": "greek_orthodox", "religion": "christian", "tourism": null, "intermittent": null, "free_flying:site": null, "sport": null, "type": null, "leaf_type": null, "alt_name:cs": null, "alt_name:nl": null, "alt_name:nn": null, "alt_name:sk": null, "name:als": null, "name:am": null, "name:ar": null, "name:az": null, "name:be": null, "name:bg": null, "name:br": null, "name:ca": null, "name:cs": null, "name:cy": null, "name:da": null, "name:eo": null, "name:eu": null, "name:fa": null, "name:fi": null, "name:ga": null, "name:gl": null, "name:he": null, "name:hu": null, "name:hy": null, "name:id": null, "name:ja": null, "name:jv": null, "name:kk": null, "name:ko": null, "name:li": null, "name:lt": null, "name:lv": null, "name:mk": null, "name:ms": null, "name:nl": null, "name:nn": null, "name:no": null, "name:os": null, "name:pl": null, "name:ro": null, "name:ru": null, "name:scn": null, "name:sco": null, "name:sh": null, "name:sk": null, "name:sl": null, "name:sr": null, "name:sv": null, "name:tg": null, "name:uk": null, "name:uz": null, "name:vec": null, "name:vi": null, "name:war": null, "name:yi": null, "name:zh": null, "label": "building:yes;amenity:place_of_worship" }, "geometry": { "type": "Polygon", "coordinates": [ [ [ 23.2509749, 38.1842679 ], [ 23.2509767, 38.1842237 ], [ 23.2508991, 38.1842218 ], [ 23.2508973, 38.1842659 ], [ 23.2509749, 38.1842679 ] ] ] } },
{ "type": "Feature", "properties": { "element": "way", "id": 735330657, "ele": null, "name": null, "name:de": null, "name:el": null, "name:en": null, "name:es": null, "name:fr": null, "name:it": null, "name:la": null, "name:pt": null, "natural": "wood", "wikidata": null, "wikipedia": null, "leisure": null, "amenity": null, "wheelchair": null, "operator": null, "source": null, "access": null, "alt_name": null, "man_made": null, "prominence": null, "summit": null, "surface": null, "waterway": null, "building": null, "height": null, "tower:type": null, "denomination": null, "religion": null, "tourism": null, "intermittent": null, "free_flying:site": null, "sport": null, "type": null, "leaf_type": null, "alt_name:cs": null, "alt_name:nl": null, "alt_name:nn": null, "alt_name:sk": null, "name:als": null, "name:am": null, "name:ar": null, "name:az": null, "name:be": null, "name:bg": null, "name:br": null, "name:ca": null, "name:cs": null, "name:cy": null, "name:da": null, "name:eo": null, "name:eu": null, "name:fa": null, "name:fi": null, "name:ga": null, "name:gl": null, "name:he": null, "name:hu": null, "name:hy": null, "name:id": null, "name:ja": null, "name:jv": null, "name:kk": null, "name:ko": null, "name:li": null, "name:lt": null, "name:lv": null, "name:mk": null, "name:ms": null, "name:nl": null, "name:nn": null, "name:no": null, "name:os": null, "name:pl": null, "name:ro": null, "name:ru": null, "name:scn": null, "name:sco": null, "name:sh": null, "name:sk": null, "name:sl": null, "name:sr": null, "name:sv": null, "name:tg": null, "name:uk": null, "name:uz": null, "name:vec": null, "name:vi": null, "name:war": null, "name:yi": null, "name:zh": null, "label": "natural:wood" }, "geometry": { "type": "Polygon", "coordinates": [ [ [ 23.2668256, 38.1700649 ], [ 23.2667393, 38.1702005 ], [ 23.2667024, 38.1703434 ], [ 23.2667732, 38.1703555 ], [ 23.2669427, 38.1703313 ], [ 23.2669797, 38.1701472 ], [ 23.2670474, 38.1699438 ], [ 23.2671152, 38.1697839 ], [ 23.2671152, 38.1696943 ], [ 23.2670084, 38.1696832 ], [ 23.2669211, 38.1697088 ], [ 23.2669119, 38.1697912 ], [ 23.2669119, 38.1699002 ], [ 23.2668657, 38.1699704 ], [ 23.2668256, 38.1700649 ] ] ] } },
{ "type": "Feature", "properties": { "element": "way", "id": 802091751, "ele": "1400", "name": "Καταφύγιο Κορυφής", "name:de": null, "name:el": null, "name:en": null, "name:es": null, "name:fr": null, "name:it": null, "name:la": null, "name:pt": null, "natural": null, "wikidata": null, "wikipedia": null, "leisure": null, "amenity": null, "wheelchair": null, "operator": "ΕΟΣ Ελευσίνας", "source": null, "access": null, "alt_name": null, "man_made": null, "prominence": null, "summit": null, "surface": null, "waterway": null, "building": "yes", "height": null, "tower:type": null, "denomination": null, "religion": null, "tourism": "alpine_hut", "intermittent": null, "free_flying:site": null, "sport": null, "type": null, "leaf_type": null, "alt_name:cs": null, "alt_name:nl": null, "alt_name:nn": null, "alt_name:sk": null, "name:als": null, "name:am": null, "name:ar": null, "name:az": null, "name:be": null, "name:bg": null, "name:br": null, "name:ca": null, "name:cs": null, "name:cy": null, "name:da": null, "name:eo": null, "name:eu": null, "name:fa": null, "name:fi": null, "name:ga": null, "name:gl": null, "name:he": null, "name:hu": null, "name:hy": null, "name:id": null, "name:ja": null, "name:jv": null, "name:kk": null, "name:ko": null, "name:li": null, "name:lt": null, "name:lv": null, "name:mk": null, "name:ms": null, "name:nl": null, "name:nn": null, "name:no": null, "name:os": null, "name:pl": null, "name:ro": null, "name:ru": null, "name:scn": null, "name:sco": null, "name:sh": null, "name:sk": null, "name:sl": null, "name:sr": null, "name:sv": null, "name:tg": null, "name:uk": null, "name:uz": null, "name:vec": null, "name:vi": null, "name:war": null, "name:yi": null, "name:zh": null, "label": "building:yes;tourism:alpine_hut" }, "geometry": { "type": "Polygon", "coordinates": [ [ [ 23.2499961, 38.1841161 ], [ 23.2500137, 38.1840443 ], [ 23.2499198, 38.1840301 ], [ 23.2499022, 38.1841018 ], [ 23.2499961, 38.1841161 ] ] ] } },
{ "type": "Feature", "properties": { "element": "way", "id": 1230518226, "ele": null, "name": null, "name:de": null, "name:el": null, "name:en": null, "name:es": null, "name:fr": null, "name:it": null, "name:la": null, "name:pt": null, "natural": null, "wikidata": null, "wikipedia": null, "leisure": null, "amenity": null, "wheelchair": null, "operator": null, "source": null, "access": null, "alt_name": null, "man_made": "tower", "prominence": null, "summit": null, "surface": null, "waterway": null, "building": "yes", "height": null, "tower:type": "communication", "denomination": null, "religion": null, "tourism": null, "intermittent": null, "free_flying:site": null, "sport": null, "type": null, "leaf_type": null, "alt_name:cs": null, "alt_name:nl": null, "alt_name:nn": null, "alt_name:sk": null, "name:als": null, "name:am": null, "name:ar": null, "name:az": null, "name:be": null, "name:bg": null, "name:br": null, "name:ca": null, "name:cs": null, "name:cy": null, "name:da": null, "name:eo": null, "name:eu": null, "name:fa": null, "name:fi": null, "name:ga": null, "name:gl": null, "name:he": null, "name:hu": null, "name:hy": null, "name:id": null, "name:ja": null, "name:jv": null, "name:kk": null, "name:ko": null, "name:li": null, "name:lt": null, "name:lv": null, "name:mk": null, "name:ms": null, "name:nl": null, "name:nn": null, "name:no": null, "name:os": null, "name:pl": null, "name:ro": null, "name:ru": null, "name:scn": null, "name:sco": null, "name:sh": null, "name:sk": null, "name:sl": null, "name:sr": null, "name:sv": null, "name:tg": null, "name:uk": null, "name:uz": null, "name:vec": null, "name:vi": null, "name:war": null, "name:yi": null, "name:zh": null, "label": "building:yes" }, "geometry": { "type": "Polygon", "coordinates": [ [ [ 23.2479736, 38.1841695 ], [ 23.2480017, 38.1840463 ], [ 23.2478919, 38.1840309 ], [ 23.2478638, 38.1841541 ], [ 23.2479736, 38.1841695 ] ] ] } },
{ "type": "Feature", "properties": { "element": "way", "id": 1230518227, "ele": null, "name": null, "name:de": null, "name:el": null, "name:en": null, "name:es": null, "name:fr": null, "name:it": null, "name:la": null, "name:pt": null, "natural": null, "wikidata": null, "wikipedia": null, "leisure": null, "amenity": null, "wheelchair": null, "operator": null, "source": null, "access": null, "alt_name": null, "man_made": null, "prominence": null, "summit": null, "surface": null, "waterway": null, "building": "yes", "height": null, "tower:type": null, "denomination": null, "religion": null, "tourism": null, "intermittent": null, "free_flying:site": null, "sport": null, "type": null, "leaf_type": null, "alt_name:cs": null, "alt_name:nl": null, "alt_name:nn": null, "alt_name:sk": null, "name:als": null, "name:am": null, "name:ar": null, "name:az": null, "name:be": null, "name:bg": null, "name:br": null, "name:ca": null, "name:cs": null, "name:cy": null, "name:da": null, "name:eo": null, "name:eu": null, "name:fa": null, "name:fi": null, "name:ga": null, "name:gl": null, "name:he": null, "name:hu": null, "name:hy": null, "name:id": null, "name:ja": null, "name:jv": null, "name:kk": null, "name:ko": null, "name:li": null, "name:lt": null, "name:lv": null, "name:mk": null, "name:ms": null, "name:nl": null, "name:nn": null, "name:no": null, "name:os": null, "name:pl": null, "name:ro": null, "name:ru": null, "name:scn": null, "name:sco": null, "name:sh": null, "name:sk": null, "name:sl": null, "name:sr": null, "name:sv": null, "name:tg": null, "name:uk": null, "name:uz": null, "name:vec": null, "name:vi": null, "name:war": null, "name:yi": null, "name:zh": null, "label": "building:yes" }, "geometry": { "type": "Polygon", "coordinates": [ [ [ 23.2489004, 38.1844973 ], [ 23.2489171, 38.1844471 ], [ 23.2488297, 38.1844291 ], [ 23.248813, 38.1844793 ], [ 23.2489004, 38.1844973 ] ] ] } },
{ "type": "Feature", "properties": { "element": "way", "id": 1230518228, "ele": null, "name": null, "name:de": null, "name:el": null, "name:en": null, "name:es": null, "name:fr": null, "name:it": null, "name:la": null, "name:pt": null, "natural": null, "wikidata": null, "wikipedia": null, "leisure": null, "amenity": null, "wheelchair": null, "operator": null, "source": null, "access": null, "alt_name": null, "man_made": null, "prominence": null, "summit": null, "surface": null, "waterway": null, "building": "yes", "height": null, "tower:type": null, "denomination": null, "religion": null, "tourism": null, "intermittent": null, "free_flying:site": null, "sport": null, "type": null, "leaf_type": null, "alt_name:cs": null, "alt_name:nl": null, "alt_name:nn": null, "alt_name:sk": null, "name:als": null, "name:am": null, "name:ar": null, "name:az": null, "name:be": null, "name:bg": null, "name:br": null, "name:ca": null, "name:cs": null, "name:cy": null, "name:da": null, "name:eo": null, "name:eu": null, "name:fa": null, "name:fi": null, "name:ga": null, "name:gl": null, "name:he": null, "name:hu": null, "name:hy": null, "name:id": null, "name:ja": null, "name:jv": null, "name:kk": null, "name:ko": null, "name:li": null, "name:lt": null, "name:lv": null, "name:mk": null, "name:ms": null, "name:nl": null, "name:nn": null, "name:no": null, "name:os": null, "name:pl": null, "name:ro": null, "name:ru": null, "name:scn": null, "name:sco": null, "name:sh": null, "name:sk": null, "name:sl": null, "name:sr": null, "name:sv": null, "name:tg": null, "name:uk": null, "name:uz": null, "name:vec": null, "name:vi": null, "name:war": null, "name:yi": null, "name:zh": null, "label": "building:yes" }, "geometry": { "type": "Polygon", "coordinates": [ [ [ 23.2485157, 38.1842891 ], [ 23.2484761, 38.184153 ], [ 23.2483158, 38.1841818 ], [ 23.2483478, 38.1842918 ], [ 23.2484196, 38.1842789 ], [ 23.2484272, 38.1843051 ], [ 23.2485157, 38.1842891 ] ] ] } },
{ "type": "Feature", "properties": { "element": "way", "id": 1230518229, "ele": null, "name": null, "name:de": null, "name:el": null, "name:en": null, "name:es": null, "name:fr": null, "name:it": null, "name:la": null, "name:pt": null, "natural": null, "wikidata": null, "wikipedia": null, "leisure": null, "amenity": null, "wheelchair": null, "operator": null, "source": null, "access": null, "alt_name": null, "man_made": null, "prominence": null, "summit": null, "surface": null, "waterway": null, "building": "yes", "height": null, "tower:type": null, "denomination": null, "religion": null, "tourism": null, "intermittent": null, "free_flying:site": null, "sport": null, "type": null, "leaf_type": null, "alt_name:cs": null, "alt_name:nl": null, "alt_name:nn": null, "alt_name:sk": null, "name:als": null, "name:am": null, "name:ar": null, "name:az": null, "name:be": null, "name:bg": null, "name:br": null, "name:ca": null, "name:cs": null, "name:cy": null, "name:da": null, "name:eo": null, "name:eu": null, "name:fa": null, "name:fi": null, "name:ga": null, "name:gl": null, "name:he": null, "name:hu": null, "name:hy": null, "name:id": null, "name:ja": null, "name:jv": null, "name:kk": null, "name:ko": null, "name:li": null, "name:lt": null, "name:lv": null, "name:mk": null, "name:ms": null, "name:nl": null, "name:nn": null, "name:no": null, "name:os": null, "name:pl": null, "name:ro": null, "name:ru": null, "name:scn": null, "name:sco": null, "name:sh": null, "name:sk": null, "name:sl": null, "name:sr": null, "name:sv": null, "name:tg": null, "name:uk": null, "name:uz": null, "name:vec": null, "name:vi": null, "name:war": null, "name:yi": null, "name:zh": null, "label": "building:yes" }, "geometry": { "type": "Polygon", "coordinates": [ [ [ 23.2484689, 38.1840783 ], [ 23.2485565, 38.1840888 ], [ 23.248578, 38.1839777 ], [ 23.2484321, 38.1839603 ], [ 23.2484029, 38.1841116 ], [ 23.2484611, 38.1841186 ], [ 23.2484689, 38.1840783 ] ] ] } },
{ "type": "Feature", "properties": { "element": "way", "id": 1230518230, "ele": null, "name": null, "name:de": null, "name:el": null, "name:en": null, "name:es": null, "name:fr": null, "name:it": null, "name:la": null, "name:pt": null, "natural": null, "wikidata": null, "wikipedia": null, "leisure": null, "amenity": null, "wheelchair": null, "operator": null, "source": null, "access": null, "alt_name": null, "man_made": null, "prominence": null, "summit": null, "surface": null, "waterway": null, "building": "yes", "height": null, "tower:type": null, "denomination": null, "religion": null, "tourism": null, "intermittent": null, "free_flying:site": null, "sport": null, "type": null, "leaf_type": null, "alt_name:cs": null, "alt_name:nl": null, "alt_name:nn": null, "alt_name:sk": null, "name:als": null, "name:am": null, "name:ar": null, "name:az": null, "name:be": null, "name:bg": null, "name:br": null, "name:ca": null, "name:cs": null, "name:cy": null, "name:da": null, "name:eo": null, "name:eu": null, "name:fa": null, "name:fi": null, "name:ga": null, "name:gl": null, "name:he": null, "name:hu": null, "name:hy": null, "name:id": null, "name:ja": null, "name:jv": null, "name:kk": null, "name:ko": null, "name:li": null, "name:lt": null, "name:lv": null, "name:mk": null, "name:ms": null, "name:nl": null, "name:nn": null, "name:no": null, "name:os": null, "name:pl": null, "name:ro": null, "name:ru": null, "name:scn": null, "name:sco": null, "name:sh": null, "name:sk": null, "name:sl": null, "name:sr": null, "name:sv": null, "name:tg": null, "name:uk": null, "name:uz": null, "name:vec": null, "name:vi": null, "name:war": null, "name:yi": null, "name:zh": null, "label": "building:yes" }, "geometry": { "type": "Polygon", "coordinates": [ [ [ 23.2490575, 38.183818 ], [ 23.2490672, 38.1837609 ], [ 23.2489998, 38.1837539 ], [ 23.2489902, 38.1838109 ], [ 23.2490575, 38.183818 ] ] ] } },
{ "type": "Feature", "properties": { "element": "way", "id": 1230518231, "ele": null, "name": null, "name:de": null, "name:el": null, "name:en": null, "name:es": null, "name:fr": null, "name:it": null, "name:la": null, "name:pt": null, "natural": null, "wikidata": null, "wikipedia": null, "leisure": null, "amenity": null, "wheelchair": null, "operator": null, "source": null, "access": null, "alt_name": null, "man_made": null, "prominence": null, "summit": null, "surface": null, "waterway": null, "building": "yes", "height": null, "tower:type": null, "denomination": null, "religion": null, "tourism": null, "intermittent": null, "free_flying:site": null, "sport": null, "type": null, "leaf_type": null, "alt_name:cs": null, "alt_name:nl": null, "alt_name:nn": null, "alt_name:sk": null, "name:als": null, "name:am": null, "name:ar": null, "name:az": null, "name:be": null, "name:bg": null, "name:br": null, "name:ca": null, "name:cs": null, "name:cy": null, "name:da": null, "name:eo": null, "name:eu": null, "name:fa": null, "name:fi": null, "name:ga": null, "name:gl": null, "name:he": null, "name:hu": null, "name:hy": null, "name:id": null, "name:ja": null, "name:jv": null, "name:kk": null, "name:ko": null, "name:li": null, "name:lt": null, "name:lv": null, "name:mk": null, "name:ms": null, "name:nl": null, "name:nn": null, "name:no": null, "name:os": null, "name:pl": null, "name:ro": null, "name:ru": null, "name:scn": null, "name:sco": null, "name:sh": null, "name:sk": null, "name:sl": null, "name:sr": null, "name:sv": null, "name:tg": null, "name:uk": null, "name:uz": null, "name:vec": null, "name:vi": null, "name:war": null, "name:yi": null, "name:zh": null, "label": "building:yes" }, "geometry": { "type": "Polygon", "coordinates": [ [ [ 23.2466852, 38.1834967 ], [ 23.2467617, 38.1835469 ], [ 23.2468297, 38.1834828 ], [ 23.2467614, 38.183438 ], [ 23.2468595, 38.1833456 ], [ 23.2467872, 38.1832982 ], [ 23.2464997, 38.1835691 ], [ 23.2465639, 38.1836111 ], [ 23.2466852, 38.1834967 ] ] ] } },
{ "type": "Feature", "properties": { "element": "way", "id": 1230518232, "ele": null, "name": null, "name:de": null, "name:el": null, "name:en": null, "name:es": null, "name:fr": null, "name:it": null, "name:la": null, "name:pt": null, "natural": null, "wikidata": null, "wikipedia": null, "leisure": null, "amenity": null, "wheelchair": null, "operator": null, "source": null, "access": null, "alt_name": null, "man_made": null, "prominence": null, "summit": null, "surface": null, "waterway": null, "building": "yes", "height": null, "tower:type": null, "denomination": null, "religion": null, "tourism": null, "intermittent": null, "free_flying:site": null, "sport": null, "type": null, "leaf_type": null, "alt_name:cs": null, "alt_name:nl": null, "alt_name:nn": null, "alt_name:sk": null, "name:als": null, "name:am": null, "name:ar": null, "name:az": null, "name:be": null, "name:bg": null, "name:br": null, "name:ca": null, "name:cs": null, "name:cy": null, "name:da": null, "name:eo": null, "name:eu": null, "name:fa": null, "name:fi": null, "name:ga": null, "name:gl": null, "name:he": null, "name:hu": null, "name:hy": null, "name:id": null, "name:ja": null, "name:jv": null, "name:kk": null, "name:ko": null, "name:li": null, "name:lt": null, "name:lv": null, "name:mk": null, "name:ms": null, "name:nl": null, "name:nn": null, "name:no": null, "name:os": null, "name:pl": null, "name:ro": null, "name:ru": null, "name:scn": null, "name:sco": null, "name:sh": null, "name:sk": null, "name:sl": null, "name:sr": null, "name:sv": null, "name:tg": null, "name:uk": null, "name:uz": null, "name:vec": null, "name:vi": null, "name:war": null, "name:yi": null, "name:zh": null, "label": "building:yes" }, "geometry": { "type": "Polygon", "coordinates": [ [ [ 23.2470781, 38.1832208 ], [ 23.247017, 38.1831513 ], [ 23.2468556, 38.183239 ], [ 23.2469167, 38.1833085 ], [ 23.2470781, 38.1832208 ] ] ] } },
{ "type": "Feature", "properties": { "element": "way", "id": 1230518233, "ele": null, "name": null, "name:de": null, "name:el": null, "name:en": null, "name:es": null, "name:fr": null, "name:it": null, "name:la": null, "name:pt": null, "natural": null, "wikidata": null, "wikipedia": null, "leisure": null, "amenity": null, "wheelchair": null, "operator": null, "source": null, "access": null, "alt_name": null, "man_made": null, "prominence": null, "summit": null, "surface": null, "waterway": null, "building": "yes", "height": null, "tower:type": null, "denomination": null, "religion": null, "tourism": null, "intermittent": null, "free_flying:site": null, "sport": null, "type": null, "leaf_type": null, "alt_name:cs": null, "alt_name:nl": null, "alt_name:nn": null, "alt_name:sk": null, "name:als": null, "name:am": null, "name:ar": null, "name:az": null, "name:be": null, "name:bg": null, "name:br": null, "name:ca": null, "name:cs": null, "name:cy": null, "name:da": null, "name:eo": null, "name:eu": null, "name:fa": null, "name:fi": null, "name:ga": null, "name:gl": null, "name:he": null, "name:hu": null, "name:hy": null, "name:id": null, "name:ja": null, "name:jv": null, "name:kk": null, "name:ko": null, "name:li": null, "name:lt": null, "name:lv": null, "name:mk": null, "name:ms": null, "name:nl": null, "name:nn": null, "name:no": null, "name:os": null, "name:pl": null, "name:ro": null, "name:ru": null, "name:scn": null, "name:sco": null, "name:sh": null, "name:sk": null, "name:sl": null, "name:sr": null, "name:sv": null, "name:tg": null, "name:uk": null, "name:uz": null, "name:vec": null, "name:vi": null, "name:war": null, "name:yi": null, "name:zh": null, "label": "building:yes" }, "geometry": { "type": "Polygon", "coordinates": [ [ [ 23.2462503, 38.1836056 ], [ 23.2462889, 38.183562 ], [ 23.2462118, 38.1835199 ], [ 23.2461732, 38.1835634 ], [ 23.2462503, 38.1836056 ] ] ] } },
{ "type": "Feature", "properties": { "element": "way", "id": 1230518234, "ele": null, "name": "Κιθαιρώνας Κορυφή - Απογείωση Αλεξιπτώτου Πλαγιάς", "name:de": null, "name:el": "Κιθαιρώνας Κορυφή - Απογείωση Αλεξιπτώτου Πλαγιάς", "name:en": "Kithaironas Peak - Paragliding Takeoff", "name:es": null, "name:fr": null, "name:it": null, "name:la": null, "name:pt": null, "natural": null, "wikidata": null, "wikipedia": null, "leisure": "pitch", "amenity": null, "wheelchair": null, "operator": null, "source": null, "access": "yes", "alt_name": null, "man_made": null, "prominence": null, "summit": null, "surface": "ground", "waterway": null, "building": null, "height": null, "tower:type": null, "denomination": null, "religion": null, "tourism": null, "intermittent": null, "free_flying:site": "takeoff", "sport": "paragliding", "type": null, "leaf_type": null, "alt_name:cs": null, "alt_name:nl": null, "alt_name:nn": null, "alt_name:sk": null, "name:als": null, "name:am": null, "name:ar": null, "name:az": null, "name:be": null, "name:bg": null, "name:br": null, "name:ca": null, "name:cs": null, "name:cy": null, "name:da": null, "name:eo": null, "name:eu": null, "name:fa": null, "name:fi": null, "name:ga": null, "name:gl": null, "name:he": null, "name:hu": null, "name:hy": null, "name:id": null, "name:ja": null, "name:jv": null, "name:kk": null, "name:ko": null, "name:li": null, "name:lt": null, "name:lv": null, "name:mk": null, "name:ms": null, "name:nl": null, "name:nn": null, "name:no": null, "name:os": null, "name:pl": null, "name:ro": null, "name:ru": null, "name:scn": null, "name:sco": null, "name:sh": null, "name:sk": null, "name:sl": null, "name:sr": null, "name:sv": null, "name:tg": null, "name:uk": null, "name:uz": null, "name:vec": null, "name:vi": null, "name:war": null, "name:yi": null, "name:zh": null, "label": "leisure:pitch" }, "geometry": { "type": "Polygon", "coordinates": [ [ [ 23.2497732, 38.1844469 ], [ 23.2497055, 38.1842523 ], [ 23.249493, 38.184289 ], [ 23.2492525, 38.1843239 ], [ 23.2493412, 38.1845515 ], [ 23.2497732, 38.1844469 ] ] ] } }
]
}
