{
"type": "FeatureCollection",
"name": "patch_24385_polygon",
"crs": { "type": "name", "properties": { "name": "urn:ogc:def:crs:OGC:1.3:CRS84" } },
"features": [
{ "type": "Feature", "properties": { "osm_id": 1394587875, "name": "Natura 2000 Κορυφές όρους Μενοίκιο – Όρος Κούσκουρας- Ύψωμα - Σπήλαιο Πελαδέ", "label": "leisure:nature_reserve", "leisure": "nature_reserve", "landuse": null, "natural": null }, "geometry": { "type": "Polygon", "coordinates": [ [ [ 23.8352075, 41.164626500410122 ], [ 23.8365016, 41.164567900410113 ], [ 23.837465, 41.163989200410057 ], [ 23.8376109, 41.162897700409943 ], [ 23.8369784, 41.161820800409821 ], [ 23.8384867, 41.161791500409826 ], [ 23.840343577423731, 41.161200391090688 ], [ 23.840343577423731, 41.142368866978394 ], [ 23.808880996961861, 41.142368866978394 ], [ 23.808880996961861, 41.164653426909169 ], [ 23.835188655607723, 41.164653426909169 ], [ 23.8352075, 41.164626500410122 ] ] ] } },
{ "type": "Feature", "properties": { "osm_id": 132180883, "name": "Οροπέδιο Καλλίπολης", "label": "landuse:meadow", "leisure": null, "landuse": "meadow", "natural": null }, "geometry": { "type": "Polygon", "coordinates": [ [ [ 23.8145034, 41.164612200410119 ], [ 23.8144657, 41.163731500410023 ], [ 23.814708, 41.162860600409957 ], [ 23.8146805, 41.161943700409836 ], [ 23.8145248, 41.160861000409724 ], [ 23.8149744, 41.160241900409659 ], [ 23.8140659, 41.159690900409593 ], [ 23.8109371, 41.157860200409402 ], [ 23.8097901, 41.156451200409244 ], [ 23.808880996961861, 41.155013702657811 ], [ 23.808880996961861, 41.163183273221712 ], [ 23.8095279, 41.164130500410067 ], [ 23.810007899574167, 41.164653426909169 ], [ 23.814546532980938, 41.164653426909169 ], [ 23.8145034, 41.164612200410119 ] ] ] } },
{ "type": "Feature", "properties": { "osm_id": 136757158, "name": null, "label": "natural:wood", "leisure": null, "landuse": null, "natural": "wood" }, "geometry": { "type": "Polygon", "coordinates": [ [ [ 23.832571, 41.142716000407788 ], [ 23.833655, 41.143812000407898 ], [ 23.833808, 41.144595000407989 ], [ 23.83422, 41.145416000408062 ], [ 23.835201, 41.146043000408127 ], [ 23.835976, 41.146475000408195 ], [ 23.836286, 41.146632000408196 ], [ 23.836025, 41.147335000408276 ], [ 23.835884, 41.147396000408278 ], [ 23.836201, 41.147524000408296 ], [ 23.836596, 41.147840000408337 ], [ 23.836902, 41.148159000408363 ], [ 23.837025, 41.148456000408402 ], [ 23.83712, 41.148888000408434 ], [ 23.83697, 41.149166000408471 ], [ 23.836881, 41.14946300040851 ], [ 23.836732, 41.149669000408522 ], [ 23.836521, 41.149875000408557 ], [ 23.836161, 41.15019400040859 ], [ 23.835769, 41.150422000408597 ], [ 23.835437, 41.150561000408622 ], [ 23.835075, 41.150745000408648 ], [ 23.834773, 41.150861000408646 ], [ 23.834441, 41.151022000408659 ], [ 23.834109, 41.151161000408685 ], [ 23.833808, 41.151367000408712 ], [ 23.833598, 41.15155100040873 ], [ 23.833448, 41.151803000408755 ], [ 23.833541, 41.152122000408781 ], [ 23.833484, 41.152463000408822 ], [ 23.833334, 41.15273700040887 ], [ 23.833125, 41.153011000408888 ], [ 23.833006, 41.153285000408907 ], [ 23.832826, 41.153563000408937 ], [ 23.832647, 41.153837000408977 ], [ 23.832467, 41.154111000409003 ], [ 23.832469, 41.154363000409028 ], [ 23.83238, 41.154637000409068 ], [ 23.832171, 41.154955000409096 ], [ 23.831931, 41.155207000409114 ], [ 23.831598, 41.155301000409132 ], [ 23.831205, 41.155349000409124 ], [ 23.830781, 41.155281000409126 ], [ 23.830505, 41.154917000409078 ], [ 23.830382, 41.154665000409075 ], [ 23.830319, 41.154391000409021 ], [ 23.830196, 41.154098000409 ], [ 23.830133, 41.153846000408983 ], [ 23.830041, 41.153595000408941 ], [ 23.829886, 41.153208000408902 ], [ 23.829733, 41.152956000408878 ], [ 23.829645, 41.152884000408875 ], [ 23.829596, 41.15271100040885 ], [ 23.828832, 41.152095000408792 ], [ 23.82778, 41.151695000408743 ], [ 23.826441, 41.151476000408735 ], [ 23.825101, 41.151547000408719 ], [ 23.823665, 41.151581000408726 ], [ 23.822087, 41.151397000408728 ], [ 23.820556, 41.151142000408676 ], [ 23.818785, 41.1512480004087 ], [ 23.817254, 41.151281000408687 ], [ 23.816814, 41.151128000408683 ], [ 23.816107, 41.150882000408672 ], [ 23.815055, 41.150555000408609 ], [ 23.813477, 41.150118000408575 ], [ 23.81166, 41.149717000408536 ], [ 23.810938, 41.149687000408534 ], [ 23.810969, 41.149764000408538 ], [ 23.810895, 41.149748000408529 ], [ 23.810894, 41.150171000408584 ], [ 23.811651, 41.150674000408642 ], [ 23.813355, 41.151106000408681 ], [ 23.814916, 41.151681000408729 ], [ 23.816471, 41.152195000408796 ], [ 23.816489, 41.152152000408798 ], [ 23.818696, 41.152743000408861 ], [ 23.820956, 41.152707000408846 ], [ 23.822954, 41.15259100040884 ], [ 23.824424, 41.153149000408895 ], [ 23.825052, 41.153905000408976 ], [ 23.825681, 41.154701000409069 ], [ 23.826362, 41.15553600040915 ], [ 23.826307, 41.15664800040927 ], [ 23.825988, 41.157720000409384 ], [ 23.825565, 41.158673000409479 ], [ 23.82488, 41.159506000409579 ], [ 23.823617, 41.159941000409617 ], [ 23.822353, 41.16077400040971 ], [ 23.821459, 41.16109000040975 ], [ 23.820145, 41.160929000409723 ], [ 23.818937, 41.160609000409693 ], [ 23.818255, 41.160092000409634 ], [ 23.817678, 41.159733000409595 ], [ 23.816828, 41.159603000409582 ], [ 23.81633, 41.160444000409676 ], [ 23.816046, 41.161455000409781 ], [ 23.816396, 41.162254000409874 ], [ 23.816888, 41.162520000409891 ], [ 23.817732, 41.162681000409904 ], [ 23.818647, 41.163055000409955 ], [ 23.818434, 41.163694000410025 ], [ 23.817305, 41.164650000410127 ], [ 23.817298175691182, 41.164653426909169 ], [ 23.830789448373285, 41.164653426909169 ], [ 23.830516, 41.164113000410069 ], [ 23.829601, 41.163496000409999 ], [ 23.828481, 41.162955000409951 ], [ 23.827158, 41.162106000409864 ], [ 23.826854, 41.161643000409796 ], [ 23.827059, 41.161335000409757 ], [ 23.828282, 41.16118300040975 ], [ 23.830321, 41.160724000409708 ], [ 23.831951, 41.161034000409749 ], [ 23.833377, 41.161422000409779 ], [ 23.834904, 41.161886000409837 ], [ 23.836127, 41.162196000409871 ], [ 23.837044, 41.162197000409869 ], [ 23.837657, 41.161351000409766 ], [ 23.837966, 41.160196000409641 ], [ 23.839597, 41.159813000409606 ], [ 23.840343577423731, 41.160113184959592 ], [ 23.840343577423731, 41.142368866978394 ], [ 23.831859522030317, 41.142368866978394 ], [ 23.832571, 41.142716000407788 ] ] ] } },
{ "type": "Feature", "properties": { "osm_id": 1394904920, "name": "Natura 2000 Κοιλάδα Τιμίου Προδρόμου - Μενοίκιο", "label": "leisure:nature_reserve", "leisure": "nature_reserve", "landuse": null, "natural": null }, "geometry": { "type": "Polygon", "coordinates": [ [ [ 23.8211763, 41.160304800409655 ], [ 23.820597, 41.151919900408764 ], [ 23.8111127, 41.149431700408506 ], [ 23.808880996961861, 41.146771797651674 ], [ 23.808880996961861, 41.164653426909169 ], [ 23.823743515628784, 41.164653426909169 ], [ 23.8211763, 41.160304800409655 ] ] ] } }
]
}
