{
"type": "FeatureCollection",
"name": "patch_71390_point",
"crs": { "type": "name", "properties": { "name": "urn:ogc:def:crs:OGC:1.3:CRS84" } },
"features": [
{ "type": "Feature", "properties": { "osm_id": 8255336760, "name": "Χωματάς", "label": "natural:peak", "natural": "peak", "amenity": null }, "geometry": { "type": "Point", "coordinates": [ 25.8455135, 35.145622599661856 ] } },
{ "type": "Feature", "properties": { "osm_id": 11225363684, "name": "Petros Kantina", "label": "amenity:restaurant", "natural": null, "amenity": "restaurant" }, "geometry": { "type": "Point", "coordinates": [ 25.8613751, 35.153715099662442 ] } },
{ "type": "Feature", "properties": { "osm_id": 11225363694, "name": null, "label": "amenity:shower", "natural": null, "amenity": "shower" }, "geometry": { "type": "Point", "coordinates": [ 25.8611449, 35.152261899662328 ] } },
{ "type": "Feature", "properties": { "osm_id": 11225363677, "name": null, "label": "amenity:shower", "natural": null, "amenity": "shower" }, "geometry": { "type": "Point", "coordinates": [ 25.8620105, 35.151833899662314 ] } },
{ "type": "Feature", "properties": { "osm_id": 11225363661, "name": "Tholos Beach", "label": "amenity:restaurant", "natural": null, "amenity": "restaurant" }, "geometry": { "type": "Point", "coordinates": [ 25.8619778, 35.151606299662276 ] } }
]
}
