{
"type": "FeatureCollection",
"name": "patch_71390_features",
"crs": { "type": "name", "properties": { "name": "urn:ogc:def:crs:OGC:1.3:CRS84" } },
"features": [
{ "type": "Feature", "properties": { "osm_id": 826111425, "name": null, "label": "building:yes", "building": "yes", "natural": null, "landuse": null, "leisure": null, "amenity": null, "historic": null, "waterway": null }, "geometry": { "type": "Polygon", "coordinates": [ [ [ 25.8714833, 35.145754799661866 ], [ 25.8715879, 35.145699999661858 ], [ 25.8714806, 35.145552999661852 ], [ 25.8713894, 35.14560569966185 ], [ 25.8714833, 35.145754799661866 ] ] ] } },
{ "type": "Feature", "properties": { "osm_id": 839392159, "name": null, "label": "natural:scree", "building": null, "natural": "scree", "landuse": null, "leisure": null, "amenity": null, "historic": null, "waterway": null }, "geometry": { "type": "MultiPolygon", "coordinates": [ [ [ [ 25.8716356, 35.141886299661586 ], [ 25.8706915, 35.141919799661586 ], [ 25.8696952, 35.142180299661604 ], [ 25.8708953, 35.142159999661601 ], [ 25.8721184, 35.142177599661608 ], [ 25.8715927, 35.142475899661633 ], [ 25.8699297, 35.142624999661642 ], [ 25.8688032, 35.142747799661649 ], [ 25.8675908, 35.142993499661664 ], [ 25.8676767, 35.143589999661714 ], [ 25.8682882, 35.143300499661692 ], [ 25.8691572, 35.143212799661683 ], [ 25.8699619, 35.142975899661671 ], [ 25.8702945, 35.143318099661684 ], [ 25.8699404, 35.143633899661715 ], [ 25.8697044, 35.143984799661737 ], [ 25.868889, 35.144625299661783 ], [ 25.8699941, 35.144098899661742 ], [ 25.8702301, 35.143783099661718 ], [ 25.8705842, 35.143511099661701 ], [ 25.871024, 35.143353199661696 ], [ 25.8716034, 35.142774099661644 ], [ 25.872276976622711, 35.142437030271658 ], [ 25.872276976622711, 35.141875563283349 ], [ 25.8716356, 35.141886299661586 ] ] ], [ [ [ 25.8715819, 35.144403299661768 ], [ 25.8706378, 35.144991099661794 ], [ 25.8708202, 35.145105199661806 ], [ 25.8713245, 35.144955999661804 ], [ 25.8719038, 35.145166599661827 ], [ 25.872276976622711, 35.145071682343215 ], [ 25.872276976622711, 35.143701268612425 ], [ 25.8715819, 35.144403299661768 ] ] ] ] } },
{ "type": "Feature", "properties": { "osm_id": 826111431, "name": null, "label": "building:yes", "building": "yes", "natural": null, "landuse": null, "leisure": null, "amenity": null, "historic": null, "waterway": null }, "geometry": { "type": "Polygon", "coordinates": [ [ [ 25.8675861, 35.142131499661609 ], [ 25.867688, 35.142048199661588 ], [ 25.8675914, 35.141947299661588 ], [ 25.867468, 35.142004299661593 ], [ 25.8675861, 35.142131499661609 ] ] ] } },
{ "type": "Feature", "properties": { "osm_id": 725460944, "name": null, "label": "building:yes", "building": "yes", "natural": null, "landuse": null, "leisure": null, "amenity": null, "historic": null, "waterway": null }, "geometry": { "type": "Polygon", "coordinates": [ [ [ 25.8691385, 35.145364099661847 ], [ 25.8691985, 35.14533059966184 ], [ 25.8691192, 35.145235599661824 ], [ 25.8690591, 35.145269199661833 ], [ 25.8691385, 35.145364099661847 ] ] ] } },
{ "type": "Feature", "properties": { "osm_id": 822522141, "name": null, "label": "building:yes", "building": "yes", "natural": null, "landuse": null, "leisure": null, "amenity": null, "historic": null, "waterway": null }, "geometry": { "type": "Polygon", "coordinates": [ [ [ 25.8699297, 35.145317999661835 ], [ 25.870037, 35.145256499661826 ], [ 25.8697849, 35.145002099661816 ], [ 25.8696937, 35.14507229966182 ], [ 25.8699297, 35.145317999661835 ] ] ] } },
{ "type": "Feature", "properties": { "osm_id": 826111427, "name": null, "label": "building:yes", "building": "yes", "natural": null, "landuse": null, "leisure": null, "amenity": null, "historic": null, "waterway": null }, "geometry": { "type": "Polygon", "coordinates": [ [ [ 25.8709737, 35.145517999661848 ], [ 25.8712044, 35.145436799661844 ], [ 25.8711534, 35.145344699661834 ], [ 25.8709066, 35.145443399661836 ], [ 25.8709737, 35.145517999661848 ] ] ] } },
{ "type": "Feature", "properties": { "osm_id": 826111423, "name": null, "label": "building:yes", "building": "yes", "natural": null, "landuse": null, "leisure": null, "amenity": null, "historic": null, "waterway": null }, "geometry": { "type": "Polygon", "coordinates": [ [ [ 25.8704989, 35.146085999661885 ], [ 25.8705767, 35.146046499661878 ], [ 25.8705016, 35.145965399661875 ], [ 25.8704265, 35.14601139966188 ], [ 25.8704989, 35.146085999661885 ] ] ] } },
{ "type": "Feature", "properties": { "osm_id": 826111422, "name": null, "label": "building:yes", "building": "yes", "natural": null, "landuse": null, "leisure": null, "amenity": null, "historic": null, "waterway": null }, "geometry": { "type": "Polygon", "coordinates": [ [ [ 25.8705633, 35.146254899661898 ], [ 25.8706572, 35.146221999661897 ], [ 25.8705955, 35.1461583996619 ], [ 25.8705258, 35.146199999661896 ], [ 25.8705633, 35.146254899661898 ] ] ] } },
{ "type": "Feature", "properties": { "osm_id": 826111424, "name": null, "label": "building:yes", "building": "yes", "natural": null, "landuse": null, "leisure": null, "amenity": null, "historic": null, "waterway": null }, "geometry": { "type": "Polygon", "coordinates": [ [ [ 25.8702253, 35.146524599661923 ], [ 25.87033, 35.146502699661923 ], [ 25.870287, 35.146399599661912 ], [ 25.8701797, 35.146436899661914 ], [ 25.8702253, 35.146524599661923 ] ] ] } },
{ "type": "Feature", "properties": { "osm_id": 822522143, "name": null, "label": "building:yes", "building": "yes", "natural": null, "landuse": null, "leisure": null, "amenity": null, "historic": null, "waterway": null }, "geometry": { "type": "Polygon", "coordinates": [ [ [ 25.8697877, 35.146040099661889 ], [ 25.8699111, 35.145956799661874 ], [ 25.8698145, 35.145847099661871 ], [ 25.8696858, 35.145917299661875 ], [ 25.8697877, 35.146040099661889 ] ] ] } },
{ "type": "Feature", "properties": { "osm_id": 822522142, "name": null, "label": "building:yes", "building": "yes", "natural": null, "landuse": null, "leisure": null, "amenity": null, "historic": null, "waterway": null }, "geometry": { "type": "Polygon", "coordinates": [ [ [ 25.8691386, 35.147206899661974 ], [ 25.8695141, 35.147184899661966 ], [ 25.8694712, 35.147053399661949 ], [ 25.8691386, 35.14708409966196 ], [ 25.8691386, 35.147206899661974 ] ] ] } },
{ "type": "Feature", "properties": { "osm_id": 822522144, "name": null, "label": "building:yes", "building": "yes", "natural": null, "landuse": null, "leisure": null, "amenity": null, "historic": null, "waterway": null }, "geometry": { "type": "Polygon", "coordinates": [ [ [ 25.8709303, 35.146790199661936 ], [ 25.8710108, 35.146759499661933 ], [ 25.8708498, 35.146434899661912 ], [ 25.8707908, 35.146456799661919 ], [ 25.8709303, 35.146790199661936 ] ] ] } },
{ "type": "Feature", "properties": { "osm_id": 725461556, "name": null, "label": "building:yes", "building": "yes", "natural": null, "landuse": null, "leisure": null, "amenity": null, "historic": null, "waterway": null }, "geometry": { "type": "Polygon", "coordinates": [ [ [ 25.8670582, 35.14860139966207 ], [ 25.8671255, 35.148584899662076 ], [ 25.867144, 35.14863549966207 ], [ 25.8672092, 35.148619499662082 ], [ 25.8671593, 35.148483699662059 ], [ 25.8670884, 35.148501099662063 ], [ 25.867099, 35.14852999966206 ], [ 25.8670375, 35.148545099662073 ], [ 25.8670582, 35.14860139966207 ] ] ] } },
{ "type": "Feature", "properties": { "osm_id": 823407830, "name": null, "label": "landuse:orchard", "building": null, "natural": null, "landuse": "orchard", "leisure": null, "amenity": null, "historic": null, "waterway": null }, "geometry": { "type": "Polygon", "coordinates": [ [ [ 25.8652983, 35.150644999662219 ], [ 25.8656309, 35.151302899662269 ], [ 25.8661996, 35.151337999662267 ], [ 25.8672081, 35.15108359966225 ], [ 25.8680986, 35.150451999662209 ], [ 25.8688174, 35.149671199662151 ], [ 25.8683239, 35.149092299662101 ], [ 25.8677445, 35.148881699662091 ], [ 25.8668755, 35.148969399662086 ], [ 25.8664249, 35.148679999662072 ], [ 25.8660064, 35.148846599662079 ], [ 25.8659099, 35.149364199662131 ], [ 25.8659099, 35.149565999662137 ], [ 25.865706, 35.149644899662142 ], [ 25.8655666, 35.14950459966213 ], [ 25.8651696, 35.149811599662158 ], [ 25.8650516, 35.150057199662172 ], [ 25.8652983, 35.150644999662219 ] ] ] } },
{ "type": "Feature", "properties": { "osm_id": 823407831, "name": null, "label": "landuse:orchard", "building": null, "natural": null, "landuse": "orchard", "leisure": null, "amenity": null, "historic": null, "waterway": null }, "geometry": { "type": "MultiPolygon", "coordinates": [ [ [ [ 25.8715533, 35.150794099662228 ], [ 25.8717893, 35.151530999662278 ], [ 25.8713816, 35.151583599662288 ], [ 25.8709524, 35.151530999662278 ], [ 25.8707057, 35.150802899662231 ], [ 25.8703624, 35.150767799662219 ], [ 25.869783, 35.15023269966219 ], [ 25.8694182, 35.150083499662166 ], [ 25.8690534, 35.150522199662205 ], [ 25.8683668, 35.150794099662228 ], [ 25.8679484, 35.150794099662228 ], [ 25.8674441, 35.151030999662247 ], [ 25.867691, 35.15147829966228 ], [ 25.8675837, 35.151653799662292 ], [ 25.8678304, 35.152022199662326 ], [ 25.8683132, 35.151943299662314 ], [ 25.8686136, 35.151899399662305 ], [ 25.8687746, 35.152171399662329 ], [ 25.86856, 35.152504699662352 ], [ 25.8690106, 35.153162599662394 ], [ 25.8692037, 35.153030999662391 ], [ 25.8688604, 35.152127499662328 ], [ 25.8691179, 35.152127499662328 ], [ 25.8695256, 35.152881899662376 ], [ 25.8698904, 35.152820499662376 ], [ 25.8691072, 35.151881899662307 ], [ 25.8686458, 35.151723999662302 ], [ 25.8683991, 35.150908199662247 ], [ 25.8688497, 35.150767799662219 ], [ 25.8693325, 35.151723999662302 ], [ 25.869944, 35.151644999662281 ], [ 25.8696651, 35.150995899662234 ], [ 25.8702873, 35.151092399662254 ], [ 25.8706521, 35.151750299662304 ], [ 25.8709311, 35.151644999662281 ], [ 25.8715963, 35.151618699662286 ], [ 25.8718645, 35.151759099662307 ], [ 25.872276976622711, 35.15168615692717 ], [ 25.872276976622711, 35.150715677667463 ], [ 25.8715533, 35.150794099662228 ] ] ], [ [ [ 25.8720683, 35.151890599662309 ], [ 25.87224, 35.152101199662326 ], [ 25.872276976622711, 35.152095974431042 ], [ 25.872276976622711, 35.15185832575213 ], [ 25.8720683, 35.151890599662309 ] ] ] ] } },
{ "type": "Feature", "properties": { "osm_id": 841970501, "name": null, "label": "natural:scree", "building": null, "natural": "scree", "landuse": null, "leisure": null, "amenity": null, "historic": null, "waterway": null }, "geometry": { "type": "Polygon", "coordinates": [ [ [ 25.871337, 35.14833909966206 ], [ 25.8708748, 35.148313499662038 ], [ 25.8702636, 35.148409599662067 ], [ 25.8702244, 35.148672299662074 ], [ 25.871337, 35.14833909966206 ] ] ] } },
{ "type": "Feature", "properties": { "osm_id": 823407829, "name": null, "label": "landuse:orchard", "building": null, "natural": null, "landuse": "orchard", "leisure": null, "amenity": null, "historic": null, "waterway": null }, "geometry": { "type": "Polygon", "coordinates": [ [ [ 25.8718215, 35.148171099662036 ], [ 25.8720682, 35.148478199662065 ], [ 25.872276976622711, 35.148546167575638 ], [ 25.872276976622711, 35.148003351140503 ], [ 25.8718215, 35.148171099662036 ] ] ] } },
{ "type": "Feature", "properties": { "osm_id": 841970502, "name": null, "label": "natural:scree", "building": null, "natural": "scree", "landuse": null, "leisure": null, "amenity": null, "historic": null, "waterway": null }, "geometry": { "type": "Polygon", "coordinates": [ [ [ 25.8691787, 35.154020499662472 ], [ 25.8695584, 35.153662999662444 ], [ 25.8698091, 35.153413199662431 ], [ 25.870052, 35.152708499662367 ], [ 25.869245, 35.153067199662395 ], [ 25.8692215, 35.153445199662428 ], [ 25.8689394, 35.153970499662456 ], [ 25.8691787, 35.154020499662472 ] ] ] } },
{ "type": "Feature", "properties": { "osm_id": 823407832, "name": null, "label": "landuse:orchard", "building": null, "natural": null, "landuse": "orchard", "leisure": null, "amenity": null, "historic": null, "waterway": null }, "geometry": { "type": "Polygon", "coordinates": [ [ [ 25.8672833, 35.153408199662415 ], [ 25.8674871, 35.153513499662431 ], [ 25.8677553, 35.153794199662443 ], [ 25.8684527, 35.154434499662493 ], [ 25.8684313, 35.154592399662512 ], [ 25.8689248, 35.154767899662517 ], [ 25.8696436, 35.154794199662518 ], [ 25.8706199, 35.155390699662561 ], [ 25.8715641, 35.155487199662581 ], [ 25.8714675, 35.155276599662564 ], [ 25.8706092, 35.154706499662517 ], [ 25.8707916, 35.154399499662489 ], [ 25.8699547, 35.153785399662439 ], [ 25.8693861, 35.154004699662465 ], [ 25.8691787, 35.154020499662472 ], [ 25.8689248, 35.154039799662463 ], [ 25.8684634, 35.153530999662429 ], [ 25.8688068, 35.153364399662422 ], [ 25.8684849, 35.152855599662374 ], [ 25.8678626, 35.153039799662395 ], [ 25.8675837, 35.152513499662355 ], [ 25.8672618, 35.152557299662355 ], [ 25.8673584, 35.153004699662382 ], [ 25.8671652, 35.1531362996624 ], [ 25.8672833, 35.153408199662415 ] ] ] } },
{ "type": "Feature", "properties": { "osm_id": 590993426, "name": null, "label": "leisure:swimming_pool", "building": null, "natural": null, "landuse": null, "leisure": "swimming_pool", "amenity": null, "historic": null, "waterway": null }, "geometry": { "type": "Polygon", "coordinates": [ [ [ 25.8670451, 35.152879999662396 ], [ 25.8670918, 35.152864699662388 ], [ 25.8670591, 35.152803599662377 ], [ 25.8670101, 35.152822699662387 ], [ 25.8670451, 35.152879999662396 ] ] ] } },
{ "type": "Feature", "properties": { "osm_id": 822522136, "name": null, "label": "building:yes", "building": "yes", "natural": null, "landuse": null, "leisure": null, "amenity": null, "historic": null, "waterway": null }, "geometry": { "type": "Polygon", "coordinates": [ [ [ 25.8671654, 35.152838599662381 ], [ 25.8673049, 35.15279469966238 ], [ 25.867203, 35.152685099662357 ], [ 25.8671064, 35.152724599662371 ], [ 25.8671654, 35.152838599662381 ] ] ] } },
{ "type": "Feature", "properties": { "osm_id": 725464366, "name": null, "label": "natural:beach", "building": null, "natural": "beach", "landuse": null, "leisure": null, "amenity": null, "historic": null, "waterway": null }, "geometry": { "type": "Polygon", "coordinates": [ [ [ 25.8683071, 35.156835199662666 ], [ 25.8682859, 35.156698799662657 ], [ 25.8682216, 35.156672499662662 ], [ 25.8681337, 35.156699499662658 ], [ 25.8680303, 35.15676379966267 ], [ 25.8683071, 35.156835199662666 ] ] ] } },
{ "type": "Feature", "properties": { "osm_id": 567876914, "name": null, "label": "natural:bare_rock", "building": null, "natural": "bare_rock", "landuse": null, "leisure": null, "amenity": null, "historic": null, "waterway": null }, "geometry": { "type": "Polygon", "coordinates": [ [ [ 25.8721161, 35.158398099662783 ], [ 25.872137, 35.158373099662782 ], [ 25.8721386, 35.158357299662782 ], [ 25.8721273, 35.158344099662784 ], [ 25.8721015, 35.158337499662792 ], [ 25.8720838, 35.158366499662783 ], [ 25.8720806, 35.158388899662782 ], [ 25.8721161, 35.158398099662783 ] ] ] } },
{ "type": "Feature", "properties": { "osm_id": 567876916, "name": null, "label": "natural:bare_rock", "building": null, "natural": "bare_rock", "landuse": null, "leisure": null, "amenity": null, "historic": null, "waterway": null }, "geometry": { "type": "Polygon", "coordinates": [ [ [ 25.8722661, 35.158481199662781 ], [ 25.8722354, 35.158494399662793 ], [ 25.8722338, 35.158515499662791 ], [ 25.8722709, 35.158518199662794 ], [ 25.872276976622711, 35.158511800387757 ], [ 25.872276976622711, 35.158487482432548 ], [ 25.8722661, 35.158481199662781 ] ] ] } },
{ "type": "Feature", "properties": { "osm_id": 567876910, "name": null, "label": "natural:bare_rock", "building": null, "natural": "bare_rock", "landuse": null, "leisure": null, "amenity": null, "historic": null, "waterway": null }, "geometry": { "type": "Polygon", "coordinates": [ [ [ 25.8722514, 35.158661299662796 ], [ 25.8722385, 35.158690299662794 ], [ 25.8722385, 35.158717999662798 ], [ 25.8722676, 35.158732499662804 ], [ 25.872276976622711, 35.158731524494073 ], [ 25.872276976622711, 35.158660442714094 ], [ 25.8722514, 35.158661299662796 ] ] ] } },
{ "type": "Feature", "properties": { "osm_id": 841970503, "name": null, "label": "natural:bare_rock", "building": null, "natural": "bare_rock", "landuse": null, "leisure": null, "amenity": null, "historic": null, "waterway": null }, "geometry": { "type": "Polygon", "coordinates": [ [ [ 25.8446819, 35.14327089966168 ], [ 25.8447892, 35.142449199661627 ], [ 25.8446176, 35.142071899661588 ], [ 25.84449901119476, 35.141794824422021 ], [ 25.84449901119476, 35.143663890181031 ], [ 25.8446819, 35.14327089966168 ] ] ] } },
{ "type": "Feature", "properties": { "osm_id": 841970504, "name": null, "label": "natural:bare_rock", "building": null, "natural": "bare_rock", "landuse": null, "leisure": null, "amenity": null, "historic": null, "waterway": null }, "geometry": { "type": "MultiPolygon", "coordinates": [ [ [ [ 25.8445717, 35.147430399661992 ], [ 25.8451403, 35.146974199661948 ], [ 25.8453549, 35.146509199661914 ], [ 25.845151, 35.1463863996619 ], [ 25.8448828, 35.145886399661876 ], [ 25.8449043, 35.145368799661838 ], [ 25.8447648, 35.144833599661787 ], [ 25.84449901119476, 35.144864309010174 ], [ 25.84449901119476, 35.145972255301018 ], [ 25.8446146, 35.146092199661894 ], [ 25.8445162, 35.146806099661937 ], [ 25.84449901119476, 35.146816791364955 ], [ 25.84449901119476, 35.14752209775385 ], [ 25.8445717, 35.147430399661992 ] ] ], [ [ [ 25.844518, 35.147846699662018 ], [ 25.84449901119476, 35.147849379214442 ], [ 25.84449901119476, 35.147873014629234 ], [ 25.844518, 35.147846699662018 ] ] ] ] } },
{ "type": "Feature", "properties": { "osm_id": -895666, "name": "Κάτεργο", "label": "natural:bare_rock", "building": null, "natural": "bare_rock", "landuse": null, "leisure": null, "amenity": null, "historic": null, "waterway": null }, "geometry": { "type": "Polygon", "coordinates": [ [ [ 25.8471192, 35.157298499662708 ], [ 25.8471809, 35.1573226996627 ], [ 25.8472292, 35.157274399662704 ], [ 25.8472306, 35.157222899662692 ], [ 25.8472252, 35.157161499662685 ], [ 25.8473003, 35.157121999662699 ], [ 25.84737, 35.157102299662689 ], [ 25.8475202, 35.157040899662682 ], [ 25.8475846, 35.156988299662686 ], [ 25.8475806, 35.156953199662674 ], [ 25.8475712, 35.156910399662671 ], [ 25.8476074, 35.156886299662659 ], [ 25.8476637, 35.15687529966268 ], [ 25.8476959, 35.156845699662661 ], [ 25.8476785, 35.156801899662661 ], [ 25.8476315, 35.156782099662671 ], [ 25.8475739, 35.156786499662665 ], [ 25.8474545, 35.156825999662672 ], [ 25.8473969, 35.156827099662671 ], [ 25.8473754, 35.156865399662678 ], [ 25.8473432, 35.156881899662672 ], [ 25.8472976, 35.156897199662673 ], [ 25.8472922, 35.156930099662674 ], [ 25.8472547, 35.156960799662677 ], [ 25.8472534, 35.157026599662686 ], [ 25.8472815, 35.157049699662679 ], [ 25.847256, 35.157104499662694 ], [ 25.8472265, 35.157141799662689 ], [ 25.8471689, 35.157166999662692 ], [ 25.8470951, 35.1571998996627 ], [ 25.8470656, 35.1572436996627 ], [ 25.8471192, 35.157298499662708 ] ] ] } },
{ "type": "Feature", "properties": { "osm_id": 841970505, "name": null, "label": "natural:bare_rock", "building": null, "natural": "bare_rock", "landuse": null, "leisure": null, "amenity": null, "historic": null, "waterway": null }, "geometry": { "type": "Polygon", "coordinates": [ [ [ 25.8447434, 35.151038299662247 ], [ 25.8449257, 35.151292599662256 ], [ 25.845151, 35.15154699966228 ], [ 25.8455802, 35.151924199662318 ], [ 25.8450438, 35.151275099662257 ], [ 25.8446683, 35.150827699662244 ], [ 25.84449901119476, 35.150770417830827 ], [ 25.84449901119476, 35.150922837674067 ], [ 25.8447434, 35.151038299662247 ] ] ] } },
{ "type": "Feature", "properties": { "osm_id": 841970506, "name": null, "label": "natural:bare_rock", "building": null, "natural": "bare_rock", "landuse": null, "leisure": null, "amenity": null, "historic": null, "waterway": null }, "geometry": { "type": "Polygon", "coordinates": [ [ [ 25.8502258, 35.154468099662502 ], [ 25.85073, 35.15459099966251 ], [ 25.8513309, 35.15469619966251 ], [ 25.8522428, 35.15542429966257 ], [ 25.8529295, 35.155871599662596 ], [ 25.8530904, 35.155836599662607 ], [ 25.8524037, 35.155433099662559 ], [ 25.8515669, 35.154731299662508 ], [ 25.8512236, 35.154511999662496 ], [ 25.850612, 35.154485699662501 ], [ 25.8500649, 35.154345299662495 ], [ 25.8502258, 35.154468099662502 ] ] ] } },
{ "type": "Feature", "properties": { "osm_id": 822522192, "name": null, "label": "natural:wood", "building": null, "natural": "wood", "landuse": null, "leisure": null, "amenity": null, "historic": null, "waterway": null }, "geometry": { "type": "Polygon", "coordinates": [ [ [ 25.8484552, 35.155921999662596 ], [ 25.8495389, 35.155676399662589 ], [ 25.8503113, 35.155983399662603 ], [ 25.8508156, 35.155983399662603 ], [ 25.8515881, 35.156351799662637 ], [ 25.8520494, 35.15711489966268 ], [ 25.8526931, 35.157325499662704 ], [ 25.8529721, 35.15720269966269 ], [ 25.8530257, 35.156404399662634 ], [ 25.8526288, 35.155878099662601 ], [ 25.8514808, 35.154965899662535 ], [ 25.8503542, 35.154544799662496 ], [ 25.8496354, 35.154553599662499 ], [ 25.8490561, 35.155150099662549 ], [ 25.8483694, 35.155255299662556 ], [ 25.8484552, 35.155921999662596 ] ] ] } },
{ "type": "Feature", "properties": { "osm_id": 822522193, "name": null, "label": "natural:wood", "building": null, "natural": "wood", "landuse": null, "leisure": null, "amenity": null, "historic": null, "waterway": null }, "geometry": { "type": "Polygon", "coordinates": [ [ [ 25.8552144, 35.158974499662818 ], [ 25.8559332, 35.159193799662837 ], [ 25.8566092, 35.15939549966285 ], [ 25.85721, 35.159334099662857 ], [ 25.8572207, 35.158720099662808 ], [ 25.8585189, 35.158579799662796 ], [ 25.8586691, 35.158202599662772 ], [ 25.857843, 35.158281599662786 ], [ 25.8571885, 35.158474499662788 ], [ 25.85515, 35.15830789966278 ], [ 25.8545278, 35.158483299662784 ], [ 25.8552144, 35.158974499662818 ] ] ] } },
{ "type": "Feature", "properties": { "osm_id": 1151105372, "name": null, "label": "natural:scrub", "building": null, "natural": "scrub", "landuse": null, "leisure": null, "amenity": null, "historic": null, "waterway": null }, "geometry": { "type": "Polygon", "coordinates": [ [ [ 25.858864, 35.15793499966275 ], [ 25.8588821, 35.157875699662746 ], [ 25.8589329, 35.157828299662739 ], [ 25.8589474, 35.157759999662744 ], [ 25.8589474, 35.157694799662735 ], [ 25.8590091, 35.157632499662718 ], [ 25.8590599, 35.157561299662724 ], [ 25.859118, 35.15746339966271 ], [ 25.859118, 35.157380299662705 ], [ 25.8590998, 35.157306099662705 ], [ 25.8590381, 35.157306099662705 ], [ 25.8590309, 35.157374399662714 ], [ 25.8590309, 35.15746039966271 ], [ 25.8589946, 35.157528599662712 ], [ 25.8589293, 35.157602799662726 ], [ 25.8588966, 35.157697699662734 ], [ 25.8588386, 35.157801599662733 ], [ 25.8588132, 35.15791129966275 ], [ 25.858864, 35.15793499966275 ] ] ] } },
{ "type": "Feature", "properties": { "osm_id": 590993427, "name": null, "label": "leisure:swimming_pool", "building": null, "natural": null, "landuse": null, "leisure": "swimming_pool", "amenity": null, "historic": null, "waterway": null }, "geometry": { "type": "Polygon", "coordinates": [ [ [ 25.8662695, 35.154364699662494 ], [ 25.8663209, 35.154335999662486 ], [ 25.8662415, 35.154261599662476 ], [ 25.8661924, 35.154295899662486 ], [ 25.8662695, 35.154364699662494 ] ] ] } },
{ "type": "Feature", "properties": { "osm_id": 725464363, "name": null, "label": "building:yes", "building": "yes", "natural": null, "landuse": null, "leisure": null, "amenity": null, "historic": null, "waterway": null }, "geometry": { "type": "Polygon", "coordinates": [ [ [ 25.8658122, 35.154376899662495 ], [ 25.8659099, 35.154293599662481 ], [ 25.8658176, 35.154221199662494 ], [ 25.8657199, 35.154304499662494 ], [ 25.8658122, 35.154376899662495 ] ] ] } },
{ "type": "Feature", "properties": { "osm_id": 725464364, "name": null, "label": "building:yes", "building": "yes", "natural": null, "landuse": null, "leisure": null, "amenity": null, "historic": null, "waterway": null }, "geometry": { "type": "Polygon", "coordinates": [ [ [ 25.8664439, 35.154328899662488 ], [ 25.8665907, 35.154227099662478 ], [ 25.8664734, 35.154113999662478 ], [ 25.8663266, 35.154215799662474 ], [ 25.8664439, 35.154328899662488 ] ] ] } },
{ "type": "Feature", "properties": { "osm_id": 1311762619, "name": null, "label": "leisure:swimming_pool", "building": null, "natural": null, "landuse": null, "leisure": "swimming_pool", "amenity": null, "historic": null, "waterway": null }, "geometry": { "type": "Polygon", "coordinates": [ [ [ 25.866122, 35.152287299662333 ], [ 25.8662055, 35.152178099662329 ], [ 25.8661806, 35.15216659966233 ], [ 25.8660927, 35.152272199662342 ], [ 25.866122, 35.152287299662333 ] ] ] } },
{ "type": "Feature", "properties": { "osm_id": 822522137, "name": null, "label": "building:yes", "building": "yes", "natural": null, "landuse": null, "leisure": null, "amenity": null, "historic": null, "waterway": null }, "geometry": { "type": "Polygon", "coordinates": [ [ [ 25.8644939, 35.153123699662409 ], [ 25.8645851, 35.153088599662397 ], [ 25.8645476, 35.152996499662393 ], [ 25.864451, 35.153013999662399 ], [ 25.8644939, 35.153123699662409 ] ] ] } },
{ "type": "Feature", "properties": { "osm_id": 835099718, "name": null, "label": "building:yes", "building": "yes", "natural": null, "landuse": null, "leisure": null, "amenity": null, "historic": null, "waterway": null }, "geometry": { "type": "Polygon", "coordinates": [ [ [ 25.8643945, 35.152786699662379 ], [ 25.864491, 35.152742799662363 ], [ 25.8644589, 35.152676999662361 ], [ 25.8643677, 35.152716499662375 ], [ 25.8643945, 35.152786699662379 ] ] ] } },
{ "type": "Feature", "properties": { "osm_id": 822522138, "name": null, "label": "building:yes", "building": "yes", "natural": null, "landuse": null, "leisure": null, "amenity": null, "historic": null, "waterway": null }, "geometry": { "type": "Polygon", "coordinates": [ [ [ 25.8642203, 35.152426299662345 ], [ 25.8643706, 35.15236929966234 ], [ 25.8642794, 35.152154399662329 ], [ 25.8641184, 35.152180699662331 ], [ 25.8642203, 35.152426299662345 ] ] ] } },
{ "type": "Feature", "properties": { "osm_id": 350405169, "name": "Tholos Beach", "label": "natural:beach", "building": null, "natural": "beach", "landuse": null, "leisure": null, "amenity": null, "historic": null, "waterway": null }, "geometry": { "type": "Polygon", "coordinates": [ [ [ 25.8609729, 35.152738299662374 ], [ 25.8610372, 35.152830399662371 ], [ 25.8612129, 35.152605599662358 ], [ 25.861394, 35.152419199662347 ], [ 25.8616327, 35.152238199662328 ], [ 25.8617899, 35.15215689966233 ], [ 25.8620892, 35.152009799662309 ], [ 25.8623225, 35.151932199662312 ], [ 25.8625926, 35.151898199662313 ], [ 25.8627608, 35.151872199662314 ], [ 25.8628852, 35.15185299966231 ], [ 25.863187, 35.151825899662292 ], [ 25.8634043, 35.151828099662318 ], [ 25.863593, 35.151830399662295 ], [ 25.8637315, 35.151886199662307 ], [ 25.863824, 35.151955299662312 ], [ 25.8638723, 35.152035399662324 ], [ 25.8639327, 35.152209699662329 ], [ 25.864028, 35.152182799662327 ], [ 25.8639568, 35.151953199662309 ], [ 25.863854, 35.15182389966229 ], [ 25.8637393, 35.151772199662297 ], [ 25.8635851, 35.151730099662302 ], [ 25.8634476, 35.151716999662298 ], [ 25.8633704, 35.15162569966229 ], [ 25.8630399, 35.15163789966229 ], [ 25.8627218, 35.151665399662299 ], [ 25.8622116, 35.151754199662292 ], [ 25.8620734, 35.151784399662297 ], [ 25.861773, 35.151895599662303 ], [ 25.8615829, 35.151963299662313 ], [ 25.8614496, 35.152017099662316 ], [ 25.8613439, 35.152077999662318 ], [ 25.8611563, 35.152221099662327 ], [ 25.8609966, 35.152361799662337 ], [ 25.8608667, 35.152568099662361 ], [ 25.8609729, 35.152738299662374 ] ] ] } },
{ "type": "Feature", "properties": { "osm_id": -18457272, "name": "Legamenis Beach", "label": "natural:beach", "building": null, "natural": "beach", "landuse": null, "leisure": null, "amenity": null, "historic": null, "waterway": null }, "geometry": { "type": "Polygon", "coordinates": [ [ [ 25.8591932, 35.15534129966256 ], [ 25.8592194, 35.155332899662547 ], [ 25.8592832, 35.15531249966255 ], [ 25.8593863, 35.155288699662563 ], [ 25.8593043, 35.155188899662541 ], [ 25.8591993, 35.155066699662534 ], [ 25.8591763, 35.155352999662561 ], [ 25.8591932, 35.15534129966256 ] ] ] } },
{ "type": "Feature", "properties": { "osm_id": 835099719, "name": null, "label": "building:yes", "building": "yes", "natural": null, "landuse": null, "leisure": null, "amenity": null, "historic": null, "waterway": null }, "geometry": { "type": "Polygon", "coordinates": [ [ [ 25.8604811, 35.153094799662398 ], [ 25.8605697, 35.153076199662401 ], [ 25.8605562, 35.153031199662387 ], [ 25.8604624, 35.153046599662403 ], [ 25.8604811, 35.153094799662398 ] ] ] } },
{ "type": "Feature", "properties": { "osm_id": 819935122, "name": "Ἀνάληψις", "label": "amenity:place_of_worship;building:yes", "building": "yes", "natural": null, "landuse": null, "leisure": null, "amenity": "place_of_worship", "historic": null, "waterway": null }, "geometry": { "type": "Polygon", "coordinates": [ [ [ 25.8605088, 35.153215299662406 ], [ 25.8606134, 35.153195499662402 ], [ 25.8606, 35.153140699662394 ], [ 25.8604874, 35.153155999662403 ], [ 25.8605088, 35.153215299662406 ] ] ] } },
{ "type": "Feature", "properties": { "osm_id": 1211629885, "name": null, "label": "building:yes", "building": "yes", "natural": null, "landuse": null, "leisure": null, "amenity": null, "historic": null, "waterway": null }, "geometry": { "type": "Polygon", "coordinates": [ [ [ 25.8619479, 35.151642899662285 ], [ 25.8620387, 35.151614199662291 ], [ 25.8620102, 35.151553799662295 ], [ 25.8619193, 35.151582399662281 ], [ 25.8619479, 35.151642899662285 ] ] ] } },
{ "type": "Feature", "properties": { "osm_id": 835099717, "name": "Ρομαϊκή Σιταποθήκη", "label": "building:yes;historic:building", "building": "yes", "natural": null, "landuse": null, "leisure": null, "amenity": null, "historic": "building", "waterway": null }, "geometry": { "type": "Polygon", "coordinates": [ [ [ 25.8598937, 35.152312999662342 ], [ 25.8599849, 35.152312999662342 ], [ 25.8599152, 35.151804199662301 ], [ 25.8598294, 35.151817399662313 ], [ 25.8598937, 35.152312999662342 ] ] ] } },
{ "type": "Feature", "properties": { "osm_id": 841970500, "name": null, "label": "natural:scree", "building": null, "natural": "scree", "landuse": null, "leisure": null, "amenity": null, "historic": null, "waterway": null }, "geometry": { "type": "Polygon", "coordinates": [ [ [ 25.8633762, 35.149652499662153 ], [ 25.8640579, 35.149460299662138 ], [ 25.8642438, 35.1492441996621 ], [ 25.8638542, 35.149293799662125 ], [ 25.8630863, 35.149530799662145 ], [ 25.8633762, 35.149652499662153 ] ] ] } },
{ "type": "Feature", "properties": { "osm_id": 214734400, "name": null, "label": "amenity:parking", "building": null, "natural": null, "landuse": null, "leisure": null, "amenity": "parking", "historic": null, "waterway": null }, "geometry": { "type": "Polygon", "coordinates": [ [ [ 25.8633704, 35.15162569966229 ], [ 25.8633812, 35.151649699662286 ], [ 25.8634476, 35.151716999662298 ], [ 25.8635851, 35.151730099662302 ], [ 25.8637393, 35.151772199662297 ], [ 25.863854, 35.15182389966229 ], [ 25.8638535, 35.151725599662299 ], [ 25.8637086, 35.151647099662299 ], [ 25.8636602, 35.151607599662299 ], [ 25.8636446, 35.151560699662276 ], [ 25.8635907, 35.151567399662284 ], [ 25.8635294, 35.151558799662276 ], [ 25.8634787, 35.151577599662289 ], [ 25.8633669, 35.151576799662287 ], [ 25.8633704, 35.15162569966229 ] ] ] } },
{ "type": "Feature", "properties": { "osm_id": 435470030, "name": null, "label": "building:yes", "building": "yes", "natural": null, "landuse": null, "leisure": null, "amenity": null, "historic": null, "waterway": null }, "geometry": { "type": "Polygon", "coordinates": [ [ [ 25.8643732, 35.151849399662311 ], [ 25.8645017, 35.151802599662304 ], [ 25.8644058, 35.151626499662292 ], [ 25.8643614, 35.151642699662283 ], [ 25.8643495, 35.15162079966229 ], [ 25.8643037, 35.151637499662293 ], [ 25.8643268, 35.151679999662299 ], [ 25.8642885, 35.151693899662284 ], [ 25.8643732, 35.151849399662311 ] ] ] } },
{ "type": "Feature", "properties": { "osm_id": 1311762620, "name": null, "label": "leisure:swimming_pool", "building": null, "natural": null, "landuse": null, "leisure": "swimming_pool", "amenity": null, "historic": null, "waterway": null }, "geometry": { "type": "Polygon", "coordinates": [ [ [ 25.8641425, 35.151554199662279 ], [ 25.8641649, 35.151578599662287 ], [ 25.8641827, 35.151580099662283 ], [ 25.8641948, 35.151571699662277 ], [ 25.8642098, 35.151564799662289 ], [ 25.8642107, 35.15154729966229 ], [ 25.864206, 35.151536599662279 ], [ 25.864193, 35.151527399662278 ], [ 25.8641874, 35.151511399662276 ], [ 25.8641818, 35.15149229966228 ], [ 25.8641696, 35.151481599662276 ], [ 25.8641547, 35.151481599662276 ], [ 25.8641294, 35.151487699662269 ], [ 25.8641164, 35.15150139966228 ], [ 25.8641425, 35.151554199662279 ] ] ] } },
{ "type": "Feature", "properties": { "osm_id": 435470026, "name": "Άγιος Ραφαήλ", "label": "amenity:place_of_worship;building:yes", "building": "yes", "natural": null, "landuse": null, "leisure": null, "amenity": "place_of_worship", "historic": null, "waterway": null }, "geometry": { "type": "Polygon", "coordinates": [ [ [ 25.8646549, 35.15148989966228 ], [ 25.8647461, 35.151485999662277 ], [ 25.8647431, 35.151440199662289 ], [ 25.8646519, 35.151444099662271 ], [ 25.8646549, 35.15148989966228 ] ] ] } },
{ "type": "Feature", "properties": { "osm_id": 725461557, "name": null, "label": "building:yes", "building": "yes", "natural": null, "landuse": null, "leisure": null, "amenity": null, "historic": null, "waterway": null }, "geometry": { "type": "Polygon", "coordinates": [ [ [ 25.8657009, 35.149236599662117 ], [ 25.8658147, 35.149187599662113 ], [ 25.8657573, 35.149098399662115 ], [ 25.8656435, 35.149147499662106 ], [ 25.8657009, 35.149236599662117 ] ] ] } },
{ "type": "Feature", "properties": { "osm_id": 823407828, "name": null, "label": "landuse:orchard", "building": null, "natural": null, "landuse": "orchard", "leisure": null, "amenity": null, "historic": null, "waterway": null }, "geometry": { "type": "Polygon", "coordinates": [ [ [ 25.8635668, 35.144011599661738 ], [ 25.8639036, 35.144205799661748 ], [ 25.8642147, 35.144942799661806 ], [ 25.8658348, 35.144214599661744 ], [ 25.8659206, 35.144583099661773 ], [ 25.8650623, 35.145118199661816 ], [ 25.8645151, 35.145346899661831 ], [ 25.865073, 35.145750399661871 ], [ 25.8653734, 35.145601299661855 ], [ 25.8657382, 35.145785499661869 ], [ 25.8665322, 35.145487199661837 ], [ 25.8663712, 35.145188899661818 ], [ 25.8675407, 35.144881899661812 ], [ 25.8677874, 35.145831399661873 ], [ 25.8667897, 35.14595419966188 ], [ 25.8669291, 35.146770099661929 ], [ 25.866736, 35.146813999661937 ], [ 25.8667253, 35.147261399661964 ], [ 25.8664571, 35.147305199661965 ], [ 25.8664034, 35.146849099661942 ], [ 25.8662103, 35.146112199661879 ], [ 25.8652447, 35.146270099661898 ], [ 25.8654643, 35.147427299661999 ], [ 25.8654321, 35.148085199662027 ], [ 25.865754, 35.148857199662089 ], [ 25.8666609, 35.148384299662055 ], [ 25.8672832, 35.148243899662056 ], [ 25.8675514, 35.14883169966209 ], [ 25.8683346, 35.148726399662081 ], [ 25.868914, 35.148647499662076 ], [ 25.8701478, 35.148322899662034 ], [ 25.8701371, 35.147919299662021 ], [ 25.8696543, 35.147919299662021 ], [ 25.8689783, 35.147682499662004 ], [ 25.8688496, 35.147384199661978 ], [ 25.8683239, 35.147392999661989 ], [ 25.8684204, 35.146822699661939 ], [ 25.8690427, 35.146699899661932 ], [ 25.8690427, 35.146945599661954 ], [ 25.8695362, 35.14689289966195 ], [ 25.8693968, 35.146375299661912 ], [ 25.8696006, 35.146261299661916 ], [ 25.8702014, 35.146743799661934 ], [ 25.8705126, 35.146682399661934 ], [ 25.8698474, 35.145708599661866 ], [ 25.8695899, 35.145576999661856 ], [ 25.8689462, 35.145734899661868 ], [ 25.8686787, 35.145401599661831 ], [ 25.8686251, 35.144997999661818 ], [ 25.8683461, 35.144524299661768 ], [ 25.8674986, 35.143796099661721 ], [ 25.8673054, 35.142596399661635 ], [ 25.8661789, 35.142632799661634 ], [ 25.8632445, 35.142894499661658 ], [ 25.8635668, 35.144011599661738 ] ] ] } },
{ "type": "Feature", "properties": { "osm_id": 826111430, "name": null, "label": "building:yes", "building": "yes", "natural": null, "landuse": null, "leisure": null, "amenity": null, "historic": null, "waterway": null }, "geometry": { "type": "Polygon", "coordinates": [ [ [ 25.8653491, 35.144614299661782 ], [ 25.865687, 35.144487099661774 ], [ 25.8656173, 35.144399399661765 ], [ 25.8653062, 35.144509099661775 ], [ 25.8653491, 35.144614299661782 ] ] ] } },
{ "type": "Feature", "properties": { "osm_id": 822190675, "name": null, "label": "building:yes", "building": "yes", "natural": null, "landuse": null, "leisure": null, "amenity": null, "historic": null, "waterway": null }, "geometry": { "type": "Polygon", "coordinates": [ [ [ 25.8610307, 35.144368499661766 ], [ 25.8611483, 35.144339799661758 ], [ 25.8611208, 35.144219099661754 ], [ 25.8610107, 35.144241599661754 ], [ 25.8610307, 35.144368499661766 ] ] ] } },
{ "type": "Feature", "properties": { "osm_id": 823407815, "name": null, "label": "landuse:orchard", "building": null, "natural": null, "landuse": "orchard", "leisure": null, "amenity": null, "historic": null, "waterway": null }, "geometry": { "type": "Polygon", "coordinates": [ [ [ 25.8587052, 35.139704799661423 ], [ 25.8591021, 35.140806599661502 ], [ 25.8594669, 35.14254369966163 ], [ 25.8598639, 35.143868499661743 ], [ 25.8600892, 35.144596599661782 ], [ 25.860411, 35.145394999661832 ], [ 25.8606149, 35.14550899966185 ], [ 25.8611299, 35.145544099661848 ], [ 25.8613445, 35.145175699661813 ], [ 25.8620418, 35.14514929966181 ], [ 25.861956, 35.145561699661847 ], [ 25.8620633, 35.14571079966187 ], [ 25.862353, 35.146237199661897 ], [ 25.8620096, 35.146491599661921 ], [ 25.8616127, 35.145833599661877 ], [ 25.8615161, 35.14585119966187 ], [ 25.861956, 35.146595699661923 ], [ 25.8623208, 35.146455399661917 ], [ 25.8626963, 35.14668349966194 ], [ 25.8620204, 35.146911599661948 ], [ 25.8622886, 35.147964299662029 ], [ 25.8627392, 35.149139799662109 ], [ 25.8635331, 35.149321099662124 ], [ 25.8641554, 35.149171899662107 ], [ 25.8642438, 35.1492441996621 ], [ 25.8649279, 35.149803599662157 ], [ 25.8652176, 35.149636899662141 ], [ 25.865121, 35.1491104996621 ], [ 25.865754, 35.148857199662089 ], [ 25.8654321, 35.148085199662027 ], [ 25.8654643, 35.147427299661999 ], [ 25.864724, 35.14743599966198 ], [ 25.864724, 35.14712019966197 ], [ 25.865239, 35.147067599661952 ], [ 25.8648206, 35.145889899661874 ], [ 25.8644022, 35.145565299661854 ], [ 25.8638228, 35.14548629966184 ], [ 25.8632542, 35.145240699661827 ], [ 25.8631147, 35.145003799661801 ], [ 25.8635117, 35.144819599661787 ], [ 25.8633186, 35.14442479966177 ], [ 25.8636404, 35.144266899661758 ], [ 25.8635668, 35.144011599661738 ], [ 25.8632445, 35.142894499661658 ], [ 25.8631469, 35.142556099661618 ], [ 25.863104, 35.142126199661604 ], [ 25.8628894, 35.141819199661576 ], [ 25.8622993, 35.141977099661588 ], [ 25.8621706, 35.141784099661578 ], [ 25.8625461, 35.141433199661556 ], [ 25.8618165, 35.140099599661447 ], [ 25.8615161, 35.13957319966142 ], [ 25.8613981, 35.13982759966143 ], [ 25.8610762, 35.140082099661448 ], [ 25.8605291, 35.140169799661464 ], [ 25.8602608, 35.140073299661445 ], [ 25.8593596, 35.140160999661468 ], [ 25.8593274, 35.140003099661456 ], [ 25.8600248, 35.139810099661425 ], [ 25.8599926, 35.139739899661429 ], [ 25.8591665, 35.139959199661448 ], [ 25.8590485, 35.139748699661432 ], [ 25.8597566, 35.13950299966141 ], [ 25.859522054659994, 35.139145820014086 ], [ 25.85848158846748, 35.139145820014086 ], [ 25.8587052, 35.139704799661423 ] ] ] } },
{ "type": "Feature", "properties": { "osm_id": 823407814, "name": null, "label": "landuse:orchard", "building": null, "natural": null, "landuse": "orchard", "leisure": null, "amenity": null, "historic": null, "waterway": null }, "geometry": { "type": "Polygon", "coordinates": [ [ [ 25.85333, 35.139154599661389 ], [ 25.8535553, 35.139874099661434 ], [ 25.8542312, 35.139996899661433 ], [ 25.8545853, 35.140602299661488 ], [ 25.8537592, 35.140882999661507 ], [ 25.8538235, 35.141091999661526 ], [ 25.8543171, 35.14149559966156 ], [ 25.8547891, 35.141986899661596 ], [ 25.8550359, 35.142609799661635 ], [ 25.8556474, 35.143232699661681 ], [ 25.8561517, 35.143487099661705 ], [ 25.8564521, 35.143609899661705 ], [ 25.856892, 35.144101199661748 ], [ 25.8576752, 35.144276699661752 ], [ 25.8585871, 35.145074999661816 ], [ 25.8590163, 35.146288299661904 ], [ 25.8591558, 35.146481299661907 ], [ 25.8599712, 35.146665499661935 ], [ 25.8601428, 35.14701639966195 ], [ 25.8604003, 35.147665599661998 ], [ 25.8617307, 35.149025299662092 ], [ 25.8622779, 35.150192099662185 ], [ 25.862589, 35.150104399662169 ], [ 25.8624817, 35.149306099662113 ], [ 25.8618165, 35.14863969966207 ], [ 25.8616985, 35.148157199662037 ], [ 25.8615054, 35.147700999662 ], [ 25.8617843, 35.14750799966199 ], [ 25.8615161, 35.146385099661913 ], [ 25.8612694, 35.145876299661872 ], [ 25.861087, 35.145744699661869 ], [ 25.8607329, 35.145753499661858 ], [ 25.8605183, 35.145779799661859 ], [ 25.8602287, 35.145613099661844 ], [ 25.8600999, 35.145148199661818 ], [ 25.8597673, 35.14424449966176 ], [ 25.8595849, 35.143428599661682 ], [ 25.8592416, 35.142393499661608 ], [ 25.8590163, 35.141261699661541 ], [ 25.8587159, 35.140296599661461 ], [ 25.858269464830496, 35.139145820014086 ], [ 25.853327570013388, 35.139145820014086 ], [ 25.85333, 35.139154599661389 ] ] ] } },
{ "type": "Feature", "properties": { "osm_id": 819935121, "name": "Ἅγιος Ἀντώνιος", "label": "amenity:place_of_worship;building:yes", "building": "yes", "natural": null, "landuse": null, "leisure": null, "amenity": "place_of_worship", "historic": null, "waterway": null }, "geometry": { "type": "Polygon", "coordinates": [ [ [ 25.8522959, 35.14836199966205 ], [ 25.8523093, 35.148333499662058 ], [ 25.8522396, 35.148318099662049 ], [ 25.8522262, 35.148344399662058 ], [ 25.8522959, 35.14836199966205 ] ] ] } },
{ "type": "Feature", "properties": { "osm_id": 725467289, "name": null, "label": "building:yes", "building": "yes", "natural": null, "landuse": null, "leisure": null, "amenity": null, "historic": null, "waterway": null }, "geometry": { "type": "Polygon", "coordinates": [ [ [ 25.8486126, 35.147767199662006 ], [ 25.8486603, 35.147765599661994 ], [ 25.8486582, 35.147723299662012 ], [ 25.8486105, 35.147724899662009 ], [ 25.8486126, 35.147767199662006 ] ] ] } },
{ "type": "Feature", "properties": { "osm_id": 823389688, "name": null, "label": "landuse:orchard", "building": null, "natural": null, "landuse": "orchard", "leisure": null, "amenity": null, "historic": null, "waterway": null }, "geometry": { "type": "Polygon", "coordinates": [ [ [ 25.8518488, 35.139872099661446 ], [ 25.8514841, 35.140459999661481 ], [ 25.8512695, 35.141038999661511 ], [ 25.851409, 35.142047899661605 ], [ 25.8517952, 35.143384599661687 ], [ 25.85113, 35.144077699661736 ], [ 25.8512802, 35.144261999661758 ], [ 25.8522351, 35.144358499661763 ], [ 25.8524928, 35.145774099661864 ], [ 25.8522996, 35.146221599661892 ], [ 25.8523962, 35.146353199661903 ], [ 25.8527932, 35.146177699661891 ], [ 25.8535978, 35.146695299661928 ], [ 25.8540914, 35.146993599661954 ], [ 25.8547244, 35.146712799661941 ], [ 25.8563551, 35.146914599661955 ], [ 25.8576855, 35.147291799661978 ], [ 25.8583507, 35.147978799662027 ], [ 25.8601746, 35.150233399662191 ], [ 25.8604428, 35.150900099662238 ], [ 25.8608183, 35.151022899662244 ], [ 25.8607218, 35.150531599662216 ], [ 25.861387, 35.150207099662182 ], [ 25.8614513, 35.149628099662138 ], [ 25.8607325, 35.148423399662043 ], [ 25.8597776, 35.147081199661962 ], [ 25.8589964, 35.146589899661926 ], [ 25.858814, 35.146344299661905 ], [ 25.8582775, 35.145182499661814 ], [ 25.8572798, 35.144629799661779 ], [ 25.8560352, 35.14387529966173 ], [ 25.8549194, 35.142918999661653 ], [ 25.8541899, 35.142410199661626 ], [ 25.8540933, 35.141734599661575 ], [ 25.8536427, 35.141260899661532 ], [ 25.8530955, 35.139958699661449 ], [ 25.852649257496978, 35.139145820014086 ], [ 25.851670225255919, 35.139145820014086 ], [ 25.8518488, 35.139872099661446 ] ] ] } },
{ "type": "Feature", "properties": { "osm_id": 823407827, "name": null, "label": "landuse:orchard", "building": null, "natural": null, "landuse": "orchard", "leisure": null, "amenity": null, "historic": null, "waterway": null }, "geometry": { "type": "Polygon", "coordinates": [ [ [ 25.8624882, 35.139163799661382 ], [ 25.8618015, 35.139304199661396 ], [ 25.8622092, 35.140593899661482 ], [ 25.862574, 35.141202799661535 ], [ 25.8630461, 35.141650199661562 ], [ 25.863104, 35.142126199661604 ], [ 25.8632445, 35.142894499661658 ], [ 25.8661789, 35.142632799661634 ], [ 25.8673054, 35.142596399661635 ], [ 25.866769, 35.141745399661566 ], [ 25.866769, 35.141254099661545 ], [ 25.8668441, 35.140753999661499 ], [ 25.8661467, 35.140806599661502 ], [ 25.8658249, 35.140666299661497 ], [ 25.865224, 35.140736399661506 ], [ 25.8651597, 35.14057849966148 ], [ 25.8657927, 35.140332899661473 ], [ 25.8651168, 35.140218799661461 ], [ 25.8648903, 35.139762599661417 ], [ 25.864728148515564, 35.139145820014086 ], [ 25.862465118413365, 35.139145820014086 ], [ 25.8624882, 35.139163799661382 ] ] ] } },
{ "type": "Feature", "properties": { "osm_id": 839392157, "name": null, "label": "natural:scree", "building": null, "natural": "scree", "landuse": null, "leisure": null, "amenity": null, "historic": null, "waterway": null }, "geometry": { "type": "MultiPolygon", "coordinates": [ [ [ [ 25.8716833, 35.139673799661416 ], [ 25.8708464, 35.139980899661445 ], [ 25.8701705, 35.13991939966143 ], [ 25.8696019, 35.139980899661445 ], [ 25.8696662, 35.139708899661422 ], [ 25.8692049, 35.139735199661423 ], [ 25.8693229, 35.139401799661414 ], [ 25.8690118, 35.139463199661407 ], [ 25.8691727, 35.139199999661393 ], [ 25.8689474, 35.139158699661387 ], [ 25.868962303462428, 35.139145820014086 ], [ 25.868071258141786, 35.139145820014086 ], [ 25.8679556, 35.13985799966143 ], [ 25.8665072, 35.140261599661471 ], [ 25.8647799, 35.140682699661497 ], [ 25.8644795, 35.140928399661519 ], [ 25.8666896, 35.14062129966149 ], [ 25.8675157, 35.140717799661495 ], [ 25.868492, 35.140761699661503 ], [ 25.8693933, 35.1406914996615 ], [ 25.8698653, 35.140796799661508 ], [ 25.8691036, 35.141314399661539 ], [ 25.8684813, 35.141735499661571 ], [ 25.8681809, 35.141998699661592 ], [ 25.8688246, 35.141814499661578 ], [ 25.8684169, 35.142200499661605 ], [ 25.8685886, 35.142253199661603 ], [ 25.8692752, 35.141735499661571 ], [ 25.8696829, 35.141954899661592 ], [ 25.8685886, 35.142498799661624 ], [ 25.8691143, 35.142332099661608 ], [ 25.8696952, 35.142180299661604 ], [ 25.8706915, 35.141919799661586 ], [ 25.8708738, 35.14158639966157 ], [ 25.8708846, 35.140875799661522 ], [ 25.8713459, 35.140375699661483 ], [ 25.8721398, 35.139822899661425 ], [ 25.872276976622711, 35.139791048075224 ], [ 25.872276976622711, 35.139599463674848 ], [ 25.8716833, 35.139673799661416 ] ] ], [ [ [ 25.8649408, 35.139289299661399 ], [ 25.8650481, 35.139491099661406 ], [ 25.866084565355923, 35.139145820014086 ], [ 25.865343181226645, 35.139145820014086 ], [ 25.8649408, 35.139289299661399 ] ] ] ] } },
{ "type": "Feature", "properties": { "osm_id": 57691386, "name": null, "label": "natural:coastline", "building": null, "natural": "coastline", "landuse": null, "leisure": null, "amenity": null, "historic": null, "waterway": null }, "geometry": { "type": "LineString", "coordinates": [ [ 25.8476315, 35.156782099662671 ], [ 25.8476785, 35.156801899662661 ], [ 25.8476959, 35.156845699662661 ], [ 25.8476637, 35.15687529966268 ], [ 25.8476074, 35.156886299662659 ], [ 25.8475712, 35.156910399662671 ], [ 25.8475806, 35.156953199662674 ], [ 25.8475846, 35.156988299662686 ], [ 25.8475202, 35.157040899662682 ], [ 25.84737, 35.157102299662689 ], [ 25.8473003, 35.157121999662699 ], [ 25.8472252, 35.157161499662685 ], [ 25.8472306, 35.157222899662692 ], [ 25.8472292, 35.157274399662704 ], [ 25.8471809, 35.1573226996627 ], [ 25.8471192, 35.157298499662708 ], [ 25.8470656, 35.1572436996627 ], [ 25.8470951, 35.1571998996627 ], [ 25.8471689, 35.157166999662692 ], [ 25.8472265, 35.157141799662689 ], [ 25.847256, 35.157104499662694 ], [ 25.8472815, 35.157049699662679 ], [ 25.8472534, 35.157026599662686 ], [ 25.8472547, 35.156960799662677 ], [ 25.8472922, 35.156930099662674 ], [ 25.8472976, 35.156897199662673 ], [ 25.8473432, 35.156881899662672 ], [ 25.8473754, 35.156865399662678 ], [ 25.8473969, 35.156827099662671 ], [ 25.8474545, 35.156825999662672 ], [ 25.8475739, 35.156786499662665 ], [ 25.8476315, 35.156782099662671 ] ] } },
{ "type": "Feature", "properties": { "osm_id": 505332336, "name": null, "label": "natural:coastline", "building": null, "natural": "coastline", "landuse": null, "leisure": null, "amenity": null, "historic": null, "waterway": null }, "geometry": { "type": "LineString", "coordinates": [ [ 25.8484138, 35.156921399662686 ], [ 25.8484078, 35.156894799662673 ], [ 25.848424, 35.156868199662661 ], [ 25.8484504, 35.156878199662678 ], [ 25.8484586, 35.156906399662667 ], [ 25.8484423, 35.156934699662678 ], [ 25.8484138, 35.156921399662686 ] ] } },
{ "type": "Feature", "properties": { "osm_id": 505332233, "name": null, "label": "natural:coastline", "building": null, "natural": "coastline", "landuse": null, "leisure": null, "amenity": null, "historic": null, "waterway": null }, "geometry": { "type": "LineString", "coordinates": [ [ 25.8483793, 35.156745199662673 ], [ 25.8483102, 35.156728599662664 ], [ 25.8482553, 35.156696999662664 ], [ 25.8482329, 35.156640499662657 ], [ 25.8482553, 35.156603899662656 ], [ 25.8482858, 35.156600599662646 ], [ 25.8483122, 35.156633899662658 ], [ 25.8483651, 35.156677099662659 ], [ 25.8484017, 35.156700299662667 ], [ 25.8484403, 35.156721899662649 ], [ 25.8484321, 35.156745199662673 ], [ 25.8483793, 35.156745199662673 ] ] } },
{ "type": "Feature", "properties": { "osm_id": 505332207, "name": null, "label": "natural:coastline", "building": null, "natural": "coastline", "landuse": null, "leisure": null, "amenity": null, "historic": null, "waterway": null }, "geometry": { "type": "LineString", "coordinates": [ [ 25.8480845, 35.156795099662659 ], [ 25.8481089, 35.156761799662668 ], [ 25.8480703, 35.156713599662666 ], [ 25.8480561, 35.156647099662656 ], [ 25.8480642, 35.156613899662666 ], [ 25.8480988, 35.156607299662646 ], [ 25.8481232, 35.156572399662643 ], [ 25.8481598, 35.156549099662655 ], [ 25.8481862, 35.156580699662655 ], [ 25.8481882, 35.156648799662662 ], [ 25.8482065, 35.156741899662656 ], [ 25.8481781, 35.156783399662665 ], [ 25.8481537, 35.156818299662667 ], [ 25.8481171, 35.156818299662667 ], [ 25.8480845, 35.156795099662659 ] ] } },
{ "type": "Feature", "properties": { "osm_id": 163974662, "name": null, "label": "natural:coastline", "building": null, "natural": "coastline", "landuse": null, "leisure": null, "amenity": null, "historic": null, "waterway": null }, "geometry": { "type": "LineString", "coordinates": [ [ 25.8467411, 35.154400599662495 ], [ 25.8466204, 35.154413699662484 ], [ 25.8465667, 35.154499299662504 ], [ 25.8465345, 35.154501499662501 ], [ 25.8464863, 35.154435699662493 ], [ 25.846505, 35.154363299662492 ], [ 25.8464219, 35.154282199662482 ], [ 25.8463656, 35.154262399662471 ], [ 25.8462824, 35.15426679966248 ], [ 25.8462985, 35.154200999662478 ], [ 25.8463602, 35.154154999662481 ], [ 25.8463682, 35.154111099662472 ], [ 25.8462596, 35.154097999662461 ], [ 25.8462542, 35.154041999662454 ], [ 25.8462046, 35.154007999662461 ], [ 25.8461242, 35.153966399662465 ], [ 25.8461832, 35.153885199662447 ], [ 25.846218, 35.153815099662459 ], [ 25.8461537, 35.153786499662445 ], [ 25.846151, 35.153700999662441 ], [ 25.8459525, 35.153433499662412 ], [ 25.8458264, 35.153308499662415 ], [ 25.8457674, 35.153089199662396 ], [ 25.8458023, 35.152924699662385 ], [ 25.8457674, 35.152799699662381 ], [ 25.8457218, 35.15277559966237 ], [ 25.8457057, 35.152709799662361 ], [ 25.8457781, 35.152663699662362 ], [ 25.8458667, 35.152549699662352 ], [ 25.8458398, 35.152510199662359 ], [ 25.845872, 35.152437799662351 ], [ 25.8459605, 35.152378599662349 ], [ 25.8459391, 35.152288699662336 ], [ 25.845982, 35.152240499662334 ], [ 25.8459418, 35.152222899662334 ], [ 25.8458479, 35.152266799662335 ], [ 25.8457299, 35.152220699662337 ], [ 25.8456467, 35.152163699662331 ], [ 25.8455555, 35.152170299662338 ], [ 25.8455528, 35.152095699662318 ], [ 25.8455502, 35.152054099662323 ], [ 25.845408, 35.152003599662322 ], [ 25.8453302, 35.152025499662322 ], [ 25.8452256, 35.151972899662312 ], [ 25.8451505, 35.151994799662312 ], [ 25.845121, 35.151926899662314 ], [ 25.8452068, 35.1518478996623 ], [ 25.8451666, 35.151779899662301 ], [ 25.8450835, 35.151696599662301 ], [ 25.8449386, 35.151663699662308 ], [ 25.8448528, 35.151597899662285 ], [ 25.8448742, 35.151540899662294 ], [ 25.8448394, 35.151510199662276 ], [ 25.8447884, 35.151439999662273 ], [ 25.8448286, 35.151387399662269 ], [ 25.844826, 35.151317199662273 ], [ 25.8447321, 35.151277699662266 ], [ 25.8446355, 35.151328199662274 ], [ 25.8445014, 35.15130839966227 ], [ 25.84449901119476, 35.151307025440062 ] ] } },
{ "type": "Feature", "properties": { "osm_id": 835099720, "name": null, "label": "waterway:stream", "building": null, "natural": null, "landuse": null, "leisure": null, "amenity": null, "historic": null, "waterway": "stream" }, "geometry": { "type": "LineString", "coordinates": [ [ 25.8526974, 35.153492799662423 ], [ 25.8532392, 35.153839299662451 ], [ 25.8536951, 35.154238499662476 ], [ 25.8540438, 35.154369999662485 ], [ 25.8544462, 35.154655099662506 ], [ 25.854591, 35.154896399662526 ], [ 25.8546822, 35.155163899662554 ], [ 25.8549719, 35.155378799662564 ], [ 25.8551811, 35.155361299662559 ], [ 25.8554279, 35.155361299662559 ], [ 25.8557551, 35.155396399662571 ], [ 25.8560823, 35.155422699662566 ], [ 25.8563184, 35.155510399662568 ], [ 25.8564149, 35.155690199662587 ], [ 25.8565061, 35.155834899662601 ], [ 25.85671, 35.155869999662599 ], [ 25.8569835, 35.155909499662592 ], [ 25.8573644, 35.156080499662622 ], [ 25.8577828, 35.156304199662635 ], [ 25.857976, 35.156400699662633 ], [ 25.8584105, 35.156383199662649 ], [ 25.8586572, 35.156444599662642 ], [ 25.8588332, 35.156424799662659 ] ] } },
{ "type": "Feature", "properties": { "osm_id": 435470014, "name": null, "label": "natural:coastline", "building": null, "natural": "coastline", "landuse": null, "leisure": null, "amenity": null, "historic": null, "waterway": null }, "geometry": { "type": "LineString", "coordinates": [ [ 25.8514403, 35.157037599662686 ], [ 25.8513276, 35.156987099662672 ], [ 25.8513129, 35.156904899662678 ], [ 25.8512391, 35.156860999662669 ], [ 25.851282, 35.156799599662669 ], [ 25.8512404, 35.15668999966266 ], [ 25.851109, 35.156635199662652 ], [ 25.851046, 35.156560599662647 ], [ 25.8509655, 35.156528799662638 ], [ 25.8508797, 35.156464099662635 ], [ 25.8508059, 35.156434499662637 ], [ 25.8507013, 35.156423499662644 ], [ 25.8505323, 35.15644989966264 ], [ 25.8504425, 35.156441099662644 ], [ 25.8502655, 35.156353399662628 ], [ 25.8501059, 35.156346799662643 ], [ 25.8500536, 35.156397199662635 ], [ 25.8500187, 35.156435599662643 ], [ 25.8500388, 35.156530999662643 ], [ 25.8500616, 35.156602299662659 ], [ 25.8500066, 35.156632999662655 ], [ 25.849906, 35.156601199662653 ], [ 25.8498967, 35.156541999662643 ], [ 25.8498363, 35.156541999662643 ], [ 25.8497625, 35.156561699662646 ], [ 25.8496781, 35.156507999662651 ], [ 25.8496714, 35.156435599662643 ], [ 25.8497237, 35.156390599662643 ], [ 25.8497733, 35.156325999662641 ], [ 25.8497625, 35.156266699662638 ], [ 25.8497009, 35.156189999662622 ], [ 25.8496611, 35.156130599662617 ], [ 25.8495346, 35.156082499662617 ], [ 25.8494085, 35.156078199662609 ], [ 25.8492409, 35.156093499662603 ], [ 25.8490974, 35.156135199662621 ], [ 25.8490169, 35.156178999662629 ], [ 25.8489552, 35.156197699662627 ], [ 25.8489726, 35.156269999662626 ], [ 25.8490075, 35.156298499662626 ], [ 25.8489874, 35.156336899662627 ], [ 25.8489123, 35.156354499662633 ], [ 25.8487581, 35.156340199662637 ], [ 25.8487004, 35.156321599662618 ], [ 25.848632, 35.156334699662629 ], [ 25.8485851, 35.156376399662634 ], [ 25.8485676, 35.156447699662642 ], [ 25.8484898, 35.156451999662636 ], [ 25.8484791, 35.156501399662645 ], [ 25.8484402, 35.15653649966265 ], [ 25.8483155, 35.156539799662646 ], [ 25.8482471, 35.15651339966265 ], [ 25.8481505, 35.156514499662649 ], [ 25.8480982, 35.156501399662645 ], [ 25.8480647, 35.156426799662647 ], [ 25.847995, 35.156407099662637 ], [ 25.8480365, 35.156353399662628 ], [ 25.8480124, 35.156311699662638 ], [ 25.8480486, 35.15624149966262 ], [ 25.847999, 35.156164799662619 ], [ 25.8480634, 35.156102299662621 ], [ 25.8480379, 35.156025499662597 ], [ 25.8480151, 35.155932299662609 ], [ 25.8480218, 35.155843499662602 ], [ 25.8479641, 35.155775499662582 ], [ 25.8478622, 35.155721799662594 ], [ 25.8477911, 35.155744799662585 ], [ 25.8477589, 35.155788699662601 ], [ 25.8477053, 35.155789799662585 ], [ 25.8476892, 35.155742599662595 ], [ 25.847708, 35.155694399662586 ], [ 25.8477308, 35.155631899662581 ], [ 25.847767, 35.155616499662592 ], [ 25.8477925, 35.155586899662588 ], [ 25.8477817, 35.155516799662578 ], [ 25.8478112, 35.155464099662566 ], [ 25.8477884, 35.155410399662564 ], [ 25.8477777, 35.155343499662564 ], [ 25.8476758, 35.155204299662543 ], [ 25.847598, 35.155118699662552 ], [ 25.8475068, 35.155066099662541 ], [ 25.8475175, 35.155021099662541 ], [ 25.8474532, 35.154992599662535 ], [ 25.8473848, 35.154994799662532 ], [ 25.8472949, 35.15502769966254 ], [ 25.8472307, 35.155012899662538 ], [ 25.8471876, 35.154989399662533 ], [ 25.8470482, 35.154962199662528 ], [ 25.8470347, 35.154932299662534 ], [ 25.8470522, 35.154909299662528 ], [ 25.8471165, 35.154913699662529 ], [ 25.8471715, 35.154934499662531 ], [ 25.8472332, 35.154912599662531 ], [ 25.8471984, 35.154864399662522 ], [ 25.8470911, 35.154831499662514 ], [ 25.8470562, 35.154770099662521 ], [ 25.8470576, 35.154714199662514 ], [ 25.8468671, 35.154652799662507 ], [ 25.846843, 35.154479499662507 ], [ 25.8467411, 35.154400599662495 ] ] } },
{ "type": "Feature", "properties": { "osm_id": 505332372, "name": null, "label": "natural:coastline", "building": null, "natural": "coastline", "landuse": null, "leisure": null, "amenity": null, "historic": null, "waterway": null }, "geometry": { "type": "LineString", "coordinates": [ [ 25.849259, 35.15619559966261 ], [ 25.8492251, 35.156177899662623 ], [ 25.8492282, 35.156152799662621 ], [ 25.8492544, 35.156141399662623 ], [ 25.8492867, 35.15614269966261 ], [ 25.8493006, 35.15617419966263 ], [ 25.8492852, 35.15619309966263 ], [ 25.849259, 35.15619559966261 ] ] } },
{ "type": "Feature", "properties": { "osm_id": 435470023, "name": null, "label": "natural:coastline", "building": null, "natural": "coastline", "landuse": null, "leisure": null, "amenity": null, "historic": null, "waterway": null }, "geometry": { "type": "LineString", "coordinates": [ [ 25.8519311, 35.157444299662714 ], [ 25.8517742, 35.157438899662722 ], [ 25.8517286, 35.157392799662702 ], [ 25.8516361, 35.157346799662697 ], [ 25.8516535, 35.157242599662688 ], [ 25.8516186, 35.157155999662685 ], [ 25.8514403, 35.157037599662686 ] ] } },
{ "type": "Feature", "properties": { "osm_id": 435470019, "name": null, "label": "natural:coastline", "building": null, "natural": "coastline", "landuse": null, "leisure": null, "amenity": null, "historic": null, "waterway": null }, "geometry": { "type": "LineString", "coordinates": [ [ 25.8586393, 35.158815999662821 ], [ 25.8585843, 35.158875199662816 ], [ 25.8585562, 35.158927799662813 ], [ 25.8585079, 35.158949799662821 ], [ 25.8584373, 35.158937499662819 ], [ 25.8583725, 35.158924599662818 ], [ 25.8583376, 35.158934399662819 ], [ 25.8582933, 35.158960699662828 ], [ 25.8582611, 35.158934399662819 ], [ 25.8582075, 35.158900399662826 ], [ 25.8582035, 35.15886639966282 ], [ 25.8581793, 35.158847799662809 ], [ 25.8581284, 35.158865399662822 ], [ 25.8580358, 35.158856599662812 ], [ 25.85795, 35.158789699662812 ], [ 25.8578239, 35.158716199662813 ], [ 25.8577086, 35.15874579966281 ], [ 25.8575973, 35.158776499662814 ], [ 25.8575423, 35.158831399662809 ], [ 25.8574793, 35.158840099662804 ], [ 25.8574189, 35.158919099662832 ], [ 25.8573814, 35.159034199662827 ], [ 25.8574659, 35.159110999662836 ], [ 25.8575316, 35.159149299662836 ], [ 25.8577019, 35.159176699662837 ], [ 25.8577783, 35.159223899662834 ], [ 25.8577944, 35.159280899662846 ], [ 25.8577676, 35.159323699662856 ], [ 25.8577824, 35.159377399662851 ], [ 25.8578186, 35.159423399662849 ], [ 25.857887, 35.159473899662856 ], [ 25.8579634, 35.15950459966286 ], [ 25.8579755, 35.159543999662858 ], [ 25.8579406, 35.159571399662866 ], [ 25.8579004, 35.159601099662865 ], [ 25.8578548, 35.15955389966286 ], [ 25.8577891, 35.159560499662874 ], [ 25.857722, 35.159571399662866 ], [ 25.8576375, 35.159611999662872 ], [ 25.8575772, 35.159651499662878 ], [ 25.8575235, 35.159658099662877 ], [ 25.8574659, 35.159628499662873 ], [ 25.8573787, 35.159628499662873 ], [ 25.8571641, 35.159641599662883 ], [ 25.8571051, 35.159673399662879 ], [ 25.8570287, 35.159698599662867 ], [ 25.8569093, 35.159673399662879 ], [ 25.85679, 35.159675599662869 ], [ 25.856688, 35.159675599662869 ], [ 25.8566089, 35.159707399662878 ], [ 25.8564815, 35.159727099662881 ], [ 25.856393, 35.159750199662874 ], [ 25.8562857, 35.159753499662877 ], [ 25.8562079, 35.159719499662877 ], [ 25.8561248, 35.159738099662881 ], [ 25.8560899, 35.159697499662876 ], [ 25.8560765, 35.159642699662875 ] ] } },
{ "type": "Feature", "properties": { "osm_id": 435470024, "name": null, "label": "natural:coastline", "building": null, "natural": "coastline", "landuse": null, "leisure": null, "amenity": null, "historic": null, "waterway": null }, "geometry": { "type": "LineString", "coordinates": [ [ 25.8560765, 35.159642699662875 ], [ 25.856106, 35.159626299662868 ], [ 25.856118, 35.159584599662871 ], [ 25.8561194, 35.159550599662872 ], [ 25.8560791, 35.159514399662882 ], [ 25.8559558, 35.159495799662864 ], [ 25.8558632, 35.159439899662857 ], [ 25.8557908, 35.159368599662855 ], [ 25.8557828, 35.159309399662853 ], [ 25.8557318, 35.159306099662849 ], [ 25.8556943, 35.159334599662849 ], [ 25.8556259, 35.159334599662849 ], [ 25.8555829, 35.159350999662855 ], [ 25.8555212, 35.159370799662845 ], [ 25.8554448, 35.159338999662857 ], [ 25.8553429, 35.159332399662837 ], [ 25.8552906, 35.15927759966285 ], [ 25.8552222, 35.15925459966283 ], [ 25.8552115, 35.159202999662845 ], [ 25.8551444, 35.159189899662834 ], [ 25.8549969, 35.159219499662846 ], [ 25.8548802, 35.159253499662846 ], [ 25.8548118, 35.159246899662847 ], [ 25.8547461, 35.159192099662846 ], [ 25.85473, 35.159161399662835 ], [ 25.8547555, 35.159132899662836 ], [ 25.8547675, 35.159054999662843 ], [ 25.8546992, 35.158993599662821 ], [ 25.854612, 35.158926699662828 ], [ 25.8546294, 35.158885099662818 ], [ 25.854679, 35.158867499662826 ], [ 25.8546683, 35.158830199662802 ], [ 25.8546066, 35.15882809966282 ], [ 25.8545168, 35.158861999662818 ], [ 25.8544698, 35.158922299662819 ], [ 25.8544215, 35.158936599662816 ], [ 25.854325, 35.158909199662816 ], [ 25.8542794, 35.158857699662818 ], [ 25.8542485, 35.158813799662809 ], [ 25.8541681, 35.158791899662809 ], [ 25.8541117, 35.158804999662813 ], [ 25.8540554, 35.158845599662811 ], [ 25.853928, 35.158868599662817 ], [ 25.8537899, 35.158903699662822 ], [ 25.8536705, 35.158905899662813 ], [ 25.8535847, 35.158854399662829 ], [ 25.8534908, 35.158849999662827 ], [ 25.8534184, 35.158780899662808 ], [ 25.8533621, 35.158689899662797 ], [ 25.8532843, 35.158676699662813 ], [ 25.8532387, 35.1585527996628 ], [ 25.8532078, 35.158499099662791 ], [ 25.8530818, 35.158476099662785 ], [ 25.852949, 35.158489299662797 ], [ 25.8528055, 35.158504599662784 ], [ 25.8527143, 35.158472799662789 ], [ 25.8526553, 35.158423499662781 ], [ 25.8526714, 35.15833679966277 ], [ 25.8527197, 35.158228299662767 ], [ 25.8526915, 35.158159199662762 ], [ 25.8527183, 35.158087999662769 ], [ 25.8526902, 35.158033099662752 ], [ 25.852607, 35.157977199662753 ], [ 25.8526084, 35.157883999662744 ], [ 25.8525762, 35.157740399662728 ], [ 25.8524984, 35.157667999662728 ], [ 25.852481, 35.157599999662722 ], [ 25.8523723, 35.157511199662714 ], [ 25.852139, 35.157523299662714 ], [ 25.8520304, 35.157505699662714 ], [ 25.8519311, 35.157444299662714 ] ] } },
{ "type": "Feature", "properties": { "osm_id": 435470018, "name": null, "label": "natural:coastline", "building": null, "natural": "coastline", "landuse": null, "leisure": null, "amenity": null, "historic": null, "waterway": null }, "geometry": { "type": "LineString", "coordinates": [ [ 25.8590028, 35.156212999662628 ], [ 25.8590376, 35.156268999662629 ], [ 25.8590041, 35.156309499662626 ], [ 25.8590765, 35.156359999662627 ], [ 25.8590698, 35.156419199662643 ], [ 25.8589464, 35.156411499662639 ], [ 25.8588472, 35.156392899662634 ], [ 25.8588332, 35.156424799662659 ], [ 25.8588217, 35.156450999662638 ], [ 25.8588231, 35.156550799662647 ], [ 25.8588418, 35.156595699662645 ], [ 25.8590041, 35.156675699662664 ], [ 25.8590953, 35.156733899662662 ], [ 25.8591288, 35.156848999662671 ], [ 25.8592442, 35.157034299662683 ], [ 25.8593206, 35.157168099662684 ], [ 25.8593461, 35.157302899662703 ], [ 25.8593689, 35.157631899662725 ], [ 25.8593863, 35.157776599662739 ], [ 25.8594239, 35.157871999662746 ], [ 25.8594024, 35.157934499662758 ], [ 25.8593716, 35.157950899662751 ], [ 25.8593313, 35.157949799662745 ], [ 25.8592643, 35.157959699662747 ], [ 25.8592348, 35.157991499662756 ], [ 25.8592737, 35.158016699662753 ], [ 25.8592911, 35.158069299662763 ], [ 25.8592831, 35.15810549966276 ], [ 25.8592026, 35.158095699662759 ], [ 25.859161, 35.158104399662754 ], [ 25.8591235, 35.158116499662754 ], [ 25.8591409, 35.158140599662772 ], [ 25.8592227, 35.15813289966276 ], [ 25.859279, 35.158139499662759 ], [ 25.8593085, 35.15817239966276 ], [ 25.8592831, 35.158241499662779 ], [ 25.8592375, 35.158351099662774 ], [ 25.8591758, 35.158364299662772 ], [ 25.8591396, 35.158442099662793 ], [ 25.859094, 35.158482699662798 ], [ 25.8590524, 35.158507899662794 ], [ 25.858988, 35.1585539996628 ], [ 25.8590014, 35.158585799662788 ], [ 25.8590055, 35.158622999662796 ], [ 25.8588982, 35.158655899662797 ], [ 25.8587962, 35.158672399662805 ], [ 25.8587574, 35.158708599662795 ], [ 25.858705, 35.158780899662808 ], [ 25.8586393, 35.158815999662821 ] ] } },
{ "type": "Feature", "properties": { "osm_id": 435470020, "name": null, "label": "natural:coastline", "building": null, "natural": "coastline", "landuse": null, "leisure": null, "amenity": null, "historic": null, "waterway": null }, "geometry": { "type": "LineString", "coordinates": [ [ 25.8613497, 35.153378599662425 ], [ 25.8613081, 35.153395099662418 ], [ 25.8612599, 35.153420299662415 ], [ 25.8612572, 35.153458699662423 ], [ 25.8612397, 35.153513499662431 ], [ 25.8613041, 35.153611099662434 ], [ 25.8616488, 35.153597899662451 ], [ 25.8617668, 35.153604499662436 ], [ 25.8618097, 35.153634099662433 ], [ 25.861807, 35.153672499662441 ], [ 25.8616957, 35.153755799662449 ], [ 25.8615701, 35.153937599662456 ], [ 25.8614717, 35.154384099662508 ], [ 25.8614141, 35.154512399662501 ], [ 25.8613913, 35.154642899662505 ], [ 25.8613282, 35.154728399662517 ], [ 25.8613175, 35.154825999662521 ], [ 25.8612371, 35.155015699662535 ], [ 25.8611687, 35.155075999662543 ], [ 25.8611646, 35.155154899662541 ], [ 25.8611043, 35.155226199662565 ], [ 25.8610386, 35.155267899662547 ], [ 25.8609916, 35.155299699662557 ], [ 25.8609863, 35.15536989966256 ], [ 25.8609165, 35.155528799662576 ], [ 25.8609058, 35.155583699662586 ], [ 25.8608978, 35.155691099662583 ], [ 25.8609648, 35.155746999662583 ], [ 25.8610131, 35.155804099662582 ], [ 25.860989, 35.155866599662602 ], [ 25.8609004, 35.155920299662597 ], [ 25.8607958, 35.155954299662618 ], [ 25.8606671, 35.155927999662602 ], [ 25.860541, 35.155947699662605 ], [ 25.8604686, 35.155904899662609 ], [ 25.8603439, 35.155907099662599 ], [ 25.8602607, 35.155877499662601 ], [ 25.8601669, 35.155805199662602 ], [ 25.8600341, 35.155756899662592 ], [ 25.8599228, 35.155677999662586 ], [ 25.8598115, 35.155649499662573 ], [ 25.859727, 35.155574899662582 ], [ 25.8596653, 35.155502499662568 ], [ 25.8595164, 35.155464099662566 ], [ 25.8594427, 35.155411499662563 ], [ 25.8594413, 35.155358899662566 ], [ 25.8593863, 35.155288699662563 ], [ 25.8593481, 35.155297399662558 ], [ 25.8592832, 35.15531249966255 ], [ 25.8592194, 35.155332899662547 ], [ 25.8591932, 35.15534129966256 ], [ 25.8591763, 35.155352999662561 ], [ 25.859106, 35.155401699662562 ], [ 25.8589894, 35.155446599662568 ], [ 25.858925, 35.155488299662565 ], [ 25.8589022, 35.155555199662579 ], [ 25.8589344, 35.155637399662581 ], [ 25.8589907, 35.155666999662579 ], [ 25.8589947, 35.155717399662585 ], [ 25.8590148, 35.155762399662599 ], [ 25.8590055, 35.156080399662613 ], [ 25.8590028, 35.156212999662628 ] ] } },
{ "type": "Feature", "properties": { "osm_id": 822615232, "name": "Καβουσιανός πόταμος", "label": "waterway:stream", "building": null, "natural": null, "landuse": null, "leisure": null, "amenity": null, "historic": null, "waterway": "stream" }, "geometry": { "type": "LineString", "coordinates": [ [ 25.853146471792197, 35.139145820014086 ], [ 25.853276, 35.139263499661389 ], [ 25.8533833, 35.140167199661462 ], [ 25.8536944, 35.141079599661524 ], [ 25.8542416, 35.141684999661578 ], [ 25.8542952, 35.142307899661624 ], [ 25.8549282, 35.142737799661646 ], [ 25.8555612, 35.143343099661692 ], [ 25.8563766, 35.143676499661709 ], [ 25.8567522, 35.144264299661756 ], [ 25.8575568, 35.144316899661753 ], [ 25.8583937, 35.145106499661814 ], [ 25.8586941, 35.145817099661869 ], [ 25.859032, 35.146523299661922 ], [ 25.8599172, 35.146720699661934 ], [ 25.8602605, 35.147650599662008 ], [ 25.8618483, 35.149282299662119 ], [ 25.8620629, 35.150264799662196 ], [ 25.8623717, 35.150734699662223 ], [ 25.8624492, 35.150852599662237 ], [ 25.8627608, 35.151872199662314 ] ] } },
{ "type": "Feature", "properties": { "osm_id": 870811810, "name": null, "label": "waterway:stream", "building": null, "natural": null, "landuse": null, "leisure": null, "amenity": null, "historic": null, "waterway": "stream" }, "geometry": { "type": "LineString", "coordinates": [ [ 25.872276976622711, 35.139673688798979 ], [ 25.8715458, 35.139802299661433 ], [ 25.8702025, 35.140223399661465 ], [ 25.8695588, 35.140370799661476 ], [ 25.8686018, 35.140325199661469 ] ] } },
{ "type": "Feature", "properties": { "osm_id": 829677331, "name": null, "label": "natural:cliff", "building": null, "natural": "cliff", "landuse": null, "leisure": null, "amenity": null, "historic": null, "waterway": null }, "geometry": { "type": "LineString", "coordinates": [ [ 25.8713344, 35.144382499661766 ], [ 25.8711574, 35.144228999661763 ], [ 25.8708516, 35.143948299661723 ], [ 25.8707283, 35.143794699661726 ], [ 25.8703259, 35.143496499661687 ] ] } },
{ "type": "Feature", "properties": { "osm_id": 825156332, "name": null, "label": "waterway:stream", "building": null, "natural": null, "landuse": null, "leisure": null, "amenity": null, "historic": null, "waterway": "stream" }, "geometry": { "type": "LineString", "coordinates": [ [ 25.872276976622711, 35.148481601016833 ], [ 25.8717936, 35.148541499662066 ], [ 25.8713215, 35.148401199662061 ], [ 25.8707314, 35.148423099662061 ], [ 25.8703505, 35.148497599662051 ], [ 25.8691971, 35.148822199662078 ], [ 25.8677567, 35.148844699662085 ], [ 25.8670432, 35.148862199662091 ], [ 25.866362, 35.149028899662085 ], [ 25.8655627, 35.149287699662125 ], [ 25.864817, 35.149204299662117 ], [ 25.8638407, 35.149379799662128 ], [ 25.8631272, 35.149673699662145 ], [ 25.8626444, 35.15016489966218 ], [ 25.8623717, 35.150734699662223 ] ] } },
{ "type": "Feature", "properties": { "osm_id": 825156329, "name": null, "label": "waterway:stream", "building": null, "natural": null, "landuse": null, "leisure": null, "amenity": null, "historic": null, "waterway": "stream" }, "geometry": { "type": "LineString", "coordinates": [ [ 25.872276976622711, 35.151470405032157 ], [ 25.8720879, 35.151430999662288 ], [ 25.8710525, 35.151759899662309 ], [ 25.8707414, 35.151961699662323 ], [ 25.8694271, 35.153566999662438 ], [ 25.8690194, 35.15387839966246 ], [ 25.8691583, 35.154509999662494 ], [ 25.8692334, 35.155365199662562 ], [ 25.8690654, 35.156245799662635 ] ] } },
{ "type": "Feature", "properties": { "osm_id": 822522151, "name": null, "label": "waterway:stream", "building": null, "natural": null, "landuse": null, "leisure": null, "amenity": null, "historic": null, "waterway": "stream" }, "geometry": { "type": "LineString", "coordinates": [ [ 25.872276976622711, 35.155520769719452 ], [ 25.8721829, 35.155515299662568 ], [ 25.8719256, 35.155593499662579 ] ] } },
{ "type": "Feature", "properties": { "osm_id": 1409170750, "name": null, "label": "waterway:stream", "building": null, "natural": null, "landuse": null, "leisure": null, "amenity": null, "historic": null, "waterway": "stream" }, "geometry": { "type": "LineString", "coordinates": [ [ 25.8719256, 35.155593499662579 ], [ 25.8717725, 35.15562269966258 ] ] } },
{ "type": "Feature", "properties": { "osm_id": 1409170752, "name": null, "label": "waterway:stream", "building": null, "natural": null, "landuse": null, "leisure": null, "amenity": null, "historic": null, "waterway": "stream" }, "geometry": { "type": "LineString", "coordinates": [ [ 25.868828, 35.156415999662634 ], [ 25.8687264, 35.156523999662639 ] ] } },
{ "type": "Feature", "properties": { "osm_id": 1409170751, "name": null, "label": "waterway:stream", "building": null, "natural": null, "landuse": null, "leisure": null, "amenity": null, "historic": null, "waterway": "stream" }, "geometry": { "type": "LineString", "coordinates": [ [ 25.8687264, 35.156523999662639 ], [ 25.8684868, 35.156752099662661 ], [ 25.8683518, 35.156846699662665 ] ] } },
{ "type": "Feature", "properties": { "osm_id": 435470016, "name": null, "label": "natural:coastline", "building": null, "natural": "coastline", "landuse": null, "leisure": null, "amenity": null, "historic": null, "waterway": null }, "geometry": { "type": "LineString", "coordinates": [ [ 25.872276976622711, 35.158420831605575 ], [ 25.8718944, 35.15811549966277 ], [ 25.8714178, 35.158087799662752 ], [ 25.8708471, 35.15816019966276 ], [ 25.8703599, 35.158217399662767 ], [ 25.87004, 35.158277499662766 ], [ 25.8698379, 35.158108499662752 ], [ 25.8697321, 35.157927199662758 ], [ 25.8696183, 35.157863199662749 ], [ 25.8694261, 35.157929499662757 ], [ 25.8689239, 35.157623799662737 ], [ 25.8688121, 35.157479699662723 ], [ 25.8687062, 35.157311399662696 ], [ 25.8685229, 35.157190899662695 ], [ 25.8684741, 35.157069299662687 ], [ 25.8684317, 35.156947299662676 ], [ 25.8683518, 35.156846699662665 ], [ 25.8683071, 35.156835199662666 ], [ 25.8680303, 35.15676379966267 ], [ 25.8675943, 35.156617799662648 ], [ 25.8670799, 35.156156799662618 ], [ 25.8667269, 35.155800699662592 ], [ 25.8662222, 35.155614299662595 ], [ 25.8658837, 35.155139299662544 ], [ 25.8655537, 35.15509339966254 ], [ 25.8653309, 35.154883299662522 ], [ 25.8652714, 35.154754799662527 ], [ 25.8651048, 35.15469189966251 ], [ 25.8650052, 35.154119899662476 ], [ 25.8648386, 35.153723099662436 ], [ 25.8645407, 35.153545999662434 ], [ 25.8644036, 35.153412799662426 ], [ 25.8641268, 35.152766199662381 ], [ 25.8639327, 35.152209699662329 ], [ 25.8638723, 35.152035399662324 ], [ 25.863824, 35.151955299662312 ], [ 25.8637315, 35.151886199662307 ], [ 25.863593, 35.151830399662295 ], [ 25.8634043, 35.151828099662318 ], [ 25.863187, 35.151825899662292 ], [ 25.8628852, 35.15185299966231 ], [ 25.8627608, 35.151872199662314 ], [ 25.8625926, 35.151898199662313 ], [ 25.8623225, 35.151932199662312 ], [ 25.8620892, 35.152009799662309 ], [ 25.8617899, 35.15215689966233 ], [ 25.8616327, 35.152238199662328 ], [ 25.861394, 35.152419199662347 ], [ 25.8612129, 35.152605599662358 ], [ 25.8610372, 35.152830399662371 ], [ 25.8610426, 35.152885199662386 ], [ 25.8610667, 35.153037599662397 ], [ 25.8611378, 35.153161499662403 ], [ 25.8611901, 35.153203199662407 ], [ 25.8612679, 35.153290899662409 ], [ 25.8613014, 35.153335899662409 ], [ 25.8613497, 35.153378599662425 ] ] } },
{ "type": "Feature", "properties": { "osm_id": 1409170749, "name": null, "label": "waterway:stream", "building": null, "natural": null, "landuse": null, "leisure": null, "amenity": null, "historic": null, "waterway": "stream" }, "geometry": { "type": "LineString", "coordinates": [ [ 25.8717725, 35.15562269966258 ], [ 25.871566, 35.155624899662584 ], [ 25.87133, 35.155537199662561 ], [ 25.8706487, 35.155537199662561 ], [ 25.870418, 35.15558539966257 ], [ 25.8699406, 35.155861699662609 ], [ 25.8694685, 35.15599769966262 ], [ 25.8690654, 35.156245799662635 ], [ 25.8689911, 35.15629159966263 ], [ 25.868828, 35.156415999662634 ] ] } },
{ "type": "Feature", "properties": { "osm_id": 1311762618, "name": null, "label": "natural:coastline", "building": null, "natural": "coastline", "landuse": null, "leisure": null, "amenity": null, "historic": null, "waterway": null }, "geometry": { "type": "LineString", "coordinates": [ [ 25.872276976622711, 35.158731524494073 ], [ 25.8722676, 35.158732499662804 ], [ 25.8722385, 35.158717999662798 ], [ 25.8722385, 35.158690299662794 ], [ 25.8722514, 35.158661299662796 ], [ 25.872276976622711, 35.158660442714094 ] ] } },
{ "type": "Feature", "properties": { "osm_id": 8255336760, "name": "Χωματάς", "label": "natural:peak", "building": null, "natural": "peak", "landuse": null, "leisure": null, "amenity": null, "historic": null, "waterway": null }, "geometry": { "type": "Point", "coordinates": [ 25.8455135, 35.145622599661856 ] } },
{ "type": "Feature", "properties": { "osm_id": 11225363684, "name": "Petros Kantina", "label": "amenity:restaurant", "building": null, "natural": null, "landuse": null, "leisure": null, "amenity": "restaurant", "historic": null, "waterway": null }, "geometry": { "type": "Point", "coordinates": [ 25.8613751, 35.153715099662442 ] } },
{ "type": "Feature", "properties": { "osm_id": 11225363694, "name": null, "label": "amenity:shower", "building": null, "natural": null, "landuse": null, "leisure": null, "amenity": "shower", "historic": null, "waterway": null }, "geometry": { "type": "Point", "coordinates": [ 25.8611449, 35.152261899662328 ] } },
{ "type": "Feature", "properties": { "osm_id": 11225363677, "name": null, "label": "amenity:shower", "building": null, "natural": null, "landuse": null, "leisure": null, "amenity": "shower", "historic": null, "waterway": null }, "geometry": { "type": "Point", "coordinates": [ 25.8620105, 35.151833899662314 ] } },
{ "type": "Feature", "properties": { "osm_id": 11225363661, "name": "Tholos Beach", "label": "amenity:restaurant", "building": null, "natural": null, "landuse": null, "leisure": null, "amenity": "restaurant", "historic": null, "waterway": null }, "geometry": { "type": "Point", "coordinates": [ 25.8619778, 35.151606299662276 ] } }
]
}
