{
"type": "FeatureCollection",
"name": "patch_71390_linestring",
"crs": { "type": "name", "properties": { "name": "urn:ogc:def:crs:OGC:1.3:CRS84" } },
"features": [
{ "type": "Feature", "properties": { "osm_id": 57691386, "name": null, "label": "natural:coastline", "natural": "coastline", "waterway": null }, "geometry": { "type": "LineString", "coordinates": [ [ 25.8476315, 35.156782099662671 ], [ 25.8476785, 35.156801899662661 ], [ 25.8476959, 35.156845699662661 ], [ 25.8476637, 35.15687529966268 ], [ 25.8476074, 35.156886299662659 ], [ 25.8475712, 35.156910399662671 ], [ 25.8475806, 35.156953199662674 ], [ 25.8475846, 35.156988299662686 ], [ 25.8475202, 35.157040899662682 ], [ 25.84737, 35.157102299662689 ], [ 25.8473003, 35.157121999662699 ], [ 25.8472252, 35.157161499662685 ], [ 25.8472306, 35.157222899662692 ], [ 25.8472292, 35.157274399662704 ], [ 25.8471809, 35.1573226996627 ], [ 25.8471192, 35.157298499662708 ], [ 25.8470656, 35.1572436996627 ], [ 25.8470951, 35.1571998996627 ], [ 25.8471689, 35.157166999662692 ], [ 25.8472265, 35.157141799662689 ], [ 25.847256, 35.157104499662694 ], [ 25.8472815, 35.157049699662679 ], [ 25.8472534, 35.157026599662686 ], [ 25.8472547, 35.156960799662677 ], [ 25.8472922, 35.156930099662674 ], [ 25.8472976, 35.156897199662673 ], [ 25.8473432, 35.156881899662672 ], [ 25.8473754, 35.156865399662678 ], [ 25.8473969, 35.156827099662671 ], [ 25.8474545, 35.156825999662672 ], [ 25.8475739, 35.156786499662665 ], [ 25.8476315, 35.156782099662671 ] ] } },
{ "type": "Feature", "properties": { "osm_id": 505332336, "name": null, "label": "natural:coastline", "natural": "coastline", "waterway": null }, "geometry": { "type": "LineString", "coordinates": [ [ 25.8484138, 35.156921399662686 ], [ 25.8484078, 35.156894799662673 ], [ 25.848424, 35.156868199662661 ], [ 25.8484504, 35.156878199662678 ], [ 25.8484586, 35.156906399662667 ], [ 25.8484423, 35.156934699662678 ], [ 25.8484138, 35.156921399662686 ] ] } },
{ "type": "Feature", "properties": { "osm_id": 505332233, "name": null, "label": "natural:coastline", "natural": "coastline", "waterway": null }, "geometry": { "type": "LineString", "coordinates": [ [ 25.8483793, 35.156745199662673 ], [ 25.8483102, 35.156728599662664 ], [ 25.8482553, 35.156696999662664 ], [ 25.8482329, 35.156640499662657 ], [ 25.8482553, 35.156603899662656 ], [ 25.8482858, 35.156600599662646 ], [ 25.8483122, 35.156633899662658 ], [ 25.8483651, 35.156677099662659 ], [ 25.8484017, 35.156700299662667 ], [ 25.8484403, 35.156721899662649 ], [ 25.8484321, 35.156745199662673 ], [ 25.8483793, 35.156745199662673 ] ] } },
{ "type": "Feature", "properties": { "osm_id": 505332207, "name": null, "label": "natural:coastline", "natural": "coastline", "waterway": null }, "geometry": { "type": "LineString", "coordinates": [ [ 25.8480845, 35.156795099662659 ], [ 25.8481089, 35.156761799662668 ], [ 25.8480703, 35.156713599662666 ], [ 25.8480561, 35.156647099662656 ], [ 25.8480642, 35.156613899662666 ], [ 25.8480988, 35.156607299662646 ], [ 25.8481232, 35.156572399662643 ], [ 25.8481598, 35.156549099662655 ], [ 25.8481862, 35.156580699662655 ], [ 25.8481882, 35.156648799662662 ], [ 25.8482065, 35.156741899662656 ], [ 25.8481781, 35.156783399662665 ], [ 25.8481537, 35.156818299662667 ], [ 25.8481171, 35.156818299662667 ], [ 25.8480845, 35.156795099662659 ] ] } },
{ "type": "Feature", "properties": { "osm_id": 163974662, "name": null, "label": "natural:coastline", "natural": "coastline", "waterway": null }, "geometry": { "type": "LineString", "coordinates": [ [ 25.8467411, 35.154400599662495 ], [ 25.8466204, 35.154413699662484 ], [ 25.8465667, 35.154499299662504 ], [ 25.8465345, 35.154501499662501 ], [ 25.8464863, 35.154435699662493 ], [ 25.846505, 35.154363299662492 ], [ 25.8464219, 35.154282199662482 ], [ 25.8463656, 35.154262399662471 ], [ 25.8462824, 35.15426679966248 ], [ 25.8462985, 35.154200999662478 ], [ 25.8463602, 35.154154999662481 ], [ 25.8463682, 35.154111099662472 ], [ 25.8462596, 35.154097999662461 ], [ 25.8462542, 35.154041999662454 ], [ 25.8462046, 35.154007999662461 ], [ 25.8461242, 35.153966399662465 ], [ 25.8461832, 35.153885199662447 ], [ 25.846218, 35.153815099662459 ], [ 25.8461537, 35.153786499662445 ], [ 25.846151, 35.153700999662441 ], [ 25.8459525, 35.153433499662412 ], [ 25.8458264, 35.153308499662415 ], [ 25.8457674, 35.153089199662396 ], [ 25.8458023, 35.152924699662385 ], [ 25.8457674, 35.152799699662381 ], [ 25.8457218, 35.15277559966237 ], [ 25.8457057, 35.152709799662361 ], [ 25.8457781, 35.152663699662362 ], [ 25.8458667, 35.152549699662352 ], [ 25.8458398, 35.152510199662359 ], [ 25.845872, 35.152437799662351 ], [ 25.8459605, 35.152378599662349 ], [ 25.8459391, 35.152288699662336 ], [ 25.845982, 35.152240499662334 ], [ 25.8459418, 35.152222899662334 ], [ 25.8458479, 35.152266799662335 ], [ 25.8457299, 35.152220699662337 ], [ 25.8456467, 35.152163699662331 ], [ 25.8455555, 35.152170299662338 ], [ 25.8455528, 35.152095699662318 ], [ 25.8455502, 35.152054099662323 ], [ 25.845408, 35.152003599662322 ], [ 25.8453302, 35.152025499662322 ], [ 25.8452256, 35.151972899662312 ], [ 25.8451505, 35.151994799662312 ], [ 25.845121, 35.151926899662314 ], [ 25.8452068, 35.1518478996623 ], [ 25.8451666, 35.151779899662301 ], [ 25.8450835, 35.151696599662301 ], [ 25.8449386, 35.151663699662308 ], [ 25.8448528, 35.151597899662285 ], [ 25.8448742, 35.151540899662294 ], [ 25.8448394, 35.151510199662276 ], [ 25.8447884, 35.151439999662273 ], [ 25.8448286, 35.151387399662269 ], [ 25.844826, 35.151317199662273 ], [ 25.8447321, 35.151277699662266 ], [ 25.8446355, 35.151328199662274 ], [ 25.8445014, 35.15130839966227 ], [ 25.84449901119476, 35.151307025440062 ] ] } },
{ "type": "Feature", "properties": { "osm_id": 835099720, "name": null, "label": "waterway:stream", "natural": null, "waterway": "stream" }, "geometry": { "type": "LineString", "coordinates": [ [ 25.8526974, 35.153492799662423 ], [ 25.8532392, 35.153839299662451 ], [ 25.8536951, 35.154238499662476 ], [ 25.8540438, 35.154369999662485 ], [ 25.8544462, 35.154655099662506 ], [ 25.854591, 35.154896399662526 ], [ 25.8546822, 35.155163899662554 ], [ 25.8549719, 35.155378799662564 ], [ 25.8551811, 35.155361299662559 ], [ 25.8554279, 35.155361299662559 ], [ 25.8557551, 35.155396399662571 ], [ 25.8560823, 35.155422699662566 ], [ 25.8563184, 35.155510399662568 ], [ 25.8564149, 35.155690199662587 ], [ 25.8565061, 35.155834899662601 ], [ 25.85671, 35.155869999662599 ], [ 25.8569835, 35.155909499662592 ], [ 25.8573644, 35.156080499662622 ], [ 25.8577828, 35.156304199662635 ], [ 25.857976, 35.156400699662633 ], [ 25.8584105, 35.156383199662649 ], [ 25.8586572, 35.156444599662642 ], [ 25.8588332, 35.156424799662659 ] ] } },
{ "type": "Feature", "properties": { "osm_id": 435470014, "name": null, "label": "natural:coastline", "natural": "coastline", "waterway": null }, "geometry": { "type": "LineString", "coordinates": [ [ 25.8514403, 35.157037599662686 ], [ 25.8513276, 35.156987099662672 ], [ 25.8513129, 35.156904899662678 ], [ 25.8512391, 35.156860999662669 ], [ 25.851282, 35.156799599662669 ], [ 25.8512404, 35.15668999966266 ], [ 25.851109, 35.156635199662652 ], [ 25.851046, 35.156560599662647 ], [ 25.8509655, 35.156528799662638 ], [ 25.8508797, 35.156464099662635 ], [ 25.8508059, 35.156434499662637 ], [ 25.8507013, 35.156423499662644 ], [ 25.8505323, 35.15644989966264 ], [ 25.8504425, 35.156441099662644 ], [ 25.8502655, 35.156353399662628 ], [ 25.8501059, 35.156346799662643 ], [ 25.8500536, 35.156397199662635 ], [ 25.8500187, 35.156435599662643 ], [ 25.8500388, 35.156530999662643 ], [ 25.8500616, 35.156602299662659 ], [ 25.8500066, 35.156632999662655 ], [ 25.849906, 35.156601199662653 ], [ 25.8498967, 35.156541999662643 ], [ 25.8498363, 35.156541999662643 ], [ 25.8497625, 35.156561699662646 ], [ 25.8496781, 35.156507999662651 ], [ 25.8496714, 35.156435599662643 ], [ 25.8497237, 35.156390599662643 ], [ 25.8497733, 35.156325999662641 ], [ 25.8497625, 35.156266699662638 ], [ 25.8497009, 35.156189999662622 ], [ 25.8496611, 35.156130599662617 ], [ 25.8495346, 35.156082499662617 ], [ 25.8494085, 35.156078199662609 ], [ 25.8492409, 35.156093499662603 ], [ 25.8490974, 35.156135199662621 ], [ 25.8490169, 35.156178999662629 ], [ 25.8489552, 35.156197699662627 ], [ 25.8489726, 35.156269999662626 ], [ 25.8490075, 35.156298499662626 ], [ 25.8489874, 35.156336899662627 ], [ 25.8489123, 35.156354499662633 ], [ 25.8487581, 35.156340199662637 ], [ 25.8487004, 35.156321599662618 ], [ 25.848632, 35.156334699662629 ], [ 25.8485851, 35.156376399662634 ], [ 25.8485676, 35.156447699662642 ], [ 25.8484898, 35.156451999662636 ], [ 25.8484791, 35.156501399662645 ], [ 25.8484402, 35.15653649966265 ], [ 25.8483155, 35.156539799662646 ], [ 25.8482471, 35.15651339966265 ], [ 25.8481505, 35.156514499662649 ], [ 25.8480982, 35.156501399662645 ], [ 25.8480647, 35.156426799662647 ], [ 25.847995, 35.156407099662637 ], [ 25.8480365, 35.156353399662628 ], [ 25.8480124, 35.156311699662638 ], [ 25.8480486, 35.15624149966262 ], [ 25.847999, 35.156164799662619 ], [ 25.8480634, 35.156102299662621 ], [ 25.8480379, 35.156025499662597 ], [ 25.8480151, 35.155932299662609 ], [ 25.8480218, 35.155843499662602 ], [ 25.8479641, 35.155775499662582 ], [ 25.8478622, 35.155721799662594 ], [ 25.8477911, 35.155744799662585 ], [ 25.8477589, 35.155788699662601 ], [ 25.8477053, 35.155789799662585 ], [ 25.8476892, 35.155742599662595 ], [ 25.847708, 35.155694399662586 ], [ 25.8477308, 35.155631899662581 ], [ 25.847767, 35.155616499662592 ], [ 25.8477925, 35.155586899662588 ], [ 25.8477817, 35.155516799662578 ], [ 25.8478112, 35.155464099662566 ], [ 25.8477884, 35.155410399662564 ], [ 25.8477777, 35.155343499662564 ], [ 25.8476758, 35.155204299662543 ], [ 25.847598, 35.155118699662552 ], [ 25.8475068, 35.155066099662541 ], [ 25.8475175, 35.155021099662541 ], [ 25.8474532, 35.154992599662535 ], [ 25.8473848, 35.154994799662532 ], [ 25.8472949, 35.15502769966254 ], [ 25.8472307, 35.155012899662538 ], [ 25.8471876, 35.154989399662533 ], [ 25.8470482, 35.154962199662528 ], [ 25.8470347, 35.154932299662534 ], [ 25.8470522, 35.154909299662528 ], [ 25.8471165, 35.154913699662529 ], [ 25.8471715, 35.154934499662531 ], [ 25.8472332, 35.154912599662531 ], [ 25.8471984, 35.154864399662522 ], [ 25.8470911, 35.154831499662514 ], [ 25.8470562, 35.154770099662521 ], [ 25.8470576, 35.154714199662514 ], [ 25.8468671, 35.154652799662507 ], [ 25.846843, 35.154479499662507 ], [ 25.8467411, 35.154400599662495 ] ] } },
{ "type": "Feature", "properties": { "osm_id": 505332372, "name": null, "label": "natural:coastline", "natural": "coastline", "waterway": null }, "geometry": { "type": "LineString", "coordinates": [ [ 25.849259, 35.15619559966261 ], [ 25.8492251, 35.156177899662623 ], [ 25.8492282, 35.156152799662621 ], [ 25.8492544, 35.156141399662623 ], [ 25.8492867, 35.15614269966261 ], [ 25.8493006, 35.15617419966263 ], [ 25.8492852, 35.15619309966263 ], [ 25.849259, 35.15619559966261 ] ] } },
{ "type": "Feature", "properties": { "osm_id": 435470023, "name": null, "label": "natural:coastline", "natural": "coastline", "waterway": null }, "geometry": { "type": "LineString", "coordinates": [ [ 25.8519311, 35.157444299662714 ], [ 25.8517742, 35.157438899662722 ], [ 25.8517286, 35.157392799662702 ], [ 25.8516361, 35.157346799662697 ], [ 25.8516535, 35.157242599662688 ], [ 25.8516186, 35.157155999662685 ], [ 25.8514403, 35.157037599662686 ] ] } },
{ "type": "Feature", "properties": { "osm_id": 435470019, "name": null, "label": "natural:coastline", "natural": "coastline", "waterway": null }, "geometry": { "type": "LineString", "coordinates": [ [ 25.8586393, 35.158815999662821 ], [ 25.8585843, 35.158875199662816 ], [ 25.8585562, 35.158927799662813 ], [ 25.8585079, 35.158949799662821 ], [ 25.8584373, 35.158937499662819 ], [ 25.8583725, 35.158924599662818 ], [ 25.8583376, 35.158934399662819 ], [ 25.8582933, 35.158960699662828 ], [ 25.8582611, 35.158934399662819 ], [ 25.8582075, 35.158900399662826 ], [ 25.8582035, 35.15886639966282 ], [ 25.8581793, 35.158847799662809 ], [ 25.8581284, 35.158865399662822 ], [ 25.8580358, 35.158856599662812 ], [ 25.85795, 35.158789699662812 ], [ 25.8578239, 35.158716199662813 ], [ 25.8577086, 35.15874579966281 ], [ 25.8575973, 35.158776499662814 ], [ 25.8575423, 35.158831399662809 ], [ 25.8574793, 35.158840099662804 ], [ 25.8574189, 35.158919099662832 ], [ 25.8573814, 35.159034199662827 ], [ 25.8574659, 35.159110999662836 ], [ 25.8575316, 35.159149299662836 ], [ 25.8577019, 35.159176699662837 ], [ 25.8577783, 35.159223899662834 ], [ 25.8577944, 35.159280899662846 ], [ 25.8577676, 35.159323699662856 ], [ 25.8577824, 35.159377399662851 ], [ 25.8578186, 35.159423399662849 ], [ 25.857887, 35.159473899662856 ], [ 25.8579634, 35.15950459966286 ], [ 25.8579755, 35.159543999662858 ], [ 25.8579406, 35.159571399662866 ], [ 25.8579004, 35.159601099662865 ], [ 25.8578548, 35.15955389966286 ], [ 25.8577891, 35.159560499662874 ], [ 25.857722, 35.159571399662866 ], [ 25.8576375, 35.159611999662872 ], [ 25.8575772, 35.159651499662878 ], [ 25.8575235, 35.159658099662877 ], [ 25.8574659, 35.159628499662873 ], [ 25.8573787, 35.159628499662873 ], [ 25.8571641, 35.159641599662883 ], [ 25.8571051, 35.159673399662879 ], [ 25.8570287, 35.159698599662867 ], [ 25.8569093, 35.159673399662879 ], [ 25.85679, 35.159675599662869 ], [ 25.856688, 35.159675599662869 ], [ 25.8566089, 35.159707399662878 ], [ 25.8564815, 35.159727099662881 ], [ 25.856393, 35.159750199662874 ], [ 25.8562857, 35.159753499662877 ], [ 25.8562079, 35.159719499662877 ], [ 25.8561248, 35.159738099662881 ], [ 25.8560899, 35.159697499662876 ], [ 25.8560765, 35.159642699662875 ] ] } },
{ "type": "Feature", "properties": { "osm_id": 435470024, "name": null, "label": "natural:coastline", "natural": "coastline", "waterway": null }, "geometry": { "type": "LineString", "coordinates": [ [ 25.8560765, 35.159642699662875 ], [ 25.856106, 35.159626299662868 ], [ 25.856118, 35.159584599662871 ], [ 25.8561194, 35.159550599662872 ], [ 25.8560791, 35.159514399662882 ], [ 25.8559558, 35.159495799662864 ], [ 25.8558632, 35.159439899662857 ], [ 25.8557908, 35.159368599662855 ], [ 25.8557828, 35.159309399662853 ], [ 25.8557318, 35.159306099662849 ], [ 25.8556943, 35.159334599662849 ], [ 25.8556259, 35.159334599662849 ], [ 25.8555829, 35.159350999662855 ], [ 25.8555212, 35.159370799662845 ], [ 25.8554448, 35.159338999662857 ], [ 25.8553429, 35.159332399662837 ], [ 25.8552906, 35.15927759966285 ], [ 25.8552222, 35.15925459966283 ], [ 25.8552115, 35.159202999662845 ], [ 25.8551444, 35.159189899662834 ], [ 25.8549969, 35.159219499662846 ], [ 25.8548802, 35.159253499662846 ], [ 25.8548118, 35.159246899662847 ], [ 25.8547461, 35.159192099662846 ], [ 25.85473, 35.159161399662835 ], [ 25.8547555, 35.159132899662836 ], [ 25.8547675, 35.159054999662843 ], [ 25.8546992, 35.158993599662821 ], [ 25.854612, 35.158926699662828 ], [ 25.8546294, 35.158885099662818 ], [ 25.854679, 35.158867499662826 ], [ 25.8546683, 35.158830199662802 ], [ 25.8546066, 35.15882809966282 ], [ 25.8545168, 35.158861999662818 ], [ 25.8544698, 35.158922299662819 ], [ 25.8544215, 35.158936599662816 ], [ 25.854325, 35.158909199662816 ], [ 25.8542794, 35.158857699662818 ], [ 25.8542485, 35.158813799662809 ], [ 25.8541681, 35.158791899662809 ], [ 25.8541117, 35.158804999662813 ], [ 25.8540554, 35.158845599662811 ], [ 25.853928, 35.158868599662817 ], [ 25.8537899, 35.158903699662822 ], [ 25.8536705, 35.158905899662813 ], [ 25.8535847, 35.158854399662829 ], [ 25.8534908, 35.158849999662827 ], [ 25.8534184, 35.158780899662808 ], [ 25.8533621, 35.158689899662797 ], [ 25.8532843, 35.158676699662813 ], [ 25.8532387, 35.1585527996628 ], [ 25.8532078, 35.158499099662791 ], [ 25.8530818, 35.158476099662785 ], [ 25.852949, 35.158489299662797 ], [ 25.8528055, 35.158504599662784 ], [ 25.8527143, 35.158472799662789 ], [ 25.8526553, 35.158423499662781 ], [ 25.8526714, 35.15833679966277 ], [ 25.8527197, 35.158228299662767 ], [ 25.8526915, 35.158159199662762 ], [ 25.8527183, 35.158087999662769 ], [ 25.8526902, 35.158033099662752 ], [ 25.852607, 35.157977199662753 ], [ 25.8526084, 35.157883999662744 ], [ 25.8525762, 35.157740399662728 ], [ 25.8524984, 35.157667999662728 ], [ 25.852481, 35.157599999662722 ], [ 25.8523723, 35.157511199662714 ], [ 25.852139, 35.157523299662714 ], [ 25.8520304, 35.157505699662714 ], [ 25.8519311, 35.157444299662714 ] ] } },
{ "type": "Feature", "properties": { "osm_id": 435470018, "name": null, "label": "natural:coastline", "natural": "coastline", "waterway": null }, "geometry": { "type": "LineString", "coordinates": [ [ 25.8590028, 35.156212999662628 ], [ 25.8590376, 35.156268999662629 ], [ 25.8590041, 35.156309499662626 ], [ 25.8590765, 35.156359999662627 ], [ 25.8590698, 35.156419199662643 ], [ 25.8589464, 35.156411499662639 ], [ 25.8588472, 35.156392899662634 ], [ 25.8588332, 35.156424799662659 ], [ 25.8588217, 35.156450999662638 ], [ 25.8588231, 35.156550799662647 ], [ 25.8588418, 35.156595699662645 ], [ 25.8590041, 35.156675699662664 ], [ 25.8590953, 35.156733899662662 ], [ 25.8591288, 35.156848999662671 ], [ 25.8592442, 35.157034299662683 ], [ 25.8593206, 35.157168099662684 ], [ 25.8593461, 35.157302899662703 ], [ 25.8593689, 35.157631899662725 ], [ 25.8593863, 35.157776599662739 ], [ 25.8594239, 35.157871999662746 ], [ 25.8594024, 35.157934499662758 ], [ 25.8593716, 35.157950899662751 ], [ 25.8593313, 35.157949799662745 ], [ 25.8592643, 35.157959699662747 ], [ 25.8592348, 35.157991499662756 ], [ 25.8592737, 35.158016699662753 ], [ 25.8592911, 35.158069299662763 ], [ 25.8592831, 35.15810549966276 ], [ 25.8592026, 35.158095699662759 ], [ 25.859161, 35.158104399662754 ], [ 25.8591235, 35.158116499662754 ], [ 25.8591409, 35.158140599662772 ], [ 25.8592227, 35.15813289966276 ], [ 25.859279, 35.158139499662759 ], [ 25.8593085, 35.15817239966276 ], [ 25.8592831, 35.158241499662779 ], [ 25.8592375, 35.158351099662774 ], [ 25.8591758, 35.158364299662772 ], [ 25.8591396, 35.158442099662793 ], [ 25.859094, 35.158482699662798 ], [ 25.8590524, 35.158507899662794 ], [ 25.858988, 35.1585539996628 ], [ 25.8590014, 35.158585799662788 ], [ 25.8590055, 35.158622999662796 ], [ 25.8588982, 35.158655899662797 ], [ 25.8587962, 35.158672399662805 ], [ 25.8587574, 35.158708599662795 ], [ 25.858705, 35.158780899662808 ], [ 25.8586393, 35.158815999662821 ] ] } },
{ "type": "Feature", "properties": { "osm_id": 435470020, "name": null, "label": "natural:coastline", "natural": "coastline", "waterway": null }, "geometry": { "type": "LineString", "coordinates": [ [ 25.8613497, 35.153378599662425 ], [ 25.8613081, 35.153395099662418 ], [ 25.8612599, 35.153420299662415 ], [ 25.8612572, 35.153458699662423 ], [ 25.8612397, 35.153513499662431 ], [ 25.8613041, 35.153611099662434 ], [ 25.8616488, 35.153597899662451 ], [ 25.8617668, 35.153604499662436 ], [ 25.8618097, 35.153634099662433 ], [ 25.861807, 35.153672499662441 ], [ 25.8616957, 35.153755799662449 ], [ 25.8615701, 35.153937599662456 ], [ 25.8614717, 35.154384099662508 ], [ 25.8614141, 35.154512399662501 ], [ 25.8613913, 35.154642899662505 ], [ 25.8613282, 35.154728399662517 ], [ 25.8613175, 35.154825999662521 ], [ 25.8612371, 35.155015699662535 ], [ 25.8611687, 35.155075999662543 ], [ 25.8611646, 35.155154899662541 ], [ 25.8611043, 35.155226199662565 ], [ 25.8610386, 35.155267899662547 ], [ 25.8609916, 35.155299699662557 ], [ 25.8609863, 35.15536989966256 ], [ 25.8609165, 35.155528799662576 ], [ 25.8609058, 35.155583699662586 ], [ 25.8608978, 35.155691099662583 ], [ 25.8609648, 35.155746999662583 ], [ 25.8610131, 35.155804099662582 ], [ 25.860989, 35.155866599662602 ], [ 25.8609004, 35.155920299662597 ], [ 25.8607958, 35.155954299662618 ], [ 25.8606671, 35.155927999662602 ], [ 25.860541, 35.155947699662605 ], [ 25.8604686, 35.155904899662609 ], [ 25.8603439, 35.155907099662599 ], [ 25.8602607, 35.155877499662601 ], [ 25.8601669, 35.155805199662602 ], [ 25.8600341, 35.155756899662592 ], [ 25.8599228, 35.155677999662586 ], [ 25.8598115, 35.155649499662573 ], [ 25.859727, 35.155574899662582 ], [ 25.8596653, 35.155502499662568 ], [ 25.8595164, 35.155464099662566 ], [ 25.8594427, 35.155411499662563 ], [ 25.8594413, 35.155358899662566 ], [ 25.8593863, 35.155288699662563 ], [ 25.8593481, 35.155297399662558 ], [ 25.8592832, 35.15531249966255 ], [ 25.8592194, 35.155332899662547 ], [ 25.8591932, 35.15534129966256 ], [ 25.8591763, 35.155352999662561 ], [ 25.859106, 35.155401699662562 ], [ 25.8589894, 35.155446599662568 ], [ 25.858925, 35.155488299662565 ], [ 25.8589022, 35.155555199662579 ], [ 25.8589344, 35.155637399662581 ], [ 25.8589907, 35.155666999662579 ], [ 25.8589947, 35.155717399662585 ], [ 25.8590148, 35.155762399662599 ], [ 25.8590055, 35.156080399662613 ], [ 25.8590028, 35.156212999662628 ] ] } },
{ "type": "Feature", "properties": { "osm_id": 822615232, "name": "Καβουσιανός πόταμος", "label": "waterway:stream", "natural": null, "waterway": "stream" }, "geometry": { "type": "LineString", "coordinates": [ [ 25.853146471792197, 35.139145820014086 ], [ 25.853276, 35.139263499661389 ], [ 25.8533833, 35.140167199661462 ], [ 25.8536944, 35.141079599661524 ], [ 25.8542416, 35.141684999661578 ], [ 25.8542952, 35.142307899661624 ], [ 25.8549282, 35.142737799661646 ], [ 25.8555612, 35.143343099661692 ], [ 25.8563766, 35.143676499661709 ], [ 25.8567522, 35.144264299661756 ], [ 25.8575568, 35.144316899661753 ], [ 25.8583937, 35.145106499661814 ], [ 25.8586941, 35.145817099661869 ], [ 25.859032, 35.146523299661922 ], [ 25.8599172, 35.146720699661934 ], [ 25.8602605, 35.147650599662008 ], [ 25.8618483, 35.149282299662119 ], [ 25.8620629, 35.150264799662196 ], [ 25.8623717, 35.150734699662223 ], [ 25.8624492, 35.150852599662237 ], [ 25.8627608, 35.151872199662314 ] ] } },
{ "type": "Feature", "properties": { "osm_id": 870811810, "name": null, "label": "waterway:stream", "natural": null, "waterway": "stream" }, "geometry": { "type": "LineString", "coordinates": [ [ 25.872276976622711, 35.139673688798979 ], [ 25.8715458, 35.139802299661433 ], [ 25.8702025, 35.140223399661465 ], [ 25.8695588, 35.140370799661476 ], [ 25.8686018, 35.140325199661469 ] ] } },
{ "type": "Feature", "properties": { "osm_id": 829677331, "name": null, "label": "natural:cliff", "natural": "cliff", "waterway": null }, "geometry": { "type": "LineString", "coordinates": [ [ 25.8713344, 35.144382499661766 ], [ 25.8711574, 35.144228999661763 ], [ 25.8708516, 35.143948299661723 ], [ 25.8707283, 35.143794699661726 ], [ 25.8703259, 35.143496499661687 ] ] } },
{ "type": "Feature", "properties": { "osm_id": 825156332, "name": null, "label": "waterway:stream", "natural": null, "waterway": "stream" }, "geometry": { "type": "LineString", "coordinates": [ [ 25.872276976622711, 35.148481601016833 ], [ 25.8717936, 35.148541499662066 ], [ 25.8713215, 35.148401199662061 ], [ 25.8707314, 35.148423099662061 ], [ 25.8703505, 35.148497599662051 ], [ 25.8691971, 35.148822199662078 ], [ 25.8677567, 35.148844699662085 ], [ 25.8670432, 35.148862199662091 ], [ 25.866362, 35.149028899662085 ], [ 25.8655627, 35.149287699662125 ], [ 25.864817, 35.149204299662117 ], [ 25.8638407, 35.149379799662128 ], [ 25.8631272, 35.149673699662145 ], [ 25.8626444, 35.15016489966218 ], [ 25.8623717, 35.150734699662223 ] ] } },
{ "type": "Feature", "properties": { "osm_id": 825156329, "name": null, "label": "waterway:stream", "natural": null, "waterway": "stream" }, "geometry": { "type": "LineString", "coordinates": [ [ 25.872276976622711, 35.151470405032157 ], [ 25.8720879, 35.151430999662288 ], [ 25.8710525, 35.151759899662309 ], [ 25.8707414, 35.151961699662323 ], [ 25.8694271, 35.153566999662438 ], [ 25.8690194, 35.15387839966246 ], [ 25.8691583, 35.154509999662494 ], [ 25.8692334, 35.155365199662562 ], [ 25.8690654, 35.156245799662635 ] ] } },
{ "type": "Feature", "properties": { "osm_id": 822522151, "name": null, "label": "waterway:stream", "natural": null, "waterway": "stream" }, "geometry": { "type": "LineString", "coordinates": [ [ 25.872276976622711, 35.155520769719452 ], [ 25.8721829, 35.155515299662568 ], [ 25.8719256, 35.155593499662579 ] ] } },
{ "type": "Feature", "properties": { "osm_id": 1409170750, "name": null, "label": "waterway:stream", "natural": null, "waterway": "stream" }, "geometry": { "type": "LineString", "coordinates": [ [ 25.8719256, 35.155593499662579 ], [ 25.8717725, 35.15562269966258 ] ] } },
{ "type": "Feature", "properties": { "osm_id": 1409170752, "name": null, "label": "waterway:stream", "natural": null, "waterway": "stream" }, "geometry": { "type": "LineString", "coordinates": [ [ 25.868828, 35.156415999662634 ], [ 25.8687264, 35.156523999662639 ] ] } },
{ "type": "Feature", "properties": { "osm_id": 1409170751, "name": null, "label": "waterway:stream", "natural": null, "waterway": "stream" }, "geometry": { "type": "LineString", "coordinates": [ [ 25.8687264, 35.156523999662639 ], [ 25.8684868, 35.156752099662661 ], [ 25.8683518, 35.156846699662665 ] ] } },
{ "type": "Feature", "properties": { "osm_id": 435470016, "name": null, "label": "natural:coastline", "natural": "coastline", "waterway": null }, "geometry": { "type": "LineString", "coordinates": [ [ 25.872276976622711, 35.158420831605575 ], [ 25.8718944, 35.15811549966277 ], [ 25.8714178, 35.158087799662752 ], [ 25.8708471, 35.15816019966276 ], [ 25.8703599, 35.158217399662767 ], [ 25.87004, 35.158277499662766 ], [ 25.8698379, 35.158108499662752 ], [ 25.8697321, 35.157927199662758 ], [ 25.8696183, 35.157863199662749 ], [ 25.8694261, 35.157929499662757 ], [ 25.8689239, 35.157623799662737 ], [ 25.8688121, 35.157479699662723 ], [ 25.8687062, 35.157311399662696 ], [ 25.8685229, 35.157190899662695 ], [ 25.8684741, 35.157069299662687 ], [ 25.8684317, 35.156947299662676 ], [ 25.8683518, 35.156846699662665 ], [ 25.8683071, 35.156835199662666 ], [ 25.8680303, 35.15676379966267 ], [ 25.8675943, 35.156617799662648 ], [ 25.8670799, 35.156156799662618 ], [ 25.8667269, 35.155800699662592 ], [ 25.8662222, 35.155614299662595 ], [ 25.8658837, 35.155139299662544 ], [ 25.8655537, 35.15509339966254 ], [ 25.8653309, 35.154883299662522 ], [ 25.8652714, 35.154754799662527 ], [ 25.8651048, 35.15469189966251 ], [ 25.8650052, 35.154119899662476 ], [ 25.8648386, 35.153723099662436 ], [ 25.8645407, 35.153545999662434 ], [ 25.8644036, 35.153412799662426 ], [ 25.8641268, 35.152766199662381 ], [ 25.8639327, 35.152209699662329 ], [ 25.8638723, 35.152035399662324 ], [ 25.863824, 35.151955299662312 ], [ 25.8637315, 35.151886199662307 ], [ 25.863593, 35.151830399662295 ], [ 25.8634043, 35.151828099662318 ], [ 25.863187, 35.151825899662292 ], [ 25.8628852, 35.15185299966231 ], [ 25.8627608, 35.151872199662314 ], [ 25.8625926, 35.151898199662313 ], [ 25.8623225, 35.151932199662312 ], [ 25.8620892, 35.152009799662309 ], [ 25.8617899, 35.15215689966233 ], [ 25.8616327, 35.152238199662328 ], [ 25.861394, 35.152419199662347 ], [ 25.8612129, 35.152605599662358 ], [ 25.8610372, 35.152830399662371 ], [ 25.8610426, 35.152885199662386 ], [ 25.8610667, 35.153037599662397 ], [ 25.8611378, 35.153161499662403 ], [ 25.8611901, 35.153203199662407 ], [ 25.8612679, 35.153290899662409 ], [ 25.8613014, 35.153335899662409 ], [ 25.8613497, 35.153378599662425 ] ] } },
{ "type": "Feature", "properties": { "osm_id": 1409170749, "name": null, "label": "waterway:stream", "natural": null, "waterway": "stream" }, "geometry": { "type": "LineString", "coordinates": [ [ 25.8717725, 35.15562269966258 ], [ 25.871566, 35.155624899662584 ], [ 25.87133, 35.155537199662561 ], [ 25.8706487, 35.155537199662561 ], [ 25.870418, 35.15558539966257 ], [ 25.8699406, 35.155861699662609 ], [ 25.8694685, 35.15599769966262 ], [ 25.8690654, 35.156245799662635 ], [ 25.8689911, 35.15629159966263 ], [ 25.868828, 35.156415999662634 ] ] } },
{ "type": "Feature", "properties": { "osm_id": 1311762618, "name": null, "label": "natural:coastline", "natural": "coastline", "waterway": null }, "geometry": { "type": "LineString", "coordinates": [ [ 25.872276976622711, 35.158731524494073 ], [ 25.8722676, 35.158732499662804 ], [ 25.8722385, 35.158717999662798 ], [ 25.8722385, 35.158690299662794 ], [ 25.8722514, 35.158661299662796 ], [ 25.872276976622711, 35.158660442714094 ] ] } }
]
}
