{
"type": "FeatureCollection",
"name": "patch_57308_linestring",
"crs": { "type": "name", "properties": { "name": "urn:ogc:def:crs:OGC:1.3:CRS84" } },
"features": [
{ "type": "Feature", "properties": { "element": "way", "id": 183698673, "amenity": null, "denomination": null, "name": null, "religion": null, "ele": null, "natural": null, "hiking": null, "information": null, "survey:date": null, "tourism": null, "seasonal": "yes", "waterway": "stream", "leisure": null, "source": null, "historic": null, "opening_hours": null, "wheelchair": null, "building": null, "alt_name": null, "start_date": null, "abandoned": null, "intermittent": null, "water": null, "landuse": null, "trees": null, "crop": null, "ruins": null, "boat": null, "canoe": null, "motorboat": null, "ship": null, "width": null, "label": "waterway:stream" }, "geometry": { "type": "LineString", "coordinates": [ [ 25.468235293313292, 37.112522540618698 ], [ 25.4682338, 37.1125222 ], [ 25.4680246, 37.112464 ], [ 25.4678592, 37.1124175 ], [ 25.4676007, 37.1123275 ], [ 25.4673055, 37.1121751 ], [ 25.4672186, 37.1120089 ], [ 25.4671086, 37.1117665 ], [ 25.4670797, 37.1116627 ], [ 25.4669552, 37.1115795 ], [ 25.4668047, 37.1115288 ], [ 25.4667149, 37.1114341 ], [ 25.4666368, 37.1113856 ], [ 25.4664925, 37.1112076 ], [ 25.4663738, 37.1110411 ], [ 25.4662197, 37.1110247 ], [ 25.4659424, 37.1108618 ], [ 25.4657186, 37.1107842 ], [ 25.465524, 37.1107531 ], [ 25.4653392, 37.1107337 ], [ 25.4653147, 37.1107277 ], [ 25.4652127, 37.1107027 ], [ 25.4649597, 37.1106872 ], [ 25.4647603, 37.1106368 ], [ 25.4647116, 37.1106018 ], [ 25.4645997, 37.1104467 ], [ 25.4645511, 37.1103303 ], [ 25.4643857, 37.1101828 ], [ 25.4642105, 37.1100858 ], [ 25.4639478, 37.1100277 ], [ 25.4634808, 37.1099695 ], [ 25.4630041, 37.1099501 ], [ 25.4627657, 37.1098337 ], [ 25.4624981, 37.1097561 ], [ 25.4621624, 37.1097018 ], [ 25.4618705, 37.109694 ], [ 25.4615884, 37.1097173 ], [ 25.4612868, 37.1097367 ], [ 25.4609268, 37.10976 ], [ 25.4606495, 37.1098143 ], [ 25.4603187, 37.1098608 ], [ 25.4600024, 37.1099074 ], [ 25.4595889, 37.1099345 ], [ 25.4593019, 37.1098647 ], [ 25.4589854, 37.1096704 ], [ 25.4588592, 37.109663 ], [ 25.4587394, 37.1096543 ], [ 25.4585744, 37.1096174 ], [ 25.4583775, 37.1096174 ], [ 25.4581575, 37.1095758 ], [ 25.4579665, 37.1095527 ], [ 25.4576249, 37.1095758 ], [ 25.4573065, 37.1096774 ], [ 25.4568636, 37.1098043 ], [ 25.4566089, 37.1098874 ], [ 25.4565192, 37.1098921 ], [ 25.4563976, 37.1099428 ], [ 25.456056, 37.1099544 ], [ 25.4557637, 37.1099013 ], [ 25.455451, 37.1097512 ], [ 25.45526, 37.1097512 ], [ 25.4549879, 37.1097212 ], [ 25.4548808, 37.1097028 ], [ 25.4547563, 37.1097305 ], [ 25.454571, 37.1098066 ], [ 25.4542787, 37.1099729 ], [ 25.4539284, 37.1102799 ], [ 25.4534016, 37.1105338 ], [ 25.452967, 37.110825 ], [ 25.4525576, 37.1109915 ], [ 25.4522874, 37.1110992 ], [ 25.4520786, 37.1112461 ], [ 25.4519886, 37.1113343 ], [ 25.4519395, 37.1114518 ], [ 25.4520009, 37.1115628 ], [ 25.4521278, 37.111775 ], [ 25.4522137, 37.1119219 ], [ 25.4522506, 37.1121243 ], [ 25.4520991, 37.1124866 ], [ 25.4519026, 37.1128066 ], [ 25.4515874, 37.1131428 ], [ 25.4511248, 37.113417 ], [ 25.4507441, 37.1136227 ], [ 25.4503184, 37.1137826 ], [ 25.4499254, 37.1139426 ], [ 25.449314, 37.1140508 ], [ 25.4483252, 37.1143631 ], [ 25.447969, 37.1145503 ], [ 25.4476493, 37.1147718 ], [ 25.4475919, 37.1149741 ], [ 25.4475929, 37.1150817 ], [ 25.4476211, 37.1152961 ], [ 25.4476779, 37.1156434 ], [ 25.4475919, 37.1159983 ], [ 25.4475551, 37.1160938 ], [ 25.4474323, 37.1161918 ], [ 25.4470475, 37.1162179 ], [ 25.4465767, 37.116133 ], [ 25.4463516, 37.1161167 ], [ 25.4460691, 37.1162179 ], [ 25.4457662, 37.1162473 ], [ 25.4452545, 37.1161167 ], [ 25.4448451, 37.1159731 ], [ 25.4446363, 37.1158719 ], [ 25.4442515, 37.115441 ], [ 25.4439363, 37.1151472 ], [ 25.443617, 37.114886 ], [ 25.443224, 37.1144421 ], [ 25.442876, 37.1142658 ], [ 25.4426632, 37.1142592 ], [ 25.4425199, 37.1143637 ], [ 25.4421351, 37.1149578 ], [ 25.441562, 37.1158033 ], [ 25.4409639, 37.1164313 ], [ 25.4405511, 37.1169744 ], [ 25.4402484, 37.1173694 ], [ 25.439901009659543, 37.11752435201069 ] ] } },
{ "type": "Feature", "properties": { "element": "way", "id": 1206736329, "amenity": null, "denomination": null, "name": null, "religion": null, "ele": null, "natural": null, "hiking": null, "information": null, "survey:date": null, "tourism": null, "seasonal": null, "waterway": null, "leisure": null, "source": null, "historic": "aqueduct", "opening_hours": null, "wheelchair": null, "building": null, "alt_name": null, "start_date": null, "abandoned": null, "intermittent": null, "water": null, "landuse": null, "trees": null, "crop": null, "ruins": null, "boat": null, "canoe": null, "motorboat": null, "ship": null, "width": null, "label": "historic:aqueduct" }, "geometry": { "type": "LineString", "coordinates": [ [ 25.4499847, 37.1135366 ], [ 25.4499008, 37.113766 ] ] } },
{ "type": "Feature", "properties": { "element": "way", "id": 1206736333, "amenity": null, "denomination": null, "name": null, "religion": null, "ele": null, "natural": null, "hiking": null, "information": null, "survey:date": null, "tourism": null, "seasonal": "no", "waterway": "drain", "leisure": null, "source": null, "historic": null, "opening_hours": null, "wheelchair": null, "building": null, "alt_name": null, "start_date": null, "abandoned": null, "intermittent": null, "water": null, "landuse": null, "trees": null, "crop": null, "ruins": null, "boat": null, "canoe": null, "motorboat": null, "ship": null, "width": "0.3", "label": "waterway:drain" }, "geometry": { "type": "LineString", "coordinates": [ [ 25.4635298, 37.1097137 ], [ 25.4631865, 37.1096859 ], [ 25.4625589, 37.1095234 ], [ 25.4621243, 37.1094506 ], [ 25.461266, 37.1094881 ], [ 25.4607095, 37.1095982 ], [ 25.4602857, 37.1097041 ], [ 25.4599263, 37.1097587 ], [ 25.4597171, 37.1097875 ], [ 25.4593067, 37.1095993 ], [ 25.4589245, 37.109318 ], [ 25.4582861, 37.1092902 ], [ 25.4575565, 37.1093223 ], [ 25.4570349, 37.1094111 ], [ 25.4569624, 37.1095202 ], [ 25.4568377, 37.1095063 ], [ 25.4564998, 37.1095811 ], [ 25.4562946, 37.1095555 ], [ 25.4561873, 37.1093768 ], [ 25.456147, 37.1092774 ], [ 25.4560652, 37.1092838 ], [ 25.4559727, 37.1093694 ], [ 25.4558721, 37.109395 ], [ 25.4554215, 37.1092389 ], [ 25.4547644, 37.1092132 ], [ 25.4544425, 37.1094036 ], [ 25.4542226, 37.1097351 ], [ 25.4538497, 37.1098699 ], [ 25.4529431, 37.1102399 ], [ 25.4522002, 37.1105907 ], [ 25.45183, 37.1109159 ], [ 25.4515672, 37.1111618 ], [ 25.4516959, 37.1117201 ], [ 25.4519185, 37.1118827 ], [ 25.4518354, 37.1121757 ], [ 25.4515243, 37.1124495 ], [ 25.4511943, 37.1127297 ], [ 25.4512802, 37.1131126 ], [ 25.4505077, 37.1134719 ], [ 25.4503709, 37.1135681 ], [ 25.4499726, 37.1136152 ], [ 25.4499136, 37.1137713 ], [ 25.4497406, 37.1138227 ], [ 25.4492296, 37.1139285 ], [ 25.4485953, 37.1140804 ], [ 25.4478738, 37.1143831 ], [ 25.4474151, 37.1146675 ], [ 25.4473373, 37.1151702 ], [ 25.4473481, 37.1153659 ], [ 25.4473655, 37.1154792 ], [ 25.4473749, 37.1155295 ], [ 25.4474486, 37.1156108 ], [ 25.4474869, 37.1156995 ], [ 25.4474493, 37.1157963 ], [ 25.4472656, 37.1159177 ], [ 25.4470745, 37.1159177 ], [ 25.4468358, 37.1158589 ], [ 25.4464495, 37.1158268 ], [ 25.4460606, 37.1158931 ], [ 25.4457267, 37.1158984 ], [ 25.4454222, 37.1158332 ], [ 25.445272, 37.115737 ], [ 25.4449756, 37.115645 ], [ 25.4447973, 37.1155049 ], [ 25.4446283, 37.1153038 ], [ 25.4443091, 37.1150568 ], [ 25.4437861, 37.1145841 ], [ 25.4435796, 37.1142975 ], [ 25.4429653, 37.1138975 ], [ 25.4424155, 37.1139146 ], [ 25.4420024, 37.1142162 ], [ 25.441694, 37.1147082 ], [ 25.441238, 37.1149648 ], [ 25.4410288, 37.1150974 ], [ 25.4408102, 37.1151648 ], [ 25.439901009659543, 37.115376227911071 ] ] } }
]
}
