{
"type": "FeatureCollection",
"name": "patch_57308_point",
"crs": { "type": "name", "properties": { "name": "urn:ogc:def:crs:OGC:1.3:CRS84" } },
"features": [
{ "type": "Feature", "properties": { "element": "node", "id": 10694481585, "amenity": "place_of_worship", "denomination": "orthodox", "name": "Αγία Γέννηση του Χριστού", "religion": "christian", "ele": null, "natural": null, "hiking": null, "information": null, "survey:date": null, "tourism": null, "seasonal": null, "waterway": null, "leisure": null, "source": null, "historic": null, "opening_hours": null, "wheelchair": null, "building": null, "alt_name": null, "start_date": null, "abandoned": null, "intermittent": null, "water": null, "landuse": null, "trees": null, "crop": null, "ruins": null, "boat": null, "canoe": null, "motorboat": null, "ship": null, "width": null, "label": "amenity:place_of_worship" }, "geometry": { "type": "Point", "coordinates": [ 25.4456933, 37.1183953 ] } },
{ "type": "Feature", "properties": { "element": "node", "id": 10815940677, "amenity": null, "denomination": null, "name": "Κορακιά", "religion": null, "ele": "294", "natural": "peak", "hiking": null, "information": null, "survey:date": null, "tourism": null, "seasonal": null, "waterway": null, "leisure": null, "source": null, "historic": null, "opening_hours": null, "wheelchair": null, "building": null, "alt_name": null, "start_date": null, "abandoned": null, "intermittent": null, "water": null, "landuse": null, "trees": null, "crop": null, "ruins": null, "boat": null, "canoe": null, "motorboat": null, "ship": null, "width": null, "label": "natural:peak" }, "geometry": { "type": "Point", "coordinates": [ 25.4407216, 37.1091508 ] } },
{ "type": "Feature", "properties": { "element": "node", "id": 11182085001, "amenity": null, "denomination": null, "name": null, "religion": null, "ele": null, "natural": null, "hiking": "yes", "information": "guidepost", "survey:date": "2023-09-07", "tourism": "information", "seasonal": null, "waterway": null, "leisure": null, "source": null, "historic": null, "opening_hours": null, "wheelchair": null, "building": null, "alt_name": null, "start_date": null, "abandoned": null, "intermittent": null, "water": null, "landuse": null, "trees": null, "crop": null, "ruins": null, "boat": null, "canoe": null, "motorboat": null, "ship": null, "width": null, "label": "tourism:information" }, "geometry": { "type": "Point", "coordinates": [ 25.4673396, 37.1123789 ] } },
{ "type": "Feature", "properties": { "element": "node", "id": 12190306827, "amenity": "bench", "denomination": null, "name": null, "religion": null, "ele": null, "natural": null, "hiking": null, "information": null, "survey:date": null, "tourism": null, "seasonal": null, "waterway": null, "leisure": null, "source": null, "historic": null, "opening_hours": null, "wheelchair": null, "building": null, "alt_name": null, "start_date": null, "abandoned": null, "intermittent": null, "water": null, "landuse": null, "trees": null, "crop": null, "ruins": null, "boat": null, "canoe": null, "motorboat": null, "ship": null, "width": null, "label": "amenity:bench" }, "geometry": { "type": "Point", "coordinates": [ 25.4506746, 37.1123908 ] } },
{ "type": "Feature", "properties": { "element": "node", "id": 12190323622, "amenity": "bench", "denomination": null, "name": null, "religion": null, "ele": null, "natural": null, "hiking": null, "information": null, "survey:date": null, "tourism": null, "seasonal": null, "waterway": null, "leisure": null, "source": null, "historic": null, "opening_hours": null, "wheelchair": null, "building": null, "alt_name": null, "start_date": null, "abandoned": null, "intermittent": null, "water": null, "landuse": null, "trees": null, "crop": null, "ruins": null, "boat": null, "canoe": null, "motorboat": null, "ship": null, "width": null, "label": "amenity:bench" }, "geometry": { "type": "Point", "coordinates": [ 25.4652438, 37.1104146 ] } }
]
}
