{
"type": "FeatureCollection",
"name": "patch_66856_features",
"crs": { "type": "name", "properties": { "name": "urn:ogc:def:crs:OGC:1.3:CRS84" } },
"features": [
{ "type": "Feature", "properties": { "osm_id": -13853523, "name": null, "label": "natural:wood", "natural": "wood", "historic": null }, "geometry": { "type": "Polygon", "coordinates": [ [ [ 25.9279695, 41.314816500425728 ], [ 25.9272026, 41.314728200425726 ], [ 25.9256165, 41.314316300425688 ], [ 25.9247981, 41.314038600425675 ], [ 25.92399, 41.313725000425627 ], [ 25.9237549, 41.313729000425631 ], [ 25.9236112, 41.313785700425633 ], [ 25.9234144, 41.313805400425643 ], [ 25.9231041, 41.313961500425656 ], [ 25.9225784, 41.313973200425657 ], [ 25.9222634, 41.314011700425674 ], [ 25.9217064, 41.314197500425678 ], [ 25.9213499, 41.314297100425676 ], [ 25.9210297, 41.314347600425698 ], [ 25.9204252, 41.314335300425704 ], [ 25.9199022, 41.314244200425669 ], [ 25.9194766, 41.314125200425671 ], [ 25.9189357, 41.313911800425643 ], [ 25.917879, 41.313424000425591 ], [ 25.9171377, 41.312784500425529 ], [ 25.9159943, 41.311591500425429 ], [ 25.914894, 41.311148600425376 ], [ 25.9137171, 41.310553900425305 ], [ 25.9125745, 41.309627100425217 ], [ 25.9117895, 41.309108800425143 ], [ 25.911043, 41.308917900425136 ], [ 25.9101439, 41.308605400425101 ], [ 25.9098277, 41.308431700425089 ], [ 25.907456, 41.307682900425021 ], [ 25.915275666695972, 41.326309605889726 ], [ 25.928793646996311, 41.326309605889726 ], [ 25.928793646996311, 41.314908711315489 ], [ 25.9279695, 41.314816500425728 ] ] ] } },
{ "type": "Feature", "properties": { "osm_id": -13853043, "name": null, "label": "natural:wood", "natural": "wood", "historic": null }, "geometry": { "type": "MultiPolygon", "coordinates": [ [ [ [ 25.911871, 41.303044000424556 ], [ 25.911559, 41.30346400042459 ], [ 25.91122, 41.303965000424618 ], [ 25.907456, 41.307682900425021 ], [ 25.9098277, 41.308431700425089 ], [ 25.9101439, 41.308605400425101 ], [ 25.911043, 41.308917900425136 ], [ 25.9117895, 41.309108800425143 ], [ 25.9125745, 41.309627100425217 ], [ 25.9137171, 41.310553900425305 ], [ 25.914894, 41.311148600425376 ], [ 25.9159943, 41.311591500425429 ], [ 25.9171377, 41.312784500425529 ], [ 25.917879, 41.313424000425591 ], [ 25.9189357, 41.313911800425643 ], [ 25.9194766, 41.314125200425671 ], [ 25.9199022, 41.314244200425669 ], [ 25.9204252, 41.314335300425704 ], [ 25.9210297, 41.314347600425698 ], [ 25.9213499, 41.314297100425676 ], [ 25.9217064, 41.314197500425678 ], [ 25.9222634, 41.314011700425674 ], [ 25.9225784, 41.313973200425657 ], [ 25.9231041, 41.313961500425656 ], [ 25.9234144, 41.313805400425643 ], [ 25.9227642, 41.313309800425586 ], [ 25.922599, 41.313136300425569 ], [ 25.9221785, 41.312548100425502 ], [ 25.9218778, 41.312192900425472 ], [ 25.9217014, 41.311945400425458 ], [ 25.9215351, 41.311781000425441 ], [ 25.921487, 41.311713000425428 ], [ 25.920951, 41.311230000425375 ], [ 25.9205786, 41.310652900425325 ], [ 25.9203937, 41.309945400425235 ], [ 25.9202012, 41.308962900425136 ], [ 25.9197208, 41.308075500425062 ], [ 25.9192378, 41.306921800424938 ], [ 25.918786, 41.306012000424843 ], [ 25.91889, 41.304656000424714 ], [ 25.918718, 41.303684000424603 ], [ 25.918610407344911, 41.302965308258287 ], [ 25.911904560014165, 41.302965308258287 ], [ 25.911871, 41.303044000424556 ] ] ], [ [ [ 25.927485, 41.303808000424617 ], [ 25.925546, 41.303841000424612 ], [ 25.924613, 41.303856000424631 ], [ 25.923372, 41.303173000424565 ], [ 25.923132078947408, 41.302965308258287 ], [ 25.920394672602683, 41.302965308258287 ], [ 25.920357, 41.303223000424566 ], [ 25.920359, 41.303296000424567 ], [ 25.9203748, 41.303871400424633 ], [ 25.9205253, 41.304288100424678 ], [ 25.9209371, 41.304529500424685 ], [ 25.921516, 41.304242400424677 ], [ 25.9219772, 41.304587200424713 ], [ 25.9226684, 41.305432400424785 ], [ 25.9228766, 41.305479800424806 ], [ 25.9230861, 41.30571370042481 ], [ 25.9232134, 41.306207900424866 ], [ 25.9234462, 41.306516100424901 ], [ 25.923325, 41.30686700042493 ], [ 25.923612, 41.307373000424995 ], [ 25.923725, 41.307627000425022 ], [ 25.9238423, 41.307707200425021 ], [ 25.9243184, 41.308247200425072 ], [ 25.924604, 41.308559000425099 ], [ 25.9251314, 41.308924600425144 ], [ 25.925412, 41.30888050042514 ], [ 25.925521, 41.308369000425088 ], [ 25.925831, 41.308171000425077 ], [ 25.92616, 41.308337000425091 ], [ 25.92618, 41.308632000425114 ], [ 25.9265071, 41.308958200425145 ], [ 25.9263741, 41.309332800425182 ], [ 25.9262585, 41.309584700425212 ], [ 25.9261717, 41.309681000425215 ], [ 25.9260354, 41.309754600425215 ], [ 25.9259465, 41.309844500425235 ], [ 25.9259222, 41.310012200425255 ], [ 25.9257042, 41.31021190042528 ], [ 25.9254071, 41.310413000425292 ], [ 25.9247664, 41.310710600425324 ], [ 25.9250346, 41.31077310042533 ], [ 25.925387, 41.310614000425318 ], [ 25.92575, 41.310770000425329 ], [ 25.9261516, 41.310978800425353 ], [ 25.9261937, 41.311324500425378 ], [ 25.925778, 41.311691000425427 ], [ 25.925645, 41.312072000425459 ], [ 25.925658, 41.312505000425517 ], [ 25.926164, 41.312605000425513 ], [ 25.9264904, 41.312875100425543 ], [ 25.9270799, 41.312725700425524 ], [ 25.9277721, 41.313140900425573 ], [ 25.928342, 41.313381000425586 ], [ 25.9287912, 41.313974800425655 ], [ 25.928793646996311, 41.31397495385157 ], [ 25.928793646996311, 41.303265137002185 ], [ 25.927485, 41.303808000424617 ] ] ], [ [ [ 25.9280303, 41.314635700425718 ], [ 25.9274294, 41.314619700425723 ], [ 25.9272026, 41.314728200425726 ], [ 25.9279695, 41.314816500425728 ], [ 25.928793646996311, 41.314908711315489 ], [ 25.928793646996311, 41.31484181320824 ], [ 25.9280303, 41.314635700425718 ] ] ] ] } },
{ "type": "Feature", "properties": { "osm_id": 136842408, "name": null, "label": "natural:wood", "natural": "wood", "historic": null }, "geometry": { "type": "Polygon", "coordinates": [ [ [ 25.923372, 41.303173000424565 ], [ 25.924613, 41.303856000424631 ], [ 25.925546, 41.303841000424612 ], [ 25.927485, 41.303808000424617 ], [ 25.928793646996311, 41.303265137002185 ], [ 25.928793646996311, 41.302965308258287 ], [ 25.923132078947408, 41.302965308258287 ], [ 25.923372, 41.303173000424565 ] ] ] } },
{ "type": "Feature", "properties": { "osm_id": -13853319, "name": null, "label": "natural:wood", "natural": "wood", "historic": null }, "geometry": { "type": "Polygon", "coordinates": [ [ [ 25.907456, 41.307682900425021 ], [ 25.9069143, 41.307593900425012 ], [ 25.9031324, 41.306523800424898 ], [ 25.901328, 41.306279700424874 ], [ 25.89859666258425, 41.306013451099354 ], [ 25.89859666258425, 41.326309605889726 ], [ 25.915275666695972, 41.326309605889726 ], [ 25.907456, 41.307682900425021 ] ] ] } },
{ "type": "Feature", "properties": { "osm_id": 257101246, "name": null, "label": "natural:wood", "natural": "wood", "historic": null }, "geometry": { "type": "Polygon", "coordinates": [ [ [ 25.9034579, 41.306166200424862 ], [ 25.907456, 41.307682900425021 ], [ 25.91122, 41.303965000424618 ], [ 25.911559, 41.30346400042459 ], [ 25.911871, 41.303044000424556 ], [ 25.911904560014165, 41.302965308258287 ], [ 25.89859666258425, 41.302965308258287 ], [ 25.89859666258425, 41.306158878718726 ], [ 25.9034579, 41.306166200424862 ] ] ] } },
{ "type": "Feature", "properties": { "osm_id": 1109534408, "name": "156", "label": "historic:boundary_stone", "natural": null, "historic": "boundary_stone" }, "geometry": { "type": "Point", "coordinates": [ 25.9031324, 41.306523800424898 ] } }
]
}
