{
"type": "FeatureCollection",
"name": "patch_50129_point",
"crs": { "type": "name", "properties": { "name": "urn:ogc:def:crs:OGC:1.3:CRS84" } },
"features": [
{ "type": "Feature", "properties": { "element": "node", "id": 2967900934, "amenity": "fuel", "brand": "Aegean", "brand:wikidata": "Q28146598", "name": "Aegean", "operator": "Aegean", "addr:city": null, "addr:postcode": null, "addr:street": null, "air_conditioning": null, "bar": null, "cuisine": null, "diet:vegan": null, "diet:vegetarian": null, "outdoor_seating": null, "website": null, "landuse": null, "source": null, "access": null, "fee": null, "parking": null, "natural": null, "building": null, "denomination": null, "religion": null, "shop": null, "leisure": null, "label": "amenity:fuel" }, "geometry": { "type": "Point", "coordinates": [ 24.1455237, 35.4233485 ] } },
{ "type": "Feature", "properties": { "element": "node", "id": 9144201844, "amenity": "restaurant", "brand": null, "brand:wikidata": null, "name": "Tzitzikas", "operator": null, "addr:city": "Armenoi", "addr:postcode": "730 03", "addr:street": "Armenoi 730 03", "air_conditioning": "no", "bar": "yes", "cuisine": "greek", "diet:vegan": "yes", "diet:vegetarian": "yes", "outdoor_seating": "yes", "website": "http://www.tzitzikas.com/", "landuse": null, "source": null, "access": null, "fee": null, "parking": null, "natural": null, "building": null, "denomination": null, "religion": null, "shop": null, "leisure": null, "label": "amenity:restaurant" }, "geometry": { "type": "Point", "coordinates": [ 24.154313, 35.4306862 ] } }
]
}
