{
"type": "FeatureCollection",
"name": "patch_1575_features",
"crs": { "type": "name", "properties": { "name": "urn:ogc:def:crs:OGC:1.3:CRS84" } },
"features": [
{ "type": "Feature", "properties": { "osm_id": 135871127, "name": null, "label": "natural:wood", "natural": "wood", "leisure": null, "waterway": null, "historic": null }, "geometry": { "type": "Polygon", "coordinates": [ [ [ 21.648444, 38.724541000085949 ], [ 21.648497, 38.72369900008583 ], [ 21.648215, 38.723145000085751 ], [ 21.647418, 38.723051000085718 ], [ 21.646496, 38.72397400008586 ], [ 21.6463214, 38.723850100085848 ], [ 21.6461468, 38.723887600085845 ], [ 21.6460045, 38.723998500085877 ], [ 21.6461433, 38.72415710008589 ], [ 21.6461803, 38.72431570008591 ], [ 21.6460306, 38.724263500085904 ], [ 21.6458945, 38.724294900085908 ], [ 21.645815, 38.724396900085928 ], [ 21.645837, 38.724521400085948 ], [ 21.6456659, 38.724730100085985 ], [ 21.6455881, 38.724529600085937 ], [ 21.6456022, 38.724263200085907 ], [ 21.645628, 38.724005000085867 ], [ 21.6457816, 38.723873800085848 ], [ 21.645822, 38.723742600085842 ], [ 21.6458408, 38.723405100085778 ], [ 21.6460966, 38.72314530008574 ], [ 21.6462245, 38.722907700085706 ], [ 21.6462118, 38.72262150008568 ], [ 21.6459909, 38.722502300085637 ], [ 21.6459386, 38.722350200085621 ], [ 21.645911, 38.721082000085438 ], [ 21.646069, 38.720589000085361 ], [ 21.646319, 38.717387000084912 ], [ 21.6461569, 38.715538500084634 ], [ 21.6462867, 38.715439400084627 ], [ 21.6464221, 38.715377500084614 ], [ 21.6464781, 38.715242700084588 ], [ 21.6464314, 38.715093300084568 ], [ 21.6464501, 38.714994900084555 ], [ 21.6463614, 38.714914700084556 ], [ 21.646268, 38.714765300084537 ], [ 21.646226, 38.714648700084517 ], [ 21.6461746, 38.71452480008449 ], [ 21.6460625, 38.714470500084481 ], [ 21.6459504, 38.714462900084492 ], [ 21.645871, 38.714357200084471 ], [ 21.6457216, 38.714335400084458 ], [ 21.6456702, 38.714288000084458 ], [ 21.6456702, 38.714204200084446 ], [ 21.6455862, 38.714244300084459 ], [ 21.6455768, 38.714339000084479 ], [ 21.6455021, 38.714349900084478 ], [ 21.6455441, 38.714441000084491 ], [ 21.6455021, 38.71452480008449 ], [ 21.6453713, 38.714535800084491 ], [ 21.6452359, 38.714444700084471 ], [ 21.6450631, 38.714484800084477 ], [ 21.6450024, 38.714441000084491 ], [ 21.6449604, 38.714342700084472 ], [ 21.644867, 38.714375400084485 ], [ 21.644867, 38.714466500084484 ], [ 21.6449417, 38.714539400084483 ], [ 21.6450818, 38.714564900084483 ], [ 21.6451752, 38.714550400084498 ], [ 21.6451752, 38.714619600084511 ], [ 21.6450771, 38.71465600008451 ], [ 21.6449043, 38.714626900084504 ], [ 21.6448109, 38.71452480008449 ], [ 21.6446428, 38.714448300084484 ], [ 21.6445915, 38.714324400084465 ], [ 21.6446989, 38.714324400084465 ], [ 21.6447829, 38.714357200084471 ], [ 21.6447829, 38.714266100084458 ], [ 21.6446802, 38.714204200084446 ], [ 21.6445261, 38.714178700084439 ], [ 21.6444233, 38.714116700084425 ], [ 21.6443977, 38.714052000084422 ], [ 21.644212, 38.714052000084422 ], [ 21.642557, 38.714452000084478 ], [ 21.64227, 38.715013000084561 ], [ 21.642232, 38.716565000084792 ], [ 21.6423849, 38.718611700085077 ], [ 21.6424037, 38.718863900085118 ], [ 21.642417, 38.719042000085146 ], [ 21.641898, 38.721033000085448 ], [ 21.6419606, 38.72172040008553 ], [ 21.642277, 38.725198000086046 ], [ 21.641973, 38.726889000086288 ], [ 21.641799, 38.728438000086506 ], [ 21.641469, 38.729043000086598 ], [ 21.641603, 38.729516000086662 ], [ 21.642079, 38.730270000086776 ], [ 21.642876, 38.730365000086792 ], [ 21.643712, 38.730812000086864 ], [ 21.644352, 38.731538000086964 ], [ 21.644716, 38.732052000087037 ], [ 21.645593, 38.731666000086975 ], [ 21.645674, 38.73108600008689 ], [ 21.645436, 38.730790000086841 ], [ 21.645078, 38.73039500008678 ], [ 21.644905, 38.73000400008673 ], [ 21.645041, 38.729618000086688 ], [ 21.645604, 38.729436000086658 ], [ 21.646283, 38.729498000086664 ], [ 21.647572, 38.729863000086716 ], [ 21.648504377389369, 38.730751181373734 ], [ 21.648504377389369, 38.725222520886653 ], [ 21.648444, 38.724541000085949 ] ] ] } },
{ "type": "Feature", "properties": { "osm_id": 1414968259, "name": null, "label": "natural:wood", "natural": "wood", "leisure": null, "waterway": null, "historic": null }, "geometry": { "type": "Polygon", "coordinates": [ [ [ 21.6443197, 38.733974600087322 ], [ 21.6442082, 38.733787200087299 ], [ 21.6443412, 38.733288400087218 ], [ 21.6445, 38.732863200087145 ], [ 21.6445987, 38.732495000087098 ], [ 21.6446068, 38.732259700087063 ], [ 21.643661651573581, 38.734057831131786 ], [ 21.644385164404476, 38.734057831131786 ], [ 21.6443197, 38.733974600087322 ] ] ] } },
{ "type": "Feature", "properties": { "osm_id": 138542959, "name": "Προυσός", "label": "leisure:nature_reserve", "natural": null, "leisure": "nature_reserve", "waterway": null, "historic": null }, "geometry": { "type": "Polygon", "coordinates": [ [ [ 21.648459, 38.716176700084738 ], [ 21.6466546, 38.716009800084713 ], [ 21.6444456, 38.716113900084729 ], [ 21.6430531, 38.716536400084784 ], [ 21.6409929, 38.717053400084858 ], [ 21.6397735, 38.717317100084905 ], [ 21.6386149, 38.717892900084983 ], [ 21.6378352, 38.718584400085078 ], [ 21.6371413, 38.719115500085167 ], [ 21.6360399, 38.719602300085228 ], [ 21.6345891, 38.719978400085289 ], [ 21.6326998, 38.720106800085304 ], [ 21.6310716, 38.720141400085303 ], [ 21.6286001, 38.720158800085308 ], [ 21.6266234, 38.720244800085325 ], [ 21.62456, 38.720419200085345 ], [ 21.6222652, 38.720732900085395 ], [ 21.6205521, 38.721062900085442 ], [ 21.618853069319361, 38.721294864465754 ], [ 21.618853069319361, 38.734057831131786 ], [ 21.648504377389369, 38.734057831131786 ], [ 21.648504377389369, 38.716182296961364 ], [ 21.648459, 38.716176700084738 ] ] ] } },
{ "type": "Feature", "properties": { "osm_id": -10968978, "name": null, "label": "natural:wood", "natural": "wood", "leisure": null, "waterway": null, "historic": null }, "geometry": { "type": "Polygon", "coordinates": [ [ [ 21.6446068, 38.732259700087063 ], [ 21.644716, 38.732052000087037 ], [ 21.644352, 38.731538000086964 ], [ 21.643712, 38.730812000086864 ], [ 21.642876, 38.730365000086792 ], [ 21.642079, 38.730270000086776 ], [ 21.641603, 38.729516000086662 ], [ 21.641469, 38.729043000086598 ], [ 21.641799, 38.728438000086506 ], [ 21.641973, 38.726889000086288 ], [ 21.642277, 38.725198000086046 ], [ 21.6419606, 38.72172040008553 ], [ 21.641898, 38.721033000085448 ], [ 21.642417, 38.719042000085146 ], [ 21.6424037, 38.718863900085118 ], [ 21.6423849, 38.718611700085077 ], [ 21.642232, 38.716565000084792 ], [ 21.64227, 38.715013000084561 ], [ 21.642557, 38.714452000084478 ], [ 21.644212, 38.714052000084422 ], [ 21.6443977, 38.714052000084422 ], [ 21.6444023, 38.713971000084406 ], [ 21.6445051, 38.713930900084407 ], [ 21.6445681, 38.7138562000844 ], [ 21.6446218, 38.713737800084381 ], [ 21.6446989, 38.713684900084367 ], [ 21.6447199, 38.713508200084348 ], [ 21.6446942, 38.713380700084322 ], [ 21.6447946, 38.71332240008433 ], [ 21.644944, 38.713375200084322 ], [ 21.644944, 38.713464500084335 ], [ 21.6449978, 38.713459000084349 ], [ 21.6450748, 38.713402500084328 ], [ 21.6452126, 38.713491800084341 ], [ 21.6453247, 38.713572000084355 ], [ 21.6453667, 38.713648500084354 ], [ 21.645348, 38.713746900084374 ], [ 21.6454087, 38.713746900084374 ], [ 21.6454507, 38.713841600084393 ], [ 21.6455768, 38.713943600084413 ], [ 21.6456866, 38.713992800084405 ], [ 21.6457593, 38.713861200084388 ], [ 21.6458613, 38.713806800084392 ], [ 21.6460329, 38.713911500084407 ], [ 21.646226, 38.713949100084406 ], [ 21.6463655, 38.713903100084387 ], [ 21.6464406, 38.713785900084396 ], [ 21.6463952, 38.713672600084365 ], [ 21.646582, 38.713482000084326 ], [ 21.647198, 38.712439000084188 ], [ 21.645223, 38.7118240000841 ], [ 21.645237, 38.711387000084045 ], [ 21.645184392928893, 38.711148679043951 ], [ 21.626321891429878, 38.711148679043951 ], [ 21.626303, 38.711225000084013 ], [ 21.626136, 38.711696000084089 ], [ 21.625514, 38.712217000084159 ], [ 21.62442, 38.712060000084129 ], [ 21.624065, 38.712236000084175 ], [ 21.623652, 38.712409000084179 ], [ 21.623585, 38.712682000084236 ], [ 21.623749, 38.713004000084268 ], [ 21.624376, 38.713381000084333 ], [ 21.624591, 38.713933000084403 ], [ 21.624568, 38.714616000084511 ], [ 21.623911, 38.71514900008458 ], [ 21.623259, 38.715501000084643 ], [ 21.62301, 38.715997000084712 ], [ 21.623051, 38.716499000084774 ], [ 21.623627, 38.716693000084803 ], [ 21.624442, 38.716664000084798 ], [ 21.625262, 38.716499000084774 ], [ 21.625267, 38.716362000084764 ], [ 21.62562, 38.716232000084737 ], [ 21.626134, 38.716516000084773 ], [ 21.62618, 38.71688200008483 ], [ 21.626047, 38.717381000084913 ], [ 21.626086, 38.717974000084986 ], [ 21.626588, 38.718622000085091 ], [ 21.627326, 38.719184000085164 ], [ 21.628017, 38.719380000085195 ], [ 21.628483, 38.719390000085198 ], [ 21.628787, 38.718986000085145 ], [ 21.628883, 38.717848000084977 ], [ 21.628908, 38.717074000084857 ], [ 21.628402, 38.716562000084792 ], [ 21.628256, 38.715693000084663 ], [ 21.628593, 38.714287000084461 ], [ 21.628975, 38.713292000084323 ], [ 21.629181, 38.712339000084164 ], [ 21.629599, 38.712029000084122 ], [ 21.63018, 38.712041000084142 ], [ 21.630581, 38.712231000084167 ], [ 21.63068, 38.712734000084232 ], [ 21.630499, 38.712959000084261 ], [ 21.630303, 38.713593000084373 ], [ 21.630103, 38.714364000084473 ], [ 21.630128, 38.715367000084619 ], [ 21.630676, 38.716655000084799 ], [ 21.631535, 38.716303000084757 ], [ 21.63191, 38.71556700008464 ], [ 21.631778, 38.715016000084553 ], [ 21.631748, 38.714388000084462 ], [ 21.631915, 38.713882000084389 ], [ 21.63222, 38.713732000084384 ], [ 21.632517, 38.713816000084392 ], [ 21.632917, 38.713824000084387 ], [ 21.633277, 38.713518000084349 ], [ 21.633658, 38.712585000084204 ], [ 21.634307, 38.711669000084072 ], [ 21.635649, 38.712102000084137 ], [ 21.635888, 38.712917000084254 ], [ 21.636066, 38.713521000084349 ], [ 21.635465, 38.713915000084413 ], [ 21.634905, 38.714217000084446 ], [ 21.634205, 38.71504700008456 ], [ 21.634065, 38.715552000084642 ], [ 21.634115, 38.715952000084705 ], [ 21.634739, 38.716212000084738 ], [ 21.635305, 38.716586000084774 ], [ 21.635473, 38.716697000084821 ], [ 21.636566, 38.716708000084793 ], [ 21.636607, 38.717587000084947 ], [ 21.636593, 38.718025000084992 ], [ 21.636584, 38.71830000008503 ], [ 21.636352, 38.71901800008515 ], [ 21.636246, 38.720082000085299 ], [ 21.63606, 38.721369000085474 ], [ 21.635889, 38.722207000085596 ], [ 21.634811, 38.722289000085624 ], [ 21.634479, 38.723694000085828 ], [ 21.634066, 38.725369000086054 ], [ 21.632627, 38.725564000086081 ], [ 21.631408, 38.724978000086004 ], [ 21.631314, 38.724545000085939 ], [ 21.631363, 38.723837000085844 ], [ 21.631505, 38.723516000085795 ], [ 21.631579, 38.722387000085625 ], [ 21.631351, 38.720667000085385 ], [ 21.630454, 38.720157000085308 ], [ 21.62891, 38.720209000085319 ], [ 21.627564, 38.720784000085402 ], [ 21.62715, 38.722169000085607 ], [ 21.6270712, 38.723599100085799 ], [ 21.627496, 38.72423970008591 ], [ 21.6278357, 38.724941000086005 ], [ 21.6278499, 38.725184000086045 ], [ 21.6277791, 38.725410400086076 ], [ 21.6277437, 38.725559500086099 ], [ 21.6277579, 38.725791500086132 ], [ 21.6276517, 38.726040000086165 ], [ 21.6276446, 38.726222200086198 ], [ 21.6278286, 38.726691600086255 ], [ 21.6278286, 38.726879300086274 ], [ 21.6277564, 38.727053500086313 ], [ 21.6277671, 38.727271100086334 ], [ 21.6279602, 38.727463600086359 ], [ 21.6280782, 38.727714700086402 ], [ 21.6282821, 38.727890500086438 ], [ 21.6284001, 38.728162500086476 ], [ 21.6285503, 38.728442900086506 ], [ 21.6287863, 38.728756700086556 ], [ 21.6290545, 38.729129200086611 ], [ 21.6293281, 38.729250600086623 ], [ 21.6295105, 38.729070600086601 ], [ 21.6296596, 38.729007200086592 ], [ 21.6297466, 38.728970200086593 ], [ 21.6299397, 38.729091500086604 ], [ 21.6299128, 38.729351000086645 ], [ 21.6301811, 38.729238000086632 ], [ 21.6305298, 38.729145900086607 ], [ 21.6308731, 38.729158500086612 ], [ 21.6310877, 38.729108300086608 ], [ 21.6312271, 38.729179400086615 ], [ 21.6315007, 38.729171000086616 ], [ 21.6317368, 38.729032900086594 ], [ 21.631844, 38.729158500086612 ], [ 21.6318977, 38.729380300086653 ], [ 21.6321444, 38.729635600086688 ], [ 21.6324288, 38.729794600086706 ], [ 21.6326487, 38.729618800086691 ], [ 21.6329223, 38.729589500086675 ], [ 21.6331587, 38.729750800086691 ], [ 21.632918, 38.729982700086737 ], [ 21.6326419, 38.73014280008676 ], [ 21.6327279, 38.730346200086792 ], [ 21.6328097, 38.730493700086804 ], [ 21.6328344, 38.730738900086848 ], [ 21.6328344, 38.731051300086882 ], [ 21.6329071, 38.731554300086955 ], [ 21.6329632, 38.731827500087 ], [ 21.6330893, 38.732016900087025 ], [ 21.633164, 38.732257300087056 ], [ 21.6331827, 38.732483200087088 ], [ 21.633178, 38.732887600087153 ], [ 21.6331827, 38.733339300087216 ], [ 21.6332571, 38.733892400087299 ], [ 21.6337108, 38.733577300087255 ], [ 21.6337108, 38.733339900087216 ], [ 21.6333923, 38.733052800087187 ], [ 21.6333781, 38.732859500087152 ], [ 21.6336754, 38.732754600087141 ], [ 21.6340222, 38.732749100087133 ], [ 21.6343195, 38.732870600087153 ], [ 21.6346027, 38.733102500087192 ], [ 21.6348716, 38.732981000087172 ], [ 21.6349353, 38.732710400087122 ], [ 21.6351689, 38.732555800087106 ], [ 21.6352609, 38.732191400087054 ], [ 21.6352963, 38.731882200087007 ], [ 21.6350415, 38.731539800086956 ], [ 21.6354025, 38.731451500086941 ], [ 21.6355087, 38.731147800086909 ], [ 21.6355087, 38.730882700086866 ], [ 21.6353034, 38.730684000086825 ], [ 21.6353034, 38.730385800086793 ], [ 21.6350486, 38.730120700086744 ], [ 21.6347725, 38.730043400086743 ], [ 21.6347301, 38.729833600086721 ], [ 21.6344469, 38.729772900086715 ], [ 21.6342841, 38.730037900086757 ], [ 21.6340081, 38.729783900086709 ], [ 21.6336754, 38.729568500086685 ], [ 21.6336542, 38.729353200086656 ], [ 21.6339939, 38.729469100086654 ], [ 21.6342063, 38.729651400086681 ], [ 21.6345036, 38.729596100086674 ], [ 21.6347796, 38.729667900086689 ], [ 21.635268, 38.729645800086686 ], [ 21.6356573, 38.729651400086681 ], [ 21.636556, 38.729928000086744 ], [ 21.638698, 38.730415000086801 ], [ 21.639615, 38.731190000086919 ], [ 21.639045, 38.732124000087033 ], [ 21.638236, 38.733589000087264 ], [ 21.637112, 38.733517000087247 ], [ 21.636295, 38.733586000087271 ], [ 21.635995249306418, 38.734057831131786 ], [ 21.643661651573581, 38.734057831131786 ], [ 21.6446068, 38.732259700087063 ] ] ] } },
{ "type": "Feature", "properties": { "osm_id": 788943773, "name": null, "label": "natural:wood", "natural": "wood", "leisure": null, "waterway": null, "historic": null }, "geometry": { "type": "Polygon", "coordinates": [ [ [ 21.619105, 38.721399000085484 ], [ 21.619603, 38.720528000085366 ], [ 21.62018, 38.720099000085291 ], [ 21.620537, 38.718636000085091 ], [ 21.61947, 38.718028000084992 ], [ 21.619449, 38.716830000084812 ], [ 21.620076, 38.714230000084434 ], [ 21.621757, 38.711687000084076 ], [ 21.6220079, 38.711613600084064 ], [ 21.6220974, 38.711385200084045 ], [ 21.6220974, 38.711148679043951 ], [ 21.618853069319361, 38.711148679043951 ], [ 21.618853069319361, 38.721642343397868 ], [ 21.619105, 38.721399000085484 ] ] ] } },
{ "type": "Feature", "properties": { "osm_id": -10952037, "name": null, "label": "natural:wood", "natural": "wood", "leisure": null, "waterway": null, "historic": null }, "geometry": { "type": "MultiPolygon", "coordinates": [ [ [ [ 21.619066, 38.72620810008619 ], [ 21.619066, 38.725998900086147 ], [ 21.618853069319361, 38.726027265033927 ], [ 21.618853069319361, 38.726346525729575 ], [ 21.619066, 38.72620810008619 ] ] ], [ [ [ 21.6330335, 38.733949500087306 ], [ 21.6330254, 38.733372300087218 ], [ 21.6330091, 38.732871200087153 ], [ 21.633001, 38.732408200087093 ], [ 21.6328221, 38.732008600087021 ], [ 21.6327326, 38.731678800086982 ], [ 21.6326513, 38.731215700086914 ], [ 21.6326188, 38.730765400086852 ], [ 21.632505, 38.730518000086796 ], [ 21.6322936, 38.730232600086772 ], [ 21.6320415, 38.729991600086741 ], [ 21.6318952, 38.729883700086717 ], [ 21.6318626, 38.730131100086759 ], [ 21.6317, 38.730258000086778 ], [ 21.6317895, 38.730346800086785 ], [ 21.6319867, 38.730421500086791 ], [ 21.6320253, 38.730556100086822 ], [ 21.6318464, 38.730689300086851 ], [ 21.6317813, 38.730943000086874 ], [ 21.6317732, 38.731171300086913 ], [ 21.6316594, 38.731355300086939 ], [ 21.6315537, 38.731101600086909 ], [ 21.6315537, 38.730822500086859 ], [ 21.631501, 38.730546900086814 ], [ 21.6313829, 38.730410200086794 ], [ 21.6315049, 38.730251600086774 ], [ 21.6316675, 38.730042300086751 ], [ 21.6316675, 38.729858400086727 ], [ 21.631822, 38.729699800086692 ], [ 21.6316512, 38.729541200086679 ], [ 21.631513, 38.72962370008667 ], [ 21.6314805, 38.729915400086732 ], [ 21.6313585, 38.730074000086745 ], [ 21.6311146, 38.730162800086767 ], [ 21.6308707, 38.730124800086749 ], [ 21.630765, 38.729978900086728 ], [ 21.6309113, 38.729801300086706 ], [ 21.6309113, 38.729611000086678 ], [ 21.6307162, 38.729611000086678 ], [ 21.6305129, 38.7297315000867 ], [ 21.6302608, 38.729788600086707 ], [ 21.6300518, 38.729893000086719 ], [ 21.6296185, 38.729484100086665 ], [ 21.6293754, 38.729539000086675 ], [ 21.6292119, 38.729630000086679 ], [ 21.6289355, 38.729560200086674 ], [ 21.6288991, 38.72935080008665 ], [ 21.6286834, 38.729046500086604 ], [ 21.6284476, 38.728742000086548 ], [ 21.6282606, 38.728412100086494 ], [ 21.6280655, 38.728076000086446 ], [ 21.6278134, 38.727777800086415 ], [ 21.6276345, 38.727441600086358 ], [ 21.6274882, 38.727175200086329 ], [ 21.6275207, 38.726826400086274 ], [ 21.6274882, 38.726471100086236 ], [ 21.6273662, 38.726065200086168 ], [ 21.6275044, 38.725773400086126 ], [ 21.627537, 38.72539280008607 ], [ 21.6275126, 38.725062900086023 ], [ 21.6273662, 38.724714000085974 ], [ 21.6272117, 38.72446660008594 ], [ 21.6271711, 38.72413040008589 ], [ 21.6269922, 38.723889400085852 ], [ 21.626732, 38.723762500085833 ], [ 21.6264718, 38.723883000085856 ], [ 21.6263986, 38.72413040008589 ], [ 21.626171, 38.724295400085907 ], [ 21.6259921, 38.724650600085958 ], [ 21.6262279, 38.724663300085972 ], [ 21.62671, 38.724728000085982 ], [ 21.625345, 38.725105000086018 ], [ 21.6241, 38.725918000086146 ], [ 21.624214, 38.727034000086313 ], [ 21.62288, 38.730434000086809 ], [ 21.622483, 38.731951000087022 ], [ 21.621623, 38.731458000086946 ], [ 21.621645, 38.730807000086848 ], [ 21.621659, 38.730392000086788 ], [ 21.62182, 38.730099000086767 ], [ 21.621996, 38.729332000086629 ], [ 21.62209, 38.728801000086555 ], [ 21.622105, 38.728327000086502 ], [ 21.621966, 38.727968000086435 ], [ 21.621144, 38.727655000086401 ], [ 21.620109, 38.727701000086412 ], [ 21.62003, 38.728406000086508 ], [ 21.620119, 38.729116000086606 ], [ 21.620325, 38.729694000086695 ], [ 21.620418, 38.730315000086769 ], [ 21.620394, 38.731022000086888 ], [ 21.620199, 38.731814000086999 ], [ 21.619665, 38.732598000087123 ], [ 21.619101, 38.732587000087108 ], [ 21.618853069319361, 38.732437997638343 ], [ 21.618853069319361, 38.734057831131786 ], [ 21.633057661530092, 38.734057831131786 ], [ 21.6330335, 38.733949500087306 ] ] ] ] } },
{ "type": "Feature", "properties": { "osm_id": 550868503, "name": null, "label": "waterway:stream", "natural": null, "leisure": null, "waterway": "stream", "historic": null }, "geometry": { "type": "LineString", "coordinates": [ [ 21.647903, 38.732550200087104 ], [ 21.6482363, 38.73263270008713 ], [ 21.648504377389369, 38.732675562037258 ] ] } },
{ "type": "Feature", "properties": { "osm_id": 356735921, "name": null, "label": "natural:peak", "natural": "peak", "leisure": null, "waterway": null, "historic": null }, "geometry": { "type": "Point", "coordinates": [ 21.6200763, 38.721379000085484 ] } },
{ "type": "Feature", "properties": { "osm_id": 8897233639, "name": "Μαύρη Σπηλιά Προυσού", "label": "historic:castle", "natural": null, "leisure": null, "waterway": null, "historic": "castle" }, "geometry": { "type": "Point", "coordinates": [ 21.6471457, 38.732749100087133 ] } },
{ "type": "Feature", "properties": { "osm_id": 5320191170, "name": "Καταρράκτης Μαύρης Σπηλιάς", "label": "waterway:waterfall", "natural": null, "leisure": null, "waterway": "waterfall", "historic": null }, "geometry": { "type": "Point", "coordinates": [ 21.6482363, 38.73263270008713 ] } }
]
}
