{
"type": "FeatureCollection",
"name": "patch_47811_polygon",
"crs": { "type": "name", "properties": { "name": "urn:ogc:def:crs:OGC:1.3:CRS84" } },
"features": [
{ "type": "Feature", "properties": { "element": "relation", "id": 1842556, "ele": null, "natural": "wood", "amenity": null, "name": null, "name:de": null, "name:el": null, "name:en": null, "boat": null, "intermittent": null, "source": "http://geodata.gov.gr/", "waterway": null, "alt_name": null, "name:mk": null, "wikidata": null, "landuse": null, "building": null, "type": "multipolygon", "leaf_type": "broadleaved", "boundary": null, "information": null, "tourism": null, "wikipedia": null, "label": "natural:wood" }, "geometry": { "type": "Polygon", "coordinates": [ [ [ 23.662428, 40.581618 ], [ 23.663713, 40.581295 ], [ 23.665001, 40.580538 ], [ 23.666, 40.580215 ], [ 23.666714, 40.580108 ], [ 23.66714, 40.580544 ], [ 23.666421, 40.581738 ], [ 23.667176955775979, 40.582221882595178 ], [ 23.692084399333403, 40.582221882595178 ], [ 23.692084399333403, 40.559884736723717 ], [ 23.66095473059071, 40.559884736723717 ], [ 23.66095473059071, 40.581509127073012 ], [ 23.662428, 40.581618 ] ] ] } },
{ "type": "Feature", "properties": { "element": "relation", "id": 1850515, "ele": null, "natural": null, "amenity": null, "name": "Εθνικό Πάρκο Κορώνειας-Βόλβης", "name:de": null, "name:el": null, "name:en": null, "boat": null, "intermittent": null, "source": "http://geodata.gov.gr/", "waterway": null, "alt_name": null, "name:mk": "Национален парк Лагадинско Езеро - Бешичко Езеро", "wikidata": "Q26710914", "landuse": null, "building": null, "type": "multipolygon", "leaf_type": null, "boundary": "national_park", "information": "national_park", "tourism": "information", "wikipedia": "nl:Nationaal park Koronia Volvi", "label": "tourism:information" }, "geometry": { "type": "Polygon", "coordinates": [ [ [ 23.681023, 40.582041 ], [ 23.681521, 40.581547 ], [ 23.68169, 40.580934 ], [ 23.681716, 40.580304 ], [ 23.681766, 40.579664 ], [ 23.681947, 40.579061 ], [ 23.682516, 40.578612 ], [ 23.68292, 40.578055 ], [ 23.683207, 40.57747 ], [ 23.683516, 40.576885 ], [ 23.684062, 40.576419 ], [ 23.684655, 40.575979 ], [ 23.685365, 40.575665 ], [ 23.68618, 40.575749 ], [ 23.686995, 40.575832 ], [ 23.687811, 40.575708 ], [ 23.688521, 40.575395 ], [ 23.68922, 40.575054 ], [ 23.689965, 40.574777 ], [ 23.690723, 40.574536 ], [ 23.691456, 40.574249 ], [ 23.692084399333403, 40.573956454037472 ], [ 23.692084399333403, 40.568532812804129 ], [ 23.691755, 40.568358 ], [ 23.691167, 40.567924 ], [ 23.690945, 40.56732 ], [ 23.691384, 40.566826 ], [ 23.692071, 40.566467 ], [ 23.692084399333403, 40.566453708291768 ], [ 23.692084399333403, 40.559884736723717 ], [ 23.66095473059071, 40.559884736723717 ], [ 23.66095473059071, 40.582221882595178 ], [ 23.680558776836147, 40.582221882595178 ], [ 23.681023, 40.582041 ] ] ] } },
{ "type": "Feature", "properties": { "element": "way", "id": 1134617366, "ele": null, "natural": null, "amenity": null, "name": null, "name:de": null, "name:el": null, "name:en": null, "boat": null, "intermittent": null, "source": "microsoft/BuildingFootprints", "waterway": null, "alt_name": null, "name:mk": null, "wikidata": null, "landuse": null, "building": "yes", "type": null, "leaf_type": null, "boundary": null, "information": null, "tourism": null, "wikipedia": null, "label": "building:yes" }, "geometry": { "type": "Polygon", "coordinates": [ [ [ 23.6610683, 40.5689255 ], [ 23.6611729, 40.5688082 ], [ 23.6610369, 40.5687382 ], [ 23.66095473059071, 40.568830346001043 ], [ 23.66095473059071, 40.568867045156985 ], [ 23.6610683, 40.5689255 ] ] ] } },
{ "type": "Feature", "properties": { "element": "way", "id": 1134617367, "ele": null, "natural": null, "amenity": null, "name": null, "name:de": null, "name:el": null, "name:en": null, "boat": null, "intermittent": null, "source": "microsoft/BuildingFootprints", "waterway": null, "alt_name": null, "name:mk": null, "wikidata": null, "landuse": null, "building": "yes", "type": null, "leaf_type": null, "boundary": null, "information": null, "tourism": null, "wikipedia": null, "label": "building:yes" }, "geometry": { "type": "Polygon", "coordinates": [ [ [ 23.6610855, 40.5691068 ], [ 23.6611645, 40.5692484 ], [ 23.6612805, 40.5692111 ], [ 23.6612015, 40.5690695 ], [ 23.6610855, 40.5691068 ] ] ] } },
{ "type": "Feature", "properties": { "element": "way", "id": 1134617368, "ele": null, "natural": null, "amenity": null, "name": null, "name:de": null, "name:el": null, "name:en": null, "boat": null, "intermittent": null, "source": "microsoft/BuildingFootprints", "waterway": null, "alt_name": null, "name:mk": null, "wikidata": null, "landuse": null, "building": "yes", "type": null, "leaf_type": null, "boundary": null, "information": null, "tourism": null, "wikipedia": null, "label": "building:yes" }, "geometry": { "type": "Polygon", "coordinates": [ [ [ 23.6612704, 40.5694022 ], [ 23.6613946, 40.5693625 ], [ 23.6613457, 40.5692742 ], [ 23.6612215, 40.5693139 ], [ 23.6612704, 40.5694022 ] ] ] } },
{ "type": "Feature", "properties": { "element": "way", "id": 1134617369, "ele": null, "natural": null, "amenity": null, "name": null, "name:de": null, "name:el": null, "name:en": null, "boat": null, "intermittent": null, "source": "microsoft/BuildingFootprints", "waterway": null, "alt_name": null, "name:mk": null, "wikidata": null, "landuse": null, "building": "yes", "type": null, "leaf_type": null, "boundary": null, "information": null, "tourism": null, "wikipedia": null, "label": "building:yes" }, "geometry": { "type": "Polygon", "coordinates": [ [ [ 23.6616652, 40.5695112 ], [ 23.6617228, 40.5696114 ], [ 23.6618941, 40.5695547 ], [ 23.6618365, 40.5694544 ], [ 23.6616652, 40.5695112 ] ] ] } },
{ "type": "Feature", "properties": { "element": "way", "id": 1134617370, "ele": null, "natural": null, "amenity": null, "name": null, "name:de": null, "name:el": null, "name:en": null, "boat": null, "intermittent": null, "source": "microsoft/BuildingFootprints", "waterway": null, "alt_name": null, "name:mk": null, "wikidata": null, "landuse": null, "building": "yes", "type": null, "leaf_type": null, "boundary": null, "information": null, "tourism": null, "wikipedia": null, "label": "building:yes" }, "geometry": { "type": "Polygon", "coordinates": [ [ [ 23.6617181, 40.5699021 ], [ 23.6618552, 40.5697907 ], [ 23.661785, 40.5697409 ], [ 23.6616479, 40.5698523 ], [ 23.6617181, 40.5699021 ] ] ] } },
{ "type": "Feature", "properties": { "element": "way", "id": 1134617371, "ele": null, "natural": null, "amenity": null, "name": null, "name:de": null, "name:el": null, "name:en": null, "boat": null, "intermittent": null, "source": "microsoft/BuildingFootprints", "waterway": null, "alt_name": null, "name:mk": null, "wikidata": null, "landuse": null, "building": "yes", "type": null, "leaf_type": null, "boundary": null, "information": null, "tourism": null, "wikipedia": null, "label": "building:yes" }, "geometry": { "type": "Polygon", "coordinates": [ [ [ 23.661993, 40.5699101 ], [ 23.6620323, 40.5699797 ], [ 23.6621071, 40.5699554 ], [ 23.6620678, 40.5698858 ], [ 23.661993, 40.5699101 ] ] ] } },
{ "type": "Feature", "properties": { "element": "way", "id": 1134617372, "ele": null, "natural": null, "amenity": null, "name": null, "name:de": null, "name:el": null, "name:en": null, "boat": null, "intermittent": null, "source": "microsoft/BuildingFootprints", "waterway": null, "alt_name": null, "name:mk": null, "wikidata": null, "landuse": null, "building": "yes", "type": null, "leaf_type": null, "boundary": null, "information": null, "tourism": null, "wikipedia": null, "label": "building:yes" }, "geometry": { "type": "Polygon", "coordinates": [ [ [ 23.6621897, 40.5700235 ], [ 23.6620482, 40.5700731 ], [ 23.662083, 40.5701302 ], [ 23.6622244, 40.5700806 ], [ 23.6621897, 40.5700235 ] ] ] } },
{ "type": "Feature", "properties": { "element": "way", "id": 1134617373, "ele": null, "natural": null, "amenity": null, "name": null, "name:de": null, "name:el": null, "name:en": null, "boat": null, "intermittent": null, "source": "microsoft/BuildingFootprints", "waterway": null, "alt_name": null, "name:mk": null, "wikidata": null, "landuse": null, "building": "yes", "type": null, "leaf_type": null, "boundary": null, "information": null, "tourism": null, "wikipedia": null, "label": "building:yes" }, "geometry": { "type": "Polygon", "coordinates": [ [ [ 23.6626408, 40.5703956 ], [ 23.6627856, 40.5703936 ], [ 23.6627842, 40.5703345 ], [ 23.6626394, 40.5703365 ], [ 23.6626408, 40.5703956 ] ] ] } },
{ "type": "Feature", "properties": { "element": "way", "id": 1134617374, "ele": null, "natural": null, "amenity": null, "name": null, "name:de": null, "name:el": null, "name:en": null, "boat": null, "intermittent": null, "source": "microsoft/BuildingFootprints", "waterway": null, "alt_name": null, "name:mk": null, "wikidata": null, "landuse": null, "building": "yes", "type": null, "leaf_type": null, "boundary": null, "information": null, "tourism": null, "wikipedia": null, "label": "building:yes" }, "geometry": { "type": "Polygon", "coordinates": [ [ [ 23.6619895, 40.5704268 ], [ 23.6620684, 40.570413 ], [ 23.6620366, 40.5703085 ], [ 23.6619577, 40.5703224 ], [ 23.6619895, 40.5704268 ] ] ] } },
{ "type": "Feature", "properties": { "element": "way", "id": 1198242606, "ele": null, "natural": null, "amenity": null, "name": null, "name:de": null, "name:el": null, "name:en": null, "boat": null, "intermittent": null, "source": null, "waterway": null, "alt_name": null, "name:mk": null, "wikidata": null, "landuse": "residential", "building": null, "type": null, "leaf_type": null, "boundary": null, "information": null, "tourism": null, "wikipedia": null, "label": "landuse:residential" }, "geometry": { "type": "Polygon", "coordinates": [ [ [ 23.661025, 40.5699613 ], [ 23.6611739, 40.5699684 ], [ 23.6613134, 40.5699796 ], [ 23.6614743, 40.5700153 ], [ 23.6615816, 40.570056 ], [ 23.6616781, 40.5701008 ], [ 23.6617613, 40.5701569 ], [ 23.6618699, 40.570217 ], [ 23.661937, 40.5702608 ], [ 23.6620791, 40.5703046 ], [ 23.6623108, 40.5703678 ], [ 23.6623915, 40.5704167 ], [ 23.6624344, 40.5704635 ], [ 23.6625224, 40.5704283 ], [ 23.6626646, 40.5704524 ], [ 23.6629217, 40.5703919 ], [ 23.6613442, 40.5687887 ], [ 23.66095473059071, 40.568480779398051 ], [ 23.66095473059071, 40.569958665613022 ], [ 23.661025, 40.5699613 ] ] ] } }
]
}
