{
"type": "FeatureCollection",
"name": "patch_97125_polygon",
"crs": { "type": "name", "properties": { "name": "urn:ogc:def:crs:OGC:1.3:CRS84" } },
"features": [
{ "type": "Feature", "properties": { "element": "relation", "id": 1843693, "landuse": null, "type": "multipolygon", "leaf_type": "broadleaved", "natural": "wood", "source": "http://geodata.gov.gr", "label": "natural:wood" }, "geometry": { "type": "Polygon", "coordinates": [ [ [ 24.655863, 41.241849 ], [ 24.655862, 41.241552 ], [ 24.655922, 41.241322 ], [ 24.655952, 41.241006 ], [ 24.655921, 41.240777 ], [ 24.65583, 41.240408 ], [ 24.655738, 41.240065 ], [ 24.655647, 41.239701 ], [ 24.655495, 41.239309 ], [ 24.655282, 41.238855 ], [ 24.65513, 41.238626 ], [ 24.65501, 41.238374 ], [ 24.654888, 41.238077 ], [ 24.654766, 41.237825 ], [ 24.654584, 41.237574 ], [ 24.654371, 41.23725 ], [ 24.654159, 41.236953 ], [ 24.654074879218935, 41.236862133684603 ], [ 24.63960865760377, 41.236862133684603 ], [ 24.639479, 41.236949 ], [ 24.639268, 41.23713 ], [ 24.639056, 41.237316 ], [ 24.638966, 41.237541 ], [ 24.638906, 41.237771 ], [ 24.638906, 41.238023 ], [ 24.638967, 41.238275 ], [ 24.639119, 41.23855 ], [ 24.639301, 41.238801 ], [ 24.639483, 41.239076 ], [ 24.639664, 41.239282 ], [ 24.639846, 41.239534 ], [ 24.640028, 41.239763 ], [ 24.64018, 41.23997 ], [ 24.640423, 41.240402 ], [ 24.640544, 41.240631 ], [ 24.640665, 41.240883 ], [ 24.640787, 41.241225 ], [ 24.640848, 41.241477 ], [ 24.640939, 41.241841 ], [ 24.641, 41.242143 ], [ 24.641062, 41.242485 ], [ 24.641092, 41.242737 ], [ 24.641092, 41.243008 ], [ 24.641123, 41.24326 ], [ 24.641184, 41.243535 ], [ 24.641185, 41.243899 ], [ 24.641094, 41.244269 ], [ 24.641003, 41.244495 ], [ 24.640853, 41.244838 ], [ 24.640702, 41.245045 ], [ 24.640521, 41.245316 ], [ 24.640309, 41.245524 ], [ 24.639945, 41.245683 ], [ 24.6393, 41.245793 ], [ 24.638917, 41.245795 ], [ 24.638584, 41.245796 ], [ 24.63819, 41.245793 ], [ 24.637888, 41.245748 ], [ 24.637554, 41.245587 ], [ 24.637252, 41.245426 ], [ 24.636948, 41.245243 ], [ 24.636645, 41.245014 ], [ 24.636282, 41.244808 ], [ 24.635979, 41.244624 ], [ 24.635706, 41.244485 ], [ 24.635403, 41.244302 ], [ 24.635161, 41.24414 ], [ 24.634828, 41.244002 ], [ 24.634495, 41.243958 ], [ 24.634162, 41.243977 ], [ 24.633829, 41.244091 ], [ 24.633708, 41.244366 ], [ 24.633648, 41.244708 ], [ 24.633618, 41.244961 ], [ 24.633558, 41.245281 ], [ 24.633528, 41.245556 ], [ 24.633498, 41.245876 ], [ 24.633469, 41.246241 ], [ 24.633439, 41.24647 ], [ 24.633288, 41.246836 ], [ 24.633197, 41.247061 ], [ 24.633137, 41.247336 ], [ 24.632835, 41.248207 ], [ 24.632775, 41.24855 ], [ 24.632684, 41.248798 ], [ 24.632504, 41.249208 ], [ 24.632292, 41.249551 ], [ 24.63202, 41.249872 ], [ 24.631808, 41.250098 ], [ 24.631567, 41.250328 ], [ 24.631295, 41.250532 ], [ 24.631022, 41.250695 ], [ 24.630659, 41.250782 ], [ 24.630235, 41.250828 ], [ 24.629811, 41.250758 ], [ 24.629478, 41.250669 ], [ 24.629175, 41.250575 ], [ 24.628782, 41.250369 ], [ 24.628448, 41.25014 ], [ 24.628206, 41.249934 ], [ 24.627903, 41.249705 ], [ 24.62766, 41.249499 ], [ 24.627296, 41.249266 ], [ 24.627203620711203, 41.249228714383435 ], [ 24.627203620711203, 41.260528196194699 ], [ 24.646861050530649, 41.260528196194699 ], [ 24.64656, 41.259121 ], [ 24.644379, 41.258125 ], [ 24.643782, 41.256806 ], [ 24.643767, 41.255357 ], [ 24.644339, 41.25403 ], [ 24.646344, 41.254208 ], [ 24.647594, 41.253949 ], [ 24.64867, 41.253061 ], [ 24.650587, 41.252672 ], [ 24.654095, 41.252904 ], [ 24.656007, 41.253526 ], [ 24.655699, 41.252753 ], [ 24.655698, 41.252594 ], [ 24.655637, 41.25218 ], [ 24.655606, 41.251932 ], [ 24.655545, 41.251608 ], [ 24.655485, 41.251266 ], [ 24.655424, 41.251036 ], [ 24.655362, 41.250789 ], [ 24.655211, 41.250537 ], [ 24.65521, 41.250535 ], [ 24.654937, 41.250078 ], [ 24.654634, 41.249665 ], [ 24.654391, 41.249346 ], [ 24.654179, 41.249049 ], [ 24.653967, 41.24882 ], [ 24.653864, 41.248642 ], [ 24.653755, 41.248452 ], [ 24.653542, 41.248178 ], [ 24.65339, 41.247948 ], [ 24.653177, 41.247742 ], [ 24.653026, 41.24749 ], [ 24.652844, 41.247239 ], [ 24.652571, 41.246848 ], [ 24.652419, 41.246623 ], [ 24.652176, 41.246254 ], [ 24.651903, 41.245818 ], [ 24.651752, 41.245589 ], [ 24.651478, 41.245112 ], [ 24.651356, 41.244838 ], [ 24.651265, 41.244469 ], [ 24.651204, 41.244194 ], [ 24.651265, 41.243969 ], [ 24.651415, 41.243693 ], [ 24.651687, 41.243418 ], [ 24.65199, 41.243236 ], [ 24.652443, 41.242987 ], [ 24.652746, 41.242919 ], [ 24.653079, 41.242895 ], [ 24.653412, 41.242826 ], [ 24.653806, 41.242739 ], [ 24.654169, 41.242693 ], [ 24.654532, 41.242624 ], [ 24.654895, 41.242533 ], [ 24.655318, 41.242351 ], [ 24.655621, 41.242147 ], [ 24.655863, 41.241849 ] ] ] } },
{ "type": "Feature", "properties": { "element": "way", "id": 1193314245, "landuse": "residential", "type": null, "leaf_type": null, "natural": null, "source": null, "label": "landuse:residential" }, "geometry": { "type": "Polygon", "coordinates": [ [ [ 24.6319162, 41.2390486 ], [ 24.631884, 41.2391333 ], [ 24.6318196, 41.2392221 ], [ 24.6316909, 41.2393391 ], [ 24.6315675, 41.2394601 ], [ 24.6315123, 41.2394922 ], [ 24.6314495, 41.2395287 ], [ 24.6313207, 41.2395488 ], [ 24.6311491, 41.239569 ], [ 24.6310579, 41.2395972 ], [ 24.6309774, 41.2396739 ], [ 24.6307602, 41.2398929 ], [ 24.6305912, 41.240041 ], [ 24.6304732, 41.2401055 ], [ 24.630323, 41.24017 ], [ 24.6301567, 41.2402225 ], [ 24.6300333, 41.2402669 ], [ 24.6298723, 41.2403193 ], [ 24.6297865, 41.2403637 ], [ 24.6297275, 41.2404322 ], [ 24.6296846, 41.2405089 ], [ 24.6296953, 41.2405815 ], [ 24.6297382, 41.2407025 ], [ 24.6297758, 41.2408235 ], [ 24.6298509, 41.2409728 ], [ 24.6298884, 41.2410655 ], [ 24.6298938, 41.2411462 ], [ 24.6311829, 41.2413687 ], [ 24.6321631, 41.2417746 ], [ 24.6326954, 41.2419615 ], [ 24.6330938, 41.2406286 ], [ 24.6328756, 41.2389313 ], [ 24.6319162, 41.2389438 ], [ 24.6319162, 41.2390486 ] ] ] } }
]
}
