{
"type": "FeatureCollection",
"name": "patch_75902_linestring",
"crs": { "type": "name", "properties": { "name": "urn:ogc:def:crs:OGC:1.3:CRS84" } },
"features": [
{ "type": "Feature", "properties": { "osm_id": 119926565, "name": "Βρυσιώτικο", "label": "waterway:stream", "waterway": "stream", "natural": null }, "geometry": { "type": "LineString", "coordinates": [ [ 24.236265635582498, 35.366668301958846 ], [ 24.2362905, 35.366643299678678 ], [ 24.2364105, 35.366287999678654 ], [ 24.2364294, 35.365927599678621 ], [ 24.2365873, 35.365613499678602 ], [ 24.2368967, 35.365407499678589 ], [ 24.2372503, 35.365392099678573 ], [ 24.2377428, 35.365474399678583 ], [ 24.2385005, 35.365644399678601 ], [ 24.2389362, 35.365613499678602 ], [ 24.2394666, 35.365407499678589 ], [ 24.2398391, 35.365108899678567 ], [ 24.2399717, 35.364763899678536 ], [ 24.2400601, 35.364315899678488 ], [ 24.2404011, 35.363945099678467 ], [ 24.2407926, 35.363821499678451 ], [ 24.2414177, 35.363723699678452 ], [ 24.241765, 35.363739199678434 ], [ 24.2420681, 35.363934799678461 ], [ 24.2423712, 35.364233499678484 ], [ 24.2428321, 35.364290099678485 ], [ 24.2434067, 35.364382799678495 ], [ 24.2436972, 35.364537299678503 ], [ 24.244076, 35.36460419967851 ], [ 24.2443791, 35.364573299678511 ], [ 24.2453452, 35.364387999678499 ], [ 24.2457178, 35.364357099678493 ], [ 24.245983, 35.3645114996785 ], [ 24.2461219, 35.36469689967852 ], [ 24.2461345, 35.364902899678533 ], [ 24.2462924, 35.365057399678548 ], [ 24.2466649, 35.365088299678554 ], [ 24.2469112, 35.365031599678559 ], [ 24.2470375, 35.364897699678536 ], [ 24.2471006, 35.364624799678516 ], [ 24.2472585, 35.363975999678459 ], [ 24.24729, 35.363718599678442 ], [ 24.2472269, 35.363584699678434 ], [ 24.2472143, 35.363461099678432 ], [ 24.2472711, 35.363409599678413 ], [ 24.2473992, 35.363430499678408 ], [ 24.247635, 35.36359409967843 ], [ 24.2481127, 35.363772499678454 ], [ 24.2484922, 35.363743399678448 ], [ 24.2488896, 35.363568599678437 ], [ 24.2492449, 35.363414599678421 ], [ 24.2494783, 35.363433699678424 ], [ 24.2495606, 35.363440399678431 ], [ 24.2500468, 35.363502199678422 ], [ 24.2502299, 35.363687599678443 ], [ 24.2502993, 35.363960499678463 ], [ 24.2504762, 35.364212799678477 ], [ 24.2509671, 35.364416299678503 ], [ 24.2516755, 35.364801299678533 ], [ 24.2519191, 35.364828199678527 ], [ 24.2522331, 35.364599999678525 ], [ 24.2527374, 35.364267499678483 ], [ 24.2530914, 35.364180099678492 ], [ 24.2532631, 35.364223799678484 ], [ 24.2533489, 35.36439879967849 ], [ 24.2533382, 35.364617499678509 ], [ 24.2531199, 35.365009099678552 ], [ 24.2532173, 35.365091399678548 ], [ 24.2535502, 35.365187999678568 ], [ 24.2536805, 35.365297799678572 ], [ 24.2536582, 35.365424599678583 ], [ 24.253686, 35.36550639967858 ], [ 24.253825, 35.36555139967858 ], [ 24.2548617, 35.365369899678576 ], [ 24.2559775, 35.365343699678576 ], [ 24.2561732, 35.365301599678581 ], [ 24.2562562, 35.365231299678555 ], [ 24.2562729, 35.365146199678556 ], [ 24.2560578, 35.364813399678539 ], [ 24.2557765, 35.364639499678532 ], [ 24.2557465, 35.364580199678521 ], [ 24.2557771, 35.364528299678511 ], [ 24.2564295, 35.364364399678493 ], [ 24.2566308, 35.364340699678486 ], [ 24.256936, 35.364313199678492 ], [ 24.2571678, 35.364264499678491 ], [ 24.2573693, 35.364200599678476 ], [ 24.2576, 35.364108099678475 ], [ 24.2581288, 35.363681199678446 ], [ 24.2583892, 35.363589499678447 ], [ 24.2586317, 35.363557199678439 ], [ 24.2589223, 35.36359049967843 ], [ 24.2593379, 35.363743399678448 ], [ 24.2597261, 35.36394689967846 ] ] } },
{ "type": "Feature", "properties": { "osm_id": 972026990, "name": null, "label": "waterway:dam", "waterway": "dam", "natural": null }, "geometry": { "type": "LineString", "coordinates": [ [ 24.252218, 35.363147899678395 ], [ 24.2524369, 35.363121399678391 ], [ 24.2525851, 35.363107399678398 ], [ 24.2526803, 35.363074699678386 ], [ 24.2526964, 35.363069399678388 ], [ 24.2526817, 35.362984699678385 ] ] } },
{ "type": "Feature", "properties": { "osm_id": 168057051, "name": null, "label": "waterway:stream", "waterway": "stream", "natural": null }, "geometry": { "type": "LineString", "coordinates": [ [ 24.2547013, 35.368650299678819 ], [ 24.2549972, 35.368633199678833 ], [ 24.2551391, 35.368589299678831 ] ] } },
{ "type": "Feature", "properties": { "osm_id": 119926571, "name": "Ποταμός Αλμυρός", "label": "waterway:stream", "waterway": "stream", "natural": null }, "geometry": { "type": "LineString", "coordinates": [ [ 24.2527364, 35.3631816996784 ], [ 24.2529289, 35.363332099678424 ], [ 24.252905, 35.363441299678421 ], [ 24.2529459, 35.363543499678435 ], [ 24.2530914, 35.363646299678443 ], [ 24.253424, 35.363558899678431 ], [ 24.2538961, 35.363698799678453 ], [ 24.2545613, 35.36388259967844 ], [ 24.2550762, 35.363838799678454 ], [ 24.2553659, 35.363935099678457 ], [ 24.2555912, 35.364022599678471 ], [ 24.2559667, 35.364040099678469 ], [ 24.25685, 35.363768299678441 ], [ 24.2569179, 35.363750699678448 ], [ 24.2569976, 35.363752099678443 ], [ 24.2571708, 35.363845299678459 ], [ 24.2572699, 35.363877699678454 ], [ 24.2573629, 35.363873199678451 ], [ 24.2581288, 35.363681199678446 ] ] } },
{ "type": "Feature", "properties": { "osm_id": 972026992, "name": null, "label": "waterway:stream", "waterway": "stream", "natural": null }, "geometry": { "type": "LineString", "coordinates": [ [ 24.2524369, 35.363121399678391 ], [ 24.2524477, 35.363165099678405 ], [ 24.252905, 35.363441299678421 ] ] } },
{ "type": "Feature", "properties": { "osm_id": 972026991, "name": null, "label": "waterway:stream", "waterway": "stream", "natural": null }, "geometry": { "type": "LineString", "coordinates": [ [ 24.2526803, 35.363074699678386 ], [ 24.2527364, 35.3631816996784 ] ] } },
{ "type": "Feature", "properties": { "osm_id": 376980784, "name": null, "label": "waterway:river", "waterway": "river", "natural": null }, "geometry": { "type": "LineString", "coordinates": [ [ 24.2551391, 35.368589299678831 ], [ 24.2552128, 35.36850589967883 ], [ 24.2552611, 35.368311599678819 ], [ 24.2553343, 35.368204099678799 ], [ 24.2558493, 35.368055399678795 ], [ 24.2562032, 35.368015399678782 ], [ 24.2567027, 35.368022299678785 ], [ 24.2570432, 35.368105599678799 ], [ 24.2572447, 35.368188899678799 ], [ 24.2572844, 35.368332399678813 ], [ 24.2574291, 35.368438799678827 ], [ 24.2576505, 35.368485099678821 ], [ 24.2578449, 35.368484099678831 ], [ 24.2583883, 35.368373999678823 ], [ 24.258743, 35.368237499678791 ], [ 24.2594298, 35.368082499678785 ], [ 24.2596454, 35.367982999678794 ], [ 24.2599916, 35.367915899678778 ], [ 24.2603804, 35.367922599678785 ], [ 24.2607522, 35.367932099678782 ], [ 24.260922, 35.367910099678788 ] ] } },
{ "type": "Feature", "properties": { "osm_id": 434989727, "name": null, "label": "natural:coastline", "waterway": null, "natural": "coastline" }, "geometry": { "type": "MultiLineString", "coordinates": [ [ [ 24.263629962988276, 35.361781616710005 ], [ 24.2630495, 35.362363499678338 ], [ 24.262886, 35.362634799678361 ], [ 24.262252, 35.363508899678429 ], [ 24.2619373, 35.364368899678489 ], [ 24.2636, 35.365695899678599 ], [ 24.263629962988276, 35.365689250139518 ] ], [ [ 24.263629962988276, 35.365967393391685 ], [ 24.2635815, 35.365959999678623 ], [ 24.2634811, 35.366029099678627 ], [ 24.2633994, 35.36597249967862 ], [ 24.2634359, 35.365852899678615 ], [ 24.2634811, 35.365741299678611 ], [ 24.2635428, 35.365717799678599 ], [ 24.2620582, 35.364527299678514 ], [ 24.2619753, 35.364605599678505 ], [ 24.2619372, 35.364657499678522 ], [ 24.2619511, 35.364846999678534 ], [ 24.2620568, 35.364992599678544 ], [ 24.2625776, 35.365435599678584 ], [ 24.26268, 35.365559599678591 ], [ 24.2626191, 35.365601999678603 ], [ 24.2620613, 35.365146599678553 ], [ 24.2616511, 35.364860899678533 ], [ 24.2613854, 35.364696599678524 ], [ 24.2604215, 35.364120399678477 ], [ 24.2604648, 35.364056699678464 ], [ 24.2604355, 35.364034699678463 ], [ 24.2603753, 35.364099599678489 ], [ 24.259827, 35.363858199678447 ], [ 24.2597261, 35.36394689967846 ], [ 24.2596679, 35.364001299678463 ], [ 24.2596797, 35.364012699678469 ], [ 24.25965, 35.364048399678474 ], [ 24.2604501, 35.364609099678525 ], [ 24.2605523, 35.36488829967854 ], [ 24.260632, 35.365105499678563 ], [ 24.2606783, 35.365252799678558 ], [ 24.2608207, 35.365225199678569 ], [ 24.2613298, 35.365387799678572 ], [ 24.2616091, 35.365539999678589 ], [ 24.2616502, 35.365619899678592 ], [ 24.2617496, 35.365687799678604 ], [ 24.2622513, 35.365677199678593 ], [ 24.2622538, 35.365714899678601 ], [ 24.2617375, 35.365724399678598 ], [ 24.2616411, 35.365897799678621 ], [ 24.2613474, 35.365800499678613 ], [ 24.2611277, 35.365879199678623 ], [ 24.2609539, 35.366033299678634 ], [ 24.2607896, 35.366409499678667 ], [ 24.2606956, 35.366935899678715 ], [ 24.2607379, 35.367221099678723 ], [ 24.2609007, 35.367536099678745 ], [ 24.2610438, 35.367664899678758 ], [ 24.2610816, 35.367776699678757 ], [ 24.2610057, 35.367823599678772 ], [ 24.2608564, 35.367833099678769 ], [ 24.260922, 35.367910099678788 ], [ 24.260971, 35.367975899678783 ], [ 24.261243, 35.367984399678782 ], [ 24.2619519, 35.367876999678778 ], [ 24.2620558, 35.367817099678774 ], [ 24.2621702, 35.36779669967877 ], [ 24.2623833, 35.367860299678767 ], [ 24.2624251, 35.367936899678774 ], [ 24.2625454, 35.368026299678782 ], [ 24.2626017, 35.368141099678795 ], [ 24.262551, 35.368187399678803 ], [ 24.2627375, 35.368357599678824 ], [ 24.262916, 35.368412699678814 ], [ 24.2630265, 35.36851169967882 ], [ 24.2630888, 35.369214599678884 ], [ 24.2629511, 35.369405999678897 ], [ 24.2623785, 35.36988249967893 ], [ 24.2619415, 35.370464499678981 ], [ 24.2617012, 35.371278099679046 ], [ 24.2617125, 35.371391799679046 ], [ 24.2615495, 35.371678599679086 ], [ 24.2615521, 35.371967399679107 ], [ 24.2609237, 35.372897099679186 ], [ 24.2602056, 35.374324799679293 ], [ 24.259347635905595, 35.375058360669662 ] ] ] } }
]
}
