{
"type": "FeatureCollection",
"name": "patch_58683_linestring",
"crs": { "type": "name", "properties": { "name": "urn:ogc:def:crs:OGC:1.3:CRS84" } },
"features": [
{ "type": "Feature", "properties": { "osm_id": 564758517, "name": null, "label": "waterway:stream", "waterway": "stream" }, "geometry": { "type": "LineString", "coordinates": [ [ 21.967021015220148, 37.307672820511776 ], [ 21.967093, 37.307653299887662 ], [ 21.967524, 37.307653299887662 ], [ 21.9680362, 37.30771149988766 ], [ 21.9683777, 37.30775679988767 ], [ 21.9686135, 37.307750299887665 ], [ 21.9688005, 37.307685699887656 ], [ 21.9690201, 37.307582199887634 ], [ 21.9694429, 37.307536899887637 ], [ 21.9697193, 37.307439899887626 ], [ 21.9699795, 37.307258799887592 ], [ 21.9702636, 37.307146899887584 ], [ 21.9704264, 37.307045499887579 ], [ 21.970752, 37.306949799887555 ], [ 21.9711059, 37.306825999887543 ], [ 21.9713005, 37.306744299887541 ], [ 21.9713749, 37.306679599887531 ], [ 21.9714067, 37.306603599887524 ], [ 21.9714315, 37.306490999887508 ], [ 21.9715235, 37.306372699887483 ], [ 21.9715837, 37.306293899887486 ], [ 21.9715872, 37.306195399887464 ], [ 21.9715412, 37.306091199887454 ], [ 21.9715341, 37.306009599887446 ], [ 21.9715624, 37.30595049988743 ], [ 21.971704, 37.305829399887415 ], [ 21.9717854, 37.305744999887395 ], [ 21.9718102, 37.305668999887402 ], [ 21.9718031, 37.305460599887368 ], [ 21.9718031, 37.305328299887357 ], [ 21.9718562, 37.305212899887337 ], [ 21.9718739, 37.305080599887312 ], [ 21.9719411, 37.304956699887306 ], [ 21.9720155, 37.304824399887281 ], [ 21.9720721, 37.304613299887265 ], [ 21.9721393, 37.304478199887235 ], [ 21.9721393, 37.30430359988722 ], [ 21.9721924, 37.304171299887201 ], [ 21.9722349, 37.304030499887183 ], [ 21.9722278, 37.303909499887169 ], [ 21.9721712, 37.303850399887146 ], [ 21.9719164, 37.303799699887151 ], [ 21.9718279, 37.303723699887144 ], [ 21.9717854, 37.303560399887118 ], [ 21.9717889, 37.303405599887093 ], [ 21.9718066, 37.303287299887089 ], [ 21.9718761, 37.303162399887064 ], [ 21.9719346, 37.303091299887058 ], [ 21.9719531, 37.302976099887047 ], [ 21.9719654, 37.302865799887023 ], [ 21.9719315, 37.302708999887003 ], [ 21.9719038, 37.302561899886996 ], [ 21.9718668, 37.302441899886951 ], [ 21.9718668, 37.302275199886957 ], [ 21.9718329, 37.30203009988692 ], [ 21.9718329, 37.301968799886907 ], [ 21.9718761, 37.301939399886905 ], [ 21.9719747, 37.301936999886898 ], [ 21.9720394, 37.301905099886902 ], [ 21.9720702, 37.301851199886897 ], [ 21.9720948, 37.301669799886859 ], [ 21.9721102, 37.301503199886845 ], [ 21.9721657, 37.301341399886837 ], [ 21.9722119, 37.301042399886796 ], [ 21.9722181, 37.300914999886771 ], [ 21.9722859, 37.300838999886771 ], [ 21.9724153, 37.30080219988676 ], [ 21.97252, 37.300745899886756 ], [ 21.9725724, 37.30065269988674 ], [ 21.9725755, 37.300535099886716 ], [ 21.9725046, 37.300341499886699 ], [ 21.9724738, 37.30010129988667 ], [ 21.9724675, 37.300076299886669 ], [ 21.9724399, 37.299966499886651 ], [ 21.9724738, 37.299726299886622 ], [ 21.9725385, 37.299471399886592 ], [ 21.9725632, 37.299277799886553 ], [ 21.9725539, 37.299091499886543 ], [ 21.9725724, 37.298907699886506 ], [ 21.972566071618367, 37.2987694385628 ] ] } },
{ "type": "Feature", "properties": { "osm_id": 774851831, "name": null, "label": "waterway:stream", "waterway": "stream" }, "geometry": { "type": "LineString", "coordinates": [ [ 21.9888491, 37.307675599887666 ], [ 21.9887905, 37.307599999887643 ], [ 21.9887539, 37.307525599887633 ], [ 21.9887457, 37.307452799887628 ], [ 21.988686, 37.307358499887613 ], [ 21.9885027, 37.307317999887616 ], [ 21.9883069, 37.307290299887597 ], [ 21.9882184, 37.307226299887603 ], [ 21.9881299, 37.307102599887585 ], [ 21.9880521, 37.306983099887567 ], [ 21.9879529, 37.306855099887557 ], [ 21.9878483, 37.306778299887533 ], [ 21.987749, 37.306744099887538 ], [ 21.9876713, 37.306739899887546 ], [ 21.9874749, 37.306743199887535 ] ] } },
{ "type": "Feature", "properties": { "osm_id": 591531653, "name": null, "label": "waterway:stream", "waterway": "stream" }, "geometry": { "type": "LineString", "coordinates": [ [ 21.9875124, 37.306947999887562 ], [ 21.9874856, 37.306930899887561 ], [ 21.9874642, 37.306894599887556 ], [ 21.9874642, 37.306845599887552 ], [ 21.9874668, 37.306796499887533 ], [ 21.9874749, 37.306743199887535 ], [ 21.9874668, 37.306681299887522 ], [ 21.9874534, 37.306655699887521 ], [ 21.9874132, 37.306619399887516 ], [ 21.9873622, 37.306583199887498 ], [ 21.9872979, 37.306572499887523 ], [ 21.9872415, 37.306553299887511 ], [ 21.987212, 37.3065255998875 ], [ 21.9871638, 37.306512799887507 ], [ 21.9871101, 37.306508499887507 ], [ 21.9870672, 37.306487199887513 ], [ 21.987027, 37.306452999887497 ], [ 21.9869975, 37.30641889988749 ], [ 21.9869438, 37.306397499887503 ], [ 21.9868687, 37.306378299887491 ], [ 21.9868017, 37.306374099887485 ], [ 21.9867426, 37.306354899887481 ], [ 21.9866649, 37.306320699887479 ], [ 21.9866139, 37.306301499887482 ], [ 21.9865415, 37.306297299887461 ], [ 21.9864771, 37.306280199887482 ], [ 21.9864449, 37.306237499887466 ], [ 21.9864342, 37.306205499887454 ], [ 21.9864342, 37.30615219988745 ], [ 21.9864342, 37.306081799887451 ], [ 21.9864261, 37.306028499887439 ], [ 21.9864449, 37.305979399887434 ], [ 21.9864342, 37.305923899887425 ], [ 21.9864047, 37.305896199887428 ], [ 21.9863162, 37.305819399887405 ], [ 21.9863001, 37.305789499887418 ], [ 21.9863001, 37.305751099887409 ], [ 21.986284, 37.305701999887397 ], [ 21.9862518, 37.305663599887396 ], [ 21.9862035, 37.305637999887388 ], [ 21.9861391, 37.30559539988738 ], [ 21.9860587, 37.305567599887389 ], [ 21.9860024, 37.305535599887378 ], [ 21.985946, 37.305486599887367 ], [ 21.9858977, 37.305424699887361 ], [ 21.9858682, 37.305369199887359 ], [ 21.9858441, 37.305268899887352 ], [ 21.9858602, 37.305198499887339 ], [ 21.9859165, 37.30514089988732 ], [ 21.9859755, 37.305079099887323 ], [ 21.9860211, 37.305034299887303 ], [ 21.9860721, 37.304983099887302 ], [ 21.9861257, 37.304948899887307 ], [ 21.9861499, 37.304910499887292 ], [ 21.9861526, 37.304863599887291 ], [ 21.9861472, 37.304814499887279 ], [ 21.986115, 37.304771799887277 ], [ 21.9860614, 37.304733399887269 ], [ 21.9860104, 37.30466939988726 ], [ 21.9859943, 37.304628899887255 ], [ 21.9859943, 37.304577699887261 ], [ 21.9860104, 37.304517999887246 ], [ 21.9860834, 37.304468899887247 ], [ 21.9861391, 37.304456099887233 ], [ 21.986225, 37.304460399887233 ], [ 21.9863135, 37.304441199887236 ], [ 21.986343, 37.30438569988722 ], [ 21.9863645, 37.304306699887221 ], [ 21.9863623, 37.304240599887201 ], [ 21.9863403, 37.304163799887206 ], [ 21.9862899, 37.304061399887196 ], [ 21.9862872, 37.304020899887163 ], [ 21.9863167, 37.303969699887176 ], [ 21.986365, 37.303939799887168 ], [ 21.9864288, 37.303922699887167 ], [ 21.9864932, 37.303877899887162 ], [ 21.9865501, 37.303815999887149 ], [ 21.9865656, 37.303773399887149 ], [ 21.9865742, 37.303707199887135 ], [ 21.9865683, 37.303645399887124 ], [ 21.9865527, 37.303519499887109 ], [ 21.986542, 37.303393599887102 ], [ 21.9865393, 37.303333899887093 ], [ 21.9865125, 37.303271999887087 ], [ 21.9864776, 37.303210099887067 ], [ 21.9864422, 37.303146099887059 ], [ 21.9864052, 37.303077799887056 ], [ 21.9863913, 37.302990399887044 ], [ 21.9863569, 37.302877299887029 ], [ 21.9863242, 37.302849499887017 ], [ 21.9863006, 37.302813299887021 ], [ 21.9862786, 37.302751399887022 ], [ 21.9862706, 37.30271509988701 ], [ 21.9862545, 37.302680999887002 ], [ 21.9862303, 37.302629799886994 ], [ 21.986188, 37.302561499886991 ], [ 21.9861579, 37.302525199886972 ], [ 21.9861182, 37.302499599886985 ], [ 21.9860592, 37.302484699886989 ], [ 21.9860002, 37.302469799886978 ], [ 21.9859788, 37.302444199886978 ], [ 21.9859729, 37.302409999886969 ], [ 21.9859729, 37.302331099886963 ], [ 21.9859809, 37.302267099886954 ], [ 21.9859889, 37.302196699886942 ], [ 21.9859895, 37.302141199886947 ], [ 21.9859755, 37.302087899886921 ], [ 21.9859814, 37.302038799886915 ], [ 21.9860077, 37.301991899886914 ], [ 21.9860372, 37.301914999886911 ], [ 21.9860399, 37.301853199886899 ], [ 21.9860217, 37.301778499886886 ], [ 21.9859734, 37.301718799886878 ], [ 21.9859138, 37.301652599886872 ], [ 21.9858897, 37.301603499886866 ], [ 21.9858843, 37.301560899886844 ], [ 21.9858849, 37.301501099886856 ], [ 21.9858951, 37.301445699886841 ], [ 21.9858983, 37.301334699886823 ], [ 21.9858763, 37.301247199886809 ], [ 21.9858468, 37.301136299886814 ], [ 21.9858393, 37.301044499886792 ], [ 21.985828, 37.300954899886776 ], [ 21.9858312, 37.300871699886784 ], [ 21.9858312, 37.300786399886753 ], [ 21.9858468, 37.300700999886743 ], [ 21.9858634, 37.300617799886737 ], [ 21.9858634, 37.300536699886727 ], [ 21.9858656, 37.300447099886718 ], [ 21.9858811, 37.300349299886705 ], [ 21.9859112, 37.300282799886695 ], [ 21.9859568, 37.300212399886689 ], [ 21.9860002, 37.30015479988667 ], [ 21.9859997, 37.300092999886658 ], [ 21.9860002, 37.300035299886652 ], [ 21.9859734, 37.299973499886647 ], [ 21.9859734, 37.299926499886645 ], [ 21.9859916, 37.29983909988664 ], [ 21.9860083, 37.299738799886626 ], [ 21.9859997, 37.29968759988661 ], [ 21.9859868, 37.299623599886601 ], [ 21.9859648, 37.299538199886605 ], [ 21.985938, 37.299454999886585 ], [ 21.9858983, 37.299352599886568 ], [ 21.9858741, 37.299269399886562 ], [ 21.9858607, 37.299186199886556 ], [ 21.9858607, 37.299126399886525 ], [ 21.9858607, 37.299068799886541 ], [ 21.9858522, 37.299030399886533 ], [ 21.9857958, 37.298908799886512 ], [ 21.9857615, 37.298821299886498 ], [ 21.9857475, 37.298778599886489 ], [ 21.9857475, 37.2987694385628 ] ] } }
]
}
