{
"type": "FeatureCollection",
"name": "patch_74988_point",
"crs": { "type": "name", "properties": { "name": "urn:ogc:def:crs:OGC:1.3:CRS84" } },
"features": [
{ "type": "Feature", "properties": { "@type": "node", "@id": 940137794, "addr:city": null, "addr:postcode": null, "amenity": "ferry_terminal", "archaeological_site": null, "area": null, "barrier": null, "bicycle": null, "building": null, "cargo": null, "created_by": null, "denomination": null, "duration": null, "ele": null, "ferry": "yes", "foot": null, "from": null, "highway": null, "historic": null, "horse": null, "incline": null, "int_name": "Pisaetos", "internet_access": null, "lanes": null, "leisure": null, "lit": null, "man_made": null, "maxspeed": null, "mooring": null, "motor_vehicle": null, "name": "Πισαετός", "name:de": null, "name:el": null, "name:en": null, "name:fr": null, "name:it": null, "name:mk": null, "name:ru": null, "name:sr": null, "name:sr-Latn": null, "natural": null, "network": null, "official_name": "Πίσω Αετός", "operator": null, "place": null, "public_transport": "station", "reg_ref": null, "religion": null, "route": null, "sac_scale": null, "smoothness": null, "source": null, "surface": null, "to": null, "toll": null, "tourism": null, "trail_visibility": null, "type": null, "via": null, "waterway": null, "wheelchair": null, "width": null, "wikidata": null, "wikipedia": null, "label": "amenity:ferry_terminal" }, "geometry": { "type": "Point", "coordinates": [ 20.6847482, 38.3481431 ] } },
{ "type": "Feature", "properties": { "@type": "node", "@id": 940553864, "addr:city": null, "addr:postcode": null, "amenity": null, "archaeological_site": "wall", "area": null, "barrier": null, "bicycle": null, "building": null, "cargo": null, "created_by": null, "denomination": null, "duration": null, "ele": null, "ferry": null, "foot": null, "from": null, "highway": null, "historic": "archaeological_site", "horse": null, "incline": null, "int_name": null, "internet_access": null, "lanes": null, "leisure": null, "lit": null, "man_made": null, "maxspeed": null, "mooring": null, "motor_vehicle": null, "name": "Cyclopean wall", "name:de": null, "name:el": null, "name:en": null, "name:fr": null, "name:it": null, "name:mk": null, "name:ru": null, "name:sr": null, "name:sr-Latn": null, "natural": null, "network": null, "official_name": null, "operator": null, "place": null, "public_transport": null, "reg_ref": null, "religion": null, "route": null, "sac_scale": null, "smoothness": null, "source": null, "surface": null, "to": null, "toll": null, "tourism": null, "trail_visibility": null, "type": null, "via": null, "waterway": null, "wheelchair": null, "width": null, "wikidata": null, "wikipedia": null, "label": "historic:archaeological_site" }, "geometry": { "type": "Point", "coordinates": [ 20.6815984, 38.3564744 ] } },
{ "type": "Feature", "properties": { "@type": "node", "@id": 940560991, "addr:city": null, "addr:postcode": null, "amenity": null, "archaeological_site": null, "area": null, "barrier": null, "bicycle": null, "building": null, "cargo": null, "created_by": null, "denomination": null, "duration": null, "ele": null, "ferry": null, "foot": null, "from": null, "highway": null, "historic": "archaeological_site", "horse": null, "incline": null, "int_name": null, "internet_access": null, "lanes": null, "leisure": null, "lit": null, "man_made": null, "maxspeed": null, "mooring": null, "motor_vehicle": null, "name": "Αλαλκομενές", "name:de": null, "name:el": "Αλαλκομενές", "name:en": "Alalkomenés", "name:fr": null, "name:it": null, "name:mk": null, "name:ru": null, "name:sr": null, "name:sr-Latn": null, "natural": null, "network": null, "official_name": null, "operator": null, "place": null, "public_transport": null, "reg_ref": null, "religion": null, "route": null, "sac_scale": null, "smoothness": null, "source": null, "surface": null, "to": null, "toll": null, "tourism": null, "trail_visibility": null, "type": null, "via": null, "waterway": null, "wheelchair": null, "width": null, "wikidata": "Q1706457", "wikipedia": null, "label": "historic:archaeological_site" }, "geometry": { "type": "Point", "coordinates": [ 20.6835725, 38.3554311 ] } },
{ "type": "Feature", "properties": { "@type": "node", "@id": 3037015486, "addr:city": null, "addr:postcode": null, "amenity": null, "archaeological_site": null, "area": null, "barrier": null, "bicycle": null, "building": null, "cargo": null, "created_by": null, "denomination": null, "duration": null, "ele": null, "ferry": null, "foot": null, "from": null, "highway": null, "historic": null, "horse": null, "incline": null, "int_name": null, "internet_access": null, "lanes": null, "leisure": "marina", "lit": null, "man_made": null, "maxspeed": null, "mooring": null, "motor_vehicle": null, "name": null, "name:de": null, "name:el": null, "name:en": null, "name:fr": null, "name:it": null, "name:mk": null, "name:ru": null, "name:sr": null, "name:sr-Latn": null, "natural": null, "network": null, "official_name": null, "operator": null, "place": null, "public_transport": null, "reg_ref": null, "religion": null, "route": null, "sac_scale": null, "smoothness": null, "source": "Bing", "surface": null, "to": null, "toll": null, "tourism": null, "trail_visibility": null, "type": null, "via": null, "waterway": null, "wheelchair": null, "width": null, "wikidata": null, "wikipedia": null, "label": "leisure:marina" }, "geometry": { "type": "Point", "coordinates": [ 20.685295, 38.3484656 ] } },
{ "type": "Feature", "properties": { "@type": "node", "@id": 4248124545, "addr:city": null, "addr:postcode": null, "amenity": "place_of_worship", "archaeological_site": null, "area": null, "barrier": null, "bicycle": null, "building": null, "cargo": null, "created_by": null, "denomination": "greek_orthodox", "duration": null, "ele": null, "ferry": null, "foot": null, "from": null, "highway": null, "historic": null, "horse": null, "incline": null, "int_name": null, "internet_access": null, "lanes": null, "leisure": null, "lit": null, "man_made": null, "maxspeed": null, "mooring": null, "motor_vehicle": null, "name": "Αγίου Γεωργίου", "name:de": null, "name:el": null, "name:en": null, "name:fr": null, "name:it": null, "name:mk": null, "name:ru": null, "name:sr": null, "name:sr-Latn": null, "natural": null, "network": null, "official_name": null, "operator": null, "place": null, "public_transport": null, "reg_ref": null, "religion": "christian", "route": null, "sac_scale": null, "smoothness": null, "source": null, "surface": null, "to": null, "toll": null, "tourism": null, "trail_visibility": null, "type": null, "via": null, "waterway": null, "wheelchair": null, "width": null, "wikidata": null, "wikipedia": null, "label": "amenity:place_of_worship" }, "geometry": { "type": "Point", "coordinates": [ 20.684011, 38.3552981 ] } },
{ "type": "Feature", "properties": { "@type": "node", "@id": 4248124546, "addr:city": null, "addr:postcode": null, "amenity": null, "archaeological_site": null, "area": null, "barrier": null, "bicycle": null, "building": null, "cargo": null, "created_by": null, "denomination": null, "duration": null, "ele": "378", "ferry": null, "foot": null, "from": null, "highway": null, "historic": null, "horse": null, "incline": null, "int_name": null, "internet_access": null, "lanes": null, "leisure": null, "lit": null, "man_made": null, "maxspeed": null, "mooring": null, "motor_vehicle": null, "name": "Αετός", "name:de": "Aetos", "name:el": "Αετός", "name:en": null, "name:fr": null, "name:it": null, "name:mk": null, "name:ru": null, "name:sr": null, "name:sr-Latn": null, "natural": "peak", "network": null, "official_name": null, "operator": null, "place": null, "public_transport": null, "reg_ref": null, "religion": null, "route": null, "sac_scale": null, "smoothness": null, "source": null, "surface": null, "to": null, "toll": null, "tourism": null, "trail_visibility": null, "type": null, "via": null, "waterway": null, "wheelchair": null, "width": null, "wikidata": null, "wikipedia": "el:Αετός Ιθάκης", "label": "natural:peak" }, "geometry": { "type": "Point", "coordinates": [ 20.6772627, 38.3575191 ] } },
{ "type": "Feature", "properties": { "@type": "node", "@id": 6822104986, "addr:city": null, "addr:postcode": null, "amenity": "bar", "archaeological_site": null, "area": null, "barrier": null, "bicycle": null, "building": null, "cargo": null, "created_by": null, "denomination": null, "duration": null, "ele": null, "ferry": null, "foot": null, "from": null, "highway": null, "historic": null, "horse": null, "incline": null, "int_name": null, "internet_access": null, "lanes": null, "leisure": null, "lit": null, "man_made": null, "maxspeed": null, "mooring": null, "motor_vehicle": null, "name": null, "name:de": null, "name:el": null, "name:en": "Chalet probably usually open", "name:fr": null, "name:it": null, "name:mk": null, "name:ru": null, "name:sr": null, "name:sr-Latn": null, "natural": null, "network": null, "official_name": null, "operator": null, "place": null, "public_transport": null, "reg_ref": null, "religion": null, "route": null, "sac_scale": null, "smoothness": null, "source": null, "surface": null, "to": null, "toll": null, "tourism": null, "trail_visibility": null, "type": null, "via": null, "waterway": null, "wheelchair": null, "width": null, "wikidata": null, "wikipedia": null, "label": "amenity:bar" }, "geometry": { "type": "Point", "coordinates": [ 20.6851365, 38.3483001 ] } },
{ "type": "Feature", "properties": { "@type": "node", "@id": 6822104988, "addr:city": null, "addr:postcode": null, "amenity": "bench", "archaeological_site": null, "area": null, "barrier": null, "bicycle": null, "building": null, "cargo": null, "created_by": null, "denomination": null, "duration": null, "ele": null, "ferry": null, "foot": null, "from": null, "highway": null, "historic": null, "horse": null, "incline": null, "int_name": null, "internet_access": null, "lanes": null, "leisure": null, "lit": null, "man_made": null, "maxspeed": null, "mooring": null, "motor_vehicle": null, "name": null, "name:de": null, "name:el": null, "name:en": null, "name:fr": null, "name:it": null, "name:mk": null, "name:ru": null, "name:sr": null, "name:sr-Latn": null, "natural": null, "network": null, "official_name": null, "operator": null, "place": null, "public_transport": null, "reg_ref": null, "religion": null, "route": null, "sac_scale": null, "smoothness": null, "source": null, "surface": null, "to": null, "toll": null, "tourism": null, "trail_visibility": null, "type": null, "via": null, "waterway": null, "wheelchair": null, "width": null, "wikidata": null, "wikipedia": null, "label": "amenity:bench" }, "geometry": { "type": "Point", "coordinates": [ 20.6849847, 38.3483551 ] } },
{ "type": "Feature", "properties": { "@type": "node", "@id": 6822105186, "addr:city": null, "addr:postcode": null, "amenity": null, "archaeological_site": null, "area": null, "barrier": null, "bicycle": null, "building": null, "cargo": null, "created_by": null, "denomination": null, "duration": null, "ele": null, "ferry": null, "foot": null, "from": null, "highway": null, "historic": null, "horse": null, "incline": null, "int_name": null, "internet_access": null, "lanes": null, "leisure": null, "lit": null, "man_made": null, "maxspeed": null, "mooring": null, "motor_vehicle": null, "name": null, "name:de": null, "name:el": null, "name:en": "Night free spot camp", "name:fr": null, "name:it": null, "name:mk": null, "name:ru": null, "name:sr": null, "name:sr-Latn": null, "natural": null, "network": null, "official_name": null, "operator": null, "place": null, "public_transport": null, "reg_ref": null, "religion": null, "route": null, "sac_scale": null, "smoothness": null, "source": null, "surface": null, "to": null, "toll": null, "tourism": "camp_site", "trail_visibility": null, "type": null, "via": null, "waterway": null, "wheelchair": null, "width": null, "wikidata": null, "wikipedia": null, "label": "tourism:camp_site" }, "geometry": { "type": "Point", "coordinates": [ 20.6850272, 38.3483531 ] } },
{ "type": "Feature", "properties": { "@type": "node", "@id": 6822105285, "addr:city": null, "addr:postcode": null, "amenity": "toilets", "archaeological_site": null, "area": null, "barrier": null, "bicycle": null, "building": null, "cargo": null, "created_by": null, "denomination": null, "duration": null, "ele": null, "ferry": null, "foot": null, "from": null, "highway": null, "historic": null, "horse": null, "incline": null, "int_name": null, "internet_access": null, "lanes": null, "leisure": null, "lit": null, "man_made": null, "maxspeed": null, "mooring": null, "motor_vehicle": null, "name": null, "name:de": null, "name:el": null, "name:en": null, "name:fr": null, "name:it": null, "name:mk": null, "name:ru": null, "name:sr": null, "name:sr-Latn": null, "natural": null, "network": null, "official_name": null, "operator": "public toilet", "place": null, "public_transport": null, "reg_ref": null, "religion": null, "route": null, "sac_scale": null, "smoothness": null, "source": null, "surface": null, "to": null, "toll": null, "tourism": null, "trail_visibility": null, "type": null, "via": null, "waterway": null, "wheelchair": null, "width": null, "wikidata": null, "wikipedia": null, "label": "amenity:toilets" }, "geometry": { "type": "Point", "coordinates": [ 20.6851341, 38.3483513 ] } },
{ "type": "Feature", "properties": { "@type": "node", "@id": 6822105286, "addr:city": null, "addr:postcode": null, "amenity": "bench", "archaeological_site": null, "area": null, "barrier": null, "bicycle": null, "building": null, "cargo": null, "created_by": null, "denomination": null, "duration": null, "ele": null, "ferry": null, "foot": null, "from": null, "highway": null, "historic": null, "horse": null, "incline": null, "int_name": null, "internet_access": null, "lanes": null, "leisure": null, "lit": null, "man_made": null, "maxspeed": null, "mooring": null, "motor_vehicle": null, "name": null, "name:de": null, "name:el": null, "name:en": null, "name:fr": null, "name:it": null, "name:mk": null, "name:ru": null, "name:sr": null, "name:sr-Latn": null, "natural": null, "network": null, "official_name": null, "operator": null, "place": null, "public_transport": null, "reg_ref": null, "religion": null, "route": null, "sac_scale": null, "smoothness": null, "source": null, "surface": null, "to": null, "toll": null, "tourism": null, "trail_visibility": null, "type": null, "via": null, "waterway": null, "wheelchair": null, "width": null, "wikidata": null, "wikipedia": null, "label": "amenity:bench" }, "geometry": { "type": "Point", "coordinates": [ 20.6851126, 38.3483668 ] } },
{ "type": "Feature", "properties": { "@type": "node", "@id": 11223296582, "addr:city": null, "addr:postcode": null, "amenity": null, "archaeological_site": null, "area": null, "barrier": null, "bicycle": null, "building": null, "cargo": null, "created_by": null, "denomination": null, "duration": null, "ele": null, "ferry": null, "foot": null, "from": null, "highway": null, "historic": "ruins", "horse": null, "incline": null, "int_name": null, "internet_access": null, "lanes": null, "leisure": null, "lit": null, "man_made": null, "maxspeed": null, "mooring": null, "motor_vehicle": null, "name": null, "name:de": null, "name:el": null, "name:en": null, "name:fr": null, "name:it": null, "name:mk": null, "name:ru": null, "name:sr": null, "name:sr-Latn": null, "natural": null, "network": null, "official_name": null, "operator": null, "place": null, "public_transport": null, "reg_ref": null, "religion": null, "route": null, "sac_scale": null, "smoothness": null, "source": null, "surface": null, "to": null, "toll": null, "tourism": null, "trail_visibility": null, "type": null, "via": null, "waterway": null, "wheelchair": null, "width": null, "wikidata": null, "wikipedia": null, "label": "historic:ruins" }, "geometry": { "type": "Point", "coordinates": [ 20.6830998, 38.350464 ] } }
]
}
