{
"type": "FeatureCollection",
"name": "patch_9060_features",
"crs": { "type": "name", "properties": { "name": "urn:ogc:def:crs:OGC:1.3:CRS84" } },
"features": [
{ "type": "Feature", "properties": { "osm_id": 408248030, "name": null, "label": "building:yes", "building": "yes", "water": null, "natural": null, "landuse": null, "amenity": null, "waterway": null }, "geometry": { "type": "Polygon", "coordinates": [ [ [ 26.0689672, 38.25185670001774 ], [ 26.0690729, 38.251837300017741 ], [ 26.0690817, 38.251866900017752 ], [ 26.069151, 38.251854200017725 ], [ 26.0691186, 38.251745200017737 ], [ 26.0689436, 38.251777300017729 ], [ 26.0689672, 38.25185670001774 ] ] ] } },
{ "type": "Feature", "properties": { "osm_id": 1065322431, "name": null, "label": "building:roof", "building": "roof", "water": null, "natural": null, "landuse": null, "amenity": null, "waterway": null }, "geometry": { "type": "Polygon", "coordinates": [ [ [ 26.0677315, 38.252148600017783 ], [ 26.0677867, 38.252096800017775 ], [ 26.0677326, 38.252061200017778 ], [ 26.067704, 38.252091100017772 ], [ 26.0676773, 38.252113000017779 ], [ 26.0677315, 38.252148600017783 ] ] ] } },
{ "type": "Feature", "properties": { "osm_id": 1065322432, "name": null, "label": "building:yes", "building": "yes", "water": null, "natural": null, "landuse": null, "amenity": null, "waterway": null }, "geometry": { "type": "Polygon", "coordinates": [ [ [ 26.067704, 38.252091100017772 ], [ 26.0677326, 38.252061200017778 ], [ 26.0677822, 38.25200950001777 ], [ 26.0676959, 38.251958600017758 ], [ 26.0676178, 38.252040200017774 ], [ 26.067704, 38.252091100017772 ] ] ] } },
{ "type": "Feature", "properties": { "osm_id": 180437829, "name": "Φράγμα Καλαμωτής - Κατράρη", "label": "water:reservoir;natural:water", "building": null, "water": "reservoir", "natural": "water", "landuse": null, "amenity": null, "waterway": null }, "geometry": { "type": "Polygon", "coordinates": [ [ [ 26.0498232, 38.248763800017294 ], [ 26.0498768, 38.248898600017327 ], [ 26.0498983, 38.249067100017349 ], [ 26.0499519, 38.249210300017367 ], [ 26.0500753, 38.249387200017388 ], [ 26.0501826, 38.249513600017409 ], [ 26.0502201, 38.249724300017441 ], [ 26.0502899, 38.249930700017472 ], [ 26.0503596, 38.250145500017503 ], [ 26.0504079, 38.250297200017513 ], [ 26.0504669, 38.250486800017541 ], [ 26.0506707, 38.250718500017584 ], [ 26.0507351, 38.250895400017605 ], [ 26.0507727, 38.251076600017633 ], [ 26.0507137, 38.251266100017652 ], [ 26.0506868, 38.251472600017685 ], [ 26.0507351, 38.251691600017729 ], [ 26.0508102, 38.251982300017765 ], [ 26.0508156, 38.252243500017791 ], [ 26.0508049, 38.252685800017865 ], [ 26.050778, 38.253128100017911 ], [ 26.050778, 38.253351400017955 ], [ 26.0508049, 38.253549400017995 ], [ 26.0508639, 38.253680000018008 ], [ 26.0509712, 38.253856900018036 ], [ 26.0510838, 38.254067500018053 ], [ 26.051175, 38.254299200018096 ], [ 26.0512608, 38.254632000018134 ], [ 26.0513091, 38.254901600018172 ], [ 26.0513198, 38.255053200018189 ], [ 26.0512877, 38.255234400018232 ], [ 26.0512877, 38.25540710001826 ], [ 26.0513306, 38.255643000018289 ], [ 26.0513413, 38.255803100018312 ], [ 26.0513145, 38.255971600018334 ], [ 26.0513359, 38.256140100018371 ], [ 26.0514325, 38.256354900018373 ], [ 26.0515827, 38.256599200018407 ], [ 26.0516739, 38.256645500018429 ], [ 26.0517168, 38.256456000018403 ], [ 26.0517114, 38.256228500018352 ], [ 26.0517007, 38.256051600018345 ], [ 26.0518563, 38.255929400018317 ], [ 26.0518134, 38.255777800018294 ], [ 26.0518616, 38.255049000018197 ], [ 26.0519207, 38.254876300018175 ], [ 26.0520655, 38.25468260001815 ], [ 26.0521299, 38.254412900018103 ], [ 26.0521513, 38.254286600018084 ], [ 26.0521352, 38.254050700018055 ], [ 26.0519689, 38.253789500018009 ], [ 26.0517812, 38.25342720001796 ], [ 26.0517329, 38.253229200017941 ], [ 26.0516954, 38.252955400017903 ], [ 26.0517329, 38.252702600017855 ], [ 26.0518026, 38.252513100017836 ], [ 26.0518724, 38.252399300017828 ], [ 26.0520065, 38.252285600017807 ], [ 26.0522024, 38.252114300017773 ], [ 26.0523176, 38.252011800017762 ], [ 26.052382, 38.251813800017729 ], [ 26.0524142, 38.251527300017706 ], [ 26.0523444, 38.251451500017687 ], [ 26.052441, 38.251316700017647 ], [ 26.0525621, 38.251302300017663 ], [ 26.0527569, 38.251196400017655 ], [ 26.0528433, 38.251106100017637 ], [ 26.0528433, 38.251009200017613 ], [ 26.0527521, 38.250903800017603 ], [ 26.0526502, 38.250785900017583 ], [ 26.0526288, 38.250697400017572 ], [ 26.0526449, 38.25061740001756 ], [ 26.05272, 38.250432000017533 ], [ 26.0527414, 38.250103400017494 ], [ 26.0528004, 38.249930700017472 ], [ 26.0528755, 38.249766400017442 ], [ 26.0528648, 38.249677900017446 ], [ 26.0528541, 38.249581000017422 ], [ 26.0528487, 38.249501000017418 ], [ 26.0529184, 38.249387200017388 ], [ 26.053015, 38.249294600017365 ], [ 26.0530901, 38.249235600017371 ], [ 26.0532671, 38.249185000017349 ], [ 26.053369, 38.249092400017346 ], [ 26.0534173, 38.248961800017327 ], [ 26.0534066, 38.248831200017307 ], [ 26.053369, 38.248730000017289 ], [ 26.0531765, 38.248701400017282 ], [ 26.0530901, 38.248586800017272 ], [ 26.0529721, 38.248565700017274 ], [ 26.0528272, 38.248565700017274 ], [ 26.0526234, 38.24854470001727 ], [ 26.0525107, 38.248464600017257 ], [ 26.0524839, 38.248401400017251 ], [ 26.0525376, 38.248350900017243 ], [ 26.0526609, 38.248325600017239 ], [ 26.0528004, 38.248384600017246 ], [ 26.0529345, 38.248405700017237 ], [ 26.053192, 38.248350900017243 ], [ 26.0532242, 38.248300300017227 ], [ 26.0531652, 38.248216100017217 ], [ 26.0530794, 38.248148700017211 ], [ 26.0530257, 38.248060200017193 ], [ 26.0529131, 38.247925400017166 ], [ 26.0528165, 38.247803200017159 ], [ 26.0527843, 38.247685300017153 ], [ 26.0527253, 38.247601000017134 ], [ 26.0497266, 38.248645800017293 ], [ 26.0498232, 38.248763800017294 ] ] ] } },
{ "type": "Feature", "properties": { "osm_id": 180437823, "name": "Kini", "label": "landuse:residential", "building": null, "water": null, "natural": null, "landuse": "residential", "amenity": null, "waterway": null }, "geometry": { "type": "Polygon", "coordinates": [ [ [ 26.0705735, 38.249100300017354 ], [ 26.0692383, 38.251355500017674 ], [ 26.0682565, 38.252041600017762 ], [ 26.0680832, 38.252162700017799 ], [ 26.0692912, 38.253277800017941 ], [ 26.070611288167537, 38.252438411910063 ], [ 26.070611288167537, 38.24908927034155 ], [ 26.0705735, 38.249100300017354 ] ] ] } },
{ "type": "Feature", "properties": { "osm_id": 402225984, "name": null, "label": "amenity:place_of_worship;building:yes", "building": "yes", "water": null, "natural": null, "landuse": null, "amenity": "place_of_worship", "waterway": null }, "geometry": { "type": "Polygon", "coordinates": [ [ [ 26.0701953, 38.250767500017588 ], [ 26.0701846, 38.250796000017594 ], [ 26.0704354, 38.250850700017594 ], [ 26.070477, 38.250742300017578 ], [ 26.0702329, 38.250692800017582 ], [ 26.0702195, 38.250724400017589 ], [ 26.0702007, 38.250730700017577 ], [ 26.0701846, 38.250741200017579 ], [ 26.0701792, 38.250753800017584 ], [ 26.0701953, 38.250767500017588 ] ] ] } },
{ "type": "Feature", "properties": { "osm_id": 416578065, "name": null, "label": "building:yes", "building": "yes", "water": null, "natural": null, "landuse": null, "amenity": null, "waterway": null }, "geometry": { "type": "Polygon", "coordinates": [ [ [ 26.0447835, 38.26165100001915 ], [ 26.044922, 38.261590500019139 ], [ 26.0448476, 38.26148550001912 ], [ 26.0447091, 38.261546000019138 ], [ 26.0447835, 38.26165100001915 ] ] ] } },
{ "type": "Feature", "properties": { "osm_id": 402169629, "name": "Φράγμα Καλαμωτής", "label": "waterway:dam", "building": null, "water": null, "natural": null, "landuse": null, "amenity": null, "waterway": "dam" }, "geometry": { "type": "LineString", "coordinates": [ [ 26.048998, 38.248551100017274 ], [ 26.0526458, 38.247312500017088 ] ] } },
{ "type": "Feature", "properties": { "osm_id": 405528652, "name": "Κατράρης", "label": "waterway:stream", "building": null, "water": null, "natural": null, "landuse": null, "amenity": null, "waterway": "stream" }, "geometry": { "type": "LineString", "coordinates": [ [ 26.053331799822022, 38.264266272715837 ], [ 26.0533348, 38.264186400019504 ], [ 26.0533348, 38.26406210001948 ], [ 26.0533482, 38.263866300019451 ], [ 26.0533643, 38.263461900019387 ], [ 26.0533402, 38.263074400019356 ], [ 26.0533321, 38.262838600019315 ], [ 26.0532919, 38.26247000001927 ], [ 26.053249, 38.262088800019207 ], [ 26.0532168, 38.261695000019145 ], [ 26.0532088, 38.261395900019096 ], [ 26.0532275, 38.261318000019081 ], [ 26.0532785, 38.261206400019084 ], [ 26.0533482, 38.261040000019051 ], [ 26.0533643, 38.260934700019035 ], [ 26.0533482, 38.260823100019032 ], [ 26.0533134, 38.260715700019006 ], [ 26.0532463, 38.260585100018986 ], [ 26.0531712, 38.260410300018961 ], [ 26.0531229, 38.260214400018945 ], [ 26.0531095, 38.260132300018931 ], [ 26.0531337, 38.259812200018878 ], [ 26.0531658, 38.25963740001886 ], [ 26.0532195, 38.259513100018836 ], [ 26.0533563, 38.259357200018812 ], [ 26.0534716, 38.259239300018798 ], [ 26.0535709, 38.259081300018785 ], [ 26.0536084, 38.258978100018751 ], [ 26.0535869, 38.258870700018747 ], [ 26.0535494, 38.258792800018739 ], [ 26.0534609, 38.258733800018732 ], [ 26.0532919, 38.258687500018716 ], [ 26.05308, 38.258620100018703 ], [ 26.0529003, 38.258569600018703 ], [ 26.0528145, 38.258529500018703 ], [ 26.0527608, 38.258483200018695 ], [ 26.0526187, 38.258318900018665 ], [ 26.0525033, 38.258131500018642 ], [ 26.052439, 38.257950300018607 ], [ 26.0524255, 38.2578050000186 ], [ 26.0523531, 38.257546000018557 ], [ 26.0522646, 38.25738380001853 ], [ 26.0520903, 38.257154200018498 ], [ 26.0519803, 38.25706150001848 ], [ 26.0518435, 38.256947800018473 ], [ 26.0517657, 38.256825700018453 ], [ 26.0516739, 38.256645500018429 ] ] } },
{ "type": "Feature", "properties": { "osm_id": 1338824344, "name": "REVOIL", "label": "amenity:fuel", "building": null, "water": null, "natural": null, "landuse": null, "amenity": "fuel", "waterway": null }, "geometry": { "type": "Point", "coordinates": [ 26.0677331, 38.252089600017769 ] } }
]
}
