{
"type": "FeatureCollection",
"name": "patch_83188_polygon",
"crs": { "type": "name", "properties": { "name": "urn:ogc:def:crs:OGC:1.3:CRS84" } },
"features": [
{ "type": "Feature", "properties": { "element": "relation", "id": 4016746, "amenity": null, "name": "Balkans", "name:ar": "البلقان", "source": null, "wikidata": "Q23522", "wikipedia": "en:Balkans", "natural": "peninsula", "name:de": "Balkan", "name:en": "Balkans", "alt_name:cs": "Balkánský poloostrov", "name:bg": "Балкански полуостров", "name:cs": "Balkán", "name:es": "Balcanes", "name:fr": "Balkans", "name:hu": "Balkán", "name:it": "Balcani", "name:nn": "Balkan", "name:pl": "Bałkany", "name:pt": "Bálcãs", "name:ru": "Балканы", "name:zh": "巴尔干半岛 / 巴爾幹半島", "name:sr": "Балкан", "name:sr-Latn": "Balkan", "name:cnr": "Balkan", "name:cnr-Cyrl": "Балкан", "alt_name": "Balkan Peninsula", "name:sl": "Balkan", "name:el": "Βαλκάνια", "name:cnr-Latn": "Balkan", "name:mk": "Балкан", "surface": null, "name:hr": "Balkan", "name:tr": "Balkanlar", "name:uk": "Балкани", "name:sq": "Ballkani", "name:ro": "Balcani", "alt_name:en": "Balkan Peninsula", "alt_name:sl": "Balkanski polotok", "alt_name:it": "Penisola balcanica", "boundary": "land_area", "name:br": "Balkanioù", "name:eu": "Balkanak", "name:nl": "Balkan", "name:sk": "Balkán", "name:ku": "Balkan", "name:fur": "Balcans", "name:bs": "Balkan", "name:fa": "بالکان", "name:ml": "ബാൾക്കൻ", "alt_name:sr": "Балканско полуострво", "alt_name:sr-Latn": "Balkansko poluostrvo", "alt_name:el": "Βαλκανική χερσόνησος", "name:be": "Балкан", "name:gl": "Os Balcáns", "name:he": "הַבַּלְקָן", "name:hsb": "Balkan", "name:hy": "Բալկանյան", "name:ja": "バルカン半島", "name:ka": "ბალკანეთის ნახევარკუნძული", "name:ko": "발칸 반도", "name:la": "Balcania", "name:mn": "Балкан", "name:mr": "बाल्कन", "name:pnb": "بلقان", "name:ta": "பால்கன் குடா", "name:th": "บอลข่าน", "name:ur": "بلقان", "name:zh-Hans": "巴尔干半岛", "name:zh-Hant": "巴爾幹半島", "name:sv": "Balkanhalvön", "name:szl": "Bałkany", "name:an": "Balcans", "name:ca": "Balcans", "name:lmo": "Balcan", "name:lt": "Balkanai", "name:sh": "Balkan", "name:vec": "Balcani", "landuse": null, "type": "boundary", "alt_name:af": "Balkanskiereiland", "alt_name:an": "Peninsula Balcanica", "alt_name:ast": "Península Balcánica", "alt_name:az": "Balkan yarımadası", "alt_name:be": "Балканскі паўвостраў", "alt_name:bg": "Балканите", "alt_name:bn": "বলকান অঞ্চল", "alt_name:ce": "Балканийн ахгӀайре", "alt_name:cnr": "Balkansko poluostrvo", "alt_name:crh": "Balqan yarımadası", "alt_name:cv": "Балкан çурутравĕ", "alt_name:da": "Balkanhalvøen", "alt_name:de": "Balkanhalbinsel", "alt_name:dsb": "Balkańska połkupa", "alt_name:eo": "Balkana duoninsulo", "alt_name:es": "Península balcánica", "alt_name:et": "Balkani poolsaar", "alt_name:eu": "Balkanetako penintsula", "alt_name:fo": "Balkanhálvoyggin", "alt_name:fur": "Peninsule balcaniche", "alt_name:fy": "Balkanskiereilân", "alt_name:ga": "na Stáit Bhalcánacha", "alt_name:gag": "Balkan yarımadası", "alt_name:gl": "Península Balcánica", "alt_name:gsw": "Balkanhalbinsle", "alt_name:gv": "ny Çheeraghyn Balkanagh", "alt_name:he": "חֶבֶל הַבַּלְקָן", "alt_name:hi": "बाल्कन प्रायद्वीप", "alt_name:hr": "Balkanski poluotok", "alt_name:hsb": "Balkanska połkupa", "alt_name:hu": "Balkán-félsziget", "alt_name:hy": "Բալկանյան թերակղզի", "alt_name:kk": "Балқан түбегі", "alt_name:ku": "Nîvgirava Balkanê", "alt_name:lad": "Peninsola Balkanika", "alt_name:lb": "Balkanhallefinsel", "alt_name:li": "Balkansjiereiland", "alt_name:lt": "Balkanų pusiasalis", "alt_name:lv": "Balkānu pussala", "alt_name:mk": "Балканскиот Полуостров", "alt_name:mn": "Балканы хойг", "alt_name:nap": "Penisula balcaneca", "alt_name:nl": "Balkanschiereiland", "alt_name:os": "Балканы æрдæгсакъадах", "alt_name:pl": "Półwysep Bałkański", "alt_name:pnt": "Βαλκανικόν η χερσόνησος", "alt_name:pt": "Península Balcânica", "alt_name:ro": "Peninsula Balcanică", "alt_name:ru": "Балканский полуостров", "alt_name:scn": "Pinìsula balcànica", "alt_name:sco": "Balkan Peninsulae", "alt_name:sk": "Balkánsky polostrov", "alt_name:sq": "Gadishulli Ballkanik", "alt_name:sw": "Rasi ya Balkani", "alt_name:szl": "Boukany", "alt_name:ta": "பால்கன் தீபகற்பம்", "alt_name:th": "คาบสมุทรบอลข่าน", "alt_name:tk": "Balkan ýarymadasy", "alt_name:tr": "Balkan Yarımadası", "alt_name:tt": "Балкан ярымутравы", "alt_name:uk": "Балка́нський півострів", "alt_name:vec": "Penìxoła balcànega", "alt_name:yi": "באלקאן לענדער", "alt_name:za": "Bahwjgan buendauj", "name:af": "Balkan", "name:arz": "البلقان", "name:ast": "Balcanes", "name:az": "Balkanlar", "name:ckb": "بالکان", "name:crh": "Balqanlar", "name:cy": "Balcanau", "name:da": "Balkan", "name:dsb": "Balkan", "name:et": "Balkan", "name:fi": "Balkan", "name:fo": "Balkan", "name:frp": "Balcans", "name:fy": "Balkan", "name:ga": "na Balcáin", "name:gag": "Balkannar", "name:gd": "na Balcain", "name:gsw": "Balkan", "name:gv": "Balkanagh", "name:hi": "बाल्कन", "name:id": "Balkan", "name:is": "Balkanskagi", "name:jv": "Balkan", "name:kk": "Балқан", "name:lad": "Balkanos", "name:lb": "Balkan", "name:li": "Balkan", "name:lv": "Balkāni", "name:mg": "Balkana", "name:ms": "Balkan", "name:nap": "Balcane", "name:new": "बाल्कन", "name:no": "Balkan", "name:nrm": "Balkans", "name:oc": "Balcans", "name:os": "Балканы", "name:pa": "ਬਾਲਕਨ", "name:pnt": "Βαλκάνια", "name:ps": "بالکان", "name:sah": "Балканнар", "name:sc": "Balcànus", "name:scn": "Balcani", "name:sco": "Balkans", "name:se": "Balkannjárgga", "name:sw": "Balkani", "name:tk": "Balkan", "name:tl": "Balkan", "name:tt": "Балкан", "name:ug": "بالقانلار", "name:vi": "Balkan", "name:war": "Balkan", "name_with_accent:ru": "Балка́нский полуо́стров", "label": "natural:peninsula" }, "geometry": { "type": "Polygon", "coordinates": [ [ [ 23.7782395, 40.7672797 ], [ 23.7772908, 40.7666115 ], [ 23.7758039, 40.7655415 ], [ 23.775051, 40.7649077 ], [ 23.7740639, 40.7641213 ], [ 23.7723963, 40.7628407 ], [ 23.771867465193456, 40.762397947026216 ], [ 23.771867465193456, 40.76818770242356 ], [ 23.779780079710779, 40.76818770242356 ], [ 23.7782395, 40.7672797 ] ] ] } },
{ "type": "Feature", "properties": { "element": "way", "id": 235207988, "amenity": null, "name": "Κυανή Ακτή", "name:ar": null, "source": null, "wikidata": null, "wikipedia": null, "natural": "beach", "name:de": null, "name:en": null, "alt_name:cs": null, "name:bg": null, "name:cs": null, "name:es": null, "name:fr": null, "name:hu": null, "name:it": null, "name:nn": null, "name:pl": null, "name:pt": null, "name:ru": null, "name:zh": null, "name:sr": null, "name:sr-Latn": null, "name:cnr": null, "name:cnr-Cyrl": null, "alt_name": null, "name:sl": null, "name:el": null, "name:cnr-Latn": null, "name:mk": null, "surface": "sand", "name:hr": null, "name:tr": null, "name:uk": null, "name:sq": null, "name:ro": null, "alt_name:en": null, "alt_name:sl": null, "alt_name:it": null, "boundary": null, "name:br": null, "name:eu": null, "name:nl": null, "name:sk": null, "name:ku": null, "name:fur": null, "name:bs": null, "name:fa": null, "name:ml": null, "alt_name:sr": null, "alt_name:sr-Latn": null, "alt_name:el": null, "name:be": null, "name:gl": null, "name:he": null, "name:hsb": null, "name:hy": null, "name:ja": null, "name:ka": null, "name:ko": null, "name:la": null, "name:mn": null, "name:mr": null, "name:pnb": null, "name:ta": null, "name:th": null, "name:ur": null, "name:zh-Hans": null, "name:zh-Hant": null, "name:sv": null, "name:szl": null, "name:an": null, "name:ca": null, "name:lmo": null, "name:lt": null, "name:sh": null, "name:vec": null, "landuse": null, "type": null, "alt_name:af": null, "alt_name:an": null, "alt_name:ast": null, "alt_name:az": null, "alt_name:be": null, "alt_name:bg": null, "alt_name:bn": null, "alt_name:ce": null, "alt_name:cnr": null, "alt_name:crh": null, "alt_name:cv": null, "alt_name:da": null, "alt_name:de": null, "alt_name:dsb": null, "alt_name:eo": null, "alt_name:es": null, "alt_name:et": null, "alt_name:eu": null, "alt_name:fo": null, "alt_name:fur": null, "alt_name:fy": null, "alt_name:ga": null, "alt_name:gag": null, "alt_name:gl": null, "alt_name:gsw": null, "alt_name:gv": null, "alt_name:he": null, "alt_name:hi": null, "alt_name:hr": null, "alt_name:hsb": null, "alt_name:hu": null, "alt_name:hy": null, "alt_name:kk": null, "alt_name:ku": null, "alt_name:lad": null, "alt_name:lb": null, "alt_name:li": null, "alt_name:lt": null, "alt_name:lv": null, "alt_name:mk": null, "alt_name:mn": null, "alt_name:nap": null, "alt_name:nl": null, "alt_name:os": null, "alt_name:pl": null, "alt_name:pnt": null, "alt_name:pt": null, "alt_name:ro": null, "alt_name:ru": null, "alt_name:scn": null, "alt_name:sco": null, "alt_name:sk": null, "alt_name:sq": null, "alt_name:sw": null, "alt_name:szl": null, "alt_name:ta": null, "alt_name:th": null, "alt_name:tk": null, "alt_name:tr": null, "alt_name:tt": null, "alt_name:uk": null, "alt_name:vec": null, "alt_name:yi": null, "alt_name:za": null, "name:af": null, "name:arz": null, "name:ast": null, "name:az": null, "name:ckb": null, "name:crh": null, "name:cy": null, "name:da": null, "name:dsb": null, "name:et": null, "name:fi": null, "name:fo": null, "name:frp": null, "name:fy": null, "name:ga": null, "name:gag": null, "name:gd": null, "name:gsw": null, "name:gv": null, "name:hi": null, "name:id": null, "name:is": null, "name:jv": null, "name:kk": null, "name:lad": null, "name:lb": null, "name:li": null, "name:lv": null, "name:mg": null, "name:ms": null, "name:nap": null, "name:new": null, "name:no": null, "name:nrm": null, "name:oc": null, "name:os": null, "name:pa": null, "name:pnt": null, "name:ps": null, "name:sah": null, "name:sc": null, "name:scn": null, "name:sco": null, "name:se": null, "name:sw": null, "name:tk": null, "name:tl": null, "name:tt": null, "name:ug": null, "name:vi": null, "name:war": null, "name_with_accent:ru": null, "label": "natural:beach" }, "geometry": { "type": "Polygon", "coordinates": [ [ [ 23.7730728, 40.7638604 ], [ 23.7741741, 40.7646994 ], [ 23.7764202, 40.7662982 ], [ 23.7772908, 40.7666115 ], [ 23.7758039, 40.7655415 ], [ 23.775051, 40.7649077 ], [ 23.7740639, 40.7641213 ], [ 23.7723963, 40.7628407 ], [ 23.771867465193456, 40.762397947026216 ], [ 23.771867465193456, 40.76283116070897 ], [ 23.7730728, 40.7638604 ] ] ] } },
{ "type": "Feature", "properties": { "element": "way", "id": 1289164607, "amenity": null, "name": null, "name:ar": null, "source": null, "wikidata": null, "wikipedia": null, "natural": null, "name:de": null, "name:en": null, "alt_name:cs": null, "name:bg": null, "name:cs": null, "name:es": null, "name:fr": null, "name:hu": null, "name:it": null, "name:nn": null, "name:pl": null, "name:pt": null, "name:ru": null, "name:zh": null, "name:sr": null, "name:sr-Latn": null, "name:cnr": null, "name:cnr-Cyrl": null, "alt_name": null, "name:sl": null, "name:el": null, "name:cnr-Latn": null, "name:mk": null, "surface": null, "name:hr": null, "name:tr": null, "name:uk": null, "name:sq": null, "name:ro": null, "alt_name:en": null, "alt_name:sl": null, "alt_name:it": null, "boundary": null, "name:br": null, "name:eu": null, "name:nl": null, "name:sk": null, "name:ku": null, "name:fur": null, "name:bs": null, "name:fa": null, "name:ml": null, "alt_name:sr": null, "alt_name:sr-Latn": null, "alt_name:el": null, "name:be": null, "name:gl": null, "name:he": null, "name:hsb": null, "name:hy": null, "name:ja": null, "name:ka": null, "name:ko": null, "name:la": null, "name:mn": null, "name:mr": null, "name:pnb": null, "name:ta": null, "name:th": null, "name:ur": null, "name:zh-Hans": null, "name:zh-Hant": null, "name:sv": null, "name:szl": null, "name:an": null, "name:ca": null, "name:lmo": null, "name:lt": null, "name:sh": null, "name:vec": null, "landuse": "residential", "type": null, "alt_name:af": null, "alt_name:an": null, "alt_name:ast": null, "alt_name:az": null, "alt_name:be": null, "alt_name:bg": null, "alt_name:bn": null, "alt_name:ce": null, "alt_name:cnr": null, "alt_name:crh": null, "alt_name:cv": null, "alt_name:da": null, "alt_name:de": null, "alt_name:dsb": null, "alt_name:eo": null, "alt_name:es": null, "alt_name:et": null, "alt_name:eu": null, "alt_name:fo": null, "alt_name:fur": null, "alt_name:fy": null, "alt_name:ga": null, "alt_name:gag": null, "alt_name:gl": null, "alt_name:gsw": null, "alt_name:gv": null, "alt_name:he": null, "alt_name:hi": null, "alt_name:hr": null, "alt_name:hsb": null, "alt_name:hu": null, "alt_name:hy": null, "alt_name:kk": null, "alt_name:ku": null, "alt_name:lad": null, "alt_name:lb": null, "alt_name:li": null, "alt_name:lt": null, "alt_name:lv": null, "alt_name:mk": null, "alt_name:mn": null, "alt_name:nap": null, "alt_name:nl": null, "alt_name:os": null, "alt_name:pl": null, "alt_name:pnt": null, "alt_name:pt": null, "alt_name:ro": null, "alt_name:ru": null, "alt_name:scn": null, "alt_name:sco": null, "alt_name:sk": null, "alt_name:sq": null, "alt_name:sw": null, "alt_name:szl": null, "alt_name:ta": null, "alt_name:th": null, "alt_name:tk": null, "alt_name:tr": null, "alt_name:tt": null, "alt_name:uk": null, "alt_name:vec": null, "alt_name:yi": null, "alt_name:za": null, "name:af": null, "name:arz": null, "name:ast": null, "name:az": null, "name:ckb": null, "name:crh": null, "name:cy": null, "name:da": null, "name:dsb": null, "name:et": null, "name:fi": null, "name:fo": null, "name:frp": null, "name:fy": null, "name:ga": null, "name:gag": null, "name:gd": null, "name:gsw": null, "name:gv": null, "name:hi": null, "name:id": null, "name:is": null, "name:jv": null, "name:kk": null, "name:lad": null, "name:lb": null, "name:li": null, "name:lv": null, "name:mg": null, "name:ms": null, "name:nap": null, "name:new": null, "name:no": null, "name:nrm": null, "name:oc": null, "name:os": null, "name:pa": null, "name:pnt": null, "name:ps": null, "name:sah": null, "name:sc": null, "name:scn": null, "name:sco": null, "name:se": null, "name:sw": null, "name:tk": null, "name:tl": null, "name:tt": null, "name:ug": null, "name:vi": null, "name:war": null, "name_with_accent:ru": null, "label": "landuse:residential" }, "geometry": { "type": "Polygon", "coordinates": [ [ [ 23.7718872, 40.7645716 ], [ 23.7720614, 40.7646694 ], [ 23.7723486, 40.7648209 ], [ 23.7731456, 40.7651386 ], [ 23.7732683, 40.7650213 ], [ 23.7730198, 40.7647965 ], [ 23.772255, 40.7644201 ], [ 23.7718743, 40.7641855 ], [ 23.772297, 40.7638678 ], [ 23.7721066, 40.7637407 ], [ 23.771867465193456, 40.763891664784246 ], [ 23.771867465193456, 40.764571495167026 ], [ 23.7718872, 40.7645716 ] ] ] } },
{ "type": "Feature", "properties": { "element": "way", "id": 1289164608, "amenity": null, "name": null, "name:ar": null, "source": null, "wikidata": null, "wikipedia": null, "natural": null, "name:de": null, "name:en": null, "alt_name:cs": null, "name:bg": null, "name:cs": null, "name:es": null, "name:fr": null, "name:hu": null, "name:it": null, "name:nn": null, "name:pl": null, "name:pt": null, "name:ru": null, "name:zh": null, "name:sr": null, "name:sr-Latn": null, "name:cnr": null, "name:cnr-Cyrl": null, "alt_name": null, "name:sl": null, "name:el": null, "name:cnr-Latn": null, "name:mk": null, "surface": null, "name:hr": null, "name:tr": null, "name:uk": null, "name:sq": null, "name:ro": null, "alt_name:en": null, "alt_name:sl": null, "alt_name:it": null, "boundary": null, "name:br": null, "name:eu": null, "name:nl": null, "name:sk": null, "name:ku": null, "name:fur": null, "name:bs": null, "name:fa": null, "name:ml": null, "alt_name:sr": null, "alt_name:sr-Latn": null, "alt_name:el": null, "name:be": null, "name:gl": null, "name:he": null, "name:hsb": null, "name:hy": null, "name:ja": null, "name:ka": null, "name:ko": null, "name:la": null, "name:mn": null, "name:mr": null, "name:pnb": null, "name:ta": null, "name:th": null, "name:ur": null, "name:zh-Hans": null, "name:zh-Hant": null, "name:sv": null, "name:szl": null, "name:an": null, "name:ca": null, "name:lmo": null, "name:lt": null, "name:sh": null, "name:vec": null, "landuse": "residential", "type": null, "alt_name:af": null, "alt_name:an": null, "alt_name:ast": null, "alt_name:az": null, "alt_name:be": null, "alt_name:bg": null, "alt_name:bn": null, "alt_name:ce": null, "alt_name:cnr": null, "alt_name:crh": null, "alt_name:cv": null, "alt_name:da": null, "alt_name:de": null, "alt_name:dsb": null, "alt_name:eo": null, "alt_name:es": null, "alt_name:et": null, "alt_name:eu": null, "alt_name:fo": null, "alt_name:fur": null, "alt_name:fy": null, "alt_name:ga": null, "alt_name:gag": null, "alt_name:gl": null, "alt_name:gsw": null, "alt_name:gv": null, "alt_name:he": null, "alt_name:hi": null, "alt_name:hr": null, "alt_name:hsb": null, "alt_name:hu": null, "alt_name:hy": null, "alt_name:kk": null, "alt_name:ku": null, "alt_name:lad": null, "alt_name:lb": null, "alt_name:li": null, "alt_name:lt": null, "alt_name:lv": null, "alt_name:mk": null, "alt_name:mn": null, "alt_name:nap": null, "alt_name:nl": null, "alt_name:os": null, "alt_name:pl": null, "alt_name:pnt": null, "alt_name:pt": null, "alt_name:ro": null, "alt_name:ru": null, "alt_name:scn": null, "alt_name:sco": null, "alt_name:sk": null, "alt_name:sq": null, "alt_name:sw": null, "alt_name:szl": null, "alt_name:ta": null, "alt_name:th": null, "alt_name:tk": null, "alt_name:tr": null, "alt_name:tt": null, "alt_name:uk": null, "alt_name:vec": null, "alt_name:yi": null, "alt_name:za": null, "name:af": null, "name:arz": null, "name:ast": null, "name:az": null, "name:ckb": null, "name:crh": null, "name:cy": null, "name:da": null, "name:dsb": null, "name:et": null, "name:fi": null, "name:fo": null, "name:frp": null, "name:fy": null, "name:ga": null, "name:gag": null, "name:gd": null, "name:gsw": null, "name:gv": null, "name:hi": null, "name:id": null, "name:is": null, "name:jv": null, "name:kk": null, "name:lad": null, "name:lb": null, "name:li": null, "name:lv": null, "name:mg": null, "name:ms": null, "name:nap": null, "name:new": null, "name:no": null, "name:nrm": null, "name:oc": null, "name:os": null, "name:pa": null, "name:pnt": null, "name:ps": null, "name:sah": null, "name:sc": null, "name:scn": null, "name:sco": null, "name:se": null, "name:sw": null, "name:tk": null, "name:tl": null, "name:tt": null, "name:ug": null, "name:vi": null, "name:war": null, "name_with_accent:ru": null, "label": "landuse:residential" }, "geometry": { "type": "Polygon", "coordinates": [ [ [ 23.7757348, 40.7666703 ], [ 23.7762253, 40.7668121 ], [ 23.7763457, 40.7669134 ], [ 23.7764706, 40.7670688 ], [ 23.7766088, 40.7673356 ], [ 23.7769522, 40.767599 ], [ 23.7770681, 40.7676361 ], [ 23.7775765, 40.7676125 ], [ 23.778067, 40.7677003 ], [ 23.7749679, 40.7658158 ], [ 23.7748742, 40.7659374 ], [ 23.7749679, 40.7661704 ], [ 23.7751864, 40.7665521 ], [ 23.7757348, 40.7666703 ] ] ] } }
]
}
