{
"type": "FeatureCollection",
"name": "patch_522_point",
"crs": { "type": "name", "properties": { "name": "urn:ogc:def:crs:OGC:1.3:CRS84" } },
"features": [
{ "type": "Feature", "properties": { "osm_id": 7846033610, "name": null, "label": "tourism:camp_site", "tourism": "camp_site", "amenity": null, "natural": null, "leisure": null }, "geometry": { "type": "Point", "coordinates": [ 21.1349455, 39.444844500189937 ] } },
{ "type": "Feature", "properties": { "osm_id": 7846033609, "name": null, "label": "amenity:drinking_water", "tourism": null, "amenity": "drinking_water", "natural": null, "leisure": null }, "geometry": { "type": "Point", "coordinates": [ 21.1352414, 39.445056300189975 ] } },
{ "type": "Feature", "properties": { "osm_id": 6427648017, "name": "Σχισμένο Λιθάρι", "label": "natural:peak", "tourism": null, "amenity": null, "natural": "peak", "leisure": null }, "geometry": { "type": "Point", "coordinates": [ 21.1438547, 39.448058700190401 ] } },
{ "type": "Feature", "properties": { "osm_id": 7041083982, "name": null, "label": "leisure:picnic_table", "tourism": null, "amenity": null, "natural": null, "leisure": "picnic_table" }, "geometry": { "type": "Point", "coordinates": [ 21.1187916, 39.439029600189102 ] } },
{ "type": "Feature", "properties": { "osm_id": 7041072642, "name": null, "label": "amenity:drinking_water", "tourism": null, "amenity": "drinking_water", "natural": null, "leisure": null }, "geometry": { "type": "Point", "coordinates": [ 21.1187789, 39.439059000189111 ] } },
{ "type": "Feature", "properties": { "osm_id": 7041084793, "name": null, "label": "leisure:picnic_table", "tourism": null, "amenity": null, "natural": null, "leisure": "picnic_table" }, "geometry": { "type": "Point", "coordinates": [ 21.1187143, 39.439108100189117 ] } }
]
}
