{
"type": "FeatureCollection",
"name": "patch_522_polygon",
"crs": { "type": "name", "properties": { "name": "urn:ogc:def:crs:OGC:1.3:CRS84" } },
"features": [
{ "type": "Feature", "properties": { "osm_id": 907973415, "name": null, "label": "natural:wood", "natural": "wood", "water": null, "amenity": null, "building": null, "tourism": null }, "geometry": { "type": "Polygon", "coordinates": [ [ [ 21.1170355, 39.444248000189859 ], [ 21.1170355, 39.444398400189861 ], [ 21.116938571398748, 39.444461430542837 ], [ 21.116938571398748, 39.445813800190088 ], [ 21.1171386, 39.445813800190088 ], [ 21.1174938, 39.445981900190098 ], [ 21.1177572, 39.445981900190098 ], [ 21.1179864, 39.445928800190089 ], [ 21.1183873, 39.445973000190101 ], [ 21.1187539, 39.446061500190112 ], [ 21.119109, 39.446052700190116 ], [ 21.118983, 39.445787300190069 ], [ 21.118983, 39.445628000190048 ], [ 21.1191434, 39.445415700190019 ], [ 21.1192809, 39.445194600189986 ], [ 21.1192236, 39.445017600189971 ], [ 21.1195329, 39.44500880018996 ], [ 21.1197505, 39.444805300189934 ], [ 21.1200484, 39.444734500189924 ], [ 21.1203004, 39.444769900189932 ], [ 21.1207128, 39.444867200189933 ], [ 21.1210565, 39.44500880018996 ], [ 21.121446, 39.445141500189976 ], [ 21.1217095, 39.444955700189944 ], [ 21.1220875, 39.445026500189954 ], [ 21.1223854, 39.445061900189963 ], [ 21.1226145, 39.445265300190009 ], [ 21.1229467, 39.445389200190014 ], [ 21.1229238, 39.445495300190039 ], [ 21.1226374, 39.445424600190023 ], [ 21.1224656, 39.44563690019006 ], [ 21.1229467, 39.445902300190092 ], [ 21.1229811, 39.446026100190117 ], [ 21.1233018, 39.446035000190122 ], [ 21.1235997, 39.445937700190107 ], [ 21.123909, 39.445849200190075 ], [ 21.124035, 39.445557300190032 ], [ 21.1238059, 39.445309600189994 ], [ 21.1234851, 39.445176900189992 ], [ 21.1232675, 39.444946800189953 ], [ 21.1231873, 39.444637200189916 ], [ 21.1231987, 39.444309900189857 ], [ 21.123004, 39.444071000189822 ], [ 21.1229696, 39.443841000189799 ], [ 21.1230154, 39.443434100189734 ], [ 21.122729, 39.443557900189759 ], [ 21.1223052, 39.44378790018979 ], [ 21.121824, 39.444274500189863 ], [ 21.1214804, 39.444451400189884 ], [ 21.1208961, 39.444212600189843 ], [ 21.1205868, 39.444071000189822 ], [ 21.1205868, 39.4438587001898 ], [ 21.1207701, 39.443549100189749 ], [ 21.1209992, 39.443478300189753 ], [ 21.1212856, 39.443531400189741 ], [ 21.1215262, 39.443363300189723 ], [ 21.121446, 39.44315980018969 ], [ 21.1213429, 39.442903300189677 ], [ 21.1210107, 39.442806000189648 ], [ 21.1204723, 39.442664400189621 ], [ 21.1199682, 39.442460900189602 ], [ 21.1192236, 39.442469800189592 ], [ 21.118731, 39.442425500189586 ], [ 21.1181353, 39.442310500189571 ], [ 21.1176427, 39.44235480018957 ], [ 21.1173677, 39.442425500189586 ], [ 21.1171959, 39.44259360018961 ], [ 21.1172303, 39.442885600189662 ], [ 21.1173792, 39.443124400189703 ], [ 21.1174479, 39.443319100189719 ], [ 21.1173677, 39.443487200189743 ], [ 21.1170928, 39.443487200189743 ], [ 21.1169553, 39.443274800189734 ], [ 21.116938571398748, 39.443304531845641 ], [ 21.116938571398748, 39.443704175664358 ], [ 21.1171501, 39.443867600189805 ], [ 21.1170699, 39.443947200189804 ], [ 21.116938571398748, 39.443953963403146 ], [ 21.116938571398748, 39.444204808728735 ], [ 21.1170355, 39.444248000189859 ] ] ] } },
{ "type": "Feature", "properties": { "osm_id": 753593886, "name": null, "label": "water:reservoir;natural:water", "natural": "water", "water": "reservoir", "amenity": null, "building": null, "tourism": null }, "geometry": { "type": "Polygon", "coordinates": [ [ [ 21.1190891, 39.439232700189137 ], [ 21.1190927, 39.43919400018914 ], [ 21.1190484, 39.439191500189132 ], [ 21.1190448, 39.439230300189138 ], [ 21.1190891, 39.439232700189137 ] ] ] } },
{ "type": "Feature", "properties": { "osm_id": 753596054, "name": null, "label": "amenity:shelter;building:yes", "natural": null, "water": null, "amenity": "shelter", "building": "yes", "tourism": null }, "geometry": { "type": "Polygon", "coordinates": [ [ [ 21.1187907, 39.439118100189127 ], [ 21.1187941, 39.439085700189125 ], [ 21.118753, 39.439083100189123 ], [ 21.1187495, 39.439115500189118 ], [ 21.1187907, 39.439118100189127 ] ] ] } },
{ "type": "Feature", "properties": { "osm_id": 753594018, "name": "Προφήτης Ηλίας", "label": "amenity:place_of_worship;building:chapel", "natural": null, "water": null, "amenity": "place_of_worship", "building": "chapel", "tourism": null }, "geometry": { "type": "Polygon", "coordinates": [ [ [ 21.1183038, 39.439047700189114 ], [ 21.1184174, 39.439047400189111 ], [ 21.1184172, 39.43899140018911 ], [ 21.1183036, 39.438991600189119 ], [ 21.1183038, 39.439047700189114 ] ] ] } },
{ "type": "Feature", "properties": { "osm_id": 840860654, "name": "Καταφύγιο Καταρράκτη \"Μπάμπης Τσουπράς\"", "label": "tourism:alpine_hut;building:yes", "natural": null, "water": null, "amenity": null, "building": "yes", "tourism": "alpine_hut" }, "geometry": { "type": "Polygon", "coordinates": [ [ [ 21.1349113, 39.445070800189967 ], [ 21.1349022, 39.445111800189977 ], [ 21.1350737, 39.44513760018998 ], [ 21.1351192, 39.444985300189956 ], [ 21.1349022, 39.444947800189951 ], [ 21.1348613, 39.445061400189978 ], [ 21.1349113, 39.445070800189967 ] ] ] } },
{ "type": "Feature", "properties": { "osm_id": 840859844, "name": null, "label": "building:yes", "natural": null, "water": null, "amenity": null, "building": "yes", "tourism": null }, "geometry": { "type": "Polygon", "coordinates": [ [ [ 21.1331115, 39.430735100187938 ], [ 21.1331631, 39.430678900187928 ], [ 21.1330842, 39.430641400187916 ], [ 21.1330357, 39.430709300187928 ], [ 21.1331115, 39.430735100187938 ] ] ] } },
{ "type": "Feature", "properties": { "osm_id": 840859843, "name": null, "label": "building:stable", "natural": null, "water": null, "amenity": null, "building": "stable", "tourism": null }, "geometry": { "type": "Polygon", "coordinates": [ [ [ 21.1327474, 39.430587500187904 ], [ 21.1328384, 39.430517100187906 ], [ 21.1326442, 39.430334300187866 ], [ 21.1325349, 39.430418700187872 ], [ 21.1327474, 39.430587500187904 ] ] ] } },
{ "type": "Feature", "properties": { "osm_id": 541605067, "name": null, "label": "natural:scree", "natural": "scree", "water": null, "amenity": null, "building": null, "tourism": null }, "geometry": { "type": "Polygon", "coordinates": [ [ [ 21.1216875, 39.426449100187313 ], [ 21.121931, 39.426661000187366 ], [ 21.1220592, 39.426596100187339 ], [ 21.1221982, 39.426656500187342 ], [ 21.122314, 39.426760600187357 ], [ 21.1224915, 39.426759900187371 ], [ 21.1226408, 39.426808700187379 ], [ 21.1226117, 39.426945200187383 ], [ 21.1226259, 39.4271151001874 ], [ 21.1228184, 39.42711580018743 ], [ 21.122959, 39.427186800187414 ], [ 21.1231159, 39.427099100187412 ], [ 21.1232295, 39.426961200187392 ], [ 21.1232998, 39.426760700187351 ], [ 21.1234026, 39.426618600187354 ], [ 21.1234783, 39.426760700187351 ], [ 21.1235919, 39.426785700187374 ], [ 21.1235865, 39.426919400187387 ], [ 21.1234999, 39.427090700187421 ], [ 21.1235053, 39.42724530018743 ], [ 21.1235865, 39.427408300187466 ], [ 21.1236514, 39.427220300187422 ], [ 21.1237434, 39.427090700187421 ], [ 21.1237704, 39.426923600187386 ], [ 21.1237325, 39.426739800187356 ], [ 21.1237434, 39.426610200187341 ], [ 21.1238353, 39.426501600187329 ], [ 21.1239327, 39.426347000187299 ], [ 21.1239002, 39.426205000187274 ], [ 21.1237488, 39.42598770018725 ], [ 21.1236514, 39.425824700187228 ], [ 21.1233431, 39.425737000187212 ], [ 21.1230726, 39.425645100187204 ], [ 21.1226946, 39.425642200187205 ], [ 21.1225027, 39.425607000187199 ], [ 21.1222784, 39.425672100187199 ], [ 21.1220569, 39.425794000187224 ], [ 21.1217028, 39.425852800187229 ], [ 21.1213702, 39.425836500187231 ], [ 21.1212461, 39.425954200187249 ], [ 21.1214631, 39.425955600187237 ], [ 21.1216419, 39.426044100187262 ], [ 21.1217692, 39.426142600187269 ], [ 21.1217883, 39.426241100187291 ], [ 21.1215743, 39.426196700187276 ], [ 21.1214819, 39.426224800187285 ], [ 21.1212142, 39.426171900187278 ], [ 21.1216875, 39.426449100187313 ] ] ] } },
{ "type": "Feature", "properties": { "osm_id": -7742955, "name": null, "label": "natural:scree", "natural": "scree", "water": null, "amenity": null, "building": null, "tourism": null }, "geometry": { "type": "MultiPolygon", "coordinates": [ [ [ [ 21.1230297, 39.425460900187169 ], [ 21.123093515442346, 39.425427342076162 ], [ 21.122963363464482, 39.425427342076162 ], [ 21.1230297, 39.425460900187169 ] ] ], [ [ [ 21.121868, 39.425443300187162 ], [ 21.1220348, 39.425497200187181 ], [ 21.1222639, 39.425480800187181 ], [ 21.12239028963452, 39.425427342076162 ], [ 21.121983903995869, 39.425427342076162 ], [ 21.121868, 39.425443300187162 ] ] ], [ [ [ 21.117004, 39.425782200187221 ], [ 21.1170909, 39.42580730018723 ], [ 21.1171006, 39.425902300187225 ], [ 21.1170331, 39.425943200187241 ], [ 21.1170333, 39.426062200187268 ], [ 21.1171302, 39.426158600187279 ], [ 21.1173048, 39.426202200187277 ], [ 21.1177134, 39.426083400187267 ], [ 21.1180321, 39.425747000187215 ], [ 21.11808431546682, 39.425427342076162 ], [ 21.116938571398748, 39.425427342076162 ], [ 21.116938571398748, 39.425806989914321 ], [ 21.117004, 39.425782200187221 ] ] ] ] } },
{ "type": "Feature", "properties": { "osm_id": 136530782, "name": null, "label": "natural:wood", "natural": "wood", "water": null, "amenity": null, "building": null, "tourism": null }, "geometry": { "type": "Polygon", "coordinates": [ [ [ 21.1180321, 39.425747000187215 ], [ 21.1177134, 39.426083400187267 ], [ 21.1173048, 39.426202200187277 ], [ 21.1171302, 39.426158600187279 ], [ 21.1170333, 39.426062200187268 ], [ 21.1170331, 39.425943200187241 ], [ 21.1171006, 39.425902300187225 ], [ 21.1170909, 39.42580730018723 ], [ 21.117004, 39.425782200187221 ], [ 21.116938571398748, 39.425806989914321 ], [ 21.116938571398748, 39.428369692720807 ], [ 21.117871, 39.428970000187682 ], [ 21.119887, 39.429765000187786 ], [ 21.12125, 39.428735000187643 ], [ 21.12189, 39.427945000187542 ], [ 21.122351, 39.427284000187434 ], [ 21.1226259, 39.4271151001874 ], [ 21.1226117, 39.426945200187383 ], [ 21.1226408, 39.426808700187379 ], [ 21.1224915, 39.426759900187371 ], [ 21.122314, 39.426760600187357 ], [ 21.1221982, 39.426656500187342 ], [ 21.1220592, 39.426596100187339 ], [ 21.121931, 39.426661000187366 ], [ 21.1216875, 39.426449100187313 ], [ 21.1212142, 39.426171900187278 ], [ 21.1214819, 39.426224800187285 ], [ 21.1215743, 39.426196700187276 ], [ 21.1217883, 39.426241100187291 ], [ 21.1217692, 39.426142600187269 ], [ 21.1216419, 39.426044100187262 ], [ 21.1214631, 39.425955600187237 ], [ 21.1212461, 39.425954200187249 ], [ 21.1213702, 39.425836500187231 ], [ 21.1217028, 39.425852800187229 ], [ 21.1220569, 39.425794000187224 ], [ 21.1222784, 39.425672100187199 ], [ 21.1225027, 39.425607000187199 ], [ 21.1226946, 39.425642200187205 ], [ 21.1230297, 39.425460900187169 ], [ 21.122963363464482, 39.425427342076162 ], [ 21.12239028963452, 39.425427342076162 ], [ 21.1222639, 39.425480800187181 ], [ 21.1220348, 39.425497200187181 ], [ 21.121868, 39.425443300187162 ], [ 21.121983903995869, 39.425427342076162 ], [ 21.11808431546682, 39.425427342076162 ], [ 21.1180321, 39.425747000187215 ] ] ] } }
]
}
