{
"type": "FeatureCollection",
"name": "patch_522_linestring",
"crs": { "type": "name", "properties": { "name": "urn:ogc:def:crs:OGC:1.3:CRS84" } },
"features": [
{ "type": "Feature", "properties": { "osm_id": 1195597480, "name": null, "label": "waterway:stream", "waterway": "stream", "natural": null }, "geometry": { "type": "LineString", "coordinates": [ [ 21.1252069, 39.441629900189483 ], [ 21.1251271, 39.441712400189502 ], [ 21.1249293, 39.441786300189491 ], [ 21.1248719, 39.44187870018952 ], [ 21.1246471, 39.441889800189522 ], [ 21.1245123, 39.441937200189528 ], [ 21.1243218, 39.442049000189535 ], [ 21.1240482, 39.442136000189549 ], [ 21.1238524, 39.442285200189573 ], [ 21.1236057, 39.442506800189598 ], [ 21.1233911, 39.442666300189629 ], [ 21.1232007, 39.442778200189643 ], [ 21.1229914, 39.442881700189659 ], [ 21.1227179, 39.442780200189652 ], [ 21.1223987, 39.442714000189625 ], [ 21.1221895, 39.442734700189632 ], [ 21.1220446, 39.442759500189638 ], [ 21.1218783, 39.442666300189629 ], [ 21.1216879, 39.44273260018965 ], [ 21.1214438, 39.442811300189653 ], [ 21.1211514, 39.442747100189642 ], [ 21.1207357, 39.442587600189619 ], [ 21.1204058, 39.442465400189604 ], [ 21.1201027, 39.442351500189595 ], [ 21.1196521, 39.442260300189567 ], [ 21.1193544, 39.442181600189549 ], [ 21.1191907, 39.442237500189563 ], [ 21.1187884, 39.442260300189567 ], [ 21.118606, 39.442227200189571 ], [ 21.1183029, 39.44213810018956 ], [ 21.1179274, 39.442003500189536 ], [ 21.1176297, 39.442015900189539 ], [ 21.11734, 39.442140200189556 ], [ 21.1171335, 39.442305900189574 ], [ 21.116938571398748, 39.442460859947673 ] ] } },
{ "type": "Feature", "properties": { "osm_id": 840860660, "name": null, "label": "natural:cliff", "waterway": null, "natural": "cliff" }, "geometry": { "type": "LineString", "coordinates": [ [ 21.142382540269288, 39.448460904236441 ], [ 21.1439676, 39.447427900190306 ], [ 21.1457872, 39.446301200190142 ], [ 21.146729819245714, 39.445187019244891 ] ] } },
{ "type": "Feature", "properties": { "osm_id": 840860658, "name": null, "label": "natural:cliff", "waterway": null, "natural": "cliff" }, "geometry": { "type": "LineString", "coordinates": [ [ 21.1461593, 39.431924800188099 ], [ 21.1455928, 39.431029800187972 ], [ 21.1462795, 39.430015500187828 ], [ 21.146729819245714, 39.429286293702795 ] ] } },
{ "type": "Feature", "properties": { "osm_id": 840860659, "name": null, "label": "natural:cliff", "waterway": null, "natural": "cliff" }, "geometry": { "type": "LineString", "coordinates": [ [ 21.1447058, 39.432738900188205 ], [ 21.143281, 39.43178430018807 ], [ 21.1437101, 39.430484900187906 ], [ 21.144208, 39.429278300187711 ], [ 21.1461992, 39.427408700187449 ] ] } },
{ "type": "Feature", "properties": { "osm_id": 840860656, "name": null, "label": "natural:cliff", "waterway": null, "natural": "cliff" }, "geometry": { "type": "LineString", "coordinates": [ [ 21.1363272, 39.441778000189494 ], [ 21.1361984, 39.441420000189446 ], [ 21.1362843, 39.441115100189407 ], [ 21.1360439, 39.440763800189352 ], [ 21.1361555, 39.440279900189282 ], [ 21.1363873, 39.439663500189205 ], [ 21.13631, 39.439232600189136 ], [ 21.1366791, 39.438755300189072 ], [ 21.1373743, 39.437906900188956 ], [ 21.1377176, 39.437257200188846 ], [ 21.1380266, 39.436488300188749 ], [ 21.1381983, 39.435414400188591 ], [ 21.1385674, 39.434599000188477 ], [ 21.1386961, 39.434168100188415 ], [ 21.1391768, 39.433445500188306 ], [ 21.1391253, 39.432113000188131 ], [ 21.1393828, 39.431257800188 ], [ 21.1399407, 39.430210400187853 ], [ 21.1404986, 39.429242500187712 ], [ 21.140902, 39.428287800187576 ], [ 21.1415972, 39.426988300187389 ], [ 21.141683, 39.426404900187308 ], [ 21.1417345, 39.425536400187184 ], [ 21.141605306524031, 39.425427342076162 ] ] } }
]
}
