{
"type": "FeatureCollection",
"name": "patch_43221_linestring",
"crs": { "type": "name", "properties": { "name": "urn:ogc:def:crs:OGC:1.3:CRS84" } },
"features": [
{ "type": "Feature", "properties": { "osm_id": 9502546, "name": null, "label": "natural:coastline", "natural": "coastline" }, "geometry": { "type": "LineString", "coordinates": [ [ 21.033605969287919, 38.363735932387662 ], [ 21.0332872, 38.36410390003384 ], [ 21.0332531, 38.364393300033875 ], [ 21.0331405, 38.36456350003391 ], [ 21.0330325, 38.364839800033955 ], [ 21.0330214, 38.364967700033972 ], [ 21.0329617, 38.365216500034002 ], [ 21.0328452, 38.365509500034044 ], [ 21.0327749, 38.365869900034099 ], [ 21.0326341, 38.366274200034141 ], [ 21.0323441, 38.367316400034312 ], [ 21.0317973, 38.368062000034406 ], [ 21.0310775, 38.368888400034528 ], [ 21.030767, 38.369194400034566 ], [ 21.0305511, 38.369371500034596 ], [ 21.0302805, 38.369445600034609 ], [ 21.0302102, 38.3694509000346 ], [ 21.0301399, 38.369451200034604 ], [ 21.0300749, 38.369443100034601 ], [ 21.03001, 38.369421500034605 ], [ 21.0298028, 38.369286100034586 ], [ 21.0294557, 38.369125300034561 ], [ 21.0290284, 38.369013200034544 ], [ 21.0286504, 38.369019700034542 ], [ 21.0282522, 38.369036000034548 ], [ 21.0278628, 38.369193800034566 ], [ 21.0276254, 38.369510300034619 ], [ 21.0273304, 38.370071100034686 ], [ 21.0268635, 38.370432700034748 ], [ 21.026799, 38.370656700034786 ], [ 21.0267179, 38.371121300034844 ], [ 21.0268096, 38.371337300034881 ], [ 21.0268206, 38.371570700034908 ], [ 21.0267875, 38.371626400034913 ], [ 21.026733, 38.371661900034923 ], [ 21.0266369, 38.371684100034933 ], [ 21.0256668, 38.371829300034953 ], [ 21.0251118, 38.37229220003502 ], [ 21.0250577, 38.372398400035024 ], [ 21.0250259, 38.372564700035042 ], [ 21.0250157, 38.372593200035041 ], [ 21.024997, 38.372616700035053 ], [ 21.0247773, 38.372832800035098 ], [ 21.0245621, 38.372903000035102 ], [ 21.0244635, 38.372822800035088 ], [ 21.0243724, 38.372575400035053 ], [ 21.0245426, 38.372217300035018 ], [ 21.0248227, 38.372067900034985 ], [ 21.0249769, 38.371728000034935 ], [ 21.0253264, 38.370204200034728 ], [ 21.0258458, 38.368717000034501 ], [ 21.0260333, 38.368291900034443 ], [ 21.026339, 38.366803300034228 ], [ 21.0264291, 38.365147500033991 ], [ 21.0266413, 38.36469630003392 ], [ 21.0273595, 38.363853400033811 ], [ 21.0277811, 38.363320200033719 ], [ 21.0279385, 38.362896000033665 ], [ 21.0283823, 38.362548700033614 ], [ 21.028446057311577, 38.362487056086529 ] ] } }
]
}
