{
"type": "FeatureCollection",
"name": "patch_43221_polygon",
"crs": { "type": "name", "properties": { "name": "urn:ogc:def:crs:OGC:1.3:CRS84" } },
"features": [
{ "type": "Feature", "properties": { "osm_id": -1850517, "name": "Εθνικό πάρκο λιμνοθαλασσών Μεσσολογγίου-Αιτωλικού", "label": "tourism:information", "tourism": "information" }, "geometry": { "type": "Polygon", "coordinates": [ [ [ 21.023602, 38.36376400003379 ], [ 21.023156, 38.377578000035776 ], [ 21.032978, 38.369778000034643 ], [ 21.033605969287919, 38.368740129645303 ], [ 21.033605969287919, 38.362487056086529 ], [ 21.025306371391331, 38.362487056086529 ], [ 21.023602, 38.36376400003379 ] ] ] } }
]
}
