{
"type": "FeatureCollection",
"name": "patch_54424_polygon",
"crs": { "type": "name", "properties": { "name": "urn:ogc:def:crs:OGC:1.3:CRS84" } },
"features": [
{ "type": "Feature", "properties": { "element": "way", "id": 138271390, "boundary": "protected_area", "leisure": "nature_reserve", "name": "Δασόκτημα Πολυδενδρίου", "protect_class": "4", "protection_title": "Wildlife Refugee", "source": "http://geodata.gov.gr/", "waterway": null, "label": "leisure:nature_reserve" }, "geometry": { "type": "Polygon", "coordinates": [ [ [ 22.8163088, 39.6406356 ], [ 22.8171389, 39.641366 ], [ 22.8172599, 39.6414725 ], [ 22.8173343, 39.641538 ], [ 22.8187097, 39.6419935 ], [ 22.8198226, 39.642212 ], [ 22.8208472, 39.6422044 ], [ 22.8218131, 39.6424304 ], [ 22.8222873, 39.6428555 ], [ 22.8225755, 39.6431139 ], [ 22.823658, 39.6437916 ], [ 22.8243905, 39.6442159 ], [ 22.8247204, 39.6444071 ], [ 22.8248294, 39.6444702 ], [ 22.8262652, 39.6453677 ], [ 22.8270848, 39.6460517 ], [ 22.8275256, 39.6467319 ], [ 22.8284632, 39.6478676 ], [ 22.8293143, 39.649453 ], [ 22.8300184, 39.6510458 ], [ 22.8310736, 39.6524079 ], [ 22.8322747, 39.6535462 ], [ 22.8335941, 39.6553615 ], [ 22.834327, 39.6562698 ], [ 22.8353227, 39.6571718 ], [ 22.8362322, 39.6578477 ], [ 22.836481636223965, 39.658237452079689 ], [ 22.846269291159068, 39.658237452079689 ], [ 22.846269291159068, 39.635653022332292 ], [ 22.815838612754295, 39.635653022332292 ], [ 22.815838612754295, 39.640296268408633 ], [ 22.8163088, 39.6406356 ] ] ] } }
]
}
