{
"type": "FeatureCollection",
"name": "patch_95933_features",
"crs": { "type": "name", "properties": { "name": "urn:ogc:def:crs:OGC:1.3:CRS84" } },
"features": [
{ "type": "Feature", "properties": { "osm_id": 486166096, "name": null, "label": "landuse:railway", "landuse": "railway", "building": null, "sport": null, "leisure": null, "aeroway": null, "military": null, "natural": null, "amenity": null, "waterway": null }, "geometry": { "type": "Polygon", "coordinates": [ [ [ 22.5168648, 40.632057100349051 ], [ 22.5168508, 40.632118600349052 ], [ 22.5179354, 40.63234500034909 ], [ 22.518826407243438, 40.632488126640126 ], [ 22.518826407243438, 40.63227822865953 ], [ 22.5168648, 40.632057100349051 ] ] ] } },
{ "type": "Feature", "properties": { "osm_id": 1387963091, "name": null, "label": "landuse:farmland", "landuse": "farmland", "building": null, "sport": null, "leisure": null, "aeroway": null, "military": null, "natural": null, "amenity": null, "waterway": null }, "geometry": { "type": "MultiPolygon", "coordinates": [ [ [ [ 22.5184079, 40.646977400350863 ], [ 22.518826407243438, 40.647342823667394 ], [ 22.518826407243438, 40.646866771332682 ], [ 22.5184079, 40.646977400350863 ] ] ], [ [ [ 22.5185445, 40.645297000350659 ], [ 22.518826407243438, 40.645909285329409 ], [ 22.518826407243438, 40.645248148683308 ], [ 22.5185445, 40.645297000350659 ] ] ] ] } },
{ "type": "Feature", "properties": { "osm_id": 447824292, "name": null, "label": "building:industrial", "landuse": null, "building": "industrial", "sport": null, "leisure": null, "aeroway": null, "military": null, "natural": null, "amenity": null, "waterway": null }, "geometry": { "type": "Polygon", "coordinates": [ [ [ 22.5188178, 40.645890600350732 ], [ 22.5185449, 40.645951400350739 ], [ 22.5186158, 40.646120900350766 ], [ 22.518826407243438, 40.64607176876023 ], [ 22.518826407243438, 40.645909330203409 ], [ 22.5188178, 40.645890600350732 ] ] ] } },
{ "type": "Feature", "properties": { "osm_id": 447824291, "name": null, "label": "landuse:industrial", "landuse": "industrial", "building": null, "sport": null, "leisure": null, "aeroway": null, "military": null, "natural": null, "amenity": null, "waterway": null }, "geometry": { "type": "Polygon", "coordinates": [ [ [ 22.5188178, 40.645890600350732 ], [ 22.5185445, 40.645297000350659 ], [ 22.518141, 40.645415200350669 ], [ 22.5181678, 40.645469700350688 ], [ 22.518826407243438, 40.646807118042766 ], [ 22.518826407243438, 40.645909330203409 ], [ 22.5188178, 40.645890600350732 ] ] ] } },
{ "type": "Feature", "properties": { "osm_id": 304412062, "name": null, "label": "sport:soccer;leisure:pitch", "landuse": null, "building": null, "sport": "soccer", "leisure": "pitch", "aeroway": null, "military": null, "natural": null, "amenity": null, "waterway": null }, "geometry": { "type": "Polygon", "coordinates": [ [ [ 22.4908046, 40.641153800350153 ], [ 22.4909938, 40.6406415003501 ], [ 22.4899421, 40.640417900350073 ], [ 22.4897529, 40.640930300350135 ], [ 22.4908046, 40.641153800350153 ] ] ] } },
{ "type": "Feature", "properties": { "osm_id": 1387993623, "name": null, "label": "landuse:farmland", "landuse": "farmland", "building": null, "sport": null, "leisure": null, "aeroway": null, "military": null, "natural": null, "amenity": null, "waterway": null }, "geometry": { "type": "Polygon", "coordinates": [ [ [ 22.4900122, 40.647275900350905 ], [ 22.4900713, 40.647275900350905 ], [ 22.4900793, 40.645082000350648 ], [ 22.489913, 40.645080000350653 ], [ 22.488043326534701, 40.644865823011607 ], [ 22.488043326534701, 40.647017257185922 ], [ 22.4900122, 40.647275900350905 ] ] ] } },
{ "type": "Feature", "properties": { "osm_id": 1387993635, "name": null, "label": "landuse:farmland", "landuse": "farmland", "building": null, "sport": null, "leisure": null, "aeroway": null, "military": null, "natural": null, "amenity": null, "waterway": null }, "geometry": { "type": "Polygon", "coordinates": [ [ [ 22.4899147, 40.64918690035114 ], [ 22.4899784, 40.649084800351119 ], [ 22.4899678, 40.647479000350934 ], [ 22.489936, 40.647393100350918 ], [ 22.4898616, 40.647342100350912 ], [ 22.4893945, 40.647272300350906 ], [ 22.488043326534701, 40.647111075130873 ], [ 22.488043326534701, 40.650309341616747 ], [ 22.4899147, 40.64918690035114 ] ] ] } },
{ "type": "Feature", "properties": { "osm_id": 27895684, "name": "Βάση Αεροπορίας Στρατού \"Αλεξάνδρεια\"", "label": "aeroway:aerodrome;landuse:military;military:airfield", "landuse": "military", "building": null, "sport": null, "leisure": null, "aeroway": "aerodrome", "military": "airfield", "natural": null, "amenity": null, "waterway": null }, "geometry": { "type": "Polygon", "coordinates": [ [ [ 22.4880689, 40.652730300351571 ], [ 22.4935588, 40.64951380035118 ], [ 22.5016778, 40.644761900350602 ], [ 22.5013243, 40.644541700350551 ], [ 22.5009825, 40.644336100350543 ], [ 22.5006161, 40.64416050035053 ], [ 22.4998665, 40.64393930035051 ], [ 22.4987641, 40.643778400350485 ], [ 22.4945608, 40.643257700350404 ], [ 22.4916033, 40.642909000350372 ], [ 22.4902195, 40.642745800350355 ], [ 22.4902134, 40.642836400350369 ], [ 22.4901947, 40.643115000350413 ], [ 22.4905982, 40.643181400350407 ], [ 22.4901159, 40.644291800350537 ], [ 22.4901207, 40.644949700350622 ], [ 22.4901213, 40.64503940035064 ], [ 22.4901508, 40.64911940035114 ], [ 22.488043326534701, 40.65036665396071 ], [ 22.488043326534701, 40.652745284685757 ], [ 22.4880689, 40.652730300351571 ] ] ] } },
{ "type": "Feature", "properties": { "osm_id": 1433979844, "name": null, "label": "aeroway:hangar;building:hangar", "landuse": null, "building": "hangar", "sport": null, "leisure": null, "aeroway": "hangar", "military": null, "natural": null, "amenity": null, "waterway": null }, "geometry": { "type": "Polygon", "coordinates": [ [ [ 22.4916685, 40.646360100350797 ], [ 22.4921165, 40.646085900350769 ], [ 22.491597, 40.645600300350701 ], [ 22.4911453, 40.645857400350735 ], [ 22.4916685, 40.646360100350797 ] ] ] } },
{ "type": "Feature", "properties": { "osm_id": 1433979843, "name": "Apron Y", "label": "aeroway:apron", "landuse": null, "building": null, "sport": null, "leisure": null, "aeroway": "apron", "military": null, "natural": null, "amenity": null, "waterway": null }, "geometry": { "type": "Polygon", "coordinates": [ [ [ 22.4921363, 40.647075700350882 ], [ 22.4940747, 40.645932300350729 ], [ 22.4938344, 40.645667100350707 ], [ 22.491836, 40.646827100350855 ], [ 22.4921363, 40.647075700350882 ] ] ] } },
{ "type": "Feature", "properties": { "osm_id": 1433979842, "name": null, "label": "aeroway:apron", "landuse": null, "building": null, "sport": null, "leisure": null, "aeroway": "apron", "military": null, "natural": null, "amenity": null, "waterway": null }, "geometry": { "type": "Polygon", "coordinates": [ [ [ 22.4926441, 40.647581100350941 ], [ 22.4945989, 40.646429400350797 ], [ 22.4943204, 40.646151900350766 ], [ 22.4923438, 40.647328400350915 ], [ 22.4926441, 40.647581100350941 ] ] ] } },
{ "type": "Feature", "properties": { "osm_id": 447824329, "name": null, "label": "landuse:industrial", "landuse": "industrial", "building": null, "sport": null, "leisure": null, "aeroway": null, "military": null, "natural": null, "amenity": null, "waterway": null }, "geometry": { "type": "Polygon", "coordinates": [ [ [ 22.5092356, 40.649356000351162 ], [ 22.509933, 40.648635600351064 ], [ 22.5094287, 40.648269200351017 ], [ 22.5091068, 40.648582600351062 ], [ 22.5088348, 40.648894400351097 ], [ 22.5087147, 40.649076800351125 ], [ 22.5092356, 40.649356000351162 ] ] ] } },
{ "type": "Feature", "properties": { "osm_id": 447824330, "name": null, "label": "building:industrial", "landuse": null, "building": "industrial", "sport": null, "leisure": null, "aeroway": null, "military": null, "natural": null, "amenity": null, "waterway": null }, "geometry": { "type": "Polygon", "coordinates": [ [ [ 22.5092704, 40.649166700351124 ], [ 22.5095279, 40.648904200351083 ], [ 22.5092356, 40.648741400351078 ], [ 22.5089754, 40.64899980035112 ], [ 22.5092704, 40.649166700351124 ] ] ] } },
{ "type": "Feature", "properties": { "osm_id": 1254984754, "name": null, "label": "landuse:farmland", "landuse": "farmland", "building": null, "sport": null, "leisure": null, "aeroway": null, "military": null, "natural": null, "amenity": null, "waterway": null }, "geometry": { "type": "Polygon", "coordinates": [ [ [ 22.5062311, 40.648138500351017 ], [ 22.5017591, 40.644915000350622 ], [ 22.488043326534701, 40.653026702335708 ], [ 22.488043326534701, 40.653253387236973 ], [ 22.514807077863164, 40.653253387236973 ], [ 22.5062311, 40.648138500351017 ] ] ] } },
{ "type": "Feature", "properties": { "osm_id": 1387942702, "name": null, "label": "landuse:farmland", "landuse": "farmland", "building": null, "sport": null, "leisure": null, "aeroway": null, "military": null, "natural": null, "amenity": null, "waterway": null }, "geometry": { "type": "Polygon", "coordinates": [ [ [ 22.5117518, 40.650927300351356 ], [ 22.5144472, 40.652528100351539 ], [ 22.5159515, 40.651050700351362 ], [ 22.512943, 40.649252400351138 ], [ 22.5125812, 40.649369600351157 ], [ 22.5119754, 40.649456000351172 ], [ 22.5115242, 40.649419000351173 ], [ 22.5106338, 40.649045800351125 ], [ 22.509933, 40.648635600351064 ], [ 22.5092356, 40.649356000351162 ], [ 22.5117518, 40.650927300351356 ] ] ] } },
{ "type": "Feature", "properties": { "osm_id": 1387942704, "name": null, "label": "landuse:orchard", "landuse": "orchard", "building": null, "sport": null, "leisure": null, "aeroway": null, "military": null, "natural": null, "amenity": null, "waterway": null }, "geometry": { "type": "Polygon", "coordinates": [ [ [ 22.5127192, 40.648970400351118 ], [ 22.5130094, 40.6488442003511 ], [ 22.5121635, 40.64710410035088 ], [ 22.5118662, 40.647182000350902 ], [ 22.5127192, 40.648970400351118 ] ] ] } },
{ "type": "Feature", "properties": { "osm_id": 1387942703, "name": null, "label": "landuse:farmland", "landuse": "farmland", "building": null, "sport": null, "leisure": null, "aeroway": null, "military": null, "natural": null, "amenity": null, "waterway": null }, "geometry": { "type": "Polygon", "coordinates": [ [ [ 22.5161593, 40.646011200350749 ], [ 22.5149984, 40.646325400350797 ], [ 22.5121635, 40.64710410035088 ], [ 22.5130094, 40.6488442003511 ], [ 22.5127192, 40.648970400351118 ], [ 22.5118662, 40.647182000350902 ], [ 22.5107903, 40.647490800350937 ], [ 22.5107443, 40.647504300350938 ], [ 22.5102842, 40.647676100350949 ], [ 22.5099055, 40.647904400350988 ], [ 22.5098595, 40.648068200350984 ], [ 22.5100117, 40.648191700351013 ], [ 22.5104895, 40.648621300351074 ], [ 22.5112752, 40.64830720035102 ], [ 22.5115229, 40.648648200351069 ], [ 22.5108469, 40.648849600351092 ], [ 22.5110027, 40.648997300351112 ], [ 22.5118485, 40.649276500351156 ], [ 22.5123122, 40.649300700351155 ], [ 22.5126944, 40.64920940035114 ], [ 22.5129669, 40.649080500351118 ], [ 22.5130625, 40.649169100351138 ], [ 22.5131474, 40.649241600351154 ], [ 22.5165309, 40.651301200351398 ], [ 22.515048, 40.652732300351566 ], [ 22.5150019, 40.652810200351567 ], [ 22.515660824960001, 40.653253387236973 ], [ 22.516389960838247, 40.653253387236973 ], [ 22.5163964, 40.65324790035163 ], [ 22.516406210418182, 40.653253387236973 ], [ 22.518826407243438, 40.653253387236973 ], [ 22.518826407243438, 40.648251451041688 ], [ 22.5161593, 40.646011200350749 ] ] ] } },
{ "type": "Feature", "properties": { "osm_id": 1387942701, "name": null, "label": "landuse:orchard", "landuse": "orchard", "building": null, "sport": null, "leisure": null, "aeroway": null, "military": null, "natural": null, "amenity": null, "waterway": null }, "geometry": { "type": "Polygon", "coordinates": [ [ [ 22.5181678, 40.645469700350688 ], [ 22.5169276, 40.645828000350726 ], [ 22.5170333, 40.646047000350769 ], [ 22.5182285, 40.647024800350863 ], [ 22.5184079, 40.646977400350863 ], [ 22.518826407243438, 40.646866771332682 ], [ 22.518826407243438, 40.646807118042766 ], [ 22.5181678, 40.645469700350688 ] ] ] } },
{ "type": "Feature", "properties": { "osm_id": 1387963107, "name": null, "label": "landuse:farmland", "landuse": "farmland", "building": null, "sport": null, "leisure": null, "aeroway": null, "military": null, "natural": null, "amenity": null, "waterway": null }, "geometry": { "type": "Polygon", "coordinates": [ [ [ 22.5186958, 40.633481000349235 ], [ 22.5185941, 40.633857500349258 ], [ 22.5173401, 40.633663400349242 ], [ 22.5169744, 40.635019000349409 ], [ 22.5183047, 40.635220500349448 ], [ 22.5181814, 40.635641900349484 ], [ 22.5168751, 40.635440400349466 ], [ 22.5162673, 40.637338100349702 ], [ 22.5133253, 40.636894000349635 ], [ 22.5126433, 40.640362500350058 ], [ 22.5159444, 40.640845900350122 ], [ 22.518826407243438, 40.641278109040961 ], [ 22.518826407243438, 40.633500020471004 ], [ 22.5186958, 40.633481000349235 ] ] ] } },
{ "type": "Feature", "properties": { "osm_id": 1387963108, "name": null, "label": "landuse:orchard", "landuse": "orchard", "building": null, "sport": null, "leisure": null, "aeroway": null, "military": null, "natural": null, "amenity": null, "waterway": null }, "geometry": { "type": "Polygon", "coordinates": [ [ [ 22.5181814, 40.635641900349484 ], [ 22.5183047, 40.635220500349448 ], [ 22.5169744, 40.635019000349409 ], [ 22.5168751, 40.635440400349466 ], [ 22.5181814, 40.635641900349484 ] ] ] } },
{ "type": "Feature", "properties": { "osm_id": 1387963109, "name": null, "label": "landuse:orchard", "landuse": "orchard", "building": null, "sport": null, "leisure": null, "aeroway": null, "military": null, "natural": null, "amenity": null, "waterway": null }, "geometry": { "type": "Polygon", "coordinates": [ [ [ 22.5185941, 40.633857500349258 ], [ 22.5186958, 40.633481000349235 ], [ 22.5174384, 40.633286800349197 ], [ 22.5173401, 40.633663400349242 ], [ 22.5185941, 40.633857500349258 ] ] ] } },
{ "type": "Feature", "properties": { "osm_id": 487982625, "name": null, "label": "landuse:farmland", "landuse": "farmland", "building": null, "sport": null, "leisure": null, "aeroway": null, "military": null, "natural": null, "amenity": null, "waterway": null }, "geometry": { "type": "Polygon", "coordinates": [ [ [ 22.5120554, 40.631490500348974 ], [ 22.5117832, 40.632128800349058 ], [ 22.5127401, 40.632248700349074 ], [ 22.5126768, 40.632800900349139 ], [ 22.5155354, 40.63291800034915 ], [ 22.5162167, 40.632967700349155 ], [ 22.518826407243438, 40.633362725510317 ], [ 22.518826407243438, 40.632551858358418 ], [ 22.5120554, 40.631490500348974 ] ] ] } },
{ "type": "Feature", "properties": { "osm_id": 1387993584, "name": null, "label": "landuse:farmland", "landuse": "farmland", "building": null, "sport": null, "leisure": null, "aeroway": null, "military": null, "natural": null, "amenity": null, "waterway": null }, "geometry": { "type": "Polygon", "coordinates": [ [ [ 22.5157083, 40.640967100350124 ], [ 22.5126128, 40.640517600350087 ], [ 22.5125819, 40.640674800350098 ], [ 22.5104438, 40.640621900350098 ], [ 22.5099851, 40.640464700350073 ], [ 22.5090293, 40.640009500350025 ], [ 22.5088621, 40.640220700350042 ], [ 22.5083813, 40.640004600350011 ], [ 22.5082741, 40.640146400350041 ], [ 22.5079889, 40.640009200350015 ], [ 22.5080485, 40.639901500350014 ], [ 22.5078527, 40.639816700349996 ], [ 22.5077152, 40.639984500350025 ], [ 22.5075393, 40.64020290035004 ], [ 22.5074048, 40.640331800350062 ], [ 22.5068173, 40.640855500350128 ], [ 22.5063183, 40.641293300350171 ], [ 22.5079852, 40.642512500350321 ], [ 22.5084984, 40.642797200350351 ], [ 22.5087391, 40.642845500350369 ], [ 22.5089408, 40.642834800350364 ], [ 22.5090894, 40.642783700350364 ], [ 22.5092381, 40.642628000350342 ], [ 22.5093478, 40.642431900350317 ], [ 22.5124304, 40.64291800035037 ], [ 22.513793, 40.643138200350414 ], [ 22.5146743, 40.643919700350487 ], [ 22.5165784, 40.645576600350694 ], [ 22.516727, 40.645662500350717 ], [ 22.518826407243438, 40.645094470089745 ], [ 22.518826407243438, 40.641438197716795 ], [ 22.5157083, 40.640967100350124 ] ] ] } },
{ "type": "Feature", "properties": { "osm_id": 1387993571, "name": null, "label": "landuse:farmland", "landuse": "farmland", "building": null, "sport": null, "leisure": null, "aeroway": null, "military": null, "natural": null, "amenity": null, "waterway": null }, "geometry": { "type": "Polygon", "coordinates": [ [ [ 22.5095134, 40.64747260035093 ], [ 22.5096675, 40.64783050035097 ], [ 22.5100971, 40.64753640035093 ], [ 22.5103166, 40.647437200350929 ], [ 22.5107042, 40.647330900350909 ], [ 22.5130672, 40.646686000350847 ], [ 22.5160887, 40.645863900350733 ], [ 22.5135062, 40.643759100350465 ], [ 22.5133474, 40.64370600035047 ], [ 22.513254, 40.643695400350467 ], [ 22.5133614, 40.643918600350503 ], [ 22.5135389, 40.644255200350536 ], [ 22.5136136, 40.644606000350578 ], [ 22.5135342, 40.645031200350616 ], [ 22.5133988, 40.645438700350688 ], [ 22.513156, 40.645736400350714 ], [ 22.5129038, 40.645917100350729 ], [ 22.5123714, 40.646147400350763 ], [ 22.5118017, 40.646374200350799 ], [ 22.5112179, 40.6464734003508 ], [ 22.5108817, 40.64648400035081 ], [ 22.5099523, 40.6463883003508 ], [ 22.5096675, 40.646395400350805 ], [ 22.5094667, 40.646455700350792 ], [ 22.5093266, 40.646629300350831 ], [ 22.5093219, 40.646873800350853 ], [ 22.5095134, 40.64747260035093 ] ] ] } },
{ "type": "Feature", "properties": { "osm_id": 1387993582, "name": null, "label": "natural:heath", "landuse": null, "building": null, "sport": null, "leisure": null, "aeroway": null, "military": null, "natural": "heath", "amenity": null, "waterway": null }, "geometry": { "type": "Polygon", "coordinates": [ [ [ 22.5080019, 40.644420900350561 ], [ 22.508777, 40.644302700350536 ], [ 22.5098423, 40.643862300350492 ], [ 22.5098317, 40.643805900350486 ], [ 22.5109642, 40.643421900350425 ], [ 22.5111447, 40.643421900350425 ], [ 22.5127586, 40.643655500350455 ], [ 22.5129712, 40.643739300350468 ], [ 22.5132538, 40.644141500350536 ], [ 22.5133425, 40.644465700350558 ], [ 22.5133518, 40.644729700350595 ], [ 22.5132561, 40.645188500350642 ], [ 22.5131861, 40.645325000350667 ], [ 22.5130156, 40.645541100350691 ], [ 22.5127774, 40.645736000350709 ], [ 22.512579, 40.645833400350746 ], [ 22.5118294, 40.646081500350761 ], [ 22.5114465, 40.646186000350781 ], [ 22.5112083, 40.646225000350768 ], [ 22.5097466, 40.646171800350778 ], [ 22.5095131, 40.646184200350774 ], [ 22.5093567, 40.646239200350784 ], [ 22.5092166, 40.646338400350785 ], [ 22.5090788, 40.646499600350808 ], [ 22.5090017, 40.646710400350841 ], [ 22.5090064, 40.646820300350861 ], [ 22.509338, 40.647986000350997 ], [ 22.5094174, 40.64810290035102 ], [ 22.5096675, 40.64783050035097 ], [ 22.5095134, 40.64747260035093 ], [ 22.5093219, 40.646873800350853 ], [ 22.5093266, 40.646629300350831 ], [ 22.5094667, 40.646455700350792 ], [ 22.5096675, 40.646395400350805 ], [ 22.5099523, 40.6463883003508 ], [ 22.5108817, 40.64648400035081 ], [ 22.5112179, 40.6464734003508 ], [ 22.5118017, 40.646374200350799 ], [ 22.5123714, 40.646147400350763 ], [ 22.5129038, 40.645917100350729 ], [ 22.513156, 40.645736400350714 ], [ 22.5133988, 40.645438700350688 ], [ 22.5135342, 40.645031200350616 ], [ 22.5136136, 40.644606000350578 ], [ 22.5135389, 40.644255200350536 ], [ 22.5133614, 40.643918600350503 ], [ 22.513254, 40.643695400350467 ], [ 22.5133474, 40.64370600035047 ], [ 22.5135062, 40.643759100350465 ], [ 22.5134094, 40.643700800350466 ], [ 22.5133021, 40.64366220035047 ], [ 22.5130098, 40.643593000350471 ], [ 22.5115453, 40.643358900350421 ], [ 22.5110571, 40.643330400350436 ], [ 22.5108747, 40.643289700350422 ], [ 22.5104483, 40.643226600350417 ], [ 22.5099708, 40.643202200350395 ], [ 22.509708, 40.643202200350395 ], [ 22.5088991, 40.64331650035043 ], [ 22.5092447, 40.643330700350418 ], [ 22.5093848, 40.64339800035043 ], [ 22.5094408, 40.643486600350442 ], [ 22.5094035, 40.643624800350466 ], [ 22.5091793, 40.643763000350468 ], [ 22.5091193, 40.643786600350481 ], [ 22.5092279, 40.643822900350486 ], [ 22.5092547, 40.643920600350498 ], [ 22.5091447, 40.644002000350504 ], [ 22.5089194, 40.6440570003505 ], [ 22.5086431, 40.644073300350527 ], [ 22.5082864, 40.644028500350508 ], [ 22.5079592, 40.644061100350513 ], [ 22.5078465, 40.644189300350526 ], [ 22.507836, 40.64435250035055 ], [ 22.5080019, 40.644420900350561 ] ] ] } },
{ "type": "Feature", "properties": { "osm_id": 1387993568, "name": null, "label": "landuse:farmland", "landuse": "farmland", "building": null, "sport": null, "leisure": null, "aeroway": null, "military": null, "natural": null, "amenity": null, "waterway": null }, "geometry": { "type": "Polygon", "coordinates": [ [ [ 22.5037301, 40.645607800350696 ], [ 22.5039141, 40.645857600350737 ], [ 22.5054006, 40.64691020035086 ], [ 22.5055351, 40.647095500350893 ], [ 22.5071242, 40.648158900351007 ], [ 22.5084514, 40.64890540035109 ], [ 22.5085505, 40.648945700351106 ], [ 22.509322, 40.648207200351017 ], [ 22.5092371, 40.648003100350991 ], [ 22.5089009, 40.646762500350832 ], [ 22.5089186, 40.646601400350832 ], [ 22.5090637, 40.646359700350793 ], [ 22.5093787, 40.646107300350764 ], [ 22.5111058, 40.646161000350773 ], [ 22.5112863, 40.646134100350771 ], [ 22.5126418, 40.645715200350701 ], [ 22.5131019, 40.645360800350673 ], [ 22.5131939, 40.645213100350645 ], [ 22.5132966, 40.64460620035058 ], [ 22.513201, 40.644192600350522 ], [ 22.5130524, 40.643937500350511 ], [ 22.5127586, 40.643655500350455 ], [ 22.5111447, 40.643421900350425 ], [ 22.5109642, 40.643421900350425 ], [ 22.5098317, 40.643805900350486 ], [ 22.5098423, 40.643862300350492 ], [ 22.508777, 40.644302700350536 ], [ 22.5080019, 40.644420900350561 ], [ 22.507836, 40.64435250035055 ], [ 22.5070109, 40.644012700350501 ], [ 22.5064305, 40.643889200350493 ], [ 22.5054183, 40.643870400350487 ], [ 22.5048025, 40.643851600350487 ], [ 22.5046645, 40.643808600350482 ], [ 22.5030117, 40.642621600350346 ], [ 22.5024879, 40.643123800350402 ], [ 22.5046538, 40.644659900350597 ], [ 22.5043176, 40.644949900350625 ], [ 22.5022118, 40.643464900350452 ], [ 22.5019145, 40.643679700350468 ], [ 22.5016172, 40.643964300350511 ], [ 22.5015712, 40.6440637003505 ], [ 22.5037301, 40.645607800350696 ] ] ] } },
{ "type": "Feature", "properties": { "osm_id": 304433188, "name": null, "label": "building:industrial", "landuse": null, "building": "industrial", "sport": null, "leisure": null, "aeroway": null, "military": null, "natural": null, "amenity": null, "waterway": null }, "geometry": { "type": "Polygon", "coordinates": [ [ [ 22.5077944, 40.644205900350535 ], [ 22.5078341, 40.644143800350527 ], [ 22.5071961, 40.643909200350492 ], [ 22.5071564, 40.643971300350486 ], [ 22.5077944, 40.644205900350535 ] ] ] } },
{ "type": "Feature", "properties": { "osm_id": 1387993583, "name": null, "label": "natural:wetland", "landuse": null, "building": null, "sport": null, "leisure": null, "aeroway": null, "military": null, "natural": "wetland", "amenity": null, "waterway": null }, "geometry": { "type": "Polygon", "coordinates": [ [ [ 22.5078507, 40.64401860035052 ], [ 22.5079592, 40.644061100350513 ], [ 22.5082864, 40.644028500350508 ], [ 22.5086431, 40.644073300350527 ], [ 22.5089194, 40.6440570003505 ], [ 22.5091447, 40.644002000350504 ], [ 22.5092547, 40.643920600350498 ], [ 22.5092279, 40.643822900350486 ], [ 22.5091193, 40.643786600350481 ], [ 22.5086936, 40.643954300350508 ], [ 22.50825, 40.644004000350506 ], [ 22.5080165, 40.643986200350504 ], [ 22.5077877, 40.643922500350499 ], [ 22.5077756, 40.643949400350493 ], [ 22.5078507, 40.64401860035052 ] ] ] } },
{ "type": "Feature", "properties": { "osm_id": 1387993577, "name": null, "label": "landuse:farmland", "landuse": "farmland", "building": null, "sport": null, "leisure": null, "aeroway": null, "military": null, "natural": null, "amenity": null, "waterway": null }, "geometry": { "type": "Polygon", "coordinates": [ [ [ 22.5062339, 40.64123970035017 ], [ 22.5073522, 40.640270200350052 ], [ 22.5076016, 40.639944500350005 ], [ 22.5070905, 40.639764600349984 ], [ 22.5072725, 40.63946640034996 ], [ 22.5068367, 40.639290700349925 ], [ 22.5064553, 40.639757500350001 ], [ 22.5063294, 40.639776100349984 ], [ 22.506064, 40.639722300349987 ], [ 22.505749, 40.639596100349969 ], [ 22.5056817, 40.639488700349965 ], [ 22.5053738, 40.639443000349949 ], [ 22.5051402, 40.639480600349948 ], [ 22.5048146, 40.639443000349949 ], [ 22.5042625, 40.639332900349935 ], [ 22.5038414, 40.639322200349937 ], [ 22.5037033, 40.639322200349937 ], [ 22.5036396, 40.639330200349939 ], [ 22.5036042, 40.639402800349941 ], [ 22.5062339, 40.64123970035017 ] ] ] } },
{ "type": "Feature", "properties": { "osm_id": 304433191, "name": null, "label": "building:industrial", "landuse": null, "building": "industrial", "sport": null, "leisure": null, "aeroway": null, "military": null, "natural": null, "amenity": null, "waterway": null }, "geometry": { "type": "Polygon", "coordinates": [ [ [ 22.5050412, 40.643623200350461 ], [ 22.5050472, 40.643482900350449 ], [ 22.5049344, 40.643480200350446 ], [ 22.5049285, 40.643620400350471 ], [ 22.5050412, 40.643623200350461 ] ] ] } },
{ "type": "Feature", "properties": { "osm_id": 304433190, "name": null, "label": "building:industrial", "landuse": null, "building": "industrial", "sport": null, "leisure": null, "aeroway": null, "military": null, "natural": null, "amenity": null, "waterway": null }, "geometry": { "type": "Polygon", "coordinates": [ [ [ 22.5052471, 40.64366500035046 ], [ 22.5052829, 40.643540100350442 ], [ 22.5051727, 40.643521900350457 ], [ 22.5051369, 40.64364680035046 ], [ 22.5052471, 40.64366500035046 ] ] ] } },
{ "type": "Feature", "properties": { "osm_id": 1387993572, "name": null, "label": "landuse:farmland", "landuse": "farmland", "building": null, "sport": null, "leisure": null, "aeroway": null, "military": null, "natural": null, "amenity": null, "waterway": null }, "geometry": { "type": "Polygon", "coordinates": [ [ [ 22.5047568, 40.643394500350425 ], [ 22.505037, 40.643440500350437 ], [ 22.5057469, 40.643454700350432 ], [ 22.5065034, 40.643483100350451 ], [ 22.5070451, 40.643550400350449 ], [ 22.5072646, 40.643653100350463 ], [ 22.5077877, 40.643922500350499 ], [ 22.5080165, 40.643986200350504 ], [ 22.50825, 40.644004000350506 ], [ 22.5086936, 40.643954300350508 ], [ 22.5091193, 40.643786600350481 ], [ 22.5091793, 40.643763000350468 ], [ 22.5094035, 40.643624800350466 ], [ 22.5094408, 40.643486600350442 ], [ 22.5093848, 40.64339800035043 ], [ 22.5092447, 40.643330700350418 ], [ 22.5088991, 40.64331650035043 ], [ 22.5085255, 40.643281100350421 ], [ 22.5082453, 40.643196000350407 ], [ 22.5060831, 40.641622700350212 ], [ 22.5049878, 40.642570900350329 ], [ 22.5051402, 40.64267670035035 ], [ 22.5046755, 40.64306200035039 ], [ 22.5045187, 40.643227900350404 ], [ 22.5047568, 40.643394500350425 ] ] ] } },
{ "type": "Feature", "properties": { "osm_id": 304433189, "name": null, "label": "building:industrial", "landuse": null, "building": "industrial", "sport": null, "leisure": null, "aeroway": null, "military": null, "natural": null, "amenity": null, "waterway": null }, "geometry": { "type": "Polygon", "coordinates": [ [ [ 22.5071291, 40.643830300350494 ], [ 22.5071723, 40.643757500350475 ], [ 22.5068554, 40.643688200350468 ], [ 22.5068218, 40.643768400350474 ], [ 22.5071291, 40.643830300350494 ] ] ] } },
{ "type": "Feature", "properties": { "osm_id": 304433187, "name": null, "label": "building:industrial", "landuse": null, "building": "industrial", "sport": null, "leisure": null, "aeroway": null, "military": null, "natural": null, "amenity": null, "waterway": null }, "geometry": { "type": "Polygon", "coordinates": [ [ [ 22.5067742, 40.643814600350488 ], [ 22.5067973, 40.643712200350478 ], [ 22.5054576, 40.643538600350446 ], [ 22.5054346, 40.643641000350456 ], [ 22.5067742, 40.643814600350488 ] ] ] } },
{ "type": "Feature", "properties": { "osm_id": 1387993570, "name": null, "label": "landuse:orchard", "landuse": "orchard", "building": null, "sport": null, "leisure": null, "aeroway": null, "military": null, "natural": null, "amenity": null, "waterway": null }, "geometry": { "type": "Polygon", "coordinates": [ [ [ 22.506696, 40.645615900350698 ], [ 22.5072905, 40.645006300350623 ], [ 22.5054891, 40.64402340035052 ], [ 22.5049228, 40.644646400350581 ], [ 22.506696, 40.645615900350698 ] ] ] } },
{ "type": "Feature", "properties": { "osm_id": 304433192, "name": null, "label": "building:industrial", "landuse": null, "building": "industrial", "sport": null, "leisure": null, "aeroway": null, "military": null, "natural": null, "amenity": null, "waterway": null }, "geometry": { "type": "Polygon", "coordinates": [ [ [ 22.5046994, 40.643601900350461 ], [ 22.504811, 40.643513100350432 ], [ 22.5047237, 40.643450000350427 ], [ 22.5046121, 40.643538800350441 ], [ 22.5046994, 40.643601900350461 ] ] ] } },
{ "type": "Feature", "properties": { "osm_id": 304433183, "name": "Κοιμητήρια Λιανοβεργίου", "label": "amenity:grave_yard", "landuse": null, "building": null, "sport": null, "leisure": null, "aeroway": null, "military": null, "natural": null, "amenity": "grave_yard", "waterway": null }, "geometry": { "type": "Polygon", "coordinates": [ [ [ 22.5046755, 40.64306200035039 ], [ 22.5051402, 40.64267670035035 ], [ 22.5049878, 40.642570900350329 ], [ 22.50492, 40.642523800350332 ], [ 22.5048659, 40.642486300350328 ], [ 22.5047148, 40.642381300350294 ], [ 22.5042501, 40.64276660035037 ], [ 22.5046755, 40.64306200035039 ] ] ] } },
{ "type": "Feature", "properties": { "osm_id": 1387993569, "name": null, "label": "landuse:orchard", "landuse": "orchard", "building": null, "sport": null, "leisure": null, "aeroway": null, "military": null, "natural": null, "amenity": null, "waterway": null }, "geometry": { "type": "Polygon", "coordinates": [ [ [ 22.5043176, 40.644949900350625 ], [ 22.5046538, 40.644659900350597 ], [ 22.5024879, 40.643123800350402 ], [ 22.5022118, 40.643464900350452 ], [ 22.5043176, 40.644949900350625 ] ] ] } },
{ "type": "Feature", "properties": { "osm_id": 1387993567, "name": null, "label": "landuse:farmland", "landuse": "farmland", "building": null, "sport": null, "leisure": null, "aeroway": null, "military": null, "natural": null, "amenity": null, "waterway": null }, "geometry": { "type": "Polygon", "coordinates": [ [ [ 22.5012916, 40.643942900350503 ], [ 22.5027037, 40.642683400350357 ], [ 22.5023673, 40.642401800350306 ], [ 22.5009159, 40.643685100350467 ], [ 22.5012916, 40.643942900350503 ] ] ] } },
{ "type": "Feature", "properties": { "osm_id": 1387993564, "name": null, "label": "landuse:orchard", "landuse": "orchard", "building": null, "sport": null, "leisure": null, "aeroway": null, "military": null, "natural": null, "amenity": null, "waterway": null }, "geometry": { "type": "Polygon", "coordinates": [ [ [ 22.5009159, 40.643685100350467 ], [ 22.5023673, 40.642401800350306 ], [ 22.5006029, 40.64114010035015 ], [ 22.4990986, 40.642324700350315 ], [ 22.5009159, 40.643685100350467 ] ] ] } },
{ "type": "Feature", "properties": { "osm_id": 1387993574, "name": null, "label": "landuse:farmland", "landuse": "farmland", "building": null, "sport": null, "leisure": null, "aeroway": null, "military": null, "natural": null, "amenity": null, "waterway": null }, "geometry": { "type": "Polygon", "coordinates": [ [ [ 22.4980552, 40.6391068003499 ], [ 22.4985499, 40.63943250034994 ], [ 22.5008021, 40.641052100350144 ], [ 22.5028389, 40.642585300350333 ], [ 22.5048513, 40.64080840035011 ], [ 22.5031276, 40.639559000349962 ], [ 22.5024161, 40.63908700034991 ], [ 22.50216, 40.639173400349911 ], [ 22.5018063, 40.63935850034995 ], [ 22.5017559, 40.63935770034994 ], [ 22.5016112, 40.639355400349935 ], [ 22.5015537, 40.639325100349936 ], [ 22.501303, 40.639552100349974 ], [ 22.5007468, 40.639222800349934 ], [ 22.5010976, 40.638883400349883 ], [ 22.5013642, 40.639013100349906 ], [ 22.5014364, 40.638917300349881 ], [ 22.5014242, 40.638855600349871 ], [ 22.5009526, 40.638476200349842 ], [ 22.5005745, 40.638121400349796 ], [ 22.5002289, 40.63776660034975 ], [ 22.5000826, 40.637698700349738 ], [ 22.4997695, 40.637667900349733 ], [ 22.4994443, 40.637618500349731 ], [ 22.4988849, 40.637436400349692 ], [ 22.497399, 40.638720100349865 ], [ 22.4980552, 40.6391068003499 ] ] ] } },
{ "type": "Feature", "properties": { "osm_id": 304433182, "name": "Κοιμητήρια Παλαιοχωρίου", "label": "amenity:grave_yard", "landuse": null, "building": null, "sport": null, "leisure": null, "aeroway": null, "military": null, "natural": null, "amenity": "grave_yard", "waterway": null }, "geometry": { "type": "Polygon", "coordinates": [ [ [ 22.501303, 40.639552100349974 ], [ 22.5015537, 40.639325100349936 ], [ 22.5016432, 40.639183200349919 ], [ 22.5013642, 40.639013100349906 ], [ 22.5010976, 40.638883400349883 ], [ 22.5007468, 40.639222800349934 ], [ 22.501303, 40.639552100349974 ] ] ] } },
{ "type": "Feature", "properties": { "osm_id": 1387993579, "name": null, "label": "natural:heath", "landuse": null, "building": null, "sport": null, "leisure": null, "aeroway": null, "military": null, "natural": "heath", "amenity": null, "waterway": null }, "geometry": { "type": "Polygon", "coordinates": [ [ [ 22.5017962, 40.638870800349878 ], [ 22.5018116, 40.639020500349893 ], [ 22.5018023, 40.639170100349929 ], [ 22.5017561, 40.639303300349944 ], [ 22.5017559, 40.63935770034994 ], [ 22.5018063, 40.63935850034995 ], [ 22.50216, 40.639173400349911 ], [ 22.5024161, 40.63908700034991 ], [ 22.5017683, 40.638603100349854 ], [ 22.5016291, 40.638723600349849 ], [ 22.5017962, 40.638870800349878 ] ] ] } },
{ "type": "Feature", "properties": { "osm_id": 1387993573, "name": null, "label": "landuse:farmland", "landuse": "farmland", "building": null, "sport": null, "leisure": null, "aeroway": null, "military": null, "natural": null, "amenity": null, "waterway": null }, "geometry": { "type": "Polygon", "coordinates": [ [ [ 22.5044673, 40.643610600350463 ], [ 22.5046774, 40.643426400350442 ], [ 22.5042058, 40.643072000350386 ], [ 22.5039069, 40.642785000350358 ], [ 22.5038649, 40.642579500350337 ], [ 22.5039396, 40.642416500350315 ], [ 22.5040003, 40.642423500350304 ], [ 22.5040096, 40.642515700350323 ], [ 22.5041077, 40.64265030035034 ], [ 22.5042501, 40.64276660035037 ], [ 22.5047148, 40.642381300350294 ], [ 22.5048659, 40.642486300350328 ], [ 22.5057469, 40.641686500350218 ], [ 22.5057656, 40.641597900350213 ], [ 22.5057282, 40.641519900350183 ], [ 22.5049063, 40.640931700350137 ], [ 22.503071, 40.642536900350322 ], [ 22.5030383, 40.642583000350335 ], [ 22.5044673, 40.643610600350463 ] ] ] } },
{ "type": "Feature", "properties": { "osm_id": 1387993578, "name": null, "label": "natural:heath", "landuse": null, "building": null, "sport": null, "leisure": null, "aeroway": null, "military": null, "natural": "heath", "amenity": null, "waterway": null }, "geometry": { "type": "Polygon", "coordinates": [ [ [ 22.5036042, 40.639402800349941 ], [ 22.5036396, 40.639330200349939 ], [ 22.5037033, 40.639322200349937 ], [ 22.5038414, 40.639322200349937 ], [ 22.5042625, 40.639332900349935 ], [ 22.5048146, 40.639443000349949 ], [ 22.5051402, 40.639480600349948 ], [ 22.5053738, 40.639443000349949 ], [ 22.5056817, 40.639488700349965 ], [ 22.505749, 40.639596100349969 ], [ 22.506064, 40.639722300349987 ], [ 22.5063294, 40.639776100349984 ], [ 22.5064553, 40.639757500350001 ], [ 22.5055368, 40.639105400349898 ], [ 22.5058051, 40.638637100349854 ], [ 22.5052965, 40.63844270034982 ], [ 22.5051691, 40.638404600349823 ], [ 22.5051088, 40.638514600349843 ], [ 22.5049594, 40.638690000349854 ], [ 22.5048216, 40.63881930034988 ], [ 22.5045695, 40.638900800349873 ], [ 22.5042145, 40.638950400349884 ], [ 22.5038199, 40.639033700349906 ], [ 22.50343, 40.639067400349902 ], [ 22.5032432, 40.6390107003499 ], [ 22.5026571, 40.638755500349866 ], [ 22.5036042, 40.639402800349941 ] ] ] } },
{ "type": "Feature", "properties": { "osm_id": 1387963111, "name": null, "label": "landuse:farmland", "landuse": "farmland", "building": null, "sport": null, "leisure": null, "aeroway": null, "military": null, "natural": null, "amenity": null, "waterway": null }, "geometry": { "type": "Polygon", "coordinates": [ [ [ 22.5012047, 40.637522300349715 ], [ 22.5012374, 40.637628600349728 ], [ 22.5012935, 40.63772080034974 ], [ 22.5013612, 40.637809400349752 ], [ 22.5014569, 40.637892600349751 ], [ 22.5026571, 40.638755500349866 ], [ 22.5032432, 40.6390107003499 ], [ 22.50343, 40.639067400349902 ], [ 22.5038199, 40.639033700349906 ], [ 22.5042145, 40.638950400349884 ], [ 22.5045695, 40.638900800349873 ], [ 22.5048216, 40.63881930034988 ], [ 22.5049594, 40.638690000349854 ], [ 22.5051088, 40.638514600349843 ], [ 22.5051691, 40.638404600349823 ], [ 22.5043509, 40.638159700349789 ], [ 22.5046864, 40.637574700349731 ], [ 22.5039732, 40.637079100349659 ], [ 22.5041183, 40.636791700349626 ], [ 22.5021573, 40.635647500349492 ], [ 22.5017678, 40.635835800349511 ], [ 22.5014969, 40.636101600349548 ], [ 22.5013008, 40.636374500349568 ], [ 22.5012494, 40.636590700349601 ], [ 22.5012541, 40.63703720034966 ], [ 22.501151, 40.637035000349648 ], [ 22.5012047, 40.637522300349715 ] ] ] } },
{ "type": "Feature", "properties": { "osm_id": 1387993576, "name": null, "label": "landuse:farmland", "landuse": "farmland", "building": null, "sport": null, "leisure": null, "aeroway": null, "military": null, "natural": null, "amenity": null, "waterway": null }, "geometry": { "type": "Polygon", "coordinates": [ [ [ 22.4995607, 40.637545000349718 ], [ 22.4997437, 40.637591200349739 ], [ 22.4999917, 40.637591200349739 ], [ 22.5001868, 40.637612800349721 ], [ 22.5003128, 40.637702300349744 ], [ 22.5007966, 40.638220600349804 ], [ 22.5011381, 40.63852290034982 ], [ 22.5015081, 40.638828300349886 ], [ 22.5016291, 40.638723600349849 ], [ 22.5017683, 40.638603100349854 ], [ 22.5013414, 40.638285400349815 ], [ 22.5010934, 40.638158900349801 ], [ 22.5008292, 40.637844200349754 ], [ 22.5007469, 40.637588500349722 ], [ 22.5006259, 40.63668110034962 ], [ 22.5006584, 40.636341800349562 ], [ 22.5007419, 40.636164400349557 ], [ 22.500896, 40.63594930034953 ], [ 22.5013497, 40.635393700349461 ], [ 22.501079, 40.635358000349456 ], [ 22.5004348, 40.636074800349533 ], [ 22.499063, 40.63623340034956 ], [ 22.4991197, 40.63689320034964 ], [ 22.498918, 40.637359800349692 ], [ 22.4995607, 40.637545000349718 ] ] ] } },
{ "type": "Feature", "properties": { "osm_id": 304412626, "name": null, "label": "landuse:residential", "landuse": "residential", "building": null, "sport": null, "leisure": null, "aeroway": null, "military": null, "natural": null, "amenity": null, "waterway": null }, "geometry": { "type": "Polygon", "coordinates": [ [ [ 22.5029318, 40.631536600348987 ], [ 22.5019806, 40.631435800348974 ], [ 22.5019123, 40.631576700348987 ], [ 22.5012696, 40.631582200348994 ], [ 22.4993903, 40.631312400348953 ], [ 22.4987471, 40.633754800349237 ], [ 22.4974064, 40.633331900349198 ], [ 22.4965725, 40.63310540034918 ], [ 22.4949409, 40.632973500349159 ], [ 22.4947019, 40.632783900349139 ], [ 22.4931164, 40.632529800349111 ], [ 22.4932163, 40.632184000349071 ], [ 22.4892666, 40.631556800348982 ], [ 22.4888242, 40.632482900349096 ], [ 22.488043326534701, 40.632785561616778 ], [ 22.488043326534701, 40.637466994888968 ], [ 22.4904566, 40.637966500349769 ], [ 22.4907927, 40.638986700349889 ], [ 22.4897748, 40.640108800350035 ], [ 22.4922998, 40.640705400350107 ], [ 22.4923963, 40.640728200350104 ], [ 22.4932797, 40.638112300349796 ], [ 22.4958916, 40.639984900350015 ], [ 22.4964885, 40.640471700350083 ], [ 22.4979308, 40.639215100349936 ], [ 22.4980552, 40.6391068003499 ], [ 22.497399, 40.638720100349865 ], [ 22.4988849, 40.637436400349692 ], [ 22.498918, 40.637359800349692 ], [ 22.4991197, 40.63689320034964 ], [ 22.499063, 40.63623340034956 ], [ 22.5004348, 40.636074800349533 ], [ 22.501079, 40.635358000349456 ], [ 22.5013497, 40.635393700349461 ], [ 22.5018309, 40.635457100349463 ], [ 22.5021573, 40.635647500349492 ], [ 22.5041183, 40.636791700349626 ], [ 22.5039732, 40.637079100349659 ], [ 22.5046864, 40.637574700349731 ], [ 22.5043509, 40.638159700349789 ], [ 22.5051691, 40.638404600349823 ], [ 22.5052965, 40.63844270034982 ], [ 22.5058051, 40.638637100349854 ], [ 22.5055368, 40.639105400349898 ], [ 22.5064553, 40.639757500350001 ], [ 22.5068367, 40.639290700349925 ], [ 22.5072725, 40.63946640034996 ], [ 22.5070905, 40.639764600349984 ], [ 22.5076016, 40.639944500350005 ], [ 22.5077152, 40.639984500350025 ], [ 22.5078527, 40.639816700349996 ], [ 22.5080485, 40.639901500350014 ], [ 22.5079889, 40.640009200350015 ], [ 22.5082741, 40.640146400350041 ], [ 22.5083813, 40.640004600350011 ], [ 22.5088621, 40.640220700350042 ], [ 22.5090293, 40.640009500350025 ], [ 22.5099851, 40.640464700350073 ], [ 22.5104438, 40.640621900350098 ], [ 22.5125819, 40.640674800350098 ], [ 22.5126128, 40.640517600350087 ], [ 22.5126433, 40.640362500350058 ], [ 22.5133253, 40.636894000349635 ], [ 22.5162673, 40.637338100349702 ], [ 22.5173298, 40.633209200349185 ], [ 22.5126768, 40.632800900349139 ], [ 22.5127401, 40.632248700349074 ], [ 22.5117832, 40.632128800349058 ], [ 22.5120554, 40.631490500348974 ], [ 22.506797852407729, 40.630592928570593 ], [ 22.505444818648655, 40.630592928570593 ], [ 22.5054269, 40.630652600348881 ], [ 22.505134332961795, 40.630592928570593 ], [ 22.50303327555115, 40.630592928570593 ], [ 22.5029318, 40.631536600348987 ] ] ] } },
{ "type": "Feature", "properties": { "osm_id": 1387963110, "name": null, "label": "leisure:park", "landuse": null, "building": null, "sport": null, "leisure": "park", "aeroway": null, "military": null, "natural": null, "amenity": null, "waterway": null }, "geometry": { "type": "Polygon", "coordinates": [ [ [ 22.5089789, 40.636427700349586 ], [ 22.5090196, 40.636421500349591 ], [ 22.509046, 40.63640450034957 ], [ 22.5097717, 40.635732000349492 ], [ 22.509794, 40.635685700349498 ], [ 22.5097859, 40.635651800349493 ], [ 22.5088549, 40.635662600349498 ], [ 22.5088549, 40.635929400349532 ], [ 22.5085846, 40.635934100349523 ], [ 22.5089789, 40.636427700349586 ] ] ] } },
{ "type": "Feature", "properties": { "osm_id": 488216168, "name": null, "label": "landuse:railway", "landuse": "railway", "building": null, "sport": null, "leisure": null, "aeroway": null, "military": null, "natural": null, "amenity": null, "waterway": null }, "geometry": { "type": "Polygon", "coordinates": [ [ [ 22.5168508, 40.632118600349052 ], [ 22.5168648, 40.632057100349051 ], [ 22.507579694499583, 40.630592928570593 ], [ 22.50717448667201, 40.630592928570593 ], [ 22.5168508, 40.632118600349052 ] ] ] } },
{ "type": "Feature", "properties": { "osm_id": 487982527, "name": null, "label": "landuse:farmland", "landuse": "farmland", "building": null, "sport": null, "leisure": null, "aeroway": null, "military": null, "natural": null, "amenity": null, "waterway": null }, "geometry": { "type": "Polygon", "coordinates": [ [ [ 22.5175309, 40.63190840034904 ], [ 22.5180191, 40.631811500349016 ], [ 22.518826407243438, 40.631973520308222 ], [ 22.518826407243438, 40.630592928570593 ], [ 22.509376444186934, 40.630592928570593 ], [ 22.5175309, 40.63190840034904 ] ] ] } },
{ "type": "Feature", "properties": { "osm_id": 1388049683, "name": null, "label": "landuse:farmland", "landuse": "farmland", "building": null, "sport": null, "leisure": null, "aeroway": null, "military": null, "natural": null, "amenity": null, "waterway": null }, "geometry": { "type": "Polygon", "coordinates": [ [ [ 22.4889795, 40.640923700350129 ], [ 22.4890873, 40.641040600350145 ], [ 22.4897748, 40.640108800350035 ], [ 22.4907927, 40.638986700349889 ], [ 22.4904566, 40.637966500349769 ], [ 22.488043326534701, 40.637466994888968 ], [ 22.488043326534701, 40.640766098670397 ], [ 22.4889795, 40.640923700350129 ] ] ] } },
{ "type": "Feature", "properties": { "osm_id": 1388229099, "name": null, "label": "landuse:farmland", "landuse": "farmland", "building": null, "sport": null, "leisure": null, "aeroway": null, "military": null, "natural": null, "amenity": null, "waterway": null }, "geometry": { "type": "Polygon", "coordinates": [ [ [ 22.4888242, 40.632482900349096 ], [ 22.4892666, 40.631556800348982 ], [ 22.4932163, 40.632184000349071 ], [ 22.4931164, 40.632529800349111 ], [ 22.4947019, 40.632783900349139 ], [ 22.4949409, 40.632973500349159 ], [ 22.4965725, 40.63310540034918 ], [ 22.4974064, 40.633331900349198 ], [ 22.4987471, 40.633754800349237 ], [ 22.4993903, 40.631312400348953 ], [ 22.5012696, 40.631582200348994 ], [ 22.5019123, 40.631576700348987 ], [ 22.5019806, 40.631435800348974 ], [ 22.5029318, 40.631536600348987 ], [ 22.50303327555115, 40.630592928570593 ], [ 22.488043326534701, 40.630592928570593 ], [ 22.488043326534701, 40.632785561616778 ], [ 22.4888242, 40.632482900349096 ] ] ] } },
{ "type": "Feature", "properties": { "osm_id": 1387993585, "name": null, "label": "natural:heath", "landuse": null, "building": null, "sport": null, "leisure": null, "aeroway": null, "military": null, "natural": "heath", "amenity": null, "waterway": null }, "geometry": { "type": "Polygon", "coordinates": [ [ [ 22.4916324, 40.642130700350279 ], [ 22.4917156, 40.642186800350295 ], [ 22.4917063, 40.642320000350288 ], [ 22.4915861, 40.642593600350331 ], [ 22.4915707, 40.642694100350354 ], [ 22.4916139, 40.642754900350354 ], [ 22.4917248, 40.642796900350362 ], [ 22.4922455, 40.642871800350363 ], [ 22.4941373, 40.643107900350387 ], [ 22.495992, 40.643334700350422 ], [ 22.4978592, 40.643559100350465 ], [ 22.4989529, 40.643687700350469 ], [ 22.4999358, 40.643832600350493 ], [ 22.500096, 40.643834900350491 ], [ 22.5002069, 40.6438770003505 ], [ 22.5006783, 40.644029000350507 ], [ 22.5009957, 40.644138900350526 ], [ 22.5010789, 40.644138900350526 ], [ 22.5011405, 40.644120200350528 ], [ 22.5011744, 40.64407570035052 ], [ 22.5011775, 40.64403130035052 ], [ 22.5006999, 40.643832600350493 ], [ 22.5006435, 40.643799200350486 ], [ 22.5005053, 40.643759100350465 ], [ 22.4996963, 40.643574000350462 ], [ 22.4985945, 40.643429000350437 ], [ 22.4974603, 40.643296400350415 ], [ 22.4917564, 40.642614600350342 ], [ 22.4917279, 40.642568400350335 ], [ 22.4923963, 40.640728200350104 ], [ 22.4922998, 40.640705400350107 ], [ 22.4921685, 40.641003800350141 ], [ 22.4919651, 40.641345100350193 ], [ 22.4918604, 40.641525100350201 ], [ 22.4918604, 40.641656100350211 ], [ 22.4917679, 40.641810400350245 ], [ 22.4916416, 40.641903900350258 ], [ 22.4915276, 40.642081600350281 ], [ 22.4916324, 40.642130700350279 ] ] ] } },
{ "type": "Feature", "properties": { "osm_id": 1387993562, "name": null, "label": "landuse:orchard", "landuse": "orchard", "building": null, "sport": null, "leisure": null, "aeroway": null, "military": null, "natural": null, "amenity": null, "waterway": null }, "geometry": { "type": "Polygon", "coordinates": [ [ [ 22.4975727, 40.64124520035017 ], [ 22.4990393, 40.640048100350036 ], [ 22.4979308, 40.639215100349936 ], [ 22.4964885, 40.640471700350083 ], [ 22.4975727, 40.64124520035017 ] ] ] } },
{ "type": "Feature", "properties": { "osm_id": 1387993563, "name": null, "label": "landuse:farmland", "landuse": "farmland", "building": null, "sport": null, "leisure": null, "aeroway": null, "military": null, "natural": null, "amenity": null, "waterway": null }, "geometry": { "type": "Polygon", "coordinates": [ [ [ 22.4990986, 40.642324700350315 ], [ 22.5006029, 40.64114010035015 ], [ 22.4990393, 40.640048100350036 ], [ 22.4975727, 40.64124520035017 ], [ 22.4990986, 40.642324700350315 ] ] ] } },
{ "type": "Feature", "properties": { "osm_id": 1387993565, "name": null, "label": "landuse:orchard", "landuse": "orchard", "building": null, "sport": null, "leisure": null, "aeroway": null, "military": null, "natural": null, "amenity": null, "waterway": null }, "geometry": { "type": "Polygon", "coordinates": [ [ [ 22.4985945, 40.643429000350437 ], [ 22.4996963, 40.643574000350462 ], [ 22.5005053, 40.643759100350465 ], [ 22.5006435, 40.643799200350486 ], [ 22.5007208, 40.643793000350477 ], [ 22.4986352, 40.642263000350297 ], [ 22.4974603, 40.643296400350415 ], [ 22.4985945, 40.643429000350437 ] ] ] } },
{ "type": "Feature", "properties": { "osm_id": 1433979846, "name": null, "label": "aeroway:hangar;building:hangar", "landuse": null, "building": "hangar", "sport": null, "leisure": null, "aeroway": "hangar", "military": null, "natural": null, "amenity": null, "waterway": null }, "geometry": { "type": "Polygon", "coordinates": [ [ [ 22.4934274, 40.644409600350549 ], [ 22.493472, 40.644274200350537 ], [ 22.4931291, 40.644208600350531 ], [ 22.4930957, 40.64435250035055 ], [ 22.4934274, 40.644409600350549 ] ] ] } },
{ "type": "Feature", "properties": { "osm_id": 1433979841, "name": "Apron Z", "label": "aeroway:apron", "landuse": null, "building": null, "sport": null, "leisure": null, "aeroway": "apron", "military": null, "natural": null, "amenity": null, "waterway": null }, "geometry": { "type": "Polygon", "coordinates": [ [ [ 22.4941839, 40.644461500350566 ], [ 22.4942603, 40.64365370035047 ], [ 22.4937252, 40.64365370035047 ], [ 22.4934577, 40.644440800350552 ], [ 22.4941839, 40.644461500350566 ] ] ] } },
{ "type": "Feature", "properties": { "osm_id": 1433979847, "name": null, "label": "aeroway:hangar;building:hangar", "landuse": null, "building": "hangar", "sport": null, "leisure": null, "aeroway": "hangar", "military": null, "natural": null, "amenity": null, "waterway": null }, "geometry": { "type": "Polygon", "coordinates": [ [ [ 22.4935055, 40.644202300350528 ], [ 22.4935473, 40.644054200350524 ], [ 22.4932044, 40.643997100350518 ], [ 22.4931542, 40.644145200350529 ], [ 22.4935055, 40.644202300350528 ] ] ] } },
{ "type": "Feature", "properties": { "osm_id": 1433979848, "name": null, "label": "aeroway:hangar;building:hangar", "landuse": null, "building": "hangar", "sport": null, "leisure": null, "aeroway": "hangar", "military": null, "natural": null, "amenity": null, "waterway": null }, "geometry": { "type": "Polygon", "coordinates": [ [ [ 22.4935529, 40.643982300350515 ], [ 22.4936003, 40.643846900350489 ], [ 22.4932574, 40.643781300350483 ], [ 22.4932239, 40.643929400350487 ], [ 22.4935529, 40.643982300350515 ] ] ] } },
{ "type": "Feature", "properties": { "osm_id": 1433979849, "name": null, "label": "aeroway:hangar;building:hangar", "landuse": null, "building": "hangar", "sport": null, "leisure": null, "aeroway": "hangar", "military": null, "natural": null, "amenity": null, "waterway": null }, "geometry": { "type": "Polygon", "coordinates": [ [ [ 22.4936198, 40.64377280035049 ], [ 22.4936561, 40.643641700350472 ], [ 22.493302, 40.643593000350471 ], [ 22.4932657, 40.643719900350469 ], [ 22.4936198, 40.64377280035049 ] ] ] } },
{ "type": "Feature", "properties": { "osm_id": 1387993566, "name": null, "label": "landuse:farmland", "landuse": "farmland", "building": null, "sport": null, "leisure": null, "aeroway": null, "military": null, "natural": null, "amenity": null, "waterway": null }, "geometry": { "type": "Polygon", "coordinates": [ [ [ 22.4917564, 40.642614600350342 ], [ 22.4974603, 40.643296400350415 ], [ 22.4986352, 40.642263000350297 ], [ 22.495952, 40.640254700350056 ], [ 22.4958625, 40.640168300350041 ], [ 22.4958916, 40.639984900350015 ], [ 22.4932797, 40.638112300349796 ], [ 22.4923963, 40.640728200350104 ], [ 22.4917279, 40.642568400350335 ], [ 22.4917564, 40.642614600350342 ] ] ] } },
{ "type": "Feature", "properties": { "osm_id": 1433979845, "name": null, "label": "aeroway:hangar;building:hangar", "landuse": null, "building": "hangar", "sport": null, "leisure": null, "aeroway": "hangar", "military": null, "natural": null, "amenity": null, "waterway": null }, "geometry": { "type": "Polygon", "coordinates": [ [ [ 22.4923838, 40.645934500350734 ], [ 22.4928205, 40.645686000350715 ], [ 22.4925382, 40.64542890035068 ], [ 22.4920939, 40.645671700350711 ], [ 22.4923838, 40.645934500350734 ] ] ] } },
{ "type": "Feature", "properties": { "osm_id": 1387993586, "name": null, "label": "landuse:farmland", "landuse": "farmland", "building": null, "sport": null, "leisure": null, "aeroway": null, "military": null, "natural": null, "amenity": null, "waterway": null }, "geometry": { "type": "Polygon", "coordinates": [ [ [ 22.4901207, 40.644949700350622 ], [ 22.4901159, 40.644291800350537 ], [ 22.4905982, 40.643181400350407 ], [ 22.4901947, 40.643115000350413 ], [ 22.4902134, 40.642836400350369 ], [ 22.488043326534701, 40.642580910456395 ], [ 22.488043326534701, 40.644713717922592 ], [ 22.4901207, 40.644949700350622 ] ] ] } },
{ "type": "Feature", "properties": { "osm_id": 1388049682, "name": null, "label": "landuse:farmland", "landuse": "farmland", "building": null, "sport": null, "leisure": null, "aeroway": null, "military": null, "natural": null, "amenity": null, "waterway": null }, "geometry": { "type": "Polygon", "coordinates": [ [ [ 22.4906933, 40.642459800350316 ], [ 22.4910348, 40.64158060035021 ], [ 22.4891728, 40.641201200350153 ], [ 22.4890508, 40.641122500350164 ], [ 22.4889288, 40.641003700350133 ], [ 22.4888475, 40.640943600350141 ], [ 22.488043326534701, 40.640831466461862 ], [ 22.488043326534701, 40.642159653438682 ], [ 22.4906933, 40.642459800350316 ] ] ] } },
{ "type": "Feature", "properties": { "osm_id": 173230750, "name": null, "label": "aeroway:taxiway", "landuse": null, "building": null, "sport": null, "leisure": null, "aeroway": "taxiway", "military": null, "natural": null, "amenity": null, "waterway": null }, "geometry": { "type": "LineString", "coordinates": [ [ 22.4939509, 40.643627900350452 ], [ 22.4938651, 40.644319800350544 ], [ 22.4938597, 40.644387000350548 ], [ 22.4938785, 40.644419600350567 ], [ 22.4939107, 40.644435900350565 ], [ 22.4939644, 40.644462300350561 ], [ 22.4940153, 40.644482700350565 ], [ 22.4940663, 40.644492800350577 ], [ 22.4953993, 40.644492800350577 ], [ 22.4965312, 40.644488800350572 ], [ 22.4967699, 40.644490800350567 ], [ 22.4968558, 40.644494900350573 ], [ 22.4969389, 40.64450500035057 ], [ 22.4970274, 40.644519300350566 ], [ 22.4971159, 40.644549800350575 ], [ 22.4971857, 40.644578300350567 ], [ 22.4972715, 40.644625100350574 ], [ 22.4974217, 40.644722800350593 ], [ 22.4978321, 40.645026100350627 ], [ 22.4979045, 40.64509320035063 ], [ 22.4979474, 40.645154300350647 ], [ 22.4979877, 40.645237700350656 ], [ 22.4979984, 40.645327300350665 ], [ 22.4980011, 40.645406600350675 ], [ 22.497985, 40.645496200350685 ], [ 22.4979474, 40.645577600350705 ], [ 22.4979018, 40.645650800350715 ], [ 22.4978348, 40.645720000350721 ], [ 22.497757, 40.645785200350716 ], [ 22.4976685, 40.645852300350732 ], [ 22.4975535, 40.645937200350737 ], [ 22.4972238, 40.646145000350757 ] ] } },
{ "type": "Feature", "properties": { "osm_id": 1433979853, "name": null, "label": "aeroway:taxiway", "landuse": null, "building": null, "sport": null, "leisure": null, "aeroway": "taxiway", "military": null, "natural": null, "amenity": null, "waterway": null }, "geometry": { "type": "LineString", "coordinates": [ [ 22.4941923, 40.646017200350762 ], [ 22.4942299, 40.645980500350753 ], [ 22.494254, 40.645935800350742 ], [ 22.4942621, 40.645893000350739 ], [ 22.4942567, 40.645854400350736 ], [ 22.4942393, 40.64580470035073 ] ] } },
{ "type": "Feature", "properties": { "osm_id": 173230777, "name": null, "label": "aeroway:taxiway", "landuse": null, "building": null, "sport": null, "leisure": null, "aeroway": "taxiway", "military": null, "natural": null, "amenity": null, "waterway": null }, "geometry": { "type": "LineString", "coordinates": [ [ 22.4940663, 40.644492800350577 ], [ 22.4936237, 40.644503000350568 ] ] } },
{ "type": "Feature", "properties": { "osm_id": 1387993561, "name": null, "label": "sport:running;leisure:track", "landuse": null, "building": null, "sport": "running", "leisure": "track", "aeroway": null, "military": null, "natural": null, "amenity": null, "waterway": null }, "geometry": { "type": "MultiLineString", "coordinates": [ [ [ 22.4910255, 40.641267000350176 ], [ 22.4906976, 40.64120060035016 ] ], [ [ 22.4906976, 40.64120060035016 ], [ 22.4898593, 40.641030800350151 ], [ 22.4897915, 40.641014500350138 ], [ 22.4897499, 40.641000400350144 ], [ 22.4897021, 40.640975900350142 ], [ 22.4896559, 40.640946700350128 ], [ 22.4896236, 40.640912800350137 ], [ 22.4895928, 40.640876500350124 ], [ 22.4895712, 40.640843800350119 ], [ 22.4895543, 40.640805200350115 ], [ 22.489545, 40.640767800350105 ], [ 22.4895389, 40.640728100350096 ], [ 22.4895404, 40.640682500350103 ], [ 22.489545, 40.640645100350099 ], [ 22.4895573, 40.640607700350081 ], [ 22.4895743, 40.640574900350089 ], [ 22.4895989, 40.640536400350094 ], [ 22.4896297, 40.64050480035008 ], [ 22.4896652, 40.640470900350074 ], [ 22.4896991, 40.640446300350078 ], [ 22.4897437, 40.640423000350083 ], [ 22.4898023, 40.640401900350071 ], [ 22.48985, 40.640389100350056 ], [ 22.4899101, 40.64038090035006 ], [ 22.4899887, 40.640377400350054 ], [ 22.4900534, 40.640385600350065 ], [ 22.4909869, 40.640590100350082 ], [ 22.491027, 40.640605300350089 ], [ 22.4910717, 40.640629900350085 ], [ 22.4911133, 40.640663800350104 ], [ 22.4911533, 40.640709400350097 ], [ 22.4911795, 40.640757300350117 ], [ 22.4911965, 40.640800500350103 ], [ 22.4912088, 40.640861300350117 ], [ 22.4912072, 40.640912800350137 ], [ 22.4911934, 40.640961900350142 ], [ 22.4911718, 40.641005100350142 ], [ 22.4911395, 40.641050700350156 ], [ 22.4910979, 40.641091600350144 ], [ 22.491047, 40.641126700350156 ], [ 22.4909839, 40.641153600350165 ], [ 22.4908976, 40.641181600350166 ], [ 22.4908067, 40.641196800350166 ], [ 22.4906976, 40.64120060035016 ] ] ] } },
{ "type": "Feature", "properties": { "osm_id": 26165925, "name": null, "label": "aeroway:runway", "landuse": null, "building": null, "sport": null, "leisure": null, "aeroway": "runway", "military": null, "natural": null, "amenity": null, "waterway": null }, "geometry": { "type": "LineString", "coordinates": [ [ 22.4972238, 40.646145000350757 ], [ 22.4957218, 40.64699460035088 ], [ 22.4955363, 40.647103500350894 ], [ 22.4953797, 40.64719550035089 ], [ 22.4934916, 40.648304500351038 ], [ 22.4932915, 40.648422000351047 ], [ 22.4931036, 40.648534300351059 ], [ 22.4916459, 40.64940510035116 ], [ 22.4894798, 40.650680500351307 ], [ 22.488043326534701, 40.65151506456953 ] ] } },
{ "type": "Feature", "properties": { "osm_id": 173230759, "name": null, "label": "aeroway:taxiway", "landuse": null, "building": null, "sport": null, "leisure": null, "aeroway": "taxiway", "military": null, "natural": null, "amenity": null, "waterway": null }, "geometry": { "type": "LineString", "coordinates": [ [ 22.4923041, 40.647134400350879 ], [ 22.4922477, 40.647177200350889 ], [ 22.4922263, 40.6472219003509 ], [ 22.4922156, 40.647268800350901 ], [ 22.4922209, 40.647313500350911 ], [ 22.4922429, 40.647362400350922 ] ] } },
{ "type": "Feature", "properties": { "osm_id": 1433979850, "name": null, "label": "aeroway:taxiway", "landuse": null, "building": null, "sport": null, "leisure": null, "aeroway": "taxiway", "military": null, "natural": null, "amenity": null, "waterway": null }, "geometry": { "type": "LineString", "coordinates": [ [ 22.4916791, 40.646768100350847 ], [ 22.4916952, 40.646821000350847 ], [ 22.4917301, 40.646869900350843 ], [ 22.491997, 40.647127100350886 ], [ 22.4920975, 40.647224000350896 ], [ 22.4922429, 40.647362400350922 ], [ 22.4923497, 40.64746410035093 ], [ 22.4925285, 40.647643700350947 ], [ 22.4927734, 40.647889500350956 ], [ 22.4929719, 40.648088900350999 ], [ 22.4931141, 40.64823340035101 ], [ 22.4931597, 40.648286300351032 ], [ 22.4931811, 40.648333100351024 ], [ 22.4931838, 40.648386000351053 ], [ 22.4931758, 40.648432800351046 ], [ 22.493157, 40.648475500351054 ], [ 22.4931036, 40.648534300351059 ] ] } },
{ "type": "Feature", "properties": { "osm_id": 173230756, "name": null, "label": "aeroway:taxiway", "landuse": null, "building": null, "sport": null, "leisure": null, "aeroway": "taxiway", "military": null, "natural": null, "amenity": null, "waterway": null }, "geometry": { "type": "LineString", "coordinates": [ [ 22.4925285, 40.647643700350947 ], [ 22.4925857, 40.64767370035095 ], [ 22.4926447, 40.647690000350963 ], [ 22.4927064, 40.647694100350968 ], [ 22.4927547, 40.64768590035095 ], [ 22.492811, 40.64767370035095 ] ] } },
{ "type": "Feature", "properties": { "osm_id": 173230763, "name": null, "label": "aeroway:taxiway", "landuse": null, "building": null, "sport": null, "leisure": null, "aeroway": "taxiway", "military": null, "natural": null, "amenity": null, "waterway": null }, "geometry": { "type": "LineString", "coordinates": [ [ 22.491997, 40.647127100350886 ], [ 22.4920653, 40.647158900350881 ], [ 22.492127, 40.647171100350889 ], [ 22.4922021, 40.647173100350891 ], [ 22.4922531, 40.647160900350897 ], [ 22.4923041, 40.647134400350879 ], [ 22.4941923, 40.646017200350762 ] ] } },
{ "type": "Feature", "properties": { "osm_id": 173230792, "name": null, "label": "aeroway:taxiway", "landuse": null, "building": null, "sport": null, "leisure": null, "aeroway": "taxiway", "military": null, "natural": null, "amenity": null, "waterway": null }, "geometry": { "type": "LineString", "coordinates": [ [ 22.4938946, 40.645492100350687 ], [ 22.4938276, 40.645475800350681 ], [ 22.4937653, 40.645475700350687 ], [ 22.4937042, 40.645488000350682 ], [ 22.4936479, 40.645516500350688 ], [ 22.4928673, 40.64597240035075 ], [ 22.4918025, 40.646595100350822 ], [ 22.4917488, 40.646627700350834 ], [ 22.4917059, 40.646670400350828 ], [ 22.4916845, 40.646719300350846 ], [ 22.4916791, 40.646768100350847 ] ] } },
{ "type": "Feature", "properties": { "osm_id": 173230794, "name": null, "label": "aeroway:taxiway", "landuse": null, "building": null, "sport": null, "leisure": null, "aeroway": "taxiway", "military": null, "natural": null, "amenity": null, "waterway": null }, "geometry": { "type": "LineString", "coordinates": [ [ 22.4941923, 40.646017200350762 ], [ 22.4942433, 40.645996800350751 ], [ 22.4942862, 40.645988700350728 ], [ 22.4943345, 40.645988700350728 ], [ 22.4943855, 40.645998800350746 ], [ 22.4944364, 40.646015100350745 ], [ 22.4944816, 40.646043900350747 ] ] } },
{ "type": "Feature", "properties": { "osm_id": 173230772, "name": null, "label": "aeroway:taxiway", "landuse": null, "building": null, "sport": null, "leisure": null, "aeroway": "taxiway", "military": null, "natural": null, "amenity": null, "waterway": null }, "geometry": { "type": "LineString", "coordinates": [ [ 22.4927734, 40.647889500350956 ], [ 22.492752, 40.647838600350973 ], [ 22.4927493, 40.647797900350973 ], [ 22.4927547, 40.647759200350968 ], [ 22.4927681, 40.647726600350971 ], [ 22.4927842, 40.647698200350959 ], [ 22.492811, 40.64767370035095 ], [ 22.4932026, 40.647443800350928 ], [ 22.4947234, 40.646540200350813 ] ] } },
{ "type": "Feature", "properties": { "osm_id": 173230752, "name": null, "label": "aeroway:taxiway", "landuse": null, "building": null, "sport": null, "leisure": null, "aeroway": "taxiway", "military": null, "natural": null, "amenity": null, "waterway": null }, "geometry": { "type": "LineString", "coordinates": [ [ 22.4931597, 40.648286300351032 ], [ 22.493216, 40.648318800351028 ], [ 22.493275, 40.648331100351029 ], [ 22.4933314, 40.648335100351034 ], [ 22.4933823, 40.648329000351033 ], [ 22.4934252, 40.648320900351045 ], [ 22.4934916, 40.648304500351038 ] ] } },
{ "type": "Feature", "properties": { "osm_id": 1433979852, "name": null, "label": "aeroway:taxiway", "landuse": null, "building": null, "sport": null, "leisure": null, "aeroway": "taxiway", "military": null, "natural": null, "amenity": null, "waterway": null }, "geometry": { "type": "LineString", "coordinates": [ [ 22.4947234, 40.646540200350813 ], [ 22.4947717, 40.646523900350822 ], [ 22.4948227, 40.646513700350802 ], [ 22.4948843, 40.646515800350819 ], [ 22.4949434, 40.646530000350808 ], [ 22.4949863, 40.646550400350819 ], [ 22.4950319, 40.646587000350813 ], [ 22.4954154, 40.646965500350873 ], [ 22.4954422, 40.647014400350876 ], [ 22.4954476, 40.647063200350878 ], [ 22.4954342, 40.647112000350887 ], [ 22.4954127, 40.647152800350888 ], [ 22.4953797, 40.64719550035089 ] ] } },
{ "type": "Feature", "properties": { "osm_id": 173230767, "name": null, "label": "aeroway:taxiway", "landuse": null, "building": null, "sport": null, "leisure": null, "aeroway": "taxiway", "military": null, "natural": null, "amenity": null, "waterway": null }, "geometry": { "type": "LineString", "coordinates": [ [ 22.4947234, 40.646540200350813 ], [ 22.494769, 40.646499500350814 ], [ 22.4947878, 40.646464900350814 ], [ 22.4947932, 40.646430300350787 ], [ 22.4947956, 40.646385500350803 ], [ 22.4947696, 40.646328200350787 ] ] } },
{ "type": "Feature", "properties": { "osm_id": 1433979851, "name": null, "label": "aeroway:taxiway", "landuse": null, "building": null, "sport": null, "leisure": null, "aeroway": "taxiway", "military": null, "natural": null, "amenity": null, "waterway": null }, "geometry": { "type": "LineString", "coordinates": [ [ 22.4950319, 40.646587000350813 ], [ 22.4947696, 40.646328200350787 ], [ 22.4944816, 40.646043900350747 ], [ 22.4942393, 40.64580470035073 ], [ 22.4939885, 40.645557200350694 ], [ 22.4939402, 40.645516500350688 ], [ 22.4938946, 40.645492100350687 ] ] } },
{ "type": "Feature", "properties": { "osm_id": 173230775, "name": null, "label": "aeroway:taxiway", "landuse": null, "building": null, "sport": null, "leisure": null, "aeroway": "taxiway", "military": null, "natural": null, "amenity": null, "waterway": null }, "geometry": { "type": "LineString", "coordinates": [ [ 22.4954154, 40.646965500350873 ], [ 22.4954664, 40.64699200035087 ], [ 22.4955227, 40.647012300350873 ], [ 22.495579, 40.647018400350866 ], [ 22.4956407, 40.647016400350878 ], [ 22.4957218, 40.64699460035088 ] ] } },
{ "type": "Feature", "properties": { "osm_id": 162246853, "name": null, "label": "waterway:canal", "landuse": null, "building": null, "sport": null, "leisure": null, "aeroway": null, "military": null, "natural": null, "amenity": null, "waterway": "canal" }, "geometry": { "type": "LineString", "coordinates": [ [ 22.5017017, 40.635288000349441 ], [ 22.5017178, 40.635422400349448 ], [ 22.5017071, 40.63548750034947 ], [ 22.5016588, 40.635568900349483 ], [ 22.5012726, 40.636045200349535 ], [ 22.501117, 40.636220300349557 ], [ 22.5010312, 40.636375000349581 ], [ 22.5010044, 40.636541900349599 ], [ 22.5010044, 40.636729100349626 ], [ 22.5010717, 40.637458800349698 ], [ 22.5011009, 40.637588100349731 ], [ 22.5011975, 40.637734600349731 ], [ 22.5013209, 40.637852700349761 ], [ 22.5015301, 40.63801550034978 ], [ 22.5029302, 40.639016900349901 ], [ 22.5045502, 40.640201400350044 ], [ 22.5057519, 40.641052200350146 ], [ 22.5067335, 40.641776700350235 ], [ 22.5080907, 40.642749600350356 ], [ 22.5082839, 40.64288390035037 ], [ 22.5084716, 40.642965300350376 ], [ 22.5086916, 40.64300600035039 ], [ 22.5089383, 40.643022300350381 ], [ 22.5092012, 40.642993800350382 ], [ 22.5095123, 40.642953100350383 ], [ 22.5097376, 40.642924600350376 ], [ 22.5100005, 40.642932700350372 ], [ 22.5103438, 40.642965300350376 ], [ 22.5133962, 40.64340490035044 ], [ 22.5135625, 40.643437500350437 ], [ 22.5137073, 40.64351070035044 ], [ 22.513836, 40.643616600350455 ], [ 22.5155118, 40.645095400350648 ], [ 22.5173705, 40.64668310035082 ], [ 22.518826407243438, 40.647923671568478 ] ] } },
{ "type": "Feature", "properties": { "osm_id": 162246949, "name": null, "label": "waterway:canal", "landuse": null, "building": null, "sport": null, "leisure": null, "aeroway": null, "military": null, "natural": null, "amenity": null, "waterway": "canal" }, "geometry": { "type": "LineString", "coordinates": [ [ 22.503503341518606, 40.630592928570593 ], [ 22.5039053, 40.631106500348942 ], [ 22.5039322, 40.631179800348946 ], [ 22.5039429, 40.631265300348943 ], [ 22.5039214, 40.631371100348964 ], [ 22.503841, 40.631582800348987 ], [ 22.5035513, 40.632217900349055 ], [ 22.5034011, 40.632547700349129 ], [ 22.5029129, 40.633577700349235 ], [ 22.502693, 40.633997000349282 ], [ 22.5025481, 40.63422090034932 ], [ 22.5021512, 40.634672700349377 ], [ 22.5017864, 40.635096100349408 ], [ 22.5017328, 40.635193800349434 ], [ 22.5017017, 40.635288000349441 ] ] } },
{ "type": "Feature", "properties": { "osm_id": 350197789, "name": null, "label": "waterway:stream", "landuse": null, "building": null, "sport": null, "leisure": null, "aeroway": null, "military": null, "natural": null, "amenity": null, "waterway": "stream" }, "geometry": { "type": "LineString", "coordinates": [ [ 22.5100826, 40.630788100348873 ], [ 22.508835811738233, 40.630592928570593 ] ] } },
{ "type": "Feature", "properties": { "osm_id": 339549367, "name": null, "label": "waterway:drain", "landuse": null, "building": null, "sport": null, "leisure": null, "aeroway": null, "military": null, "natural": null, "amenity": null, "waterway": "drain" }, "geometry": { "type": "LineString", "coordinates": [ [ 22.503311711464821, 40.630592928570593 ], [ 22.5037748, 40.631154000348936 ] ] } },
{ "type": "Feature", "properties": { "osm_id": 350197792, "name": null, "label": "waterway:stream", "landuse": null, "building": null, "sport": null, "leisure": null, "aeroway": null, "military": null, "natural": null, "amenity": null, "waterway": "stream" }, "geometry": { "type": "LineString", "coordinates": [ [ 22.5101896, 40.630805000348893 ], [ 22.5100826, 40.630788100348873 ] ] } },
{ "type": "Feature", "properties": { "osm_id": 350197790, "name": null, "label": "waterway:stream", "landuse": null, "building": null, "sport": null, "leisure": null, "aeroway": null, "military": null, "natural": null, "amenity": null, "waterway": "stream" }, "geometry": { "type": "LineString", "coordinates": [ [ 22.5132956, 40.631297600348965 ], [ 22.5101896, 40.630805000348893 ] ] } },
{ "type": "Feature", "properties": { "osm_id": 350197791, "name": null, "label": "waterway:stream", "landuse": null, "building": null, "sport": null, "leisure": null, "aeroway": null, "military": null, "natural": null, "amenity": null, "waterway": "stream" }, "geometry": { "type": "LineString", "coordinates": [ [ 22.5134619, 40.631322000348945 ], [ 22.5132956, 40.631297600348965 ] ] } },
{ "type": "Feature", "properties": { "osm_id": 350197793, "name": null, "label": "waterway:stream", "landuse": null, "building": null, "sport": null, "leisure": null, "aeroway": null, "military": null, "natural": null, "amenity": null, "waterway": "stream" }, "geometry": { "type": "LineString", "coordinates": [ [ 22.518826407243438, 40.632041429742195 ], [ 22.518081, 40.631887300349028 ], [ 22.5179898, 40.631875100349021 ], [ 22.51792, 40.631887300349028 ], [ 22.5176894, 40.63195250034903 ], [ 22.5176143, 40.631964700349037 ], [ 22.5175445, 40.631968700349049 ], [ 22.5134619, 40.631322000348945 ] ] } },
{ "type": "Feature", "properties": { "osm_id": 9234655345, "name": "ΕΛΙΝΟΙΛ", "label": "amenity:fuel", "landuse": null, "building": null, "sport": null, "leisure": null, "aeroway": null, "military": null, "natural": null, "amenity": "fuel", "waterway": null }, "geometry": { "type": "Point", "coordinates": [ 22.4910531, 40.642589300350338 ] } },
{ "type": "Feature", "properties": { "osm_id": 7481885799, "name": "Dimis Design", "label": "amenity:cafe", "landuse": null, "building": null, "sport": null, "leisure": null, "aeroway": null, "military": null, "natural": null, "amenity": "cafe", "waterway": null }, "geometry": { "type": "Point", "coordinates": [ 22.5066182, 40.632822200349139 ] } },
{ "type": "Feature", "properties": { "osm_id": 9234663926, "name": "SILKOIL", "label": "amenity:fuel", "landuse": null, "building": null, "sport": null, "leisure": null, "aeroway": null, "military": null, "natural": null, "amenity": "fuel", "waterway": null }, "geometry": { "type": "Point", "coordinates": [ 22.5077725, 40.632681300349127 ] } }
]
}
