{
"type": "FeatureCollection",
"name": "patch_95933_point",
"crs": { "type": "name", "properties": { "name": "urn:ogc:def:crs:OGC:1.3:CRS84" } },
"features": [
{ "type": "Feature", "properties": { "osm_id": 9234655345, "name": "ΕΛΙΝΟΙΛ", "label": "amenity:fuel", "amenity": "fuel" }, "geometry": { "type": "Point", "coordinates": [ 22.4910531, 40.642589300350338 ] } },
{ "type": "Feature", "properties": { "osm_id": 7481885799, "name": "Dimis Design", "label": "amenity:cafe", "amenity": "cafe" }, "geometry": { "type": "Point", "coordinates": [ 22.5066182, 40.632822200349139 ] } },
{ "type": "Feature", "properties": { "osm_id": 9234663926, "name": "SILKOIL", "label": "amenity:fuel", "amenity": "fuel" }, "geometry": { "type": "Point", "coordinates": [ 22.5077725, 40.632681300349127 ] } }
]
}
