{
"type": "FeatureCollection",
"name": "patch_99868_polygon",
"crs": { "type": "name", "properties": { "name": "urn:ogc:def:crs:OGC:1.3:CRS84" } },
"features": [
{ "type": "Feature", "properties": { "element": "relation", "id": 1844399, "ele": null, "natural": "wood", "name": null, "name:el": null, "name:en": null, "leaf_type": "needleleaved", "source": "http://geodata.gov.gr/", "type": "multipolygon", "label": "natural:wood" }, "geometry": { "type": "Polygon", "coordinates": [ [ [ 23.869342, 35.360093 ], [ 23.869657, 35.36007 ], [ 23.869755, 35.359818 ], [ 23.870367, 35.359502 ], [ 23.870922, 35.359315 ], [ 23.871379, 35.359022 ], [ 23.871575, 35.358755 ], [ 23.871836, 35.358542 ], [ 23.872097, 35.358462 ], [ 23.872325, 35.358623 ], [ 23.872487, 35.358756 ], [ 23.87265, 35.358783 ], [ 23.872879, 35.358783 ], [ 23.873205, 35.35873 ], [ 23.873466, 35.358544 ], [ 23.873674, 35.358069 ], [ 23.87407, 35.357422 ], [ 23.874515, 35.357058 ], [ 23.874664, 35.356775 ], [ 23.874664, 35.356654 ], [ 23.874516, 35.356208 ], [ 23.874023, 35.356127 ], [ 23.873331, 35.356126 ], [ 23.872557, 35.356139 ], [ 23.872166, 35.356005 ], [ 23.872003, 35.355898 ], [ 23.871775, 35.355711 ], [ 23.871515, 35.355257 ], [ 23.871385, 35.354749 ], [ 23.871223, 35.354322 ], [ 23.870736, 35.353253 ], [ 23.870574, 35.352505 ], [ 23.87064, 35.351918 ], [ 23.87113, 35.351518 ], [ 23.871521, 35.351385 ], [ 23.871684, 35.351332 ], [ 23.872076, 35.351065 ], [ 23.872402, 35.350825 ], [ 23.872598, 35.350611 ], [ 23.872663, 35.350505 ], [ 23.872664, 35.350291 ], [ 23.872533, 35.350211 ], [ 23.871914, 35.350157 ], [ 23.871729, 35.34977 ], [ 23.871391, 35.349446 ], [ 23.871242, 35.349015 ], [ 23.871205, 35.348646 ], [ 23.871355, 35.348369 ], [ 23.871431, 35.348031 ], [ 23.871244, 35.347539 ], [ 23.871132, 35.347292 ], [ 23.871132, 35.347108 ], [ 23.871283, 35.346677 ], [ 23.871509, 35.346431 ], [ 23.871706109960027, 35.34626980785491 ], [ 23.862348450792247, 35.34626980785491 ], [ 23.862348450792247, 35.347576547142857 ], [ 23.862719, 35.347868 ], [ 23.865307, 35.349655 ], [ 23.866285, 35.351338 ], [ 23.867592, 35.353257 ], [ 23.868034, 35.354003 ], [ 23.867857, 35.354166 ], [ 23.866505, 35.354401 ], [ 23.865397, 35.35449 ], [ 23.864446, 35.354765 ], [ 23.864021, 35.355253 ], [ 23.86372, 35.355714 ], [ 23.863682, 35.356022 ], [ 23.863719, 35.356422 ], [ 23.863906, 35.356822 ], [ 23.864206, 35.356884 ], [ 23.864394, 35.356853 ], [ 23.864732, 35.356638 ], [ 23.865071, 35.3563 ], [ 23.86566, 35.355924 ], [ 23.8666, 35.355495 ], [ 23.867727, 35.355096 ], [ 23.868153, 35.35495 ], [ 23.868565, 35.355166 ], [ 23.868565, 35.355535 ], [ 23.868414, 35.355812 ], [ 23.868414, 35.35615 ], [ 23.868526, 35.356335 ], [ 23.868676, 35.356489 ], [ 23.868863, 35.356674 ], [ 23.868938, 35.35692 ], [ 23.868938, 35.357289 ], [ 23.869012, 35.357535 ], [ 23.869275, 35.357843 ], [ 23.869736, 35.358498 ], [ 23.869507, 35.358881 ], [ 23.869086, 35.359451 ], [ 23.869056, 35.35985 ], [ 23.869342, 35.360093 ] ] ] } },
{ "type": "Feature", "properties": { "element": "way", "id": 136869212, "ele": null, "natural": "wood", "name": null, "name:el": null, "name:en": null, "leaf_type": "needleleaved", "source": "http://geodata.gov.gr/", "type": null, "label": "natural:wood" }, "geometry": { "type": "Polygon", "coordinates": [ [ [ 23.8707338, 35.3685905 ], [ 23.8710238, 35.3685115 ], [ 23.8714118, 35.3684855 ], [ 23.8716698, 35.3685655 ], [ 23.871812040519924, 35.368653500944234 ], [ 23.875180775832671, 35.368653500944234 ], [ 23.8751078, 35.3681745 ], [ 23.8750128, 35.3678755 ], [ 23.8746488, 35.3676715 ], [ 23.8741058, 35.3673785 ], [ 23.8738628, 35.3671045 ], [ 23.8738628, 35.3669165 ], [ 23.8742858, 35.3665235 ], [ 23.8746698, 35.3663985 ], [ 23.8755008, 35.3664455 ], [ 23.8758948, 35.3666405 ], [ 23.8760528, 35.3669635 ], [ 23.8762098, 35.3672225 ], [ 23.8763288, 35.3672875 ], [ 23.8767618, 35.3674815 ], [ 23.8771178, 35.3674175 ], [ 23.8775128, 35.3672555 ], [ 23.8777498, 35.3671265 ], [ 23.8781838, 35.3668365 ], [ 23.8783818, 35.3665775 ], [ 23.8785398, 35.3663195 ], [ 23.8785408, 35.3659965 ], [ 23.8788958, 35.3656735 ], [ 23.8790538, 35.3656415 ], [ 23.8790938, 35.3655115 ], [ 23.8790938, 35.3653175 ], [ 23.8787388, 35.3650265 ], [ 23.8785418, 35.3649295 ], [ 23.8781078, 35.3647025 ], [ 23.8781478, 35.3643475 ], [ 23.8784138, 35.3641715 ], [ 23.8787208, 35.3641715 ], [ 23.8789888, 35.3642975 ], [ 23.8795448, 35.3645805 ], [ 23.8798518, 35.3647385 ], [ 23.8800238, 35.3648485 ], [ 23.8805271, 35.3652585 ], [ 23.8809568, 35.3652865 ], [ 23.8817658, 35.3647115 ], [ 23.8823188, 35.3646475 ], [ 23.8824768, 35.3645505 ], [ 23.8825948, 35.3644535 ], [ 23.8826348, 35.3642595 ], [ 23.8825558, 35.3640985 ], [ 23.8823978, 35.3640015 ], [ 23.8822408, 35.3639365 ], [ 23.8818068, 35.3638385 ], [ 23.8816088, 35.3637735 ], [ 23.8814518, 35.3635475 ], [ 23.8813338, 35.3632245 ], [ 23.8812948, 35.3629335 ], [ 23.8812558, 35.3625125 ], [ 23.8811778, 35.3619305 ], [ 23.8810988, 35.3618015 ], [ 23.8810208, 35.3614135 ], [ 23.8800748, 35.3604105 ], [ 23.8792078, 35.3600865 ], [ 23.8781808, 35.3598465 ], [ 23.8777878, 35.3596315 ], [ 23.8765368, 35.3596705 ], [ 23.8755468, 35.3600415 ], [ 23.8753798, 35.3602765 ], [ 23.8754978, 35.3605025 ], [ 23.8758518, 35.3606975 ], [ 23.8764438, 35.3609565 ], [ 23.8765618, 35.3610215 ], [ 23.8768778, 35.3611185 ], [ 23.8771928, 35.3612155 ], [ 23.8775478, 35.3613455 ], [ 23.8777848, 35.3616045 ], [ 23.8777838, 35.3619275 ], [ 23.8776658, 35.3619925 ], [ 23.8773888, 35.3621535 ], [ 23.8772308, 35.3623795 ], [ 23.8771518, 35.3624765 ], [ 23.8768358, 35.3626375 ], [ 23.8766778, 35.3626695 ], [ 23.8762838, 35.3626375 ], [ 23.8760468, 35.3625395 ], [ 23.8759678, 35.3624105 ], [ 23.8759288, 35.3622165 ], [ 23.8759288, 35.3620545 ], [ 23.8759298, 35.3618285 ], [ 23.8758908, 35.3615705 ], [ 23.8753778, 35.3612785 ], [ 23.8747858, 35.3611485 ], [ 23.8737598, 35.3613415 ], [ 23.8734838, 35.3613415 ], [ 23.8732468, 35.3613405 ], [ 23.8728518, 35.3613405 ], [ 23.8722208, 35.3610815 ], [ 23.8721028, 35.3608875 ], [ 23.8719058, 35.3605965 ], [ 23.8715908, 35.3603375 ], [ 23.8710778, 35.3604335 ], [ 23.8708798, 35.3608855 ], [ 23.8709188, 35.3611445 ], [ 23.8712738, 35.3614035 ], [ 23.8717068, 35.3616945 ], [ 23.8717068, 35.3619215 ], [ 23.8714698, 35.3621145 ], [ 23.8711938, 35.3620825 ], [ 23.8707988, 35.3619845 ], [ 23.8703258, 35.3619845 ], [ 23.8698118, 35.3621455 ], [ 23.8693778, 35.3625975 ], [ 23.8695348, 35.3629855 ], [ 23.8695338, 35.3632115 ], [ 23.8693758, 35.3634055 ], [ 23.8691788, 35.3634375 ], [ 23.8690208, 35.3634055 ], [ 23.8688238, 35.3633085 ], [ 23.8685868, 35.3632105 ], [ 23.8681928, 35.3630815 ], [ 23.8676408, 35.3630155 ], [ 23.8670878, 35.3630155 ], [ 23.8668118, 35.3631125 ], [ 23.8664558, 35.3632735 ], [ 23.8662188, 35.3633375 ], [ 23.8659428, 35.3632725 ], [ 23.8652148, 35.3631485 ], [ 23.8645478, 35.3636075 ], [ 23.8646398, 35.3640795 ], [ 23.8648368, 35.3643055 ], [ 23.8651908, 35.3645645 ], [ 23.8654668, 35.3648885 ], [ 23.8658608, 35.3655035 ], [ 23.8663328, 35.3663115 ], [ 23.8667268, 35.3666035 ], [ 23.8670028, 35.3667325 ], [ 23.8673978, 35.3667655 ], [ 23.8678708, 35.3667665 ], [ 23.8682658, 35.3667985 ], [ 23.8685018, 35.3669935 ], [ 23.8686198, 35.3672845 ], [ 23.8685008, 35.3676715 ], [ 23.8682638, 35.3678335 ], [ 23.8682238, 35.3681245 ], [ 23.8684208, 35.3683835 ], [ 23.8685788, 35.3685775 ], [ 23.868591081920549, 35.368653500944234 ], [ 23.87062262186312, 35.368653500944234 ], [ 23.8707338, 35.3685905 ] ] ] } }
]
}
