{
"type": "FeatureCollection",
"name": "patch_33488_linestring",
"crs": { "type": "name", "properties": { "name": "urn:ogc:def:crs:OGC:1.3:CRS84" } },
"features": [
{ "type": "Feature", "properties": { "element": "way", "id": 4517719, "amenity": null, "name": null, "religion": null, "ele": null, "natural": "coastline", "source": "PGS", "intermittent": null, "waterway": null, "type": null, "label": "natural:coastline" }, "geometry": { "type": "LineString", "coordinates": [ [ 27.4135911, 36.3817022 ], [ 27.4136449, 36.381739 ], [ 27.4136423, 36.381793 ], [ 27.4136124, 36.3818191 ], [ 27.4136014, 36.3818561 ], [ 27.4135094, 36.3819128 ], [ 27.4134421, 36.381991 ], [ 27.4133856, 36.3819548 ], [ 27.4133499, 36.381883 ], [ 27.4133572, 36.3818155 ], [ 27.4133933, 36.381728 ], [ 27.4134395, 36.3816684 ], [ 27.4135071, 36.3816282 ], [ 27.413578, 36.3816428 ], [ 27.4135911, 36.3817022 ] ] } },
{ "type": "Feature", "properties": { "element": "way", "id": 54222625, "amenity": null, "name": null, "religion": null, "ele": null, "natural": "coastline", "source": "PGS", "intermittent": null, "waterway": null, "type": null, "label": "natural:coastline" }, "geometry": { "type": "LineString", "coordinates": [ [ 27.4274887, 36.4008425 ], [ 27.4273965, 36.4008552 ], [ 27.4271654, 36.400887 ], [ 27.4268816, 36.4009535 ], [ 27.4266262, 36.4010417 ], [ 27.4264123, 36.4012327 ], [ 27.426408679206517, 36.401253158374999 ] ] } },
{ "type": "Feature", "properties": { "element": "way", "id": 505271110, "amenity": null, "name": null, "religion": null, "ele": null, "natural": "coastline", "source": null, "intermittent": null, "waterway": null, "type": null, "label": "natural:coastline" }, "geometry": { "type": "LineString", "coordinates": [ [ 27.4134509, 36.3821577 ], [ 27.4134535, 36.3820994 ], [ 27.4134857, 36.382039 ], [ 27.413526, 36.3820023 ], [ 27.4135742, 36.3820325 ], [ 27.4135903, 36.3820886 ], [ 27.4135903, 36.3821405 ], [ 27.4135555, 36.3821664 ], [ 27.4135018, 36.3821707 ], [ 27.4134509, 36.3821577 ] ] } },
{ "type": "Feature", "properties": { "element": "way", "id": 505279598, "amenity": null, "name": null, "religion": null, "ele": null, "natural": "coastline", "source": null, "intermittent": null, "waterway": null, "type": null, "label": "natural:coastline" }, "geometry": { "type": "LineString", "coordinates": [ [ 27.4155039, 36.3834848 ], [ 27.4154815, 36.3834685 ], [ 27.4154714, 36.3834357 ], [ 27.4154897, 36.3834112 ], [ 27.4155385, 36.3834194 ], [ 27.4155568, 36.3834423 ], [ 27.4155832, 36.3834717 ], [ 27.415575, 36.383493 ], [ 27.4155405, 36.3834979 ], [ 27.4155039, 36.3834848 ] ] } },
{ "type": "Feature", "properties": { "element": "way", "id": 505279606, "amenity": null, "name": null, "religion": null, "ele": null, "natural": "coastline", "source": null, "intermittent": null, "waterway": null, "type": null, "label": "natural:coastline" }, "geometry": { "type": "LineString", "coordinates": [ [ 27.4194696, 36.3855876 ], [ 27.419451, 36.3855735 ], [ 27.4194486, 36.3855604 ], [ 27.4194638, 36.3855406 ], [ 27.4194825, 36.3855378 ], [ 27.4195047, 36.3855557 ], [ 27.4195105, 36.3855707 ], [ 27.4195023, 36.3855867 ], [ 27.4194825, 36.3855961 ], [ 27.4194696, 36.3855876 ] ] } },
{ "type": "Feature", "properties": { "element": "way", "id": 505279620, "amenity": null, "name": null, "religion": null, "ele": null, "natural": "coastline", "source": null, "intermittent": null, "waterway": null, "type": null, "label": "natural:coastline" }, "geometry": { "type": "LineString", "coordinates": [ [ 27.4211627, 36.3872438 ], [ 27.4211426, 36.3872255 ], [ 27.421148, 36.3871974 ], [ 27.4211681, 36.387179 ], [ 27.4211962, 36.387179 ], [ 27.4212177, 36.3872028 ], [ 27.4212244, 36.3872287 ], [ 27.4212097, 36.3872492 ], [ 27.4211882, 36.3872514 ], [ 27.4211627, 36.3872438 ] ] } },
{ "type": "Feature", "properties": { "element": "way", "id": 505279688, "amenity": null, "name": null, "religion": null, "ele": null, "natural": "coastline", "source": null, "intermittent": null, "waterway": null, "type": null, "label": "natural:coastline" }, "geometry": { "type": "LineString", "coordinates": [ [ 27.4229797, 36.3879549 ], [ 27.4229704, 36.3879371 ], [ 27.4229645, 36.3879239 ], [ 27.4229786, 36.3879126 ], [ 27.4230019, 36.3879155 ], [ 27.4230182, 36.3879305 ], [ 27.4230206, 36.3879512 ], [ 27.4230031, 36.3879624 ], [ 27.4229797, 36.3879549 ] ] } },
{ "type": "Feature", "properties": { "element": "way", "id": 505279720, "amenity": null, "name": null, "religion": null, "ele": null, "natural": "coastline", "source": null, "intermittent": null, "waterway": null, "type": null, "label": "natural:coastline" }, "geometry": { "type": "LineString", "coordinates": [ [ 27.4230381, 36.387922 ], [ 27.4230101, 36.3879042 ], [ 27.4230007, 36.3878854 ], [ 27.4230147, 36.3878741 ], [ 27.4230404, 36.3878807 ], [ 27.4230556, 36.3878938 ], [ 27.4230568, 36.3879089 ], [ 27.4230381, 36.387922 ] ] } },
{ "type": "Feature", "properties": { "element": "way", "id": 505279815, "amenity": null, "name": null, "religion": null, "ele": null, "natural": "coastline", "source": null, "intermittent": null, "waterway": null, "type": null, "label": "natural:coastline" }, "geometry": { "type": "LineString", "coordinates": [ [ 27.4230743, 36.3879681 ], [ 27.4230708, 36.3879465 ], [ 27.4230685, 36.387922 ], [ 27.423093, 36.3879051 ], [ 27.4231128, 36.3879173 ], [ 27.4231292, 36.3879352 ], [ 27.4231303, 36.387954 ], [ 27.4231093, 36.38797 ], [ 27.4230743, 36.3879681 ] ] } },
{ "type": "Feature", "properties": { "element": "way", "id": 505279831, "amenity": null, "name": null, "religion": null, "ele": null, "natural": "coastline", "source": null, "intermittent": null, "waterway": null, "type": null, "label": "natural:coastline" }, "geometry": { "type": "LineString", "coordinates": [ [ 27.4231735, 36.3879314 ], [ 27.4231689, 36.3879089 ], [ 27.4231875, 36.3878891 ], [ 27.4232156, 36.3878901 ], [ 27.4232494, 36.3878976 ], [ 27.4232716, 36.3879098 ], [ 27.4232599, 36.387954 ], [ 27.4232529, 36.38796 ], [ 27.4232272, 36.3879822 ], [ 27.4232062, 36.3879812 ], [ 27.4231875, 36.3879634 ], [ 27.4231735, 36.3879314 ] ] } },
{ "type": "Feature", "properties": { "element": "way", "id": 505279837, "amenity": null, "name": null, "religion": null, "ele": null, "natural": "coastline", "source": null, "intermittent": null, "waterway": null, "type": null, "label": "natural:coastline" }, "geometry": { "type": "LineString", "coordinates": [ [ 27.4220752, 36.3878025 ], [ 27.4220624, 36.3877828 ], [ 27.4220542, 36.387763 ], [ 27.4220682, 36.3877508 ], [ 27.4220962, 36.3877536 ], [ 27.4221149, 36.3877696 ], [ 27.4221242, 36.3877865 ], [ 27.4221102, 36.3878025 ], [ 27.4220752, 36.3878025 ] ] } },
{ "type": "Feature", "properties": { "element": "way", "id": 505279847, "amenity": null, "name": null, "religion": null, "ele": null, "natural": "coastline", "source": null, "intermittent": null, "waterway": null, "type": null, "label": "natural:coastline" }, "geometry": { "type": "LineString", "coordinates": [ [ 27.4238248, 36.3876018 ], [ 27.4238189, 36.3875877 ], [ 27.4238236, 36.3875736 ], [ 27.4238353, 36.3875576 ], [ 27.423861, 36.3875473 ], [ 27.423875, 36.3875642 ], [ 27.4238738, 36.3875858 ], [ 27.423868, 36.3876056 ], [ 27.4238516, 36.3876093 ], [ 27.4238248, 36.3876018 ] ] } },
{ "type": "Feature", "properties": { "element": "way", "id": 505279906, "amenity": null, "name": null, "religion": null, "ele": null, "natural": "coastline", "source": null, "intermittent": null, "waterway": null, "type": null, "label": "natural:coastline" }, "geometry": { "type": "LineString", "coordinates": [ [ 27.4239123, 36.3875529 ], [ 27.4239065, 36.3875351 ], [ 27.4239135, 36.3875087 ], [ 27.4238936, 36.3875097 ], [ 27.4238901, 36.3874928 ], [ 27.4239006, 36.387474 ], [ 27.4239088, 36.387458 ], [ 27.4239298, 36.3874495 ], [ 27.4239497, 36.3874524 ], [ 27.4239602, 36.3874712 ], [ 27.4239497, 36.3874937 ], [ 27.4239345, 36.3875059 ], [ 27.4239438, 36.387521 ], [ 27.4239403, 36.3875473 ], [ 27.4239287, 36.3875539 ], [ 27.4239245, 36.3875534 ], [ 27.4239123, 36.3875529 ] ] } },
{ "type": "Feature", "properties": { "element": "way", "id": 505279933, "amenity": null, "name": null, "religion": null, "ele": null, "natural": "coastline", "source": null, "intermittent": null, "waterway": null, "type": null, "label": "natural:coastline" }, "geometry": { "type": "LineString", "coordinates": [ [ 27.4263028, 36.388955 ], [ 27.4262851, 36.388945 ], [ 27.426286, 36.3889315 ], [ 27.4263045, 36.3889222 ], [ 27.4263205, 36.3889122 ], [ 27.4263355, 36.3889058 ], [ 27.4263541, 36.3889144 ], [ 27.4263559, 36.3889279 ], [ 27.4263479, 36.3889421 ], [ 27.4263355, 36.3889521 ], [ 27.4263222, 36.3889585 ], [ 27.4263028, 36.388955 ] ] } },
{ "type": "Feature", "properties": { "element": "way", "id": 709633028, "amenity": null, "name": null, "religion": null, "ele": null, "natural": null, "source": null, "intermittent": "yes", "waterway": "stream", "type": null, "label": "waterway:stream" }, "geometry": { "type": "LineString", "coordinates": [ [ 27.4271747, 36.3965315 ], [ 27.42719, 36.3969208 ], [ 27.4271951, 36.3971912 ], [ 27.4272918, 36.3973018 ], [ 27.427358, 36.3974166 ], [ 27.4274038, 36.3975968 ], [ 27.4274598, 36.3976788 ], [ 27.4274547, 36.3978304 ], [ 27.4273682, 36.3979 ], [ 27.427358, 36.3980312 ], [ 27.4274852, 36.398404 ], [ 27.4275921, 36.3984737 ], [ 27.4275819, 36.3986539 ], [ 27.4276583, 36.3988014 ], [ 27.427699, 36.3989407 ], [ 27.4276888, 36.3990637 ], [ 27.4276023, 36.3993259 ], [ 27.4276278, 36.3995389 ], [ 27.4275769, 36.3997479 ], [ 27.4274598, 36.4000019 ], [ 27.4274343, 36.4002969 ], [ 27.42747, 36.4005345 ], [ 27.4273965, 36.4008552 ] ] } }
]
}
