{
"type": "FeatureCollection",
"name": "patch_33488_multilinestring",
"crs": { "type": "name", "properties": { "name": "urn:ogc:def:crs:OGC:1.3:CRS84" } },
"features": [
{ "type": "Feature", "properties": { "element": "way", "id": 4576695, "amenity": null, "name": null, "religion": null, "ele": null, "natural": "coastline", "source": "PGS", "intermittent": null, "waterway": null, "type": null, "label": "natural:coastline" }, "geometry": { "type": "MultiLineString", "coordinates": [ [ [ 27.412005217380859, 36.381917948317458 ], [ 27.4122739, 36.3820282 ], [ 27.4126565, 36.3822194 ], [ 27.4129466, 36.3823758 ], [ 27.4132421, 36.3826636 ], [ 27.4134802, 36.3828045 ], [ 27.4137223, 36.3828963 ], [ 27.413927, 36.382733 ], [ 27.4140255, 36.3827409 ], [ 27.4141159, 36.3826473 ], [ 27.4142684, 36.3824275 ], [ 27.4145144, 36.3822733 ], [ 27.4146026, 36.3822287 ], [ 27.4147722, 36.3822987 ], [ 27.4149096, 36.3823806 ], [ 27.4149173, 36.3825231 ], [ 27.4150513, 36.3826172 ], [ 27.4151589, 36.3826544 ], [ 27.4153479, 36.3826262 ], [ 27.4154342, 36.3827301 ], [ 27.4152035, 36.3828995 ], [ 27.4151499, 36.3833662 ], [ 27.4151341, 36.3835148 ], [ 27.4154453, 36.3836258 ], [ 27.4155716, 36.3837388 ], [ 27.4158073, 36.3839232 ], [ 27.4166119, 36.3841837 ], [ 27.4168503, 36.3842977 ], [ 27.4170149, 36.3844247 ], [ 27.4171738, 36.3845902 ], [ 27.4172627, 36.3847369 ], [ 27.4174013, 36.3848486 ], [ 27.4175564, 36.3848872 ], [ 27.4177721, 36.3850423 ], [ 27.4177722, 36.3848337 ], [ 27.4176649, 36.3846918 ], [ 27.4176345, 36.3845758 ], [ 27.4178389, 36.3847358 ], [ 27.417857, 36.3849587 ], [ 27.4179034, 36.3851453 ], [ 27.4178984, 36.3853357 ], [ 27.4180742, 36.3853785 ], [ 27.4181985, 36.3855567 ], [ 27.4186405, 36.3854768 ], [ 27.4188381, 36.3855158 ], [ 27.4190117, 36.385682 ], [ 27.4192651, 36.3856587 ], [ 27.419348, 36.386183 ], [ 27.4194185, 36.3863325 ], [ 27.4196125, 36.3863922 ], [ 27.419984, 36.386309 ], [ 27.4201479, 36.3864273 ], [ 27.4203762, 36.3865464 ], [ 27.4206726, 36.3867822 ], [ 27.4210123, 36.3872942 ], [ 27.4212797, 36.3874448 ], [ 27.4214387, 36.3876029 ], [ 27.4215286, 36.3876895 ], [ 27.4215662, 36.3879528 ], [ 27.4217049, 36.3880786 ], [ 27.4219147, 36.388164 ], [ 27.422232, 36.3882682 ], [ 27.4226176, 36.3882444 ], [ 27.4226096, 36.3881799 ], [ 27.4228998, 36.3880574 ], [ 27.423157, 36.3880601 ], [ 27.4233836, 36.3880313 ], [ 27.4233802, 36.3879493 ], [ 27.4234719, 36.3879872 ], [ 27.4234804, 36.3881002 ], [ 27.42355, 36.3882206 ], [ 27.4236689, 36.3882394 ], [ 27.4237937, 36.3881022 ], [ 27.4238281, 36.3879283 ], [ 27.4239419, 36.3876868 ], [ 27.4240274, 36.3874886 ], [ 27.4240954, 36.3873068 ], [ 27.4240689, 36.3871738 ], [ 27.424149, 36.3869683 ], [ 27.4243925, 36.3867702 ], [ 27.4245496, 36.3866931 ], [ 27.4247916, 36.3866959 ], [ 27.4249076, 36.3867664 ], [ 27.4249904, 36.3869573 ], [ 27.425172, 36.3870678 ], [ 27.4254962, 36.3871005 ], [ 27.4258018, 36.3871369 ], [ 27.4259938, 36.3872211 ], [ 27.4260617, 36.3873271 ], [ 27.4263058, 36.38732 ], [ 27.4264139, 36.387448 ], [ 27.4265546, 36.3875534 ], [ 27.4266508, 36.3876276 ], [ 27.4265273, 36.3877885 ], [ 27.4262357, 36.3880547 ], [ 27.4259812, 36.3881884 ], [ 27.4259101, 36.3883642 ], [ 27.4258978, 36.3885499 ], [ 27.4259042, 36.3886678 ], [ 27.4259747, 36.3888097 ], [ 27.4261641, 36.3889295 ], [ 27.4263568, 36.3890571 ], [ 27.4264235, 36.3891922 ], [ 27.4264128, 36.3893477 ], [ 27.4264121, 36.3894856 ], [ 27.4264865, 36.3895207 ], [ 27.4267664, 36.3893453 ], [ 27.427944, 36.389107 ], [ 27.4284005, 36.3889936 ], [ 27.4287925, 36.3888693 ], [ 27.4291939, 36.388792 ], [ 27.4295487, 36.3886472 ], [ 27.4297588, 36.3885934 ], [ 27.4298498, 36.3886418 ], [ 27.4299934, 36.3886058 ], [ 27.4300996, 36.3886036 ], [ 27.4300747, 36.3887513 ], [ 27.4299875, 36.3888552 ], [ 27.430084, 36.3888507 ], [ 27.4300576, 36.3891116 ], [ 27.4301144, 36.3893323 ], [ 27.4300588, 36.3895442 ], [ 27.4299515, 36.3896163 ], [ 27.4299726, 36.389705 ], [ 27.4301467, 36.3898245 ], [ 27.4301666, 36.3899402 ], [ 27.4303796, 36.3900056 ], [ 27.4305414, 36.3899695 ], [ 27.4308015, 36.3900801 ], [ 27.4308335, 36.3901579 ], [ 27.4308281, 36.3902922 ], [ 27.4311833, 36.3903375 ], [ 27.4314227, 36.3904542 ], [ 27.4317733, 36.3905011 ], [ 27.4322172, 36.3903735 ], [ 27.4325676, 36.3903701 ], [ 27.4327648, 36.3905307 ], [ 27.4327659, 36.3907364 ], [ 27.4327625, 36.3910148 ], [ 27.434311, 36.391139 ], [ 27.4351753, 36.3912789 ], [ 27.4354419, 36.3913708 ], [ 27.4357083, 36.391481 ], [ 27.435873, 36.391608 ], [ 27.43613, 36.3918949 ], [ 27.4362157, 36.3924671 ], [ 27.4366366, 36.3926681 ], [ 27.4368474, 36.3927262 ], [ 27.4371698, 36.3930504 ], [ 27.4371115, 36.3932801 ], [ 27.4370544, 36.3934326 ], [ 27.4371186, 36.3934911 ], [ 27.4372589, 36.3935031 ], [ 27.4374039, 36.393549 ], [ 27.4377985, 36.3934146 ], [ 27.4379222, 36.393453 ], [ 27.4382967, 36.3936327 ], [ 27.438774, 36.393692 ], [ 27.4389713, 36.3938077 ], [ 27.4392568, 36.3940385 ], [ 27.4395562, 36.3941152 ], [ 27.4395378, 36.3943409 ], [ 27.43982, 36.3943573 ], [ 27.4399253, 36.3944882 ], [ 27.4399126, 36.3945799 ], [ 27.4397662, 36.3945619 ], [ 27.4396804, 36.3946717 ], [ 27.4395399, 36.3947934 ], [ 27.4394182, 36.3948392 ], [ 27.4392453, 36.3948207 ], [ 27.4391402, 36.3948867 ], [ 27.4393211, 36.3949723 ], [ 27.439418, 36.395103 ], [ 27.4395609, 36.395228 ], [ 27.4398565, 36.3952642 ], [ 27.4398906, 36.3951575 ], [ 27.4401782, 36.3952073 ], [ 27.4403173, 36.3952585 ], [ 27.4402935, 36.3953593 ], [ 27.4403563, 36.3954736 ], [ 27.4405325, 36.3954405 ], [ 27.440675731256064, 36.395390019146888 ] ], [ [ 27.427814994153234, 36.401253158374999 ], [ 27.4276477, 36.4009858 ], [ 27.4274887, 36.4008425 ] ] ] } }
]
}
