{
"type": "FeatureCollection",
"name": "patch_26751_features",
"crs": { "type": "name", "properties": { "name": "urn:ogc:def:crs:OGC:1.3:CRS84" } },
"features": [
{ "type": "Feature", "properties": { "osm_id": -10639591, "name": null, "label": "natural:wood", "natural": "wood", "landuse": null, "waterway": null }, "geometry": { "type": "MultiPolygon", "coordinates": [ [ [ [ 21.280299, 38.911421000113059 ], [ 21.2794607, 38.911510900113079 ], [ 21.279309, 38.911418800113061 ], [ 21.2792576, 38.911218900113042 ], [ 21.2791268, 38.91107720011302 ], [ 21.2790661, 38.910921000112999 ], [ 21.2789307, 38.910786500112977 ], [ 21.2787719, 38.910753800112978 ], [ 21.2786411, 38.910673900112961 ], [ 21.2784637, 38.910492200112927 ], [ 21.2783796, 38.910597600112943 ], [ 21.2782208, 38.910615700112949 ], [ 21.2781274, 38.910717500112973 ], [ 21.2780667, 38.910902800112986 ], [ 21.277908, 38.911059100113022 ], [ 21.2777212, 38.911211700113036 ], [ 21.277908, 38.911317100113052 ], [ 21.2776137, 38.911415200113062 ], [ 21.277455, 38.911509600113078 ], [ 21.2773849, 38.911691300113105 ], [ 21.2773896, 38.912134700113171 ], [ 21.2774316, 38.912309100113191 ], [ 21.2775717, 38.912472600113212 ], [ 21.2778192, 38.912592500113242 ], [ 21.2778192, 38.912479900113233 ], [ 21.2779593, 38.912490800113218 ], [ 21.2781228, 38.912636100113239 ], [ 21.2783376, 38.912708800113251 ], [ 21.2784917, 38.912832300113273 ], [ 21.2786645, 38.912955900113289 ], [ 21.2787486, 38.913104900113304 ], [ 21.2789213, 38.913133900113316 ], [ 21.2791829, 38.913068500113305 ], [ 21.279421, 38.913050400113306 ], [ 21.2795892, 38.913126700113317 ], [ 21.2794397, 38.913206600113327 ], [ 21.279309, 38.913217500113333 ], [ 21.2792809, 38.913377400113362 ], [ 21.2791222, 38.913250200113339 ], [ 21.2789307, 38.913301100113337 ], [ 21.2787439, 38.913450100113366 ], [ 21.2785664, 38.913570000113367 ], [ 21.2783516, 38.913660800113384 ], [ 21.2782395, 38.913784400113414 ], [ 21.2782442, 38.913904300113423 ], [ 21.278375, 38.913962400113434 ], [ 21.2785197, 38.914107800113463 ], [ 21.2786271, 38.914129600113448 ], [ 21.2785524, 38.913977000113441 ], [ 21.2785851, 38.913835200113418 ], [ 21.2787252, 38.913926100113436 ], [ 21.278954, 38.913966100113448 ], [ 21.2791829, 38.913918800113436 ], [ 21.2792856, 38.913729900113395 ], [ 21.2794117, 38.9137662001134 ], [ 21.2794911, 38.913911600113437 ], [ 21.2796919, 38.913962400113434 ], [ 21.2796966, 38.914096900113456 ], [ 21.279435, 38.914231300113464 ], [ 21.2796078, 38.914314900113496 ], [ 21.2798367, 38.914318500113495 ], [ 21.2800562, 38.914413000113498 ], [ 21.2803037, 38.914576500113526 ], [ 21.2806119, 38.914692800113542 ], [ 21.280649249131002, 38.914554703460958 ], [ 21.280649249131002, 38.91148218951745 ], [ 21.280299, 38.911421000113059 ] ] ], [ [ [ 21.279872, 38.922854000114725 ], [ 21.279402, 38.922909000114736 ], [ 21.279213, 38.923829000114857 ], [ 21.278953, 38.92428400011493 ], [ 21.278867, 38.924716000114984 ], [ 21.279111, 38.925589000115124 ], [ 21.27983, 38.925850000115162 ], [ 21.280649249131002, 38.925931007972615 ], [ 21.280649249131002, 38.922565324790035 ], [ 21.279872, 38.922854000114725 ] ] ] ] } },
{ "type": "Feature", "properties": { "osm_id": 135705273, "name": null, "label": "natural:wood", "natural": "wood", "landuse": null, "waterway": null }, "geometry": { "type": "Polygon", "coordinates": [ [ [ 21.270088, 38.932391000116112 ], [ 21.269923, 38.932039000116049 ], [ 21.269509, 38.931959000116038 ], [ 21.269337, 38.931945000116045 ], [ 21.267879, 38.931828000116028 ], [ 21.264377, 38.931635000115996 ], [ 21.263402, 38.931638000115996 ], [ 21.262704, 38.93165100011602 ], [ 21.262028, 38.931573000115982 ], [ 21.261236, 38.931398000115962 ], [ 21.260926, 38.931142000115941 ], [ 21.260955, 38.93092000011589 ], [ 21.260983, 38.930706000115869 ], [ 21.261266, 38.930535000115839 ], [ 21.2633, 38.930547000115837 ], [ 21.265165, 38.930464000115833 ], [ 21.26609, 38.930392000115823 ], [ 21.266625, 38.930405000115819 ], [ 21.26739, 38.930609000115851 ], [ 21.267714, 38.930686000115855 ], [ 21.268249, 38.930718000115867 ], [ 21.268367, 38.930724000115866 ], [ 21.268285, 38.929848000115747 ], [ 21.26846, 38.928970000115612 ], [ 21.268049, 38.928928000115597 ], [ 21.264459, 38.928410000115534 ], [ 21.263638, 38.928486000115541 ], [ 21.262847, 38.928697000115562 ], [ 21.261874, 38.928876000115601 ], [ 21.261126, 38.928674000115585 ], [ 21.260405, 38.928093000115489 ], [ 21.259816, 38.927940000115463 ], [ 21.258906, 38.927919000115459 ], [ 21.25788, 38.928066000115479 ], [ 21.25687, 38.92811200011549 ], [ 21.256237, 38.928141000115481 ], [ 21.255521, 38.928768000115582 ], [ 21.254912, 38.929116000115634 ], [ 21.253964, 38.929188000115644 ], [ 21.25351, 38.929461000115687 ], [ 21.252981, 38.9295740001157 ], [ 21.252451, 38.929751000115729 ], [ 21.251473, 38.930011000115762 ], [ 21.251032275345469, 38.930095407059433 ], [ 21.251032275345469, 38.932513046051547 ], [ 21.270114152658422, 38.932513046051547 ], [ 21.270088, 38.932391000116112 ] ] ] } },
{ "type": "Feature", "properties": { "osm_id": -10639589, "name": null, "label": "natural:wood", "natural": "wood", "landuse": null, "waterway": null }, "geometry": { "type": "Polygon", "coordinates": [ [ [ 21.252471, 38.914493000113502 ], [ 21.254091, 38.914655000113541 ], [ 21.255789, 38.914571000113533 ], [ 21.257402, 38.914156000113458 ], [ 21.259307, 38.913939000113437 ], [ 21.261361, 38.913973000113444 ], [ 21.262301, 38.914012000113445 ], [ 21.264388, 38.91434300011349 ], [ 21.265847, 38.914392000113502 ], [ 21.267094, 38.914214000113461 ], [ 21.267449, 38.914188000113469 ], [ 21.268767, 38.914461000113519 ], [ 21.269554, 38.914721000113552 ], [ 21.270254, 38.914945000113583 ], [ 21.271002, 38.915236000113623 ], [ 21.272442, 38.915453000113658 ], [ 21.272612, 38.915134000113618 ], [ 21.272739, 38.914563000113517 ], [ 21.272542, 38.914231000113482 ], [ 21.272082, 38.913934000113429 ], [ 21.271097, 38.913665000113397 ], [ 21.270591, 38.913203000113313 ], [ 21.270069, 38.913150000113312 ], [ 21.269336, 38.913133000113319 ], [ 21.267988, 38.912906000113274 ], [ 21.267702, 38.912793000113261 ], [ 21.266777, 38.912667000113238 ], [ 21.26585, 38.912576000113241 ], [ 21.264928, 38.912382000113212 ], [ 21.2640574, 38.912251500113193 ], [ 21.2639073, 38.912040200113168 ], [ 21.2637672, 38.911894800113124 ], [ 21.2637579, 38.9116550001131 ], [ 21.2637579, 38.91138610011307 ], [ 21.2639166, 38.91118990011303 ], [ 21.2641315, 38.911131700113025 ], [ 21.2644303, 38.911226200113042 ], [ 21.2647572, 38.911218900113042 ], [ 21.2650374, 38.91108810011302 ], [ 21.2653083, 38.911124500113019 ], [ 21.2655698, 38.91136430011305 ], [ 21.2659341, 38.911480600113073 ], [ 21.2665599, 38.911611400113095 ], [ 21.2669895, 38.911553300113084 ], [ 21.2673164, 38.911553300113084 ], [ 21.2674939, 38.911625900113094 ], [ 21.2677834, 38.911640500113094 ], [ 21.2680207, 38.911468700113076 ], [ 21.268608, 38.911649000113101 ], [ 21.270335, 38.911894000113122 ], [ 21.271644, 38.912306000113198 ], [ 21.272742, 38.912767000113263 ], [ 21.273876, 38.912803000113257 ], [ 21.274671, 38.912978000113291 ], [ 21.2770574, 38.91296730011328 ], [ 21.2774008, 38.912883200113278 ], [ 21.2775564, 38.91277890011326 ], [ 21.2773418, 38.912553500113241 ], [ 21.2771273, 38.912415700113208 ], [ 21.277197, 38.912286400113196 ], [ 21.2772024, 38.912056800113163 ], [ 21.2772024, 38.911735400113102 ], [ 21.2772453, 38.911505800113083 ], [ 21.276119, 38.911282000113033 ], [ 21.274561, 38.911089000113016 ], [ 21.273766, 38.910864000112966 ], [ 21.273264, 38.91061400011295 ], [ 21.272117, 38.910418000112919 ], [ 21.271529, 38.910400000112915 ], [ 21.269853, 38.910087000112867 ], [ 21.268999, 38.909910000112845 ], [ 21.268438, 38.909642000112804 ], [ 21.267995083090469, 38.909511153231314 ], [ 21.258183154046595, 38.909511153231314 ], [ 21.25853, 38.909586000112789 ], [ 21.260924, 38.910039000112867 ], [ 21.262653, 38.910239700112896 ], [ 21.2628706, 38.910470400112928 ], [ 21.2628986, 38.910659300112961 ], [ 21.2628892, 38.910848300112981 ], [ 21.2630387, 38.911008200113002 ], [ 21.2630387, 38.911139000113025 ], [ 21.2628799, 38.911131700113025 ], [ 21.2627398, 38.911211700113036 ], [ 21.2627024, 38.911429700113068 ], [ 21.2627678, 38.911625900113094 ], [ 21.2628519, 38.911873000113125 ], [ 21.2628052, 38.912054700113153 ], [ 21.2628612, 38.912381800113195 ], [ 21.2624129, 38.912134700113171 ], [ 21.2621514, 38.911931200113131 ], [ 21.262058, 38.911705900113112 ], [ 21.2618432, 38.911480600113073 ], [ 21.2617031, 38.911248000113041 ], [ 21.2615163, 38.911226200113042 ], [ 21.2612828, 38.911342500113065 ], [ 21.2612454, 38.911538700113084 ], [ 21.2611333, 38.911807600113114 ], [ 21.2611333, 38.912098300113165 ], [ 21.2613014, 38.912360000113196 ], [ 21.2613855, 38.912621600113241 ], [ 21.2616937, 38.912861400113258 ], [ 21.261579, 38.912999000113295 ], [ 21.261378, 38.913146000113315 ], [ 21.260924, 38.913164000113326 ], [ 21.260571, 38.913121000113314 ], [ 21.260132, 38.9130420001133 ], [ 21.259917, 38.912864000113274 ], [ 21.259526, 38.912682000113243 ], [ 21.259244, 38.912519000113228 ], [ 21.258492, 38.912502000113214 ], [ 21.257286, 38.912785000113274 ], [ 21.256132, 38.912861000113281 ], [ 21.255318, 38.91323300011333 ], [ 21.2546, 38.91355200011337 ], [ 21.253272, 38.913520000113373 ], [ 21.251462, 38.913180000113321 ], [ 21.251032275345469, 38.913145925035352 ], [ 21.251032275345469, 38.914444229792835 ], [ 21.252471, 38.914493000113502 ] ] ] } },
{ "type": "Feature", "properties": { "osm_id": 767208878, "name": null, "label": "natural:scrub", "natural": "scrub", "landuse": null, "waterway": null }, "geometry": { "type": "Polygon", "coordinates": [ [ [ 21.2624676, 38.915233700113625 ], [ 21.262634, 38.915377600113636 ], [ 21.262825, 38.915569400113675 ], [ 21.2630037, 38.915526200113668 ], [ 21.2630407, 38.915420700113643 ], [ 21.263127, 38.915296100113629 ], [ 21.2632379, 38.915454300113652 ], [ 21.2634042, 38.915358400113632 ], [ 21.2634967, 38.915228900113618 ], [ 21.2634104, 38.915075500113602 ], [ 21.263281, 38.915022800113597 ], [ 21.2631824, 38.915080300113587 ], [ 21.2631393, 38.91519540011361 ], [ 21.2629852, 38.915161800113601 ], [ 21.2629852, 38.915022800113597 ], [ 21.2630468, 38.914912500113573 ], [ 21.2629359, 38.91485020011357 ], [ 21.2628928, 38.914783000113559 ], [ 21.2627572, 38.91470150011353 ], [ 21.2627511, 38.914811800113569 ], [ 21.2626032, 38.914807000113548 ], [ 21.2624614, 38.914883700113563 ], [ 21.2624121, 38.915051500113591 ], [ 21.2624676, 38.915233700113625 ] ] ] } },
{ "type": "Feature", "properties": { "osm_id": -10639590, "name": null, "label": "natural:scree", "natural": "scree", "landuse": null, "waterway": null }, "geometry": { "type": "Polygon", "coordinates": [ [ [ 21.2612906, 38.914231700113469 ], [ 21.2614385, 38.914423500113486 ], [ 21.261648, 38.914624800113522 ], [ 21.2618391, 38.91469200011354 ], [ 21.2617405, 38.914864600113567 ], [ 21.2618699, 38.914984400113582 ], [ 21.2618945, 38.91510430011359 ], [ 21.2618021, 38.915166600113608 ], [ 21.261913, 38.915248100113622 ], [ 21.26195, 38.915334400113636 ], [ 21.2618206, 38.915468700113649 ], [ 21.2619685, 38.915607700113675 ], [ 21.2622088, 38.915670000113678 ], [ 21.2624121, 38.915737200113696 ], [ 21.2626833, 38.915765900113684 ], [ 21.2630345, 38.915818700113704 ], [ 21.263318, 38.915919400113715 ], [ 21.2635829, 38.916034400113723 ], [ 21.2637616, 38.916192700113747 ], [ 21.2639588, 38.916240600113767 ], [ 21.2641067, 38.916207000113758 ], [ 21.2641437, 38.916130300113743 ], [ 21.2643655, 38.916139900113748 ], [ 21.2645504, 38.916231000113761 ], [ 21.2647044, 38.916384400113792 ], [ 21.2648585, 38.916509100113814 ], [ 21.2650557, 38.916542600113814 ], [ 21.2652467, 38.916542600113814 ], [ 21.2654624, 38.916480300113804 ], [ 21.2655117, 38.916413200113794 ], [ 21.2653823, 38.916322100113774 ], [ 21.2651913, 38.91622140011377 ], [ 21.265031, 38.916068000113754 ], [ 21.2649324, 38.915943300113724 ], [ 21.2649201, 38.915789900113694 ], [ 21.2648092, 38.915674800113692 ], [ 21.2647661, 38.91578030011371 ], [ 21.2646613, 38.915842700113707 ], [ 21.2645874, 38.915727600113691 ], [ 21.2644765, 38.915665300113687 ], [ 21.2642669, 38.915612500113681 ], [ 21.2641375, 38.915516600113662 ], [ 21.2641252, 38.915329600113637 ], [ 21.2641252, 38.915128300113608 ], [ 21.264193, 38.914970000113577 ], [ 21.2641868, 38.914874100113558 ], [ 21.2640389, 38.914998800113601 ], [ 21.2640081, 38.915118700113609 ], [ 21.2640143, 38.915300900113628 ], [ 21.2639465, 38.915392000113641 ], [ 21.2638418, 38.915444700113653 ], [ 21.2637678, 38.915406300113638 ], [ 21.2638233, 38.915291300113623 ], [ 21.2638418, 38.915137800113605 ], [ 21.2637493, 38.914974800113583 ], [ 21.2635829, 38.914974800113583 ], [ 21.2634535, 38.915032400113581 ], [ 21.2633611, 38.914936500113583 ], [ 21.2633611, 38.914835800113565 ], [ 21.263472, 38.91475430011355 ], [ 21.2633858, 38.914644000113547 ], [ 21.2632255, 38.914596100113521 ], [ 21.2631208, 38.914500200113508 ], [ 21.2629051, 38.91444260011351 ], [ 21.2628681, 38.914524100113518 ], [ 21.2627387, 38.914548100113507 ], [ 21.2626771, 38.914634400113528 ], [ 21.2625662, 38.914485800113518 ], [ 21.2625169, 38.914351500113504 ], [ 21.2623752, 38.914298800113471 ], [ 21.262369, 38.914452200113502 ], [ 21.2623998, 38.914615200113538 ], [ 21.262178, 38.914543300113507 ], [ 21.2620671, 38.91444260011351 ], [ 21.2620794, 38.914313200113483 ], [ 21.2619623, 38.914131000113457 ], [ 21.26195, 38.914322800113482 ], [ 21.2618144, 38.914428200113505 ], [ 21.2616727, 38.914322800113482 ], [ 21.2615125, 38.914313200113483 ], [ 21.2614201, 38.914198100113467 ], [ 21.2612906, 38.914025500113453 ], [ 21.2612906, 38.914231700113469 ] ], [ [ 21.2624614, 38.914883700113563 ], [ 21.2626032, 38.914807000113548 ], [ 21.2627511, 38.914811800113569 ], [ 21.2627572, 38.91470150011353 ], [ 21.2628928, 38.914783000113559 ], [ 21.2629359, 38.91485020011357 ], [ 21.2630468, 38.914912500113573 ], [ 21.2629852, 38.915022800113597 ], [ 21.2629852, 38.915161800113601 ], [ 21.2631393, 38.91519540011361 ], [ 21.2631824, 38.915080300113587 ], [ 21.263281, 38.915022800113597 ], [ 21.2634104, 38.915075500113602 ], [ 21.2634967, 38.915228900113618 ], [ 21.2634042, 38.915358400113632 ], [ 21.2632379, 38.915454300113652 ], [ 21.263127, 38.915296100113629 ], [ 21.2630407, 38.915420700113643 ], [ 21.2630037, 38.915526200113668 ], [ 21.262825, 38.915569400113675 ], [ 21.262634, 38.915377600113636 ], [ 21.2624676, 38.915233700113625 ], [ 21.2624121, 38.915051500113591 ], [ 21.2624614, 38.914883700113563 ] ], [ [ 21.2641437, 38.915665300113687 ], [ 21.2642608, 38.915670000113678 ], [ 21.2643532, 38.915756300113685 ], [ 21.2643532, 38.915847400113712 ], [ 21.2643039, 38.915933700113712 ], [ 21.2641745, 38.915833100113709 ], [ 21.2640698, 38.915765900113684 ], [ 21.2641437, 38.915665300113687 ] ] ] } },
{ "type": "Feature", "properties": { "osm_id": 767208877, "name": null, "label": "natural:scrub", "natural": "scrub", "landuse": null, "waterway": null }, "geometry": { "type": "Polygon", "coordinates": [ [ [ 21.2641745, 38.915833100113709 ], [ 21.2643039, 38.915933700113712 ], [ 21.2643532, 38.915847400113712 ], [ 21.2643532, 38.915756300113685 ], [ 21.2642608, 38.915670000113678 ], [ 21.2641437, 38.915665300113687 ], [ 21.2640698, 38.915765900113684 ], [ 21.2641745, 38.915833100113709 ] ] ] } },
{ "type": "Feature", "properties": { "osm_id": 448842578, "name": null, "label": "landuse:residential", "natural": null, "landuse": "residential", "waterway": null }, "geometry": { "type": "Polygon", "coordinates": [ [ [ 21.2625916, 38.918116600114026 ], [ 21.2653757, 38.918191700114043 ], [ 21.2674035, 38.918074900114043 ], [ 21.2674357, 38.917786900113995 ], [ 21.2652362, 38.916685000113823 ], [ 21.2623287, 38.916547300113805 ], [ 21.2612183, 38.916288500113772 ], [ 21.2608052, 38.91705650011388 ], [ 21.2625916, 38.918116600114026 ] ] ] } },
{ "type": "Feature", "properties": { "osm_id": 748883332, "name": null, "label": "waterway:stream", "natural": null, "landuse": null, "waterway": "stream" }, "geometry": { "type": "LineString", "coordinates": [ [ 21.2549534, 38.91484290011357 ], [ 21.2544277, 38.91484290011357 ], [ 21.2542453, 38.914857500113555 ], [ 21.2539369, 38.914878400113565 ], [ 21.2537545, 38.914903500113567 ], [ 21.2535185, 38.914849200113558 ], [ 21.2533146, 38.914772000113551 ], [ 21.2530866, 38.914671800113545 ], [ 21.2529069, 38.914602900113522 ], [ 21.2526092, 38.914256500113481 ], [ 21.2522793, 38.91437340011349 ], [ 21.2520996, 38.914632200113537 ], [ 21.2518904, 38.914642600113531 ], [ 21.25159, 38.914515300113514 ], [ 21.2512922, 38.914490200113512 ], [ 21.2510374, 38.914621700113521 ], [ 21.251032275345469, 38.914623420020988 ] ] } }
]
}
