{
"type": "FeatureCollection",
"name": "patch_85789_features",
"crs": { "type": "name", "properties": { "name": "urn:ogc:def:crs:OGC:1.3:CRS84" } },
"features": [
{ "type": "Feature", "properties": { "osm_id": 1287464098, "name": null, "label": "natural:scrub", "natural": "scrub", "landuse": null }, "geometry": { "type": "Polygon", "coordinates": [ [ [ 23.4603382, 38.327517900028582 ], [ 23.4606494, 38.327164400028529 ], [ 23.4607781, 38.326836100028487 ], [ 23.4606923, 38.326701400028469 ], [ 23.4605957, 38.326499400028439 ], [ 23.4608317, 38.326019700028375 ], [ 23.4609712, 38.325817700028338 ], [ 23.4613077, 38.325978600028378 ], [ 23.4615857, 38.325739400028333 ], [ 23.4617402, 38.325512900028293 ], [ 23.4618012, 38.325379000028271 ], [ 23.4617971, 38.325209900028256 ], [ 23.4617321, 38.325098300028237 ], [ 23.4616606, 38.324933300028214 ], [ 23.4616117, 38.324946100028207 ], [ 23.4614218, 38.324933900028206 ], [ 23.4611107, 38.324807700028195 ], [ 23.4608639, 38.324656200028173 ], [ 23.460316137032663, 38.3245730309769 ], [ 23.460316137032663, 38.327513446307925 ], [ 23.4603382, 38.327517900028582 ] ] ] } },
{ "type": "Feature", "properties": { "osm_id": 127661380, "name": null, "label": "landuse:farmland", "natural": null, "landuse": "farmland" }, "geometry": { "type": "Polygon", "coordinates": [ [ [ 23.4603275, 38.321062100027646 ], [ 23.4608103, 38.321087300027656 ], [ 23.4611858, 38.321121000027681 ], [ 23.4615828, 38.321188300027671 ], [ 23.4618724, 38.321222000027667 ], [ 23.4621407, 38.321238800027693 ], [ 23.4625269, 38.321205200027684 ], [ 23.4629239, 38.321104200027662 ], [ 23.4632994, 38.321053700027655 ], [ 23.4634281, 38.320910600027638 ], [ 23.4634174, 38.320767500027607 ], [ 23.4639646, 38.320599100027586 ], [ 23.464147, 38.320464500027562 ], [ 23.4641684, 38.320287700027549 ], [ 23.4644152, 38.320060400027529 ], [ 23.4644688, 38.319883700027482 ], [ 23.4643401, 38.319732100027473 ], [ 23.4643615, 38.319572200027444 ], [ 23.4642188, 38.319517100027433 ], [ 23.4641148, 38.319319700027407 ], [ 23.463995590328469, 38.319188918686898 ], [ 23.460316137032663, 38.319188918686898 ], [ 23.460316137032663, 38.321065565998815 ], [ 23.4603275, 38.321062100027646 ] ] ] } },
{ "type": "Feature", "properties": { "osm_id": 127661365, "name": null, "label": "landuse:vineyard", "natural": null, "landuse": "vineyard" }, "geometry": { "type": "Polygon", "coordinates": [ [ [ 23.4603672, 38.328405400028707 ], [ 23.4608103, 38.327677800028589 ], [ 23.4608464, 38.327444100028565 ], [ 23.4609497, 38.326829700028483 ], [ 23.4610382, 38.326420500028426 ], [ 23.4611441, 38.326178500028391 ], [ 23.4613077, 38.325978600028378 ], [ 23.4609712, 38.325817700028338 ], [ 23.4608317, 38.326019700028375 ], [ 23.4605957, 38.326499400028439 ], [ 23.4606923, 38.326701400028469 ], [ 23.4607781, 38.326836100028487 ], [ 23.4606494, 38.327164400028529 ], [ 23.4603382, 38.327517900028582 ], [ 23.460316137032663, 38.327513446307925 ], [ 23.460316137032663, 38.328496270402319 ], [ 23.4603672, 38.328405400028707 ] ] ] } },
{ "type": "Feature", "properties": { "osm_id": 127665006, "name": null, "label": "landuse:farmland", "natural": null, "landuse": "farmland" }, "geometry": { "type": "Polygon", "coordinates": [ [ [ 23.473502, 38.331784900029206 ], [ 23.4748431, 38.331650300029175 ], [ 23.4748431, 38.330631900029033 ], [ 23.4745427, 38.330631900029033 ], [ 23.474253, 38.330631900029033 ], [ 23.473789, 38.330610500029032 ], [ 23.4736924, 38.330728300029037 ], [ 23.473502, 38.330749700029038 ], [ 23.473502, 38.331784900029206 ] ] ] } },
{ "type": "Feature", "properties": { "osm_id": 127665007, "name": null, "label": "landuse:orchard", "natural": null, "landuse": "orchard" }, "geometry": { "type": "Polygon", "coordinates": [ [ [ 23.4670867, 38.330690800029039 ], [ 23.4678162, 38.330859100029059 ], [ 23.4679235, 38.330716100029036 ], [ 23.4678913, 38.330135400028958 ], [ 23.4677518, 38.329983900028935 ], [ 23.4677518, 38.329899700028918 ], [ 23.4675051, 38.329891300028919 ], [ 23.4673838, 38.329869800028916 ], [ 23.4672583, 38.329815500028914 ], [ 23.4671403, 38.329832400028899 ], [ 23.4670727, 38.329886700028922 ], [ 23.4669257, 38.329908100028923 ], [ 23.4667112, 38.329899700028918 ], [ 23.4670867, 38.330690800029039 ] ] ] } },
{ "type": "Feature", "properties": { "osm_id": 127665004, "name": null, "label": "landuse:orchard", "natural": null, "landuse": "orchard" }, "geometry": { "type": "Polygon", "coordinates": [ [ [ 23.4699834, 38.33275280002934 ], [ 23.4703482, 38.331574500029156 ], [ 23.4710992, 38.331002200029076 ], [ 23.4717108, 38.330909600029081 ], [ 23.4728663, 38.330896600029071 ], [ 23.4728261, 38.331305200029121 ], [ 23.4724049, 38.331334200029126 ], [ 23.4718932, 38.331389400029138 ], [ 23.4713964, 38.331511000029153 ], [ 23.470992, 38.331667100029179 ], [ 23.4707098, 38.331872900029211 ], [ 23.4705397, 38.332117200029245 ], [ 23.4705413, 38.332247800029258 ], [ 23.4705596, 38.332857500029341 ], [ 23.4706379, 38.333022100029375 ], [ 23.4706808, 38.334360200029558 ], [ 23.4715284, 38.334334900029575 ], [ 23.4716142, 38.334629500029607 ], [ 23.4718824, 38.334579000029592 ], [ 23.4718149, 38.333732800029473 ], [ 23.4717859, 38.333190400029395 ], [ 23.4717966, 38.332980000029359 ], [ 23.471979, 38.332735900029341 ], [ 23.472258, 38.332727500029328 ], [ 23.4723218, 38.333367100029413 ], [ 23.4729012, 38.33329140002941 ], [ 23.4728341, 38.332790200029329 ], [ 23.4726222, 38.332735900029341 ], [ 23.4725793, 38.332306700029271 ], [ 23.4733196, 38.332273000029261 ], [ 23.4741323, 38.332318900029264 ], [ 23.474261, 38.332891200029358 ], [ 23.4738319, 38.33295850002937 ], [ 23.4738989, 38.333602800029453 ], [ 23.4748753, 38.333754200029475 ], [ 23.4746929, 38.335016600029668 ], [ 23.4749825, 38.335100800029672 ], [ 23.475004, 38.335403700029708 ], [ 23.4755297, 38.335429000029727 ], [ 23.4754761, 38.335067100029669 ], [ 23.4756048, 38.334991400029658 ], [ 23.475637, 38.334284400029553 ], [ 23.4770747, 38.33425920002955 ], [ 23.4770639, 38.333939400029507 ], [ 23.4780403, 38.333880500029494 ], [ 23.4779652, 38.333299800029422 ], [ 23.4773214, 38.333350300029416 ], [ 23.4765704, 38.333426000029441 ], [ 23.4756799, 38.333400800029423 ], [ 23.4757014, 38.332365600029284 ], [ 23.4755941, 38.331448300029145 ], [ 23.4762056, 38.331532400029154 ], [ 23.4767206, 38.331608200029173 ], [ 23.4766133, 38.331187400029108 ], [ 23.4773322, 38.331136900029094 ], [ 23.4772249, 38.330783400029055 ], [ 23.4789522, 38.330564600029021 ], [ 23.4792178, 38.330501000029017 ], [ 23.478566, 38.330530900029018 ], [ 23.4779732, 38.330602000029032 ], [ 23.4776299, 38.330652500029032 ], [ 23.4772007, 38.330610500029032 ], [ 23.477021, 38.330573000029027 ], [ 23.4767313, 38.330505700029015 ], [ 23.4765355, 38.330560000029024 ], [ 23.4761949, 38.330657200029037 ], [ 23.4759025, 38.330694600029027 ], [ 23.4750657, 38.330686200029035 ], [ 23.4748833, 38.330652500029032 ], [ 23.4748645, 38.331675500029192 ], [ 23.4734698, 38.331827000029193 ], [ 23.4734591, 38.330724500029049 ], [ 23.4733062, 38.330627300029022 ], [ 23.473156, 38.330635700029021 ], [ 23.4729521, 38.330728300029037 ], [ 23.4727268, 38.330728300029037 ], [ 23.4716571, 38.330589800029017 ], [ 23.4711422, 38.330556200029015 ], [ 23.47086, 38.33058520002902 ], [ 23.470345, 38.330862900029061 ], [ 23.4701841, 38.33098920002908 ], [ 23.4698976, 38.331330500029132 ], [ 23.4698547, 38.331566100029171 ], [ 23.4698976, 38.331633400029176 ], [ 23.4696401, 38.332685400029327 ], [ 23.4699834, 38.33275280002934 ] ] ] } },
{ "type": "Feature", "properties": { "osm_id": 127665997, "name": null, "label": "landuse:orchard", "natural": null, "landuse": "orchard" }, "geometry": { "type": "Polygon", "coordinates": [ [ [ 23.4692185, 38.336476300029872 ], [ 23.469712, 38.336930700029939 ], [ 23.4703021, 38.337233700029969 ], [ 23.4706025, 38.33746090003001 ], [ 23.4714179, 38.337292600029976 ], [ 23.4713857, 38.335954500029786 ], [ 23.4720616, 38.335946100029794 ], [ 23.472008, 38.336838200029923 ], [ 23.4730594, 38.336796100029915 ], [ 23.4731023, 38.336518400029874 ], [ 23.4738212, 38.33654360002987 ], [ 23.4738319, 38.336341600029847 ], [ 23.4731452, 38.336249100029839 ], [ 23.4731667, 38.335954500029786 ], [ 23.4728019, 38.335937700029788 ], [ 23.4728126, 38.335424300029715 ], [ 23.4707956, 38.335525300029737 ], [ 23.4702806, 38.335937700029788 ], [ 23.469079, 38.336190200029833 ], [ 23.4692185, 38.336476300029872 ] ] ] } },
{ "type": "Feature", "properties": { "osm_id": 127666003, "name": null, "label": "landuse:vineyard", "natural": null, "landuse": "vineyard" }, "geometry": { "type": "Polygon", "coordinates": [ [ [ 23.4719114, 38.341373900030575 ], [ 23.4714501, 38.340557700030459 ], [ 23.470978, 38.339918200030368 ], [ 23.4706561, 38.339413200030279 ], [ 23.4702377, 38.339455300030302 ], [ 23.470463, 38.339842400030349 ], [ 23.4705167, 38.340187400030409 ], [ 23.4701948, 38.340313700030414 ], [ 23.4697978, 38.340406200030429 ], [ 23.4697442, 38.34051560003045 ], [ 23.4695403, 38.341045800030535 ], [ 23.46978218554651, 38.34162106086103 ], [ 23.471336936896929, 38.34162106086103 ], [ 23.4719114, 38.341373900030575 ] ] ] } },
{ "type": "Feature", "properties": { "osm_id": 127666001, "name": null, "label": "landuse:vineyard", "natural": null, "landuse": "vineyard" }, "geometry": { "type": "Polygon", "coordinates": [ [ [ 23.4721153, 38.338226700030127 ], [ 23.4731796, 38.337839200030061 ], [ 23.4734886, 38.338731600030201 ], [ 23.4737997, 38.339472100030292 ], [ 23.4739392, 38.339876100030352 ], [ 23.4739284, 38.340145400030394 ], [ 23.4738426, 38.340439900030439 ], [ 23.4739714, 38.340566100030458 ], [ 23.474261, 38.340625000030464 ], [ 23.4747975, 38.340473500030434 ], [ 23.4752803, 38.341466500030585 ], [ 23.4757416, 38.341323500030569 ], [ 23.4753339, 38.340381000030433 ], [ 23.4760554, 38.340121200030389 ], [ 23.4760341, 38.339662700030324 ], [ 23.4759288, 38.339364800030296 ], [ 23.4758426, 38.339256900030271 ], [ 23.4753531, 38.338166000030114 ], [ 23.4753384, 38.338141800030108 ], [ 23.4750121, 38.33819300003011 ], [ 23.4748189, 38.337242100029975 ], [ 23.4739606, 38.337258900029994 ], [ 23.4740465, 38.337646000030027 ], [ 23.4731463, 38.337797900030061 ], [ 23.4728985, 38.337166400029965 ], [ 23.4719972, 38.337216900029972 ], [ 23.4715788, 38.337292600029976 ], [ 23.4721153, 38.338226700030127 ] ] ] } },
{ "type": "Feature", "properties": { "osm_id": 127665990, "name": null, "label": "landuse:vineyard", "natural": null, "landuse": "vineyard" }, "geometry": { "type": "Polygon", "coordinates": [ [ [ 23.4747684, 38.341582600030605 ], [ 23.4745713, 38.341419500030582 ], [ 23.4744345, 38.341320600030571 ], [ 23.4739821, 38.341508600030579 ], [ 23.473932822749259, 38.34162106086103 ], [ 23.474491033369127, 38.34162106086103 ], [ 23.4746044, 38.341592700030603 ], [ 23.474606803646854, 38.34162106086103 ], [ 23.474817658165808, 38.34162106086103 ], [ 23.4747684, 38.341582600030605 ] ] ] } },
{ "type": "Feature", "properties": { "osm_id": 127666007, "name": null, "label": "landuse:vineyard", "natural": null, "landuse": "vineyard" }, "geometry": { "type": "Polygon", "coordinates": [ [ [ 23.4632425, 38.338891500030222 ], [ 23.4632854, 38.338992500030237 ], [ 23.4643154, 38.338807300030197 ], [ 23.4641974, 38.338209900030122 ], [ 23.4640794, 38.338209900030122 ], [ 23.4639935, 38.337999500030094 ], [ 23.463736, 38.337679700030037 ], [ 23.4647124, 38.336888700029924 ], [ 23.4647982, 38.337242100029975 ], [ 23.4653668, 38.337107500029958 ], [ 23.4650557, 38.336308000029845 ], [ 23.4647553, 38.33640900002986 ], [ 23.4643476, 38.335533800029729 ], [ 23.4639292, 38.335786200029773 ], [ 23.4632425, 38.336190200029833 ], [ 23.4630601, 38.337048500029951 ], [ 23.4635, 38.337747000030056 ], [ 23.4628777, 38.337974200030082 ], [ 23.4632425, 38.338891500030222 ] ] ] } },
{ "type": "Feature", "properties": { "osm_id": 127787767, "name": null, "label": "landuse:vineyard", "natural": null, "landuse": "vineyard" }, "geometry": { "type": "Polygon", "coordinates": [ [ [ 23.4631355, 38.335269800029707 ], [ 23.4632643, 38.335253000029702 ], [ 23.4635217, 38.335076300029662 ], [ 23.4639294, 38.33450400002959 ], [ 23.4639831, 38.334335700029555 ], [ 23.4638007, 38.334091600029531 ], [ 23.4636827, 38.334310400029565 ], [ 23.4632213, 38.33478170002963 ], [ 23.462878, 38.33516880002967 ], [ 23.4631355, 38.335269800029707 ] ] ] } },
{ "type": "Feature", "properties": { "osm_id": 127665995, "name": null, "label": "landuse:vineyard", "natural": null, "landuse": "vineyard" }, "geometry": { "type": "Polygon", "coordinates": [ [ [ 23.4609787, 38.333000600029372 ], [ 23.4615044, 38.332899600029343 ], [ 23.4619121, 38.332899600029343 ], [ 23.4625022, 38.333354100029432 ], [ 23.4620409, 38.333749600029471 ], [ 23.4620302, 38.334582800029601 ], [ 23.4628241, 38.335121400029678 ], [ 23.4631781, 38.334599600029591 ], [ 23.4628348, 38.334305100029553 ], [ 23.4635, 38.333749600029471 ], [ 23.4631674, 38.333370900029429 ], [ 23.4636609, 38.333118400029385 ], [ 23.4630387, 38.332293700029268 ], [ 23.4630601, 38.332024400029226 ], [ 23.4625344, 38.332007500029235 ], [ 23.4625988, 38.331569900029166 ], [ 23.4621696, 38.33018120002896 ], [ 23.4617619, 38.330063400028934 ], [ 23.4613328, 38.330088600028958 ], [ 23.4609144, 38.330088600028958 ], [ 23.4604208, 38.330273800028976 ], [ 23.460316137032663, 38.330354642782822 ], [ 23.460316137032663, 38.331845557047941 ], [ 23.4609787, 38.333000600029372 ] ] ] } },
{ "type": "Feature", "properties": { "osm_id": 127665994, "name": null, "label": "landuse:orchard", "natural": null, "landuse": "orchard" }, "geometry": { "type": "Polygon", "coordinates": [ [ [ 23.4623198, 38.337242100029975 ], [ 23.4630172, 38.337057000029958 ], [ 23.4631996, 38.336198600029839 ], [ 23.4620302, 38.3366951000299 ], [ 23.4623198, 38.337242100029975 ] ] ] } },
{ "type": "Feature", "properties": { "osm_id": 127665999, "name": null, "label": "landuse:vineyard", "natural": null, "landuse": "vineyard" }, "geometry": { "type": "Polygon", "coordinates": [ [ [ 23.4608634, 38.338708500030194 ], [ 23.4618982, 38.338819100030207 ], [ 23.4617276, 38.33798520003009 ], [ 23.4612845, 38.337184500029977 ], [ 23.4606569, 38.33652680002988 ], [ 23.460316137032663, 38.336462644992672 ], [ 23.460316137032663, 38.338490624385045 ], [ 23.4608634, 38.338708500030194 ] ] ] } },
{ "type": "Feature", "properties": { "osm_id": 127665998, "name": null, "label": "landuse:vineyard", "natural": null, "landuse": "vineyard" }, "geometry": { "type": "Polygon", "coordinates": [ [ [ 23.4604316, 38.339623600030315 ], [ 23.4609251, 38.339960200030362 ], [ 23.4615366, 38.340574500030463 ], [ 23.4620087, 38.340944800030513 ], [ 23.4618585, 38.339648900030326 ], [ 23.4613542, 38.33958150003032 ], [ 23.4603886, 38.33916080003025 ], [ 23.4604316, 38.339623600030315 ] ] ] } },
{ "type": "Feature", "properties": { "osm_id": 127661364, "name": null, "label": "landuse:farmland", "natural": null, "landuse": "farmland" }, "geometry": { "type": "Polygon", "coordinates": [ [ [ 23.4608639, 38.324656200028173 ], [ 23.4611107, 38.324807700028195 ], [ 23.4614218, 38.324933900028206 ], [ 23.4616117, 38.324946100028207 ], [ 23.4616606, 38.324933300028214 ], [ 23.461851, 38.324883400028206 ], [ 23.4620731, 38.324904100028206 ], [ 23.4621911, 38.324786200028193 ], [ 23.4623413, 38.324794600028184 ], [ 23.4625376, 38.324891800028212 ], [ 23.4627415, 38.324950800028212 ], [ 23.4629207, 38.324954600028221 ], [ 23.4628488, 38.32490870002821 ], [ 23.462484, 38.324799300028197 ], [ 23.4626846, 38.324718900028181 ], [ 23.4630097, 38.324807700028195 ], [ 23.4635247, 38.324799300028197 ], [ 23.4639721, 38.32477780002818 ], [ 23.4639968, 38.32470670002818 ], [ 23.4637822, 38.324630900028176 ], [ 23.4636856, 38.324412100028141 ], [ 23.4633208, 38.324378400028138 ], [ 23.4632887, 38.324210100028104 ], [ 23.4630848, 38.323982800028077 ], [ 23.4628488, 38.323637700028023 ], [ 23.4628059, 38.323536700028015 ], [ 23.4628456, 38.323456300027999 ], [ 23.4626235, 38.32305700002793 ], [ 23.4625376, 38.322947500027929 ], [ 23.4624196, 38.322888600027916 ], [ 23.4623552, 38.322989600027938 ], [ 23.4621836, 38.322888600027916 ], [ 23.4619261, 38.32266140002789 ], [ 23.461572, 38.322392000027847 ], [ 23.4610678, 38.322055300027799 ], [ 23.4607245, 38.321802800027761 ], [ 23.4604884, 38.321659700027745 ], [ 23.4603168, 38.321600800027738 ], [ 23.460316137032663, 38.321600924812905 ], [ 23.460316137032663, 38.3245730309769 ], [ 23.4608639, 38.324656200028173 ] ] ] } },
{ "type": "Feature", "properties": { "osm_id": 1286517039, "name": null, "label": "landuse:farmland", "natural": null, "landuse": "farmland" }, "geometry": { "type": "Polygon", "coordinates": [ [ [ 23.461904, 38.340996400030519 ], [ 23.4607804, 38.339978600030371 ], [ 23.4604322, 38.339745200030343 ], [ 23.460316137032663, 38.339673350375143 ], [ 23.460316137032663, 38.34162106086103 ], [ 23.462731530669732, 38.34162106086103 ], [ 23.461904, 38.340996400030519 ] ] ] } },
{ "type": "Feature", "properties": { "osm_id": 127787764, "name": null, "label": "landuse:orchard", "natural": null, "landuse": "orchard" }, "geometry": { "type": "Polygon", "coordinates": [ [ [ 23.4902365, 38.341059500030525 ], [ 23.4900005, 38.340891200030512 ], [ 23.4897001, 38.341303600030557 ], [ 23.4886487, 38.341303600030557 ], [ 23.4879191, 38.341253100030571 ], [ 23.4879191, 38.341614900030613 ], [ 23.487933016304734, 38.34162106086103 ], [ 23.490351861814446, 38.34162106086103 ], [ 23.49036326015084, 38.341601140340458 ], [ 23.49036326015084, 38.340871895276869 ], [ 23.4902365, 38.341059500030525 ] ] ] } },
{ "type": "Feature", "properties": { "osm_id": 127665000, "name": null, "label": "landuse:orchard", "natural": null, "landuse": "orchard" }, "geometry": { "type": "Polygon", "coordinates": [ [ [ 23.4901719, 38.331578300029157 ], [ 23.4898286, 38.331536200029163 ], [ 23.4895711, 38.331595100029169 ], [ 23.4895308, 38.332306700029271 ], [ 23.4894236, 38.332500300029302 ], [ 23.4900887, 38.332643400029312 ], [ 23.48985, 38.333699100029456 ], [ 23.488753, 38.333709600029472 ], [ 23.4885841, 38.334938800029647 ], [ 23.4888657, 38.334991400029658 ], [ 23.4889944, 38.334233900029552 ], [ 23.4902148, 38.334473400029587 ], [ 23.490078, 38.335117600029669 ], [ 23.49036326015084, 38.335132037433162 ], [ 23.49036326015084, 38.331602617091541 ], [ 23.4901719, 38.331578300029157 ] ] ] } },
{ "type": "Feature", "properties": { "osm_id": 127665005, "name": null, "label": "landuse:farmland", "natural": null, "landuse": "farmland" }, "geometry": { "type": "Polygon", "coordinates": [ [ [ 23.4898205, 38.333661700029459 ], [ 23.4900324, 38.332638700029314 ], [ 23.4894209, 38.332546100029312 ], [ 23.4887906, 38.33351860002945 ], [ 23.4887584, 38.333602800029453 ], [ 23.4898205, 38.333661700029459 ] ] ] } },
{ "type": "Feature", "properties": { "osm_id": 127787761, "name": null, "label": "landuse:orchard", "natural": null, "landuse": "orchard" }, "geometry": { "type": "Polygon", "coordinates": [ [ [ 23.490022, 38.339056800030235 ], [ 23.49036326015084, 38.339331428234125 ], [ 23.49036326015084, 38.33876337417626 ], [ 23.490022, 38.339056800030235 ] ] ] } },
{ "type": "Feature", "properties": { "osm_id": 127787502, "name": null, "label": "landuse:vineyard", "natural": null, "landuse": "vineyard" }, "geometry": { "type": "Polygon", "coordinates": [ [ [ 23.4875543, 38.338038500030102 ], [ 23.4881659, 38.337990100030069 ], [ 23.4881605, 38.337748200030049 ], [ 23.4875114, 38.337659800030039 ], [ 23.4875543, 38.338038500030102 ] ] ] } },
{ "type": "Feature", "properties": { "osm_id": 127787771, "name": null, "label": "landuse:orchard", "natural": null, "landuse": "orchard" }, "geometry": { "type": "Polygon", "coordinates": [ [ [ 23.4883912, 38.336431200029871 ], [ 23.4883912, 38.3366416000299 ], [ 23.4888418, 38.336607900029875 ], [ 23.4887345, 38.336355400029859 ], [ 23.488595, 38.336145000029823 ], [ 23.4885307, 38.335993600029795 ], [ 23.4882839, 38.335875700029789 ], [ 23.4874149, 38.33608610002981 ], [ 23.4883912, 38.336431200029871 ] ] ] } },
{ "type": "Feature", "properties": { "osm_id": 127664999, "name": null, "label": "landuse:orchard", "natural": null, "landuse": "orchard" }, "geometry": { "type": "Polygon", "coordinates": [ [ [ 23.4876533, 38.333459700029444 ], [ 23.487782, 38.333131500029396 ], [ 23.4887369, 38.333055700029377 ], [ 23.4887235, 38.332840700029344 ], [ 23.4877177, 38.332879000029358 ], [ 23.4877177, 38.332778000029336 ], [ 23.4881576, 38.332710700029338 ], [ 23.4881146, 38.332273000029261 ], [ 23.4887262, 38.332155200029248 ], [ 23.4887691, 38.331423000029147 ], [ 23.4888657, 38.331414600029149 ], [ 23.4888764, 38.331094800029099 ], [ 23.4881576, 38.331002200029076 ], [ 23.4873851, 38.333493400029447 ], [ 23.4876533, 38.333459700029444 ] ] ] } },
{ "type": "Feature", "properties": { "osm_id": 127787770, "name": null, "label": "landuse:orchard", "natural": null, "landuse": "orchard" }, "geometry": { "type": "Polygon", "coordinates": [ [ [ 23.485709, 38.337861800030069 ], [ 23.4866209, 38.33776080003004 ], [ 23.4875222, 38.337634600030043 ], [ 23.4874363, 38.337053900029957 ], [ 23.4866317, 38.337146500029966 ], [ 23.4865244, 38.337331600029984 ], [ 23.4854729, 38.337441000030012 ], [ 23.485709, 38.337861800030069 ] ] ] } },
{ "type": "Feature", "properties": { "osm_id": 127787497, "name": null, "label": "landuse:orchard", "natural": null, "landuse": "orchard" }, "geometry": { "type": "Polygon", "coordinates": [ [ [ 23.4846683, 38.33980570003034 ], [ 23.4854944, 38.33963740003032 ], [ 23.4851618, 38.338880000030223 ], [ 23.4844215, 38.339073600030247 ], [ 23.4846683, 38.33980570003034 ] ] ] } },
{ "type": "Feature", "properties": { "osm_id": 127787516, "name": null, "label": "landuse:orchard", "natural": null, "landuse": "orchard" }, "geometry": { "type": "Polygon", "coordinates": [ [ [ 23.4863205, 38.341337200030559 ], [ 23.4866638, 38.341261500030555 ], [ 23.4865566, 38.340832300030506 ], [ 23.4864493, 38.340832300030506 ], [ 23.486224, 38.339940300030364 ], [ 23.4859021, 38.339974000030381 ], [ 23.4860201, 38.340411600030443 ], [ 23.4858699, 38.340504200030438 ], [ 23.484679, 38.340630400030463 ], [ 23.4847005, 38.341194200030543 ], [ 23.4848078, 38.341202600030563 ], [ 23.4848507, 38.341514000030585 ], [ 23.4858914, 38.341421400030576 ], [ 23.485959689722769, 38.34162106086103 ], [ 23.486404944111076, 38.34162106086103 ], [ 23.4863205, 38.341337200030559 ] ] ] } },
{ "type": "Feature", "properties": { "osm_id": 127787509, "name": null, "label": "landuse:orchard", "natural": null, "landuse": "orchard" }, "geometry": { "type": "Polygon", "coordinates": [ [ [ 23.4877797, 38.341564400030606 ], [ 23.4877931, 38.340819700030487 ], [ 23.4879017, 38.340271700030407 ], [ 23.4882008, 38.339682600030336 ], [ 23.488367, 38.339321800030277 ], [ 23.4876831, 38.339250300030265 ], [ 23.4876724, 38.338821100030202 ], [ 23.4882329, 38.338798000030195 ], [ 23.4881954, 38.33842140003015 ], [ 23.4875758, 38.338450900030161 ], [ 23.4875543, 38.338055300030099 ], [ 23.4859557, 38.338333000030133 ], [ 23.4860952, 38.338669700030181 ], [ 23.4866424, 38.339873000030352 ], [ 23.4869321, 38.340857600030503 ], [ 23.487158178137477, 38.34162106086103 ], [ 23.487721895197051, 38.34162106086103 ], [ 23.4877797, 38.341564400030606 ] ] ] } },
{ "type": "Feature", "properties": { "osm_id": 127661369, "name": null, "label": "landuse:farmland", "natural": null, "landuse": "farmland" }, "geometry": { "type": "Polygon", "coordinates": [ [ [ 23.4900458, 38.335142800029686 ], [ 23.4901746, 38.334511700029587 ], [ 23.4890159, 38.334267600029555 ], [ 23.4888844, 38.335028800029676 ], [ 23.4883936, 38.334974600029646 ], [ 23.4884687, 38.333813100029488 ], [ 23.4886537, 38.333161000029392 ], [ 23.487782, 38.333156700029406 ], [ 23.4876748, 38.333476500029441 ], [ 23.4873422, 38.33351860002945 ], [ 23.4875567, 38.332895800029355 ], [ 23.4881334, 38.330968100029089 ], [ 23.4878089, 38.330932400029084 ], [ 23.4875192, 38.330846100029063 ], [ 23.4871517, 38.330722000029034 ], [ 23.4867816, 38.330639900029027 ], [ 23.4865777, 38.330509500029009 ], [ 23.4864624, 38.330374800028991 ], [ 23.4863873, 38.330330600028987 ], [ 23.4861513, 38.330204400028961 ], [ 23.485934, 38.330111800028945 ], [ 23.4857865, 38.329966600028939 ], [ 23.4859313, 38.329874000028916 ], [ 23.4861727, 38.329821400028919 ], [ 23.4864141, 38.329825600028919 ], [ 23.4866904, 38.329775100028911 ], [ 23.4869398, 38.329766700028898 ], [ 23.4871946, 38.329701500028897 ], [ 23.4874012, 38.329625800028886 ], [ 23.4877767, 38.329562600028886 ], [ 23.4880342, 38.32950160002887 ], [ 23.4882514, 38.329432200028847 ], [ 23.4884982, 38.329423800028856 ], [ 23.4889622, 38.329430100028858 ], [ 23.4889488, 38.329305900028835 ], [ 23.4887718, 38.329173400028814 ], [ 23.4886699, 38.329112400028819 ], [ 23.4884982, 38.329030300028805 ], [ 23.4882783, 38.329021900028799 ], [ 23.4880503, 38.328912500028778 ], [ 23.4878464, 38.328910400028789 ], [ 23.4876989, 38.329013500028793 ], [ 23.4874951, 38.329045000028813 ], [ 23.4873851, 38.329183900028816 ], [ 23.4871195, 38.329223900028829 ], [ 23.4868567, 38.329244900028826 ], [ 23.4864168, 38.32927230002884 ], [ 23.4862612, 38.329282800028835 ], [ 23.4860708, 38.329295400028833 ], [ 23.4857382, 38.329301700028836 ], [ 23.4856524, 38.329388000028864 ], [ 23.4851884, 38.329383800028857 ], [ 23.4849148, 38.329362700028852 ], [ 23.4847592, 38.329423800028856 ], [ 23.4845419, 38.329512100028872 ], [ 23.4845768, 38.329882400028914 ], [ 23.4847726, 38.330271700028973 ], [ 23.4845956, 38.330339000028992 ], [ 23.4845473, 38.330185400028959 ], [ 23.4844937, 38.329972900028935 ], [ 23.4844293, 38.329709900028902 ], [ 23.4843622, 38.329449000028866 ], [ 23.4842362, 38.329257500028831 ], [ 23.4841047, 38.329331200028832 ], [ 23.483917, 38.329356400028843 ], [ 23.4836541, 38.329322800028841 ], [ 23.4833725, 38.329284900028838 ], [ 23.4831016, 38.329289100028838 ], [ 23.482761, 38.329341700028834 ], [ 23.4825544, 38.329356400028843 ], [ 23.4823318, 38.329440600028853 ], [ 23.4821414, 38.329531100028859 ], [ 23.4817337, 38.329590000028887 ], [ 23.4815218, 38.329693100028891 ], [ 23.4815996, 38.329827700028915 ], [ 23.4815727, 38.329979200028937 ], [ 23.4812509, 38.330027600028941 ], [ 23.4809965, 38.330144100028967 ], [ 23.4807654, 38.330202700028956 ], [ 23.4799393, 38.330362600028991 ], [ 23.479325, 38.330517900029008 ], [ 23.4792285, 38.330560000029024 ], [ 23.4772758, 38.330812400029053 ], [ 23.4773617, 38.331157500029121 ], [ 23.4766643, 38.331199600029109 ], [ 23.4767716, 38.331637200029178 ], [ 23.4765034, 38.331612000029168 ], [ 23.4756451, 38.331468900029144 ], [ 23.4757309, 38.332386200029298 ], [ 23.4757121, 38.333367100029413 ], [ 23.4762164, 38.33338400002944 ], [ 23.4766026, 38.333400800029423 ], [ 23.477182, 38.333325000029419 ], [ 23.4779839, 38.333261500029408 ], [ 23.4780725, 38.333897300029491 ], [ 23.4770934, 38.333968400029512 ], [ 23.4771176, 38.334276000029554 ], [ 23.4756558, 38.334313500029559 ], [ 23.4756451, 38.334995100029651 ], [ 23.475519, 38.33505870002967 ], [ 23.4755592, 38.335458000029732 ], [ 23.4749504, 38.33544580002971 ], [ 23.4749501, 38.335416000029724 ], [ 23.4749477, 38.335121400029678 ], [ 23.47465, 38.33505870002967 ], [ 23.4748431, 38.333745800029469 ], [ 23.4738775, 38.333636400029462 ], [ 23.4738024, 38.33292110002936 ], [ 23.4741993, 38.332862200029354 ], [ 23.4741135, 38.332332000029268 ], [ 23.4732981, 38.332298300029265 ], [ 23.4726195, 38.332327300029277 ], [ 23.4726544, 38.332702300029325 ], [ 23.4728582, 38.332744300029333 ], [ 23.4729548, 38.333308200029407 ], [ 23.4722901, 38.333409200029436 ], [ 23.4722258, 38.33275280002934 ], [ 23.4720187, 38.33275650002934 ], [ 23.4718363, 38.332992200029366 ], [ 23.4718073, 38.333232500029418 ], [ 23.4719468, 38.334595800029604 ], [ 23.4715713, 38.33465470002961 ], [ 23.4715145, 38.334380800029564 ], [ 23.4706379, 38.334410700029579 ], [ 23.4706379, 38.3338889000295 ], [ 23.4706057, 38.333055700029377 ], [ 23.4705306, 38.332912700029347 ], [ 23.4705092, 38.332231000029267 ], [ 23.470531, 38.332149400029252 ], [ 23.4705397, 38.332117200029245 ], [ 23.470595, 38.331911200029218 ], [ 23.4710134, 38.331574500029156 ], [ 23.4715177, 38.331397800029137 ], [ 23.4724076, 38.331263100029119 ], [ 23.4728046, 38.331195800029121 ], [ 23.4728368, 38.330909600029081 ], [ 23.4721936, 38.330926500029065 ], [ 23.4716357, 38.330934900029071 ], [ 23.4710992, 38.331035900029086 ], [ 23.4708418, 38.331254700029127 ], [ 23.4703987, 38.331578300029157 ], [ 23.4702409, 38.331911200029218 ], [ 23.4701336, 38.332298300029265 ], [ 23.4700264, 38.332794800029355 ], [ 23.4696079, 38.332719100029323 ], [ 23.4698332, 38.331641800029161 ], [ 23.4695758, 38.33165870002918 ], [ 23.4694148, 38.331574500029156 ], [ 23.4692539, 38.331380900029131 ], [ 23.4689073, 38.33112380002909 ], [ 23.4686531, 38.331187400029108 ], [ 23.4683709, 38.331334200029126 ], [ 23.4681381, 38.331423000029147 ], [ 23.4682346, 38.33122950002911 ], [ 23.4688033, 38.330892800029062 ], [ 23.4691863, 38.330669400029031 ], [ 23.4692324, 38.330463600029013 ], [ 23.4694363, 38.330320500028975 ], [ 23.469683, 38.330354200028992 ], [ 23.469844, 38.330463600029013 ], [ 23.4699942, 38.330429900028996 ], [ 23.4704448, 38.330253200028977 ], [ 23.4706272, 38.330236400028966 ], [ 23.4707559, 38.330328900028981 ], [ 23.4708954, 38.33033730002898 ], [ 23.4711207, 38.330270000028982 ], [ 23.4712602, 38.330084900028943 ], [ 23.4712494, 38.329908100028923 ], [ 23.4710563, 38.329832400028899 ], [ 23.4709244, 38.329794100028913 ], [ 23.4707312, 38.329794100028913 ], [ 23.4705092, 38.329916500028929 ], [ 23.4703665, 38.329709900028902 ], [ 23.4704555, 38.329613500028884 ], [ 23.4704448, 38.329495700028865 ], [ 23.4697764, 38.329171300028818 ], [ 23.4695221, 38.329100200028812 ], [ 23.469358, 38.329196500028836 ], [ 23.4692002, 38.329563000028884 ], [ 23.4689964, 38.329689300028889 ], [ 23.4690071, 38.329260100028826 ], [ 23.4687679, 38.329171300028818 ], [ 23.4685426, 38.32916290002882 ], [ 23.4683816, 38.329297500028844 ], [ 23.4679986, 38.329352600028848 ], [ 23.4677197, 38.329436800028866 ], [ 23.4677197, 38.329563000028884 ], [ 23.467784, 38.329731400028898 ], [ 23.4677948, 38.329891300028919 ], [ 23.4678055, 38.330000700028933 ], [ 23.4679772, 38.330177400028958 ], [ 23.4679632, 38.330703000029047 ], [ 23.4678377, 38.330884400029063 ], [ 23.4673871, 38.33080870002906 ], [ 23.4670545, 38.330732900029048 ], [ 23.4667031, 38.329999900028938 ], [ 23.4666489, 38.329874000028916 ], [ 23.4664826, 38.329453200028873 ], [ 23.4663646, 38.329209100028827 ], [ 23.4661769, 38.329078700028802 ], [ 23.4662788, 38.328944000028791 ], [ 23.4661715, 38.328838800028777 ], [ 23.4661661, 38.328758900028767 ], [ 23.4661715, 38.328586300028732 ], [ 23.4661232, 38.328493700028737 ], [ 23.4660642, 38.328464300028713 ], [ 23.4658925, 38.328367500028705 ], [ 23.4657799, 38.328333800028702 ], [ 23.4655921, 38.32826230002869 ], [ 23.4655063, 38.32814870002867 ], [ 23.4653293, 38.327993000028648 ], [ 23.4651415, 38.327875100028635 ], [ 23.4649538, 38.327774100028627 ], [ 23.4645944, 38.327626900028591 ], [ 23.4642457, 38.327504800028578 ], [ 23.4639238, 38.327361700028561 ], [ 23.4637521, 38.327353300028555 ], [ 23.4634303, 38.327307000028561 ], [ 23.4631191, 38.327298600028541 ], [ 23.4628187, 38.327168100028537 ], [ 23.462513, 38.326999800028517 ], [ 23.4624057, 38.326789400028481 ], [ 23.4623091, 38.326562200028434 ], [ 23.4622126, 38.326187600028391 ], [ 23.4621911, 38.325973000028362 ], [ 23.4620463, 38.325922500028348 ], [ 23.4617244, 38.326330700028421 ], [ 23.4614615, 38.326473800028431 ], [ 23.4612899, 38.32650740002844 ], [ 23.4612394, 38.326566800028452 ], [ 23.4610571, 38.327315900028559 ], [ 23.4608747, 38.327635700028601 ], [ 23.460316137032663, 38.328573553614362 ], [ 23.460316137032663, 38.339584302361835 ], [ 23.4604455, 38.339661900030329 ], [ 23.4607996, 38.339889100030369 ], [ 23.461336, 38.340419300030447 ], [ 23.4618188, 38.340848400030488 ], [ 23.4622694, 38.341193400030548 ], [ 23.462838667334207, 38.34162106086103 ], [ 23.49036326015084, 38.34162106086103 ], [ 23.49036326015084, 38.335156279608022 ], [ 23.4900458, 38.335142800029686 ] ] ] } },
{ "type": "Feature", "properties": { "osm_id": 127787506, "name": null, "label": "landuse:orchard", "natural": null, "landuse": "orchard" }, "geometry": { "type": "Polygon", "coordinates": [ [ [ 23.4884126, 38.34076500003048 ], [ 23.4885414, 38.340192800030401 ], [ 23.4886701, 38.340226500030404 ], [ 23.4887882, 38.339831000030344 ], [ 23.4889598, 38.339292400030274 ], [ 23.488992, 38.338804300030205 ], [ 23.4883697, 38.338551800030167 ], [ 23.4885092, 38.339309200030279 ], [ 23.4881766, 38.339931900030372 ], [ 23.4879191, 38.340706100030481 ], [ 23.4884126, 38.34076500003048 ] ] ] } },
{ "type": "Feature", "properties": { "osm_id": 127787756, "name": null, "label": "landuse:orchard", "natural": null, "landuse": "orchard" }, "geometry": { "type": "Polygon", "coordinates": [ [ [ 23.4821577, 38.341261500030555 ], [ 23.4825011, 38.341244700030551 ], [ 23.4829946, 38.341227800030552 ], [ 23.4834452, 38.341236300030552 ], [ 23.4832413, 38.340201200030393 ], [ 23.4818788, 38.340420000030448 ], [ 23.4821577, 38.341261500030555 ] ] ] } },
{ "type": "Feature", "properties": { "osm_id": 127666000, "name": null, "label": "landuse:orchard", "natural": null, "landuse": "orchard" }, "geometry": { "type": "Polygon", "coordinates": [ [ [ 23.4761279, 38.33751140003001 ], [ 23.4776835, 38.337410400030002 ], [ 23.4778767, 38.338310800030143 ], [ 23.4770398, 38.338395000030133 ], [ 23.4771256, 38.338933600030231 ], [ 23.4780376, 38.338714800030189 ], [ 23.47822, 38.33921970003027 ], [ 23.478735, 38.339101900030244 ], [ 23.478692, 38.338992500030237 ], [ 23.4801512, 38.338622200030187 ], [ 23.4802048, 38.338933600030231 ], [ 23.4804838, 38.338908300030219 ], [ 23.4813957, 38.338807300030197 ], [ 23.4814494, 38.339455300030302 ], [ 23.4819107, 38.339413200030279 ], [ 23.4819751, 38.338134100030103 ], [ 23.481857, 38.337763900030048 ], [ 23.481503, 38.337805900030069 ], [ 23.4810202, 38.336619400029875 ], [ 23.4792392, 38.336981200029939 ], [ 23.4790997, 38.336190200029833 ], [ 23.4785097, 38.336106000029815 ], [ 23.4784453, 38.335626300029737 ], [ 23.4778445, 38.335592700029743 ], [ 23.4778552, 38.336535200029878 ], [ 23.4767072, 38.336610900029875 ], [ 23.4759133, 38.336754000029906 ], [ 23.4761279, 38.33751140003001 ] ] ] } },
{ "type": "Feature", "properties": { "osm_id": 863520484, "name": null, "label": "landuse:industrial", "natural": null, "landuse": "industrial" }, "geometry": { "type": "Polygon", "coordinates": [ [ [ 23.4758426, 38.339256900030271 ], [ 23.4759288, 38.339364800030296 ], [ 23.4760341, 38.339662700030324 ], [ 23.4767371, 38.339470400030301 ], [ 23.4766352, 38.339144300030249 ], [ 23.4763831, 38.338540500030163 ], [ 23.4762999, 38.338418500030151 ], [ 23.4761497, 38.338157600030115 ], [ 23.4753531, 38.338166000030114 ], [ 23.4758426, 38.339256900030271 ] ] ] } },
{ "type": "Feature", "properties": { "osm_id": 127666006, "name": null, "label": "landuse:orchard", "natural": null, "landuse": "orchard" }, "geometry": { "type": "Polygon", "coordinates": [ [ [ 23.4785418, 38.335390700029706 ], [ 23.4791856, 38.335365400029708 ], [ 23.4789388, 38.334540700029585 ], [ 23.4787242, 38.333951600029508 ], [ 23.4783702, 38.333976800029518 ], [ 23.4785418, 38.335390700029706 ] ] ] } },
{ "type": "Feature", "properties": { "osm_id": 127666005, "name": null, "label": "landuse:orchard", "natural": null, "landuse": "orchard" }, "geometry": { "type": "Polygon", "coordinates": [ [ [ 23.4816639, 38.334086300029526 ], [ 23.4830158, 38.334035800029511 ], [ 23.4830372, 38.333370900029429 ], [ 23.4820609, 38.333269900029407 ], [ 23.4821145, 38.332621900029324 ], [ 23.4806447, 38.332419900029279 ], [ 23.4816639, 38.334086300029526 ] ] ] } },
{ "type": "Feature", "properties": { "osm_id": 127787514, "name": null, "label": "landuse:orchard", "natural": null, "landuse": "orchard" }, "geometry": { "type": "Polygon", "coordinates": [ [ [ 23.4828766, 38.339342900030289 ], [ 23.483692, 38.339199800030258 ], [ 23.4836705, 38.339023100030246 ], [ 23.4835739, 38.338737000030193 ], [ 23.4834988, 38.338425600030142 ], [ 23.4826727, 38.338627600030172 ], [ 23.4828766, 38.339342900030289 ] ] ] } },
{ "type": "Feature", "properties": { "osm_id": 127787763, "name": null, "label": "landuse:orchard", "natural": null, "landuse": "orchard" }, "geometry": { "type": "Polygon", "coordinates": [ [ [ 23.4835525, 38.337710300030039 ], [ 23.4852476, 38.337398900029996 ], [ 23.4851082, 38.337129700029962 ], [ 23.4844859, 38.33725590002998 ], [ 23.484443, 38.336936100029945 ], [ 23.4843786, 38.336498500029869 ], [ 23.4843786, 38.336220800029842 ], [ 23.4842606, 38.335682200029765 ], [ 23.4838743, 38.335774800029775 ], [ 23.484282, 38.337180100029968 ], [ 23.4834988, 38.337474700030008 ], [ 23.4835525, 38.337710300030039 ] ] ] } },
{ "type": "Feature", "properties": { "osm_id": 127664997, "name": null, "label": "natural:scrub", "natural": "scrub", "landuse": null }, "geometry": { "type": "Polygon", "coordinates": [ [ [ 23.4887798, 38.332820100029352 ], [ 23.4888093, 38.33305110002938 ], [ 23.4886849, 38.33344360002944 ], [ 23.4889569, 38.333045200029375 ], [ 23.4891249, 38.332736900029339 ], [ 23.4893449, 38.332398200029289 ], [ 23.4893985, 38.332253000029262 ], [ 23.4894628, 38.331565000029165 ], [ 23.4894386, 38.33144270002915 ], [ 23.4889917, 38.331485700029155 ], [ 23.4888807, 38.331417400029146 ], [ 23.4887986, 38.331485700029155 ], [ 23.4887906, 38.332163600029254 ], [ 23.4881468, 38.33231510002927 ], [ 23.4882005, 38.332744300029333 ], [ 23.4877499, 38.332836900029342 ], [ 23.4887798, 38.332820100029352 ] ] ] } },
{ "type": "Feature", "properties": { "osm_id": 127665989, "name": null, "label": "landuse:orchard", "natural": null, "landuse": "orchard" }, "geometry": { "type": "Polygon", "coordinates": [ [ [ 23.4791427, 38.332369400029279 ], [ 23.479604, 38.33236100002928 ], [ 23.4795396, 38.331578300029157 ], [ 23.481739, 38.331771900029196 ], [ 23.4817498, 38.331460500029145 ], [ 23.4794323, 38.331199600029109 ], [ 23.4790461, 38.331233200029111 ], [ 23.4791427, 38.332369400029279 ] ] ] } },
{ "type": "Feature", "properties": { "osm_id": 127253208, "name": null, "label": "landuse:farmland", "natural": null, "landuse": "farmland" }, "geometry": { "type": "Polygon", "coordinates": [ [ [ 23.4722953, 38.329407700028852 ], [ 23.4726815, 38.32942450002885 ], [ 23.4728746, 38.329390900028855 ], [ 23.4730463, 38.329340400028855 ], [ 23.4730249, 38.329205700028822 ], [ 23.4733038, 38.329188900028811 ], [ 23.4734969, 38.329155200028808 ], [ 23.4737115, 38.329155200028808 ], [ 23.4737759, 38.3290037000288 ], [ 23.4739904, 38.328970000028797 ], [ 23.4742265, 38.328902700028785 ], [ 23.4745698, 38.328902700028785 ], [ 23.4747844, 38.328852200028777 ], [ 23.474956, 38.328885900028794 ], [ 23.4751706, 38.328902700028785 ], [ 23.4754925, 38.328852200028777 ], [ 23.4756856, 38.328869100028776 ], [ 23.4758358, 38.329071000028804 ], [ 23.4760075, 38.329256200028837 ], [ 23.4761362, 38.329172000028805 ], [ 23.4764152, 38.329172000028805 ], [ 23.4766083, 38.329273000028834 ], [ 23.4768014, 38.329273000028834 ], [ 23.4771018, 38.32923940002884 ], [ 23.4774237, 38.329188900028811 ], [ 23.4776812, 38.329188900028811 ], [ 23.4779601, 38.329054200028807 ], [ 23.4782391, 38.32891960002879 ], [ 23.4784966, 38.328835400028773 ], [ 23.4787111, 38.328818600028768 ], [ 23.4788828, 38.328818600028768 ], [ 23.4790974, 38.328801700028777 ], [ 23.4793334, 38.328734400028765 ], [ 23.4795265, 38.328683900028764 ], [ 23.4797411, 38.328549200028739 ], [ 23.4799986, 38.328380900028705 ], [ 23.4802775, 38.32822940002869 ], [ 23.4805136, 38.328296700028694 ], [ 23.4806852, 38.328313600028686 ], [ 23.4809642, 38.328246200028694 ], [ 23.4812002, 38.328195700028687 ], [ 23.4815435, 38.32807790002866 ], [ 23.4818225, 38.327976900028666 ], [ 23.4820156, 38.32785910002864 ], [ 23.4821873, 38.327774900028629 ], [ 23.4825306, 38.327623400028607 ], [ 23.4827881, 38.327556100028595 ], [ 23.483067, 38.327455100028565 ], [ 23.4833889, 38.327370900028555 ], [ 23.4836679, 38.327354100028565 ], [ 23.4838824, 38.327286800028553 ], [ 23.4840756, 38.32721940002854 ], [ 23.4839683, 38.327101600028527 ], [ 23.4839897, 38.326933300028493 ], [ 23.4841828, 38.326714400028465 ], [ 23.4843974, 38.326512400028435 ], [ 23.484376, 38.326394600028429 ], [ 23.4840756, 38.326394600028429 ], [ 23.4837322, 38.326445100028437 ], [ 23.4834962, 38.326411400028405 ], [ 23.4831314, 38.326461900028434 ], [ 23.483067, 38.326360900028419 ], [ 23.4827881, 38.326360900028419 ], [ 23.482316, 38.326428300028425 ], [ 23.4821288, 38.326476800028438 ], [ 23.4818928, 38.326527300028452 ], [ 23.481807, 38.326662000028463 ], [ 23.4815066, 38.326796700028488 ], [ 23.481292, 38.326897700028496 ], [ 23.4807234, 38.326906100028488 ], [ 23.4804551, 38.326965000028487 ], [ 23.4801762, 38.327108100028525 ], [ 23.4800152, 38.327225900028544 ], [ 23.4798543, 38.327335300028551 ], [ 23.4796183, 38.327427900028567 ], [ 23.479275, 38.327486800028581 ], [ 23.4788351, 38.32757940002859 ], [ 23.4785669, 38.327655100028601 ], [ 23.4784167, 38.327756100028616 ], [ 23.4781484, 38.327756100028616 ], [ 23.4779768, 38.327764600028623 ], [ 23.47773, 38.32780660002863 ], [ 23.4776013, 38.327840300028633 ], [ 23.477494, 38.328059100028653 ], [ 23.4772365, 38.328076000028666 ], [ 23.476979, 38.328177000028667 ], [ 23.4767215, 38.328160100028668 ], [ 23.4764425, 38.328294800028694 ], [ 23.4762709, 38.32844630002873 ], [ 23.4761636, 38.328345300028701 ], [ 23.4759276, 38.328395800028716 ], [ 23.4756057, 38.32844630002873 ], [ 23.4756057, 38.328278000028689 ], [ 23.4752838, 38.328294800028694 ], [ 23.4749942, 38.328345300028701 ], [ 23.4747688, 38.328421000028712 ], [ 23.474447, 38.328488400028725 ], [ 23.4742217, 38.328555700028737 ], [ 23.4740071, 38.328606200028744 ], [ 23.473696, 38.328715600028765 ], [ 23.4735887, 38.328715600028765 ], [ 23.4735136, 38.328766100028759 ], [ 23.4731702, 38.328875500028786 ], [ 23.4730093, 38.328892400028778 ], [ 23.4728591, 38.328917600028781 ], [ 23.4726553, 38.328976500028794 ], [ 23.4725158, 38.329102800028821 ], [ 23.4723441, 38.32912800002881 ], [ 23.4721939, 38.329178500028824 ], [ 23.4721832, 38.329271100028834 ], [ 23.4722953, 38.329407700028852 ] ] ] } },
{ "type": "Feature", "properties": { "osm_id": 127664998, "name": null, "label": "landuse:farmland", "natural": null, "landuse": "farmland" }, "geometry": { "type": "Polygon", "coordinates": [ [ [ 23.4902363, 38.33100600002907 ], [ 23.4897883, 38.330985400029078 ], [ 23.4894557, 38.330968600029074 ], [ 23.4891741, 38.331022800029082 ], [ 23.4888952, 38.33112380002909 ], [ 23.4889086, 38.33137250002914 ], [ 23.4890695, 38.331456700029143 ], [ 23.4895174, 38.331418400029129 ], [ 23.4895952, 38.331549300029167 ], [ 23.4898849, 38.331498800029138 ], [ 23.49036326015084, 38.331567614938649 ], [ 23.49036326015084, 38.33100600002907 ], [ 23.4902363, 38.33100600002907 ] ] ] } },
{ "type": "Feature", "properties": { "osm_id": 127253083, "name": null, "label": "landuse:farmland", "natural": null, "landuse": "farmland" }, "geometry": { "type": "Polygon", "coordinates": [ [ [ 23.4901325, 38.319827400027471 ], [ 23.4899394, 38.319995700027491 ], [ 23.4895961, 38.320079900027523 ], [ 23.4893171, 38.320079900027523 ], [ 23.4889738, 38.320147200027527 ], [ 23.4885018, 38.320180900027523 ], [ 23.4880511, 38.320315600027541 ], [ 23.4876864, 38.320433400027554 ], [ 23.4873645, 38.320450200027572 ], [ 23.4871285, 38.320584900027598 ], [ 23.4869353, 38.320584900027598 ], [ 23.4866779, 38.320669100027594 ], [ 23.4863774, 38.32055120002758 ], [ 23.4859268, 38.320391300027566 ], [ 23.4856908, 38.320307100027549 ], [ 23.4853797, 38.320189300027536 ], [ 23.4850149, 38.320155600027526 ], [ 23.4847574, 38.320248200027542 ], [ 23.4845428, 38.320324000027554 ], [ 23.4843497, 38.320366100027556 ], [ 23.4843497, 38.320433400027554 ], [ 23.4844463, 38.320492300027574 ], [ 23.4843068, 38.320584900027598 ], [ 23.4839527, 38.320736400027613 ], [ 23.4836094, 38.32078690002762 ], [ 23.4833519, 38.320778500027608 ], [ 23.4830944, 38.32078690002762 ], [ 23.4829442, 38.320744800027619 ], [ 23.4828155, 38.320744800027619 ], [ 23.4826224, 38.320694300027604 ], [ 23.482397, 38.320728000027607 ], [ 23.4821181, 38.320803800027619 ], [ 23.4819942, 38.320923500027639 ], [ 23.4824448, 38.320957200027642 ], [ 23.4826379, 38.320957200027642 ], [ 23.4829812, 38.320990900027653 ], [ 23.4833674, 38.32105820002765 ], [ 23.4837966, 38.321075100027663 ], [ 23.4840112, 38.321192900027675 ], [ 23.4842687, 38.321310700027688 ], [ 23.4844618, 38.321378100027701 ], [ 23.4848051, 38.321445400027713 ], [ 23.4850626, 38.321378100027701 ], [ 23.4850411, 38.321260200027673 ], [ 23.4846978, 38.321108700027665 ], [ 23.4849339, 38.321075100027663 ], [ 23.4852772, 38.32115920002768 ], [ 23.4856634, 38.321192900027675 ], [ 23.4858995, 38.32115920002768 ], [ 23.4860711, 38.321041400027646 ], [ 23.486393, 38.321041400027646 ], [ 23.4867578, 38.321125600027671 ], [ 23.487144, 38.321142400027668 ], [ 23.4875088, 38.321209700027687 ], [ 23.4875517, 38.321378100027701 ], [ 23.4875517, 38.321613800027727 ], [ 23.4877019, 38.321647400027736 ], [ 23.4879379, 38.321647400027736 ], [ 23.4882169, 38.321630600027731 ], [ 23.4885817, 38.321630600027731 ], [ 23.4888606, 38.321596900027721 ], [ 23.4890323, 38.321495900027735 ], [ 23.4891396, 38.321327600027693 ], [ 23.4892469, 38.32115920002768 ], [ 23.4893756, 38.320990900027653 ], [ 23.4896545, 38.320974100027648 ], [ 23.4899764, 38.320990900027653 ], [ 23.4902554, 38.321041400027646 ], [ 23.49036326015084, 38.321022576171046 ], [ 23.49036326015084, 38.319629847080613 ], [ 23.4901325, 38.319827400027471 ] ] ] } },
{ "type": "Feature", "properties": { "osm_id": -11791891, "name": null, "label": "natural:scrub", "natural": "scrub", "landuse": null }, "geometry": { "type": "Polygon", "coordinates": [ [ [ 23.4641559, 38.31930900002741 ], [ 23.4642654, 38.31948830002743 ], [ 23.4644156, 38.319555700027443 ], [ 23.464392, 38.319763600027464 ], [ 23.4645121, 38.319909200027475 ], [ 23.4644478, 38.320077600027517 ], [ 23.4643405, 38.320178600027532 ], [ 23.4641903, 38.320313200027549 ], [ 23.4641774, 38.320487500027575 ], [ 23.4639757, 38.320624700027594 ], [ 23.4637075, 38.320700400027604 ], [ 23.4634392, 38.320793000027628 ], [ 23.4634607, 38.320919300027633 ], [ 23.4633212, 38.321079200027675 ], [ 23.4629994, 38.321129700027662 ], [ 23.4627848, 38.321180200027676 ], [ 23.4625166, 38.321256000027674 ], [ 23.4621303, 38.321272800027685 ], [ 23.4615939, 38.321230700027684 ], [ 23.4611902, 38.321161000027665 ], [ 23.4610574, 38.321138100027667 ], [ 23.4605639, 38.32109610002766 ], [ 23.460316137032663, 38.321102565417398 ], [ 23.460316137032663, 38.321544776108759 ], [ 23.4606927, 38.321744200027759 ], [ 23.4612076, 38.32210610002781 ], [ 23.4617419, 38.322465500027867 ], [ 23.4620981, 38.322762200027896 ], [ 23.4622483, 38.322888500027915 ], [ 23.4623535, 38.322920100027922 ], [ 23.4624093, 38.322829600027902 ], [ 23.4625895, 38.322936900027912 ], [ 23.4627526, 38.323208300027957 ], [ 23.4628813, 38.323418800027987 ], [ 23.4628384, 38.323545000028012 ], [ 23.4629779, 38.323755400028041 ], [ 23.4631367, 38.323997400028084 ], [ 23.4633191, 38.324191000028108 ], [ 23.4633727, 38.324367800028121 ], [ 23.4635122, 38.324376200028134 ], [ 23.4637053, 38.324376200028134 ], [ 23.4638126, 38.324603500028168 ], [ 23.4639542, 38.324664500028163 ], [ 23.4640401, 38.324689700028173 ], [ 23.4639864, 38.3248160000282 ], [ 23.4637933, 38.324824400028199 ], [ 23.4634178, 38.324849600028209 ], [ 23.4630423, 38.324841200028203 ], [ 23.462699, 38.324757100028179 ], [ 23.4625273, 38.324790700028203 ], [ 23.4629543, 38.3248896000282 ], [ 23.4629865, 38.324999000028207 ], [ 23.4627097, 38.324975900028214 ], [ 23.4624951, 38.324917000028208 ], [ 23.4623556, 38.324824400028199 ], [ 23.4622054, 38.324807600028187 ], [ 23.4620874, 38.324933800028212 ], [ 23.4618406, 38.324908600028202 ], [ 23.4619672, 38.325201000028258 ], [ 23.461905, 38.32559030002831 ], [ 23.4616261, 38.325927000028358 ], [ 23.4613578, 38.326196300028386 ], [ 23.4612827, 38.326490900028446 ], [ 23.4614651, 38.326457200028443 ], [ 23.4617012, 38.326322600028405 ], [ 23.4618621, 38.326137400028394 ], [ 23.4620552, 38.325884900028335 ], [ 23.462214, 38.325967000028356 ], [ 23.4622247, 38.326143700028382 ], [ 23.4622913, 38.326440400028432 ], [ 23.4623342, 38.326566700028451 ], [ 23.4623964, 38.326741300028466 ], [ 23.4624138, 38.326774100028473 ], [ 23.4625273, 38.326987500028501 ], [ 23.4628685, 38.327170600028545 ], [ 23.4631281, 38.327282100028555 ], [ 23.46348, 38.327296800028549 ], [ 23.4637718, 38.327341000028561 ], [ 23.4639435, 38.327349400028545 ], [ 23.4642203, 38.327482000028574 ], [ 23.4645765, 38.32760190002859 ], [ 23.4649949, 38.327770200028624 ], [ 23.4653382, 38.327980600028646 ], [ 23.4655421, 38.328149000028681 ], [ 23.4656172, 38.328266800028693 ], [ 23.4658961, 38.328351000028704 ], [ 23.4661429, 38.328485600028714 ], [ 23.4661858, 38.328578200028737 ], [ 23.4661837, 38.328820200028773 ], [ 23.4663017, 38.328946400028798 ], [ 23.4661966, 38.329074800028799 ], [ 23.4663768, 38.329198900028828 ], [ 23.4664648, 38.329377800028851 ], [ 23.4664775, 38.329408300028852 ], [ 23.4666665, 38.32986380002891 ], [ 23.4668489, 38.329889100028922 ], [ 23.4670549, 38.329865900028928 ], [ 23.46713, 38.329790200028903 ], [ 23.4673638, 38.329804900028904 ], [ 23.4674819, 38.32986380002891 ], [ 23.4677179, 38.329880600028922 ], [ 23.4677844, 38.329807000028907 ], [ 23.4676771, 38.329537700028879 ], [ 23.4676771, 38.329403000028854 ], [ 23.4677844, 38.329377800028851 ], [ 23.4680205, 38.329302000028832 ], [ 23.4682243, 38.329268400028838 ], [ 23.4683423, 38.329251500028825 ], [ 23.4685247, 38.329133700028812 ], [ 23.4687715, 38.329125300028821 ], [ 23.4690483, 38.32924100002883 ], [ 23.4690268, 38.329661800028887 ], [ 23.4691792, 38.329554500028877 ], [ 23.4692865, 38.329268400028838 ], [ 23.4693401, 38.32915050002881 ], [ 23.4695225, 38.329074800028799 ], [ 23.4697457, 38.329123200028803 ], [ 23.4704967, 38.329485100028869 ], [ 23.4704881, 38.329613400028876 ], [ 23.4704023, 38.329722800028897 ], [ 23.4705074, 38.329880600028922 ], [ 23.4707756, 38.329746000028891 ], [ 23.471076, 38.329779600028914 ], [ 23.4713013, 38.329905900028919 ], [ 23.4713035, 38.330101600028968 ], [ 23.4711425, 38.330295100028984 ], [ 23.4709172, 38.330362500028983 ], [ 23.4707348, 38.330370900029003 ], [ 23.4706276, 38.330278300028972 ], [ 23.4704559, 38.330269900028981 ], [ 23.4700053, 38.330463500029012 ], [ 23.4698336, 38.330497100029007 ], [ 23.469662, 38.330370900029003 ], [ 23.4694259, 38.330354100028991 ], [ 23.4692435, 38.330488700029008 ], [ 23.4692114, 38.330682300029039 ], [ 23.4689968, 38.330816900029063 ], [ 23.4686856, 38.330976900029086 ], [ 23.4682994, 38.331204100029119 ], [ 23.4681599, 38.331406100029135 ], [ 23.4686427, 38.331145200029106 ], [ 23.4689324, 38.331086300029092 ], [ 23.4692972, 38.33138080002913 ], [ 23.4694367, 38.331557600029157 ], [ 23.4696062, 38.331639600029177 ], [ 23.4698014, 38.331616500029163 ], [ 23.4698551, 38.331296700029128 ], [ 23.4702413, 38.330875900029056 ], [ 23.4705954, 38.33069910002903 ], [ 23.4708851, 38.330514000029012 ], [ 23.4713657, 38.330528700029014 ], [ 23.4719343, 38.33059600002904 ], [ 23.4726875, 38.330690700029045 ], [ 23.4729343, 38.33069910002903 ], [ 23.473181, 38.33058130002901 ], [ 23.4733291, 38.330604400029024 ], [ 23.4734922, 38.330707500029042 ], [ 23.4736831, 38.330697000029048 ], [ 23.4737604, 38.33058130002901 ], [ 23.474093, 38.33058130002901 ], [ 23.4744256, 38.330606500029027 ], [ 23.474874, 38.330587600029027 ], [ 23.4751122, 38.330657000029028 ], [ 23.4754555, 38.330657000029028 ], [ 23.4757645, 38.330654900029039 ], [ 23.4760993, 38.330657000029028 ], [ 23.4763353, 38.330598100029022 ], [ 23.4766228, 38.33047820002902 ], [ 23.4769147, 38.330505500029012 ], [ 23.4771378, 38.330570800029015 ], [ 23.477406, 38.33059600002904 ], [ 23.4777515, 38.330598100029022 ], [ 23.4783609, 38.330520300029008 ], [ 23.478878, 38.330497100029007 ], [ 23.4791784, 38.330471900029004 ], [ 23.4794574, 38.330438200029015 ], [ 23.480099, 38.330301500028973 ], [ 23.4806698, 38.330177300028964 ], [ 23.4809702, 38.330126800028964 ], [ 23.4812813, 38.330009000028944 ], [ 23.4815602, 38.32996690002895 ], [ 23.4815924, 38.32983220002891 ], [ 23.4815066, 38.329689200028881 ], [ 23.4817212, 38.329579800028874 ], [ 23.4821396, 38.329520800028867 ], [ 23.4823113, 38.329436700028864 ], [ 23.482558, 38.329344100028841 ], [ 23.4825622, 38.329343900028853 ], [ 23.4827619, 38.329335700028842 ], [ 23.4831052, 38.329276800028843 ], [ 23.4833713, 38.32927470002884 ], [ 23.4835966, 38.329308300028835 ], [ 23.4839206, 38.329344100028841 ], [ 23.4840815, 38.329327300028851 ], [ 23.4842425, 38.329243100028819 ], [ 23.4843712, 38.329445100028856 ], [ 23.4845055, 38.329971900028937 ], [ 23.4845536, 38.330160500028967 ], [ 23.4846051, 38.330326700028998 ], [ 23.484766, 38.330267800028977 ], [ 23.4845643, 38.329874300028926 ], [ 23.4845321, 38.329504000028869 ], [ 23.4847446, 38.329417700028849 ], [ 23.4849076, 38.329352500028847 ], [ 23.4851844, 38.329375700028855 ], [ 23.4856479, 38.329377800028851 ], [ 23.4857338, 38.329293600028848 ], [ 23.48612, 38.329285200028842 ], [ 23.4866243, 38.329251500028825 ], [ 23.4870856, 38.329217900028823 ], [ 23.4873753, 38.329175800028821 ], [ 23.4874933, 38.329032700028797 ], [ 23.4876971, 38.329007500028801 ], [ 23.4878473, 38.328898000028779 ], [ 23.4880619, 38.328906500028786 ], [ 23.4882851, 38.329013800028797 ], [ 23.4885104, 38.329022200028803 ], [ 23.4887679, 38.329156800028819 ], [ 23.488961, 38.329299900028857 ], [ 23.4889739, 38.329436700028864 ], [ 23.4885018, 38.329428300028852 ], [ 23.488255, 38.329436700028864 ], [ 23.4880297, 38.329512400028868 ], [ 23.4877722, 38.329571300028874 ], [ 23.4874182, 38.329630300028882 ], [ 23.4872036, 38.329706000028892 ], [ 23.486944, 38.329771200028915 ], [ 23.4866886, 38.329781800028904 ], [ 23.4864204, 38.32983220002891 ], [ 23.4861736, 38.32983220002891 ], [ 23.4859483, 38.329874300028926 ], [ 23.4857981, 38.32996690002895 ], [ 23.4859269, 38.330093200028955 ], [ 23.4861522, 38.330194100028969 ], [ 23.486311, 38.330276200028976 ], [ 23.4864741, 38.330370900029003 ], [ 23.4865921, 38.330505500029012 ], [ 23.4867959, 38.330631800029039 ], [ 23.48718, 38.330722300029045 ], [ 23.4875255, 38.330842200029068 ], [ 23.487813, 38.330924300029068 ], [ 23.4881907, 38.330968400029079 ], [ 23.4885554, 38.331035800029092 ], [ 23.4889074, 38.331067300029083 ], [ 23.4893279, 38.330943200029083 ], [ 23.4896047, 38.330941100029079 ], [ 23.4899051, 38.33097480002909 ], [ 23.4902592, 38.330966300029068 ], [ 23.4903364, 38.330943200029083 ], [ 23.49036326015084, 38.330948822310191 ], [ 23.49036326015084, 38.321022576171046 ], [ 23.4902554, 38.321041400027646 ], [ 23.4899764, 38.320990900027653 ], [ 23.4896545, 38.320974100027648 ], [ 23.4893756, 38.320990900027653 ], [ 23.4892469, 38.32115920002768 ], [ 23.4891396, 38.321327600027693 ], [ 23.4890323, 38.321495900027735 ], [ 23.4888606, 38.321596900027721 ], [ 23.4885817, 38.321630600027731 ], [ 23.4882169, 38.321630600027731 ], [ 23.4879379, 38.321647400027736 ], [ 23.4877019, 38.321647400027736 ], [ 23.4875517, 38.321613800027727 ], [ 23.4875517, 38.321378100027701 ], [ 23.4875088, 38.321209700027687 ], [ 23.487144, 38.321142400027668 ], [ 23.4867578, 38.321125600027671 ], [ 23.486393, 38.321041400027646 ], [ 23.4860711, 38.321041400027646 ], [ 23.4858995, 38.32115920002768 ], [ 23.4856634, 38.321192900027675 ], [ 23.4852772, 38.32115920002768 ], [ 23.4849339, 38.321075100027663 ], [ 23.4846978, 38.321108700027665 ], [ 23.4850411, 38.321260200027673 ], [ 23.4850626, 38.321378100027701 ], [ 23.4848051, 38.321445400027713 ], [ 23.4844618, 38.321378100027701 ], [ 23.4842687, 38.321310700027688 ], [ 23.4840112, 38.321192900027675 ], [ 23.4837966, 38.321075100027663 ], [ 23.4833674, 38.32105820002765 ], [ 23.4829812, 38.320990900027653 ], [ 23.4826379, 38.320957200027642 ], [ 23.4824448, 38.320957200027642 ], [ 23.4819942, 38.320923500027639 ], [ 23.4821181, 38.320803800027619 ], [ 23.482397, 38.320728000027607 ], [ 23.4826224, 38.320694300027604 ], [ 23.4828155, 38.320744800027619 ], [ 23.4829442, 38.320744800027619 ], [ 23.4830944, 38.32078690002762 ], [ 23.4833519, 38.320778500027608 ], [ 23.4836094, 38.32078690002762 ], [ 23.4839527, 38.320736400027613 ], [ 23.4843068, 38.320584900027598 ], [ 23.4844463, 38.320492300027574 ], [ 23.4843497, 38.320433400027554 ], [ 23.4843497, 38.320366100027556 ], [ 23.4845428, 38.320324000027554 ], [ 23.4847574, 38.320248200027542 ], [ 23.4850149, 38.320155600027526 ], [ 23.4853797, 38.320189300027536 ], [ 23.4856908, 38.320307100027549 ], [ 23.4859268, 38.320391300027566 ], [ 23.4863774, 38.32055120002758 ], [ 23.4866779, 38.320669100027594 ], [ 23.4869353, 38.320584900027598 ], [ 23.4871285, 38.320584900027598 ], [ 23.4873645, 38.320450200027572 ], [ 23.4876864, 38.320433400027554 ], [ 23.4880511, 38.320315600027541 ], [ 23.4885018, 38.320180900027523 ], [ 23.4889738, 38.320147200027527 ], [ 23.4893171, 38.320079900027523 ], [ 23.4895961, 38.320079900027523 ], [ 23.4899394, 38.319995700027491 ], [ 23.4901325, 38.319827400027471 ], [ 23.49036326015084, 38.319629847080613 ], [ 23.49036326015084, 38.319188918686898 ], [ 23.46405585990793, 38.319188918686898 ], [ 23.4641559, 38.31930900002741 ] ], [ [ 23.4721939, 38.329178500028824 ], [ 23.4723441, 38.32912800002881 ], [ 23.4725158, 38.329102800028821 ], [ 23.4726553, 38.328976500028794 ], [ 23.4728591, 38.328917600028781 ], [ 23.4730093, 38.328892400028778 ], [ 23.4731702, 38.328875500028786 ], [ 23.4735136, 38.328766100028759 ], [ 23.4735887, 38.328715600028765 ], [ 23.473696, 38.328715600028765 ], [ 23.4740071, 38.328606200028744 ], [ 23.4742217, 38.328555700028737 ], [ 23.474447, 38.328488400028725 ], [ 23.4747688, 38.328421000028712 ], [ 23.4749942, 38.328345300028701 ], [ 23.4752838, 38.328294800028694 ], [ 23.4756057, 38.328278000028689 ], [ 23.4756057, 38.32844630002873 ], [ 23.4759276, 38.328395800028716 ], [ 23.4761636, 38.328345300028701 ], [ 23.4762709, 38.32844630002873 ], [ 23.4764425, 38.328294800028694 ], [ 23.4767215, 38.328160100028668 ], [ 23.476979, 38.328177000028667 ], [ 23.4772365, 38.328076000028666 ], [ 23.477494, 38.328059100028653 ], [ 23.4776013, 38.327840300028633 ], [ 23.47773, 38.32780660002863 ], [ 23.4779768, 38.327764600028623 ], [ 23.4781484, 38.327756100028616 ], [ 23.4784167, 38.327756100028616 ], [ 23.4785669, 38.327655100028601 ], [ 23.4788351, 38.32757940002859 ], [ 23.479275, 38.327486800028581 ], [ 23.4796183, 38.327427900028567 ], [ 23.4798543, 38.327335300028551 ], [ 23.4800152, 38.327225900028544 ], [ 23.4801762, 38.327108100028525 ], [ 23.4804551, 38.326965000028487 ], [ 23.4807234, 38.326906100028488 ], [ 23.481292, 38.326897700028496 ], [ 23.4815066, 38.326796700028488 ], [ 23.481807, 38.326662000028463 ], [ 23.4818928, 38.326527300028452 ], [ 23.4821288, 38.326476800028438 ], [ 23.482316, 38.326428300028425 ], [ 23.4827881, 38.326360900028419 ], [ 23.483067, 38.326360900028419 ], [ 23.4831314, 38.326461900028434 ], [ 23.4834962, 38.326411400028405 ], [ 23.4837322, 38.326445100028437 ], [ 23.4840756, 38.326394600028429 ], [ 23.484376, 38.326394600028429 ], [ 23.4843974, 38.326512400028435 ], [ 23.4841828, 38.326714400028465 ], [ 23.4839897, 38.326933300028493 ], [ 23.4839683, 38.327101600028527 ], [ 23.4840756, 38.32721940002854 ], [ 23.4838824, 38.327286800028553 ], [ 23.4836679, 38.327354100028565 ], [ 23.4833889, 38.327370900028555 ], [ 23.483067, 38.327455100028565 ], [ 23.4827881, 38.327556100028595 ], [ 23.4825306, 38.327623400028607 ], [ 23.4821873, 38.327774900028629 ], [ 23.4820156, 38.32785910002864 ], [ 23.4818225, 38.327976900028666 ], [ 23.4815435, 38.32807790002866 ], [ 23.4812002, 38.328195700028687 ], [ 23.4809642, 38.328246200028694 ], [ 23.4806852, 38.328313600028686 ], [ 23.4805136, 38.328296700028694 ], [ 23.4802775, 38.32822940002869 ], [ 23.4799986, 38.328380900028705 ], [ 23.4797411, 38.328549200028739 ], [ 23.4795265, 38.328683900028764 ], [ 23.4793334, 38.328734400028765 ], [ 23.4790974, 38.328801700028777 ], [ 23.4788828, 38.328818600028768 ], [ 23.4787111, 38.328818600028768 ], [ 23.4784966, 38.328835400028773 ], [ 23.4782391, 38.32891960002879 ], [ 23.4779601, 38.329054200028807 ], [ 23.4776812, 38.329188900028811 ], [ 23.4774237, 38.329188900028811 ], [ 23.4771018, 38.32923940002884 ], [ 23.4768014, 38.329273000028834 ], [ 23.4766083, 38.329273000028834 ], [ 23.4764152, 38.329172000028805 ], [ 23.4761362, 38.329172000028805 ], [ 23.4760075, 38.329256200028837 ], [ 23.4758358, 38.329071000028804 ], [ 23.4756856, 38.328869100028776 ], [ 23.4754925, 38.328852200028777 ], [ 23.4751706, 38.328902700028785 ], [ 23.474956, 38.328885900028794 ], [ 23.4747844, 38.328852200028777 ], [ 23.4745698, 38.328902700028785 ], [ 23.4742265, 38.328902700028785 ], [ 23.4739904, 38.328970000028797 ], [ 23.4737759, 38.3290037000288 ], [ 23.4737115, 38.329155200028808 ], [ 23.4734969, 38.329155200028808 ], [ 23.4733038, 38.329188900028811 ], [ 23.4730249, 38.329205700028822 ], [ 23.4730463, 38.329340400028855 ], [ 23.4728746, 38.329390900028855 ], [ 23.4726815, 38.32942450002885 ], [ 23.4722953, 38.329407700028852 ], [ 23.4721832, 38.329271100028834 ], [ 23.4721939, 38.329178500028824 ] ] ] } },
{ "type": "Feature", "properties": { "osm_id": 8733378564, "name": "Πέτρα Σταυραετού", "label": "natural:peak", "natural": "peak", "landuse": null }, "geometry": { "type": "Point", "coordinates": [ 23.46926, 38.323430100027998 ] } }
]
}
