{
"type": "FeatureCollection",
"name": "patch_52396_polygon",
"crs": { "type": "name", "properties": { "name": "urn:ogc:def:crs:OGC:1.3:CRS84" } },
"features": [
{ "type": "Feature", "properties": { "element": "relation", "id": 13641374, "ele": null, "natural": "water", "landuse": null, "type": "multipolygon", "name": "Λίμνη Βεγορίτιδα", "name:bg": "Островско езеро", "name:cs": "Vegoritis", "name:de": "Vegoritida-See", "name:el": "Λίμνη Βεγορίτιδα", "name:en": "Lake Vegoritida", "name:fr": "Lac Vegoritida", "name:it": "Lago di Vegoritida", "name:ka": "ვეგორიტისი", "name:mk": "Островско Езеро", "name:pt": "Lago Vegoritida", "name:ru": "озеро Вегоритис", "name:sr": "Островско језеро", "old_name": "Ostrovo Lake", "old_name:de": "Ostrovo See", "old_name:el": "Λίμνη Οστρόβου", "old_name:fr": "Lac Ostrovo", "water": "lake", "wikidata": "Q281748", "wikipedia": "el:Λίμνη Βεγορίτιδα", "label": "water:lake;natural:water" }, "geometry": { "type": "Polygon", "coordinates": [ [ [ 21.801064, 40.7262522 ], [ 21.798970932596273, 40.726361267272083 ], [ 21.798970932596273, 40.726566412836505 ], [ 21.803594102987304, 40.726566412836505 ], [ 21.801064, 40.7262522 ] ] ] } },
{ "type": "Feature", "properties": { "element": "way", "id": 28844204, "ele": null, "natural": null, "landuse": "farmland", "type": null, "name": null, "name:bg": null, "name:cs": null, "name:de": null, "name:el": null, "name:en": null, "name:fr": null, "name:it": null, "name:ka": null, "name:mk": null, "name:pt": null, "name:ru": null, "name:sr": null, "old_name": null, "old_name:de": null, "old_name:el": null, "old_name:fr": null, "water": null, "wikidata": null, "wikipedia": null, "label": "landuse:farmland" }, "geometry": { "type": "Polygon", "coordinates": [ [ [ 21.8048597, 40.7263554 ], [ 21.8064557, 40.7253186 ], [ 21.8078209, 40.7244317 ], [ 21.8074776, 40.7232608 ], [ 21.8071343, 40.7223501 ], [ 21.8061043, 40.7213093 ], [ 21.8040444, 40.7203986 ], [ 21.8014695, 40.7200083 ], [ 21.8002354, 40.7188808 ], [ 21.7998921, 40.7182303 ], [ 21.798970932596273, 40.717997533815911 ], [ 21.798970932596273, 40.726361267272083 ], [ 21.801064, 40.7262522 ], [ 21.803594102987304, 40.726566412836505 ], [ 21.804245234365894, 40.726566412836505 ], [ 21.8048597, 40.7263554 ] ] ] } },
{ "type": "Feature", "properties": { "element": "way", "id": 28844298, "ele": null, "natural": null, "landuse": "farmland", "type": null, "name": null, "name:bg": null, "name:cs": null, "name:de": null, "name:el": null, "name:en": null, "name:fr": null, "name:it": null, "name:ka": null, "name:mk": null, "name:pt": null, "name:ru": null, "name:sr": null, "old_name": null, "old_name:de": null, "old_name:el": null, "old_name:fr": null, "water": null, "wikidata": null, "wikipedia": null, "label": "landuse:farmland" }, "geometry": { "type": "Polygon", "coordinates": [ [ [ 21.8076493, 40.7257326 ], [ 21.8078209, 40.7244317 ], [ 21.8064557, 40.7253186 ], [ 21.8048597, 40.7263554 ], [ 21.804245234365894, 40.726566412836505 ], [ 21.807465937020837, 40.726566412836505 ], [ 21.8076493, 40.7257326 ] ] ] } },
{ "type": "Feature", "properties": { "element": "way", "id": 49733913, "ele": null, "natural": null, "landuse": "farmland", "type": null, "name": null, "name:bg": null, "name:cs": null, "name:de": null, "name:el": null, "name:en": null, "name:fr": null, "name:it": null, "name:ka": null, "name:mk": null, "name:pt": null, "name:ru": null, "name:sr": null, "old_name": null, "old_name:de": null, "old_name:el": null, "old_name:fr": null, "water": null, "wikidata": null, "wikipedia": null, "label": "landuse:farmland" }, "geometry": { "type": "Polygon", "coordinates": [ [ [ 21.826403, 40.7256271 ], [ 21.826071, 40.7250776 ], [ 21.8258117, 40.7245302 ], [ 21.8257114, 40.7246822 ], [ 21.8253739, 40.7255776 ], [ 21.8252022, 40.7264882 ], [ 21.82517270792799, 40.726566412836505 ], [ 21.827178384140698, 40.726566412836505 ], [ 21.826403, 40.7256271 ] ] ] } },
{ "type": "Feature", "properties": { "element": "way", "id": 1498261944, "ele": null, "natural": null, "landuse": "orchard", "type": null, "name": null, "name:bg": null, "name:cs": null, "name:de": null, "name:el": null, "name:en": null, "name:fr": null, "name:it": null, "name:ka": null, "name:mk": null, "name:pt": null, "name:ru": null, "name:sr": null, "old_name": null, "old_name:de": null, "old_name:el": null, "old_name:fr": null, "water": null, "wikidata": null, "wikipedia": null, "label": "landuse:orchard" }, "geometry": { "type": "Polygon", "coordinates": [ [ [ 21.8277608, 40.7238891 ], [ 21.8273132, 40.7233852 ], [ 21.8268721, 40.7228989 ], [ 21.8258463, 40.7234832 ], [ 21.8259148, 40.7237273 ], [ 21.8259536, 40.7237822 ], [ 21.8260118, 40.7238322 ], [ 21.8261179, 40.7238979 ], [ 21.8262525, 40.7240087 ], [ 21.8263456, 40.7241234 ], [ 21.8264297, 40.7242508 ], [ 21.826497, 40.7243881 ], [ 21.8266095, 40.7245901 ], [ 21.8266677, 40.7247067 ], [ 21.8267117, 40.7248057 ], [ 21.8267829, 40.7249067 ], [ 21.8268773, 40.7250224 ], [ 21.826942, 40.7251224 ], [ 21.8282589, 40.7244342 ], [ 21.8277608, 40.7238891 ] ] ] } }
]
}
