{
"type": "FeatureCollection",
"name": "patch_24064_features",
"crs": { "type": "name", "properties": { "name": "urn:ogc:def:crs:OGC:1.3:CRS84" } },
"features": [
{ "type": "Feature", "properties": { "element": "relation", "id": 9135811, "name": "Σαρωνικός Κόλπος", "name:el": "Σαρωνικός Κόλπος", "name:en": "Saronic Gulf", "natural": "bay", "name:de": "Saronischer Golf", "wikidata": "Q211779", "name:ru": "Сароникос", "type": "multipolygon", "alt_name:cs": "Sarónský záliv", "alt_name:tr": "Egina Körfezi", "name:am": "ሳሮኒክ ወሽመት", "name:ar": "الخليج الساروني", "name:be": "Сараніцкі заліў", "name:bg": "Саронически залив", "name:br": "Pleg-mor Aigina", "name:ca": "Golf Sarònic", "name:cs": "Saronský záliv", "name:cy": "Gwlff Saronica", "name:da": "Saroniske Bugt", "name:eo": "Sarona Golfo", "name:es": "Golfo Sarónico", "name:et": "Saroni laht", "name:eu": "Golko Saronikoa", "name:fa": "خلیج سارونیک", "name:fi": "Saroninlahti", "name:fr": "Golfe Saronique", "name:fy": "Golf fan Egina", "name:he": "המפרץ הסרוני", "name:hr": "Saronski zaljev", "name:hy": "Սարոնիկոս", "name:it": "Golfo Saronico", "name:ja": "サロニコス湾", "name:ko": "사로니코스 만", "name:la": "Sinus Saronicus", "name:lt": "Sarono įlanka", "name:nl": "Golf van Egina", "name:nn": "Saroniabukta", "name:no": "Saroniabukta", "name:pl": "Zatoka Sarońska", "name:pt": "Golfo Sarónico", "name:sk": "Aiginský záliv", "name:sr": "Саронски залив", "name:sv": "Saroniska bukten", "name:tr": "Saron Körfezi", "name:uk": "Саронічна затока", "name:zh": "萨龙湾", "wikipedia": "el:Σαρωνικός κόλπος", "label": "natural:bay" }, "geometry": { "type": "Polygon", "coordinates": [ [ [ 23.796930258000138, 37.550758774895002 ], [ 23.792648609256233, 37.550758774895002 ], [ 23.792648609256233, 37.573116733186524 ], [ 23.822465752566973, 37.573116733186524 ], [ 23.822465752566973, 37.561416280165794 ], [ 23.796930258000138, 37.550758774895002 ] ] ] } }
]
}
