{
"type": "FeatureCollection",
"name": "patch_85428_multipolygon",
"crs": { "type": "name", "properties": { "name": "urn:ogc:def:crs:OGC:1.3:CRS84" } },
"features": [
{ "type": "Feature", "properties": { "element": "way", "id": 318382016, "natural": "scrub", "alt_name:bg": null, "alt_name:de": null, "alt_name:fr": null, "boat": null, "name": null, "name:bg": null, "name:de": null, "name:el": null, "name:en": null, "name:fr": null, "name:nl": null, "old_name": null, "waterway": null, "width": null, "est_width": null, "layer": null, "tunnel": null, "landuse": null, "building": null, "wetland": null, "type": null, "water": null, "label": "natural:scrub" }, "geometry": { "type": "MultiPolygon", "coordinates": [ [ [ [ 23.8011438, 40.8908336 ], [ 23.800362, 40.8905449 ], [ 23.7998835, 40.8903734 ], [ 23.799178, 40.8901271 ], [ 23.7985894, 40.8898927 ], [ 23.798203, 40.8897348 ], [ 23.7977043, 40.8895547 ], [ 23.7971696, 40.8893917 ], [ 23.7967584, 40.8892372 ], [ 23.7966798, 40.8892745 ], [ 23.7973583, 40.889531 ], [ 23.798358, 40.8899165 ], [ 23.7988837, 40.8900812 ], [ 23.7998295, 40.8904039 ], [ 23.8001441, 40.8905398 ], [ 23.801256074311272, 40.890934204160615 ], [ 23.801417521160293, 40.890934204160615 ], [ 23.8011438, 40.8908336 ] ] ], [ [ [ 23.8105054, 40.890477 ], [ 23.8106896, 40.890173 ], [ 23.8110872, 40.8895921 ], [ 23.8112782, 40.8892949 ], [ 23.8116826, 40.8885612 ], [ 23.8118511, 40.8883098 ], [ 23.8123543, 40.8875608 ], [ 23.8130058, 40.8864908 ], [ 23.8128845, 40.8864484 ], [ 23.8127789, 40.8866233 ], [ 23.8120128, 40.8878649 ], [ 23.8118556, 40.8881111 ], [ 23.8111656, 40.8891431 ], [ 23.8106087, 40.8900863 ], [ 23.8103953, 40.8904481 ], [ 23.810089899353127, 40.890934204160615 ], [ 23.810216457099486, 40.890934204160615 ], [ 23.8105054, 40.890477 ] ] ] ] } },
{ "type": "Feature", "properties": { "element": "way", "id": 329525122, "natural": "scrub", "alt_name:bg": null, "alt_name:de": null, "alt_name:fr": null, "boat": null, "name": null, "name:bg": null, "name:de": null, "name:el": null, "name:en": null, "name:fr": null, "name:nl": null, "old_name": null, "waterway": null, "width": null, "est_width": null, "layer": null, "tunnel": null, "landuse": null, "building": null, "wetland": null, "type": null, "water": null, "label": "natural:scrub" }, "geometry": { "type": "MultiPolygon", "coordinates": [ [ [ [ 23.8185527, 40.877363 ], [ 23.8184107, 40.8774814 ], [ 23.8179247, 40.8782287 ], [ 23.8177937, 40.8784447 ], [ 23.8175607, 40.8783759 ], [ 23.8173387, 40.8783057 ], [ 23.8169746, 40.8781874 ], [ 23.8166743, 40.8780814 ], [ 23.8164104, 40.8779754 ], [ 23.8160464, 40.8778585 ], [ 23.815373, 40.8775942 ], [ 23.8145284, 40.8773011 ], [ 23.8139897, 40.8771181 ], [ 23.8137076, 40.8770135 ], [ 23.8133308, 40.8768676 ], [ 23.8131215, 40.8767905 ], [ 23.8128303, 40.8767052 ], [ 23.8125536, 40.8765731 ], [ 23.8120677, 40.8764148 ], [ 23.8115107, 40.8762222 ], [ 23.8108737, 40.8759923 ], [ 23.8104587, 40.8758189 ], [ 23.810284, 40.8758354 ], [ 23.8104041, 40.8759345 ], [ 23.8105253, 40.8759776 ], [ 23.8108027, 40.8760763 ], [ 23.8112086, 40.8762098 ], [ 23.8114234, 40.8762841 ], [ 23.8119257, 40.8764699 ], [ 23.8125963, 40.8767098 ], [ 23.8127411, 40.8767616 ], [ 23.8131597, 40.8769089 ], [ 23.8135401, 40.8770451 ], [ 23.8137931, 40.8771401 ], [ 23.8140425, 40.877202 ], [ 23.8142663, 40.8773094 ], [ 23.8148606, 40.877522 ], [ 23.8149125, 40.8775406 ], [ 23.8154931, 40.8777456 ], [ 23.8156367, 40.8777972 ], [ 23.8161137, 40.8779686 ], [ 23.8161331, 40.8779761 ], [ 23.8165633, 40.878142 ], [ 23.8173241, 40.8784007 ], [ 23.81775, 40.8785465 ], [ 23.8173041, 40.8793874 ], [ 23.8167708, 40.8801401 ], [ 23.8167308, 40.880136 ], [ 23.8162138, 40.8799544 ], [ 23.815848, 40.8798126 ], [ 23.8157333, 40.8798016 ], [ 23.8152515, 40.8796145 ], [ 23.8148652, 40.8794644 ], [ 23.8145403, 40.8793406 ], [ 23.8139369, 40.8791108 ], [ 23.8129461, 40.8787591 ], [ 23.8128973, 40.8789095 ], [ 23.8133577, 40.879057 ], [ 23.8137531, 40.8791837 ], [ 23.8140989, 40.8793255 ], [ 23.814685, 40.8795333 ], [ 23.8155495, 40.879836 ], [ 23.8166707, 40.8802076 ], [ 23.8161956, 40.8809644 ], [ 23.8162848, 40.881036 ], [ 23.8162592, 40.8810755 ], [ 23.8160082, 40.8814626 ], [ 23.8157585, 40.8818675 ], [ 23.8155568, 40.8821947 ], [ 23.8152393, 40.8825661 ], [ 23.8149276, 40.8830629 ], [ 23.8150315, 40.883149 ], [ 23.8151968, 40.8831472 ], [ 23.8153808, 40.8828387 ], [ 23.8154251, 40.8827647 ], [ 23.8158194, 40.8821066 ], [ 23.815937, 40.881919 ], [ 23.8164292, 40.8811337 ], [ 23.8168532, 40.8804759 ], [ 23.8172391, 40.8798112 ], [ 23.8174906, 40.87944 ], [ 23.817847, 40.878914 ], [ 23.8180283, 40.8786006 ], [ 23.818171, 40.8783539 ], [ 23.8184961, 40.877756 ], [ 23.8185878, 40.8775874 ], [ 23.818626516278847, 40.877525547906394 ], [ 23.818626516278847, 40.877244617711021 ], [ 23.8185527, 40.877363 ] ] ], [ [ [ 23.818489, 40.8760611 ], [ 23.8175735, 40.8757198 ], [ 23.8173587, 40.8756304 ], [ 23.8171931, 40.8755602 ], [ 23.817042, 40.8754996 ], [ 23.8169473, 40.8754116 ], [ 23.8168509, 40.8753345 ], [ 23.8166434, 40.875307 ], [ 23.8164632, 40.8752492 ], [ 23.8161811, 40.8751542 ], [ 23.8158917, 40.875084 ], [ 23.8157479, 40.8749849 ], [ 23.8155004, 40.8748941 ], [ 23.8151637, 40.8747923 ], [ 23.8149871, 40.8747757 ], [ 23.814614, 40.8746381 ], [ 23.8141826, 40.8744922 ], [ 23.8134837, 40.87425 ], [ 23.813096, 40.874111 ], [ 23.8127429, 40.873972 ], [ 23.8124863, 40.8738633 ], [ 23.8119767, 40.8736885 ], [ 23.811538, 40.8735399 ], [ 23.8112377, 40.8734339 ], [ 23.8109065, 40.8732894 ], [ 23.8106826, 40.8732357 ], [ 23.8106371, 40.8732852 ], [ 23.8107845, 40.873383 ], [ 23.8110375, 40.8734628 ], [ 23.8115617, 40.8736458 ], [ 23.8120058, 40.8738151 ], [ 23.8123644, 40.8739266 ], [ 23.8128085, 40.8740807 ], [ 23.813005, 40.8741674 ], [ 23.8134546, 40.874323 ], [ 23.813835, 40.8744606 ], [ 23.8143464, 40.8746533 ], [ 23.8144629, 40.8747124 ], [ 23.814705, 40.8748005 ], [ 23.8150162, 40.8748913 ], [ 23.8152856, 40.8750248 ], [ 23.8155058, 40.8750978 ], [ 23.8156533, 40.8751611 ], [ 23.8159299, 40.8752285 ], [ 23.816192, 40.8752863 ], [ 23.8163485, 40.8753799 ], [ 23.8166434, 40.8754996 ], [ 23.8169783, 40.8755905 ], [ 23.8173023, 40.875713 ], [ 23.8181377, 40.8760143 ], [ 23.818626516278847, 40.876177082163018 ], [ 23.818626516278847, 40.876090889193911 ], [ 23.818489, 40.8760611 ] ] ], [ [ [ 23.8185254, 40.8732797 ], [ 23.8178264, 40.8730829 ], [ 23.8166616, 40.872776 ], [ 23.8161647, 40.8726356 ], [ 23.8155968, 40.8724732 ], [ 23.8149289, 40.8722998 ], [ 23.8141863, 40.8720948 ], [ 23.8129777, 40.871814 ], [ 23.8117437, 40.8714754 ], [ 23.8103786, 40.8710735 ], [ 23.8095396, 40.8708299 ], [ 23.8091628, 40.8707047 ], [ 23.8089881, 40.8707625 ], [ 23.8087132, 40.870885 ], [ 23.8084348, 40.8710419 ], [ 23.8081927, 40.871302 ], [ 23.8080853, 40.8714795 ], [ 23.8079142, 40.8718787 ], [ 23.8077541, 40.8720369 ], [ 23.807421, 40.8719805 ], [ 23.8065328, 40.8716433 ], [ 23.8055081, 40.8713364 ], [ 23.8054243, 40.8714355 ], [ 23.8057574, 40.8715387 ], [ 23.806247, 40.8716846 ], [ 23.8065819, 40.8717988 ], [ 23.8069696, 40.8719227 ], [ 23.8074665, 40.872103 ], [ 23.8077632, 40.8721553 ], [ 23.8079961, 40.8722448 ], [ 23.8081308, 40.8723769 ], [ 23.8081963, 40.8726673 ], [ 23.8082691, 40.8731091 ], [ 23.8083802, 40.8736596 ], [ 23.808422, 40.8740807 ], [ 23.8086605, 40.8740271 ], [ 23.8086659, 40.8739128 ], [ 23.8085968, 40.8737243 ], [ 23.808544, 40.873372 ], [ 23.8084894, 40.8731806 ], [ 23.8083747, 40.8726728 ], [ 23.8083456, 40.8724375 ], [ 23.8082655, 40.8721113 ], [ 23.8081727, 40.8717906 ], [ 23.8081599, 40.8716309 ], [ 23.8082382, 40.8714589 ], [ 23.8083347, 40.8713529 ], [ 23.8085203, 40.8711726 ], [ 23.8087132, 40.871035 ], [ 23.8088898, 40.8709552 ], [ 23.8090736, 40.8708602 ], [ 23.8092065, 40.8708767 ], [ 23.8094176, 40.8709153 ], [ 23.8096888, 40.8709965 ], [ 23.8100874, 40.8711093 ], [ 23.8104314, 40.8712015 ], [ 23.8107463, 40.8713048 ], [ 23.8109902, 40.8713846 ], [ 23.8112323, 40.8714658 ], [ 23.8114707, 40.871514 ], [ 23.8118802, 40.8716406 ], [ 23.8120968, 40.8717176 ], [ 23.8122424, 40.8717644 ], [ 23.8123261, 40.8717397 ], [ 23.8124554, 40.8717644 ], [ 23.8128867, 40.8718814 ], [ 23.8131142, 40.8719337 ], [ 23.8132926, 40.8720232 ], [ 23.8135893, 40.8721209 ], [ 23.8137786, 40.8721567 ], [ 23.8140279, 40.8722228 ], [ 23.8143464, 40.8722709 ], [ 23.8148743, 40.8724416 ], [ 23.8151254, 40.8724842 ], [ 23.8154949, 40.8726177 ], [ 23.8159044, 40.8727003 ], [ 23.8160337, 40.8727306 ], [ 23.816121, 40.8727416 ], [ 23.8162229, 40.8727636 ], [ 23.8162812, 40.872798 ], [ 23.8164068, 40.8728338 ], [ 23.8165487, 40.8728503 ], [ 23.8166598, 40.8728985 ], [ 23.8171949, 40.8730375 ], [ 23.8177045, 40.8731765 ], [ 23.8182651, 40.8733155 ], [ 23.8183688, 40.8733582 ], [ 23.818626516278847, 40.873428207485368 ], [ 23.818626516278847, 40.873305822207236 ], [ 23.8185254, 40.8732797 ] ] ] ] } }
]
}
