{
"type": "FeatureCollection",
"name": "patch_85428_linestring",
"crs": { "type": "name", "properties": { "name": "urn:ogc:def:crs:OGC:1.3:CRS84" } },
"features": [
{ "type": "Feature", "properties": { "element": "way", "id": 165556734, "natural": null, "alt_name:bg": "Стримонас", "alt_name:de": "Strymónas", "alt_name:fr": "Strymónas", "boat": "no", "name": "Στρυμόνας", "name:bg": "Струма", "name:de": "Struma", "name:el": "Στρυμόνας", "name:en": "Struma", "name:fr": "Struma", "name:nl": "Strimon", "old_name": "Στρυμόν", "waterway": "river", "width": "200", "est_width": "200", "layer": null, "tunnel": null, "landuse": null, "building": null, "wetland": null, "type": null, "water": null, "label": "waterway:river" }, "geometry": { "type": "LineString", "coordinates": [ [ 23.816737642910432, 40.890934204160615 ], [ 23.8167447, 40.8909164 ], [ 23.8170773, 40.8902311 ], [ 23.8175889, 40.8892971 ], [ 23.818, 40.888544 ], [ 23.818626516278847, 40.887553273077152 ] ] } },
{ "type": "Feature", "properties": { "element": "way", "id": 318342370, "natural": null, "alt_name:bg": null, "alt_name:de": null, "alt_name:fr": null, "boat": null, "name": null, "name:bg": null, "name:de": null, "name:el": null, "name:en": null, "name:fr": null, "name:nl": null, "old_name": null, "waterway": "stream", "width": null, "est_width": null, "layer": null, "tunnel": null, "landuse": null, "building": null, "wetland": null, "type": null, "water": null, "label": "waterway:stream" }, "geometry": { "type": "LineString", "coordinates": [ [ 23.787306243443453, 40.877761185643941 ], [ 23.7873913, 40.8777886 ], [ 23.7890085, 40.878231 ], [ 23.789553, 40.8785936 ], [ 23.7905039, 40.8783723 ], [ 23.7923243, 40.8785321 ], [ 23.7931451, 40.8784154 ], [ 23.794161, 40.8782372 ], [ 23.7947982, 40.878122 ] ] } },
{ "type": "Feature", "properties": { "element": "way", "id": 318373080, "natural": null, "alt_name:bg": null, "alt_name:de": null, "alt_name:fr": null, "boat": null, "name": null, "name:bg": null, "name:de": null, "name:el": null, "name:en": null, "name:fr": null, "name:nl": null, "old_name": null, "waterway": "ditch", "width": null, "est_width": null, "layer": null, "tunnel": null, "landuse": null, "building": null, "wetland": null, "type": null, "water": null, "label": "waterway:ditch" }, "geometry": { "type": "LineString", "coordinates": [ [ 23.8022908, 40.8836293 ], [ 23.802935, 40.8838597 ], [ 23.8030693, 40.8839296 ], [ 23.8030563, 40.8840191 ], [ 23.8030482, 40.8840289 ], [ 23.8024558, 40.8842529 ], [ 23.8019737, 40.8844305 ], [ 23.8017922, 40.8844997 ], [ 23.800985, 40.8848073 ], [ 23.8004906, 40.8849957 ], [ 23.7997042, 40.8853756 ], [ 23.7995146, 40.8854593 ], [ 23.799361, 40.885527 ] ] } },
{ "type": "Feature", "properties": { "element": "way", "id": 318382018, "natural": null, "alt_name:bg": null, "alt_name:de": null, "alt_name:fr": null, "boat": null, "name": null, "name:bg": null, "name:de": null, "name:el": null, "name:en": null, "name:fr": null, "name:nl": null, "old_name": null, "waterway": "ditch", "width": null, "est_width": null, "layer": null, "tunnel": null, "landuse": null, "building": null, "wetland": null, "type": null, "water": null, "label": "waterway:ditch" }, "geometry": { "type": "LineString", "coordinates": [ [ 23.8060782, 40.8809192 ], [ 23.8068916, 40.8811883 ], [ 23.8079464, 40.8815846 ], [ 23.8086295, 40.8818224 ], [ 23.8093761, 40.8820771 ], [ 23.8101736, 40.8823653 ], [ 23.8108535, 40.8826031 ], [ 23.8117495, 40.8829298 ], [ 23.8123404, 40.8831292 ], [ 23.8136113, 40.8835856 ], [ 23.8144199, 40.883869 ] ] } },
{ "type": "Feature", "properties": { "element": "way", "id": 318382019, "natural": null, "alt_name:bg": null, "alt_name:de": null, "alt_name:fr": null, "boat": null, "name": null, "name:bg": null, "name:de": null, "name:el": null, "name:en": null, "name:fr": null, "name:nl": null, "old_name": null, "waterway": "ditch", "width": null, "est_width": null, "layer": null, "tunnel": null, "landuse": null, "building": null, "wetland": null, "type": null, "water": null, "label": "waterway:ditch" }, "geometry": { "type": "LineString", "coordinates": [ [ 23.7924644, 40.8903461 ], [ 23.7929998, 40.8905322 ], [ 23.7938989, 40.8908709 ], [ 23.79407375306473, 40.890934204160615 ] ] } },
{ "type": "Feature", "properties": { "element": "way", "id": 318382020, "natural": null, "alt_name:bg": null, "alt_name:de": null, "alt_name:fr": null, "boat": null, "name": null, "name:bg": null, "name:de": null, "name:el": null, "name:en": null, "name:fr": null, "name:nl": null, "old_name": null, "waterway": "ditch", "width": null, "est_width": null, "layer": "-1", "tunnel": "yes", "landuse": null, "building": null, "wetland": null, "type": null, "water": null, "label": "waterway:ditch" }, "geometry": { "type": "LineString", "coordinates": [ [ 23.7923882, 40.8903172 ], [ 23.7924644, 40.8903461 ] ] } },
{ "type": "Feature", "properties": { "element": "way", "id": 318382021, "natural": null, "alt_name:bg": null, "alt_name:de": null, "alt_name:fr": null, "boat": null, "name": null, "name:bg": null, "name:de": null, "name:el": null, "name:en": null, "name:fr": null, "name:nl": null, "old_name": null, "waterway": "ditch", "width": null, "est_width": null, "layer": "-1", "tunnel": "yes", "landuse": null, "building": null, "wetland": null, "type": null, "water": null, "label": "waterway:ditch" }, "geometry": { "type": "LineString", "coordinates": [ [ 23.8144199, 40.883869 ], [ 23.8144945, 40.8839038 ] ] } },
{ "type": "Feature", "properties": { "element": "way", "id": 318382024, "natural": null, "alt_name:bg": null, "alt_name:de": null, "alt_name:fr": null, "boat": null, "name": null, "name:bg": null, "name:de": null, "name:el": null, "name:en": null, "name:fr": null, "name:nl": null, "old_name": null, "waterway": "ditch", "width": null, "est_width": null, "layer": null, "tunnel": null, "landuse": null, "building": null, "wetland": null, "type": null, "water": null, "label": "waterway:ditch" }, "geometry": { "type": "LineString", "coordinates": [ [ 23.7922644, 40.8902958 ], [ 23.7923882, 40.8903172 ] ] } },
{ "type": "Feature", "properties": { "element": "way", "id": 318382025, "natural": null, "alt_name:bg": null, "alt_name:de": null, "alt_name:fr": null, "boat": null, "name": null, "name:bg": null, "name:de": null, "name:el": null, "name:en": null, "name:fr": null, "name:nl": null, "old_name": null, "waterway": "ditch", "width": null, "est_width": null, "layer": null, "tunnel": null, "landuse": null, "building": null, "wetland": null, "type": null, "water": null, "label": "waterway:ditch" }, "geometry": { "type": "LineString", "coordinates": [ [ 23.8144945, 40.8839038 ], [ 23.8145279, 40.8839231 ] ] } },
{ "type": "Feature", "properties": { "element": "way", "id": 318382027, "natural": null, "alt_name:bg": null, "alt_name:de": null, "alt_name:fr": null, "boat": null, "name": null, "name:bg": null, "name:de": null, "name:el": null, "name:en": null, "name:fr": null, "name:nl": null, "old_name": null, "waterway": "ditch", "width": null, "est_width": null, "layer": "-1", "tunnel": "yes", "landuse": null, "building": null, "wetland": null, "type": null, "water": null, "label": "waterway:ditch" }, "geometry": { "type": "LineString", "coordinates": [ [ 23.799361, 40.885527 ], [ 23.7992793, 40.8855733 ] ] } },
{ "type": "Feature", "properties": { "element": "way", "id": 318382028, "natural": null, "alt_name:bg": null, "alt_name:de": null, "alt_name:fr": null, "boat": null, "name": null, "name:bg": null, "name:de": null, "name:el": null, "name:en": null, "name:fr": null, "name:nl": null, "old_name": null, "waterway": "ditch", "width": null, "est_width": null, "layer": null, "tunnel": null, "landuse": null, "building": null, "wetland": null, "type": null, "water": null, "label": "waterway:ditch" }, "geometry": { "type": "LineString", "coordinates": [ [ 23.7992793, 40.8855733 ], [ 23.7985092, 40.885944 ], [ 23.7973509, 40.8865262 ], [ 23.7970608, 40.8866605 ], [ 23.7965032, 40.8870837 ], [ 23.7959373, 40.8874744 ], [ 23.7953306, 40.8879053 ], [ 23.7948526, 40.8882605 ], [ 23.7941458, 40.8887423 ], [ 23.7935473, 40.88917 ], [ 23.7930958, 40.8895191 ], [ 23.7924994, 40.8900873 ], [ 23.7922644, 40.8902958 ], [ 23.7919968, 40.8906911 ], [ 23.791850786974738, 40.890934204160615 ] ] } },
{ "type": "Feature", "properties": { "element": "way", "id": 318382029, "natural": null, "alt_name:bg": null, "alt_name:de": null, "alt_name:fr": null, "boat": null, "name": null, "name:bg": null, "name:de": null, "name:el": null, "name:en": null, "name:fr": null, "name:nl": null, "old_name": null, "waterway": "stream", "width": null, "est_width": null, "layer": null, "tunnel": null, "landuse": null, "building": null, "wetland": null, "type": null, "water": null, "label": "waterway:stream" }, "geometry": { "type": "LineString", "coordinates": [ [ 23.7947982, 40.878122 ], [ 23.796429, 40.8782193 ], [ 23.7977164, 40.8782518 ], [ 23.7988751, 40.8780571 ], [ 23.7996905, 40.8776352 ], [ 23.8006025, 40.8770187 ], [ 23.8011067, 40.8768565 ], [ 23.8017934, 40.8769214 ], [ 23.8078874, 40.8786736 ], [ 23.8090032, 40.8790305 ], [ 23.809642, 40.8793715 ], [ 23.8099151, 40.8795172 ], [ 23.8108485, 40.8803933 ], [ 23.8123184, 40.8818859 ], [ 23.8129943, 40.882405 ], [ 23.8143651, 40.8831404 ], [ 23.8146925, 40.8832978 ], [ 23.8149233, 40.8834077 ], [ 23.8149683, 40.8834277 ], [ 23.8156076, 40.8837115 ], [ 23.8169795, 40.8844307 ], [ 23.818626516278847, 40.885182388007415 ] ] } },
{ "type": "Feature", "properties": { "element": "way", "id": 318382030, "natural": null, "alt_name:bg": null, "alt_name:de": null, "alt_name:fr": null, "boat": null, "name": null, "name:bg": null, "name:de": null, "name:el": null, "name:en": null, "name:fr": null, "name:nl": null, "old_name": null, "waterway": "ditch", "width": null, "est_width": null, "layer": null, "tunnel": null, "landuse": null, "building": null, "wetland": null, "type": null, "water": null, "label": "waterway:ditch" }, "geometry": { "type": "LineString", "coordinates": [ [ 23.7993605, 40.8882781 ], [ 23.8007669, 40.8887911 ], [ 23.8024945, 40.8894161 ], [ 23.8041705, 40.8900071 ], [ 23.8059745, 40.890661 ], [ 23.806756048827353, 40.890934204160615 ] ] } },
{ "type": "Feature", "properties": { "element": "way", "id": 318588911, "natural": null, "alt_name:bg": null, "alt_name:de": null, "alt_name:fr": null, "boat": null, "name": null, "name:bg": null, "name:de": null, "name:el": null, "name:en": null, "name:fr": null, "name:nl": null, "old_name": null, "waterway": "ditch", "width": null, "est_width": null, "layer": null, "tunnel": null, "landuse": null, "building": null, "wetland": null, "type": null, "water": null, "label": "waterway:ditch" }, "geometry": { "type": "LineString", "coordinates": [ [ 23.8035122, 40.8840568 ], [ 23.8041923, 40.8843008 ], [ 23.8045223, 40.8844056 ], [ 23.8050583, 40.8845944 ], [ 23.8055779, 40.8847557 ], [ 23.806196, 40.8849955 ], [ 23.8067667, 40.8852161 ], [ 23.8074413, 40.885467 ], [ 23.8084805, 40.8858093 ], [ 23.8094216, 40.8861407 ], [ 23.8104143, 40.886513 ], [ 23.8111415, 40.8867782 ], [ 23.8123266, 40.8872121 ] ] } },
{ "type": "Feature", "properties": { "element": "way", "id": 318588912, "natural": null, "alt_name:bg": null, "alt_name:de": null, "alt_name:fr": null, "boat": null, "name": null, "name:bg": null, "name:de": null, "name:el": null, "name:en": null, "name:fr": null, "name:nl": null, "old_name": null, "waterway": "ditch", "width": null, "est_width": null, "layer": null, "tunnel": null, "landuse": null, "building": null, "wetland": null, "type": null, "water": null, "label": "waterway:ditch" }, "geometry": { "type": "LineString", "coordinates": [ [ 23.7967772, 40.8892783 ], [ 23.797532, 40.8895471 ], [ 23.7985859, 40.8899303 ], [ 23.7996489, 40.890319 ], [ 23.8005423, 40.8906456 ], [ 23.801340670636478, 40.890934204160615 ] ] } },
{ "type": "Feature", "properties": { "element": "way", "id": 318588913, "natural": null, "alt_name:bg": null, "alt_name:de": null, "alt_name:fr": null, "boat": null, "name": null, "name:bg": null, "name:de": null, "name:el": null, "name:en": null, "name:fr": null, "name:nl": null, "old_name": null, "waterway": "ditch", "width": null, "est_width": null, "layer": "-1", "tunnel": "yes", "landuse": null, "building": null, "wetland": null, "type": null, "water": null, "label": "waterway:ditch" }, "geometry": { "type": "LineString", "coordinates": [ [ 23.8119207, 40.8881128 ], [ 23.8119493, 40.8880683 ] ] } },
{ "type": "Feature", "properties": { "element": "way", "id": 318588914, "natural": null, "alt_name:bg": null, "alt_name:de": null, "alt_name:fr": null, "boat": null, "name": null, "name:bg": null, "name:de": null, "name:el": null, "name:en": null, "name:fr": null, "name:nl": null, "old_name": null, "waterway": "ditch", "width": null, "est_width": null, "layer": "-1", "tunnel": "yes", "landuse": null, "building": null, "wetland": null, "type": null, "water": null, "label": "waterway:ditch" }, "geometry": { "type": "LineString", "coordinates": [ [ 23.8129289, 40.8865018 ], [ 23.8129832, 40.8864078 ] ] } },
{ "type": "Feature", "properties": { "element": "way", "id": 318588915, "natural": null, "alt_name:bg": null, "alt_name:de": null, "alt_name:fr": null, "boat": null, "name": null, "name:bg": null, "name:de": null, "name:el": null, "name:en": null, "name:fr": null, "name:nl": null, "old_name": null, "waterway": "ditch", "width": null, "est_width": null, "layer": "-1", "tunnel": "yes", "landuse": null, "building": null, "wetland": null, "type": null, "water": null, "label": "waterway:ditch" }, "geometry": { "type": "LineString", "coordinates": [ [ 23.813994, 40.8847855 ], [ 23.8140301, 40.8847289 ] ] } },
{ "type": "Feature", "properties": { "element": "way", "id": 318588919, "natural": null, "alt_name:bg": null, "alt_name:de": null, "alt_name:fr": null, "boat": null, "name": null, "name:bg": null, "name:de": null, "name:el": null, "name:en": null, "name:fr": null, "name:nl": null, "old_name": null, "waterway": "ditch", "width": null, "est_width": null, "layer": "-1", "tunnel": "yes", "landuse": null, "building": null, "wetland": null, "type": null, "water": null, "label": "waterway:ditch" }, "geometry": { "type": "LineString", "coordinates": [ [ 23.8133782, 40.885563 ], [ 23.8134489, 40.8855935 ] ] } },
{ "type": "Feature", "properties": { "element": "way", "id": 318588922, "natural": null, "alt_name:bg": null, "alt_name:de": null, "alt_name:fr": null, "boat": null, "name": null, "name:bg": null, "name:de": null, "name:el": null, "name:en": null, "name:fr": null, "name:nl": null, "old_name": null, "waterway": "ditch", "width": null, "est_width": null, "layer": null, "tunnel": null, "landuse": null, "building": null, "wetland": null, "type": null, "water": null, "label": "waterway:ditch" }, "geometry": { "type": "LineString", "coordinates": [ [ 23.8134489, 40.8855935 ], [ 23.8134741, 40.8856164 ] ] } },
{ "type": "Feature", "properties": { "element": "way", "id": 318588923, "natural": null, "alt_name:bg": null, "alt_name:de": null, "alt_name:fr": null, "boat": null, "name": null, "name:bg": null, "name:de": null, "name:el": null, "name:en": null, "name:fr": null, "name:nl": null, "old_name": null, "waterway": "ditch", "width": null, "est_width": null, "layer": "-1", "tunnel": "yes", "landuse": null, "building": null, "wetland": null, "type": null, "water": null, "label": "waterway:ditch" }, "geometry": { "type": "LineString", "coordinates": [ [ 23.81036, 40.8903892 ], [ 23.8104293, 40.8904161 ] ] } },
{ "type": "Feature", "properties": { "element": "way", "id": 318588926, "natural": null, "alt_name:bg": null, "alt_name:de": null, "alt_name:fr": null, "boat": null, "name": null, "name:bg": null, "name:de": null, "name:el": null, "name:en": null, "name:fr": null, "name:nl": null, "old_name": null, "waterway": "ditch", "width": null, "est_width": null, "layer": "-1", "tunnel": "yes", "landuse": null, "building": null, "wetland": null, "type": null, "water": null, "label": "waterway:ditch" }, "geometry": { "type": "LineString", "coordinates": [ [ 23.8123266, 40.8872121 ], [ 23.8124251, 40.8872479 ] ] } },
{ "type": "Feature", "properties": { "element": "way", "id": 318588927, "natural": null, "alt_name:bg": null, "alt_name:de": null, "alt_name:fr": null, "boat": null, "name": null, "name:bg": null, "name:de": null, "name:el": null, "name:en": null, "name:fr": null, "name:nl": null, "old_name": null, "waterway": "ditch", "width": null, "est_width": null, "layer": null, "tunnel": null, "landuse": null, "building": null, "wetland": null, "type": null, "water": null, "label": "waterway:ditch" }, "geometry": { "type": "LineString", "coordinates": [ [ 23.8104293, 40.8904161 ], [ 23.8104591, 40.8904277 ] ] } },
{ "type": "Feature", "properties": { "element": "way", "id": 318588928, "natural": null, "alt_name:bg": null, "alt_name:de": null, "alt_name:fr": null, "boat": null, "name": null, "name:bg": null, "name:de": null, "name:el": null, "name:en": null, "name:fr": null, "name:nl": null, "old_name": null, "waterway": "ditch", "width": null, "est_width": null, "layer": "-1", "tunnel": "yes", "landuse": null, "building": null, "wetland": null, "type": null, "water": null, "label": "waterway:ditch" }, "geometry": { "type": "LineString", "coordinates": [ [ 23.8112938, 40.8888713 ], [ 23.8113647, 40.8889008 ] ] } },
{ "type": "Feature", "properties": { "element": "way", "id": 318588929, "natural": null, "alt_name:bg": null, "alt_name:de": null, "alt_name:fr": null, "boat": null, "name": null, "name:bg": null, "name:de": null, "name:el": null, "name:en": null, "name:fr": null, "name:nl": null, "old_name": null, "waterway": "ditch", "width": null, "est_width": null, "layer": "-1", "tunnel": "yes", "landuse": null, "building": null, "wetland": null, "type": null, "water": null, "label": "waterway:ditch" }, "geometry": { "type": "LineString", "coordinates": [ [ 23.8109448, 40.8896622 ], [ 23.8109069, 40.8897213 ] ] } },
{ "type": "Feature", "properties": { "element": "way", "id": 318588930, "natural": null, "alt_name:bg": null, "alt_name:de": null, "alt_name:fr": null, "boat": null, "name": null, "name:bg": null, "name:de": null, "name:el": null, "name:en": null, "name:fr": null, "name:nl": null, "old_name": null, "waterway": "ditch", "width": null, "est_width": null, "layer": null, "tunnel": null, "landuse": null, "building": null, "wetland": null, "type": null, "water": null, "label": "waterway:ditch" }, "geometry": { "type": "LineString", "coordinates": [ [ 23.8109851, 40.8895935 ], [ 23.8109448, 40.8896622 ] ] } },
{ "type": "Feature", "properties": { "element": "way", "id": 318588931, "natural": null, "alt_name:bg": null, "alt_name:de": null, "alt_name:fr": null, "boat": null, "name": null, "name:bg": null, "name:de": null, "name:el": null, "name:en": null, "name:fr": null, "name:nl": null, "old_name": null, "waterway": "ditch", "width": null, "est_width": null, "layer": null, "tunnel": null, "landuse": null, "building": null, "wetland": null, "type": null, "water": null, "label": "waterway:ditch" }, "geometry": { "type": "LineString", "coordinates": [ [ 23.8124251, 40.8872479 ], [ 23.8124669, 40.8872651 ] ] } },
{ "type": "Feature", "properties": { "element": "way", "id": 318588932, "natural": null, "alt_name:bg": null, "alt_name:de": null, "alt_name:fr": null, "boat": null, "name": null, "name:bg": null, "name:de": null, "name:el": null, "name:en": null, "name:fr": null, "name:nl": null, "old_name": null, "waterway": "ditch", "width": null, "est_width": null, "layer": null, "tunnel": null, "landuse": null, "building": null, "wetland": null, "type": null, "water": null, "label": "waterway:ditch" }, "geometry": { "type": "LineString", "coordinates": [ [ 23.8113647, 40.8889008 ], [ 23.8114064, 40.8889169 ] ] } },
{ "type": "Feature", "properties": { "element": "way", "id": 318588933, "natural": null, "alt_name:bg": null, "alt_name:de": null, "alt_name:fr": null, "boat": null, "name": null, "name:bg": null, "name:de": null, "name:el": null, "name:en": null, "name:fr": null, "name:nl": null, "old_name": null, "waterway": "ditch", "width": null, "est_width": null, "layer": null, "tunnel": null, "landuse": null, "building": null, "wetland": null, "type": null, "water": null, "label": "waterway:ditch" }, "geometry": { "type": "LineString", "coordinates": [ [ 23.8129832, 40.8864078 ], [ 23.8132202, 40.8860157 ], [ 23.8134741, 40.8856164 ], [ 23.813994, 40.8847855 ] ] } },
{ "type": "Feature", "properties": { "element": "way", "id": 318588934, "natural": null, "alt_name:bg": null, "alt_name:de": null, "alt_name:fr": null, "boat": null, "name": null, "name:bg": null, "name:de": null, "name:el": null, "name:en": null, "name:fr": null, "name:nl": null, "old_name": null, "waterway": "ditch", "width": null, "est_width": null, "layer": null, "tunnel": null, "landuse": null, "building": null, "wetland": null, "type": null, "water": null, "label": "waterway:ditch" }, "geometry": { "type": "LineString", "coordinates": [ [ 23.8140301, 40.8847289 ], [ 23.8145279, 40.8839231 ], [ 23.8147392, 40.8836236 ] ] } },
{ "type": "Feature", "properties": { "element": "way", "id": 318588935, "natural": null, "alt_name:bg": null, "alt_name:de": null, "alt_name:fr": null, "boat": null, "name": null, "name:bg": null, "name:de": null, "name:el": null, "name:en": null, "name:fr": null, "name:nl": null, "old_name": null, "waterway": "ditch", "width": null, "est_width": null, "layer": null, "tunnel": null, "landuse": null, "building": null, "wetland": null, "type": null, "water": null, "label": "waterway:ditch" }, "geometry": { "type": "LineString", "coordinates": [ [ 23.8109069, 40.8897213 ], [ 23.8104591, 40.8904277 ], [ 23.8103545, 40.8905927 ], [ 23.81014618487378, 40.890934204160615 ] ] } },
{ "type": "Feature", "properties": { "element": "way", "id": 318588936, "natural": null, "alt_name:bg": null, "alt_name:de": null, "alt_name:fr": null, "boat": null, "name": null, "name:bg": null, "name:de": null, "name:el": null, "name:en": null, "name:fr": null, "name:nl": null, "old_name": null, "waterway": "ditch", "width": null, "est_width": null, "layer": null, "tunnel": null, "landuse": null, "building": null, "wetland": null, "type": null, "water": null, "label": "waterway:ditch" }, "geometry": { "type": "LineString", "coordinates": [ [ 23.8119493, 40.8880683 ], [ 23.8120806, 40.8878644 ], [ 23.8124669, 40.8872651 ], [ 23.8125757, 40.8870963 ], [ 23.8129289, 40.8865018 ] ] } },
{ "type": "Feature", "properties": { "element": "way", "id": 318588937, "natural": null, "alt_name:bg": null, "alt_name:de": null, "alt_name:fr": null, "boat": null, "name": null, "name:bg": null, "name:de": null, "name:el": null, "name:en": null, "name:fr": null, "name:nl": null, "old_name": null, "waterway": "ditch", "width": null, "est_width": null, "layer": null, "tunnel": null, "landuse": null, "building": null, "wetland": null, "type": null, "water": null, "label": "waterway:ditch" }, "geometry": { "type": "LineString", "coordinates": [ [ 23.8109851, 40.8895935 ], [ 23.8112374, 40.8891822 ], [ 23.8114064, 40.8889169 ], [ 23.8117505, 40.888377 ], [ 23.8119207, 40.8881128 ] ] } },
{ "type": "Feature", "properties": { "element": "way", "id": 318588938, "natural": null, "alt_name:bg": null, "alt_name:de": null, "alt_name:fr": null, "boat": null, "name": null, "name:bg": null, "name:de": null, "name:el": null, "name:en": null, "name:fr": null, "name:nl": null, "old_name": null, "waterway": "ditch", "width": null, "est_width": null, "layer": null, "tunnel": null, "landuse": null, "building": null, "wetland": null, "type": null, "water": null, "label": "waterway:ditch" }, "geometry": { "type": "LineString", "coordinates": [ [ 23.8045065, 40.8864473 ], [ 23.8061829, 40.8870431 ], [ 23.8078645, 40.8876509 ], [ 23.8095329, 40.8882686 ], [ 23.810951, 40.8887409 ], [ 23.8112938, 40.8888713 ] ] } },
{ "type": "Feature", "properties": { "element": "way", "id": 318588940, "natural": null, "alt_name:bg": null, "alt_name:de": null, "alt_name:fr": null, "boat": null, "name": null, "name:bg": null, "name:de": null, "name:el": null, "name:en": null, "name:fr": null, "name:nl": null, "old_name": null, "waterway": "ditch", "width": null, "est_width": null, "layer": null, "tunnel": null, "landuse": null, "building": null, "wetland": null, "type": null, "water": null, "label": "waterway:ditch" }, "geometry": { "type": "LineString", "coordinates": [ [ 23.8013556, 40.8871632 ], [ 23.8021852, 40.8874471 ], [ 23.8040778, 40.8881443 ], [ 23.8060724, 40.8888611 ], [ 23.8079577, 40.8895172 ], [ 23.8102331, 40.8903497 ], [ 23.81036, 40.8903892 ] ] } },
{ "type": "Feature", "properties": { "element": "way", "id": 318588941, "natural": null, "alt_name:bg": null, "alt_name:de": null, "alt_name:fr": null, "boat": null, "name": null, "name:bg": null, "name:de": null, "name:el": null, "name:en": null, "name:fr": null, "name:nl": null, "old_name": null, "waterway": "ditch", "width": null, "est_width": null, "layer": null, "tunnel": null, "landuse": null, "building": null, "wetland": null, "type": null, "water": null, "label": "waterway:ditch" }, "geometry": { "type": "LineString", "coordinates": [ [ 23.8039569, 40.8821532 ], [ 23.8049532, 40.8825441 ], [ 23.8065752, 40.883122 ], [ 23.8081214, 40.8836731 ], [ 23.809529, 40.8841728 ], [ 23.810538, 40.8845427 ], [ 23.8123087, 40.8851454 ], [ 23.8133782, 40.885563 ] ] } },
{ "type": "Feature", "properties": { "element": "way", "id": 318603171, "natural": null, "alt_name:bg": null, "alt_name:de": null, "alt_name:fr": null, "boat": null, "name": null, "name:bg": null, "name:de": null, "name:el": null, "name:en": null, "name:fr": null, "name:nl": null, "old_name": null, "waterway": "ditch", "width": null, "est_width": null, "layer": null, "tunnel": null, "landuse": null, "building": null, "wetland": null, "type": null, "water": null, "label": "waterway:ditch" }, "geometry": { "type": "LineString", "coordinates": [ [ 23.818626516278847, 40.888756459115946 ], [ 23.8185922, 40.8887421 ], [ 23.8184091, 40.8889748 ], [ 23.8182981, 40.8891441 ], [ 23.8181859, 40.8892344 ], [ 23.8180625, 40.8892781 ], [ 23.8175889, 40.8892971 ] ] } },
{ "type": "Feature", "properties": { "element": "way", "id": 319472304, "natural": null, "alt_name:bg": null, "alt_name:de": null, "alt_name:fr": null, "boat": null, "name": null, "name:bg": null, "name:de": null, "name:el": null, "name:en": null, "name:fr": null, "name:nl": null, "old_name": null, "waterway": "ditch", "width": null, "est_width": null, "layer": null, "tunnel": null, "landuse": null, "building": null, "wetland": null, "type": null, "water": null, "label": "waterway:ditch" }, "geometry": { "type": "LineString", "coordinates": [ [ 23.7967456, 40.8824411 ], [ 23.7971444, 40.8825735 ], [ 23.7977402, 40.8827826 ], [ 23.7986409, 40.8830898 ], [ 23.7993658, 40.8833232 ], [ 23.8002017, 40.8836012 ], [ 23.8008018, 40.8838464 ], [ 23.8012492, 40.8840601 ], [ 23.8014903, 40.8841296 ], [ 23.8016689, 40.8842083 ], [ 23.8017174, 40.8842935 ], [ 23.8017539, 40.8844285 ], [ 23.8017922, 40.8844997 ] ] } },
{ "type": "Feature", "properties": { "element": "way", "id": 319472306, "natural": null, "alt_name:bg": null, "alt_name:de": null, "alt_name:fr": null, "boat": null, "name": null, "name:bg": null, "name:de": null, "name:el": null, "name:en": null, "name:fr": null, "name:nl": null, "old_name": null, "waterway": "ditch", "width": null, "est_width": null, "layer": "-1", "tunnel": "yes", "landuse": null, "building": null, "wetland": null, "type": null, "water": null, "label": "waterway:ditch" }, "geometry": { "type": "LineString", "coordinates": [ [ 23.7994505, 40.8853879 ], [ 23.799493, 40.8854305 ] ] } },
{ "type": "Feature", "properties": { "element": "way", "id": 319472307, "natural": null, "alt_name:bg": null, "alt_name:de": null, "alt_name:fr": null, "boat": null, "name": null, "name:bg": null, "name:de": null, "name:el": null, "name:en": null, "name:fr": null, "name:nl": null, "old_name": null, "waterway": "ditch", "width": null, "est_width": null, "layer": null, "tunnel": null, "landuse": null, "building": null, "wetland": null, "type": null, "water": null, "label": "waterway:ditch" }, "geometry": { "type": "LineString", "coordinates": [ [ 23.799493, 40.8854305 ], [ 23.7995146, 40.8854593 ] ] } },
{ "type": "Feature", "properties": { "element": "way", "id": 319472309, "natural": null, "alt_name:bg": null, "alt_name:de": null, "alt_name:fr": null, "boat": null, "name": null, "name:bg": null, "name:de": null, "name:el": null, "name:en": null, "name:fr": null, "name:nl": null, "old_name": null, "waterway": "ditch", "width": null, "est_width": null, "layer": null, "tunnel": null, "landuse": null, "building": null, "wetland": null, "type": null, "water": null, "label": "waterway:ditch" }, "geometry": { "type": "LineString", "coordinates": [ [ 23.7960475, 40.8841993 ], [ 23.7967367, 40.8844218 ], [ 23.7971389, 40.8845878 ], [ 23.7973952, 40.8847055 ], [ 23.7975632, 40.8847324 ], [ 23.7979912, 40.8848641 ], [ 23.7985455, 40.8850486 ], [ 23.7989833, 40.8852108 ], [ 23.7994505, 40.8853879 ] ] } },
{ "type": "Feature", "properties": { "element": "way", "id": 319482096, "natural": null, "alt_name:bg": null, "alt_name:de": null, "alt_name:fr": null, "boat": null, "name": null, "name:bg": null, "name:de": null, "name:el": null, "name:en": null, "name:fr": null, "name:nl": null, "old_name": null, "waterway": "ditch", "width": null, "est_width": null, "layer": null, "tunnel": null, "landuse": null, "building": null, "wetland": null, "type": null, "water": null, "label": "waterway:ditch" }, "geometry": { "type": "LineString", "coordinates": [ [ 23.8107156, 40.8732862 ], [ 23.8115769, 40.8736046 ], [ 23.812586, 40.873963 ], [ 23.813706, 40.8743713 ], [ 23.8147795, 40.8747625 ], [ 23.8156086, 40.8750578 ], [ 23.8168475, 40.8754915 ], [ 23.8180077, 40.8759204 ], [ 23.818626516278847, 40.876140660227819 ] ] } },
{ "type": "Feature", "properties": { "element": "way", "id": 319482097, "natural": null, "alt_name:bg": null, "alt_name:de": null, "alt_name:fr": null, "boat": null, "name": null, "name:bg": null, "name:de": null, "name:el": null, "name:en": null, "name:fr": null, "name:nl": null, "old_name": null, "waterway": "ditch", "width": null, "est_width": null, "layer": null, "tunnel": null, "landuse": null, "building": null, "wetland": null, "type": null, "water": null, "label": "waterway:ditch" }, "geometry": { "type": "LineString", "coordinates": [ [ 23.7924659, 40.8705007 ], [ 23.792969, 40.8701009 ], [ 23.7931654, 40.8699981 ], [ 23.7933068, 40.8699509 ], [ 23.7935289, 40.8699121 ], [ 23.7937106, 40.8698996 ], [ 23.7938814, 40.8699343 ], [ 23.7940686, 40.869987 ], [ 23.7943091, 40.8700814 ], [ 23.7953391, 40.8704701 ], [ 23.7954272, 40.8705298 ], [ 23.7957091, 40.8707797 ] ] } },
{ "type": "Feature", "properties": { "element": "way", "id": 319482099, "natural": null, "alt_name:bg": null, "alt_name:de": null, "alt_name:fr": null, "boat": null, "name": null, "name:bg": null, "name:de": null, "name:el": null, "name:en": null, "name:fr": null, "name:nl": null, "old_name": null, "waterway": "ditch", "width": null, "est_width": null, "layer": null, "tunnel": null, "landuse": null, "building": null, "wetland": null, "type": null, "water": null, "label": "waterway:ditch" }, "geometry": { "type": "LineString", "coordinates": [ [ 23.813414978097182, 40.86863836307981 ], [ 23.8138422, 40.8687916 ], [ 23.81498, 40.8691861 ], [ 23.8160015, 40.8695652 ], [ 23.8170561, 40.8699337 ], [ 23.8180525, 40.8702807 ], [ 23.818626516278847, 40.870497352508998 ] ] } },
{ "type": "Feature", "properties": { "element": "way", "id": 319482100, "natural": null, "alt_name:bg": null, "alt_name:de": null, "alt_name:fr": null, "boat": null, "name": null, "name:bg": null, "name:de": null, "name:el": null, "name:en": null, "name:fr": null, "name:nl": null, "old_name": null, "waterway": "ditch", "width": null, "est_width": null, "layer": null, "tunnel": null, "landuse": null, "building": null, "wetland": null, "type": null, "water": null, "label": "waterway:ditch" }, "geometry": { "type": "LineString", "coordinates": [ [ 23.8000148, 40.8716607 ], [ 23.8007213, 40.8718349 ], [ 23.8017734, 40.8720995 ], [ 23.8024995, 40.8722771 ], [ 23.8031103, 40.8724497 ], [ 23.8035712, 40.872568 ], [ 23.8038603, 40.8726288 ], [ 23.8039798, 40.872642 ], [ 23.8040842, 40.8726025 ], [ 23.8041863, 40.8725072 ], [ 23.8043102, 40.8723839 ], [ 23.8045059, 40.8721784 ], [ 23.8047537, 40.8719401 ], [ 23.804945, 40.8716985 ] ] } },
{ "type": "Feature", "properties": { "element": "way", "id": 319482101, "natural": null, "alt_name:bg": null, "alt_name:de": null, "alt_name:fr": null, "boat": null, "name": null, "name:bg": null, "name:de": null, "name:el": null, "name:en": null, "name:fr": null, "name:nl": null, "old_name": null, "waterway": "ditch", "width": null, "est_width": null, "layer": null, "tunnel": null, "landuse": null, "building": null, "wetland": null, "type": null, "water": null, "label": "waterway:ditch" }, "geometry": { "type": "LineString", "coordinates": [ [ 23.8045309, 40.8723694 ], [ 23.8048362, 40.87207 ], [ 23.8049531, 40.8719412 ], [ 23.805094, 40.8717476 ], [ 23.805207, 40.8715674 ], [ 23.8053025, 40.8714161 ], [ 23.8053737, 40.8713743 ], [ 23.805466, 40.8713894 ], [ 23.8056628, 40.8714453 ], [ 23.8064736, 40.8717094 ], [ 23.807441, 40.8720326 ], [ 23.8078007, 40.8721078 ], [ 23.8081024, 40.8720943 ], [ 23.8080816, 40.8720266 ] ] } },
{ "type": "Feature", "properties": { "element": "way", "id": 319482102, "natural": null, "alt_name:bg": null, "alt_name:de": null, "alt_name:fr": null, "boat": null, "name": null, "name:bg": null, "name:de": null, "name:el": null, "name:en": null, "name:fr": null, "name:nl": null, "old_name": null, "waterway": "ditch", "width": null, "est_width": null, "layer": null, "tunnel": null, "landuse": null, "building": null, "wetland": null, "type": null, "water": null, "label": "waterway:ditch" }, "geometry": { "type": "LineString", "coordinates": [ [ 23.8053824, 40.8711927 ], [ 23.8054144, 40.871097 ], [ 23.8055325, 40.870849 ], [ 23.8056658, 40.8706486 ], [ 23.8058694, 40.8702429 ], [ 23.8060118, 40.8699374 ], [ 23.8060863, 40.8696641 ], [ 23.8060841, 40.8692461 ], [ 23.806048, 40.8686947 ], [ 23.806029237593851, 40.86863836307981 ] ] } },
{ "type": "Feature", "properties": { "element": "way", "id": 319482105, "natural": null, "alt_name:bg": null, "alt_name:de": null, "alt_name:fr": null, "boat": null, "name": null, "name:bg": null, "name:de": null, "name:el": null, "name:en": null, "name:fr": null, "name:nl": null, "old_name": null, "waterway": "ditch", "width": null, "est_width": null, "layer": null, "tunnel": null, "landuse": null, "building": null, "wetland": null, "type": null, "water": null, "label": "waterway:ditch" }, "geometry": { "type": "LineString", "coordinates": [ [ 23.8080393, 40.8719154 ], [ 23.8080916, 40.8716404 ], [ 23.8082484, 40.8713448 ], [ 23.8085438, 40.8710716 ], [ 23.8087983, 40.8709084 ], [ 23.8090256, 40.870819 ], [ 23.8092506, 40.8708173 ], [ 23.8098119, 40.8709651 ], [ 23.8103663, 40.87113 ], [ 23.8110504, 40.8713345 ], [ 23.812123, 40.8716249 ], [ 23.8134274, 40.8719772 ], [ 23.8148545, 40.8723759 ], [ 23.8160362, 40.8726869 ], [ 23.817202, 40.8730014 ], [ 23.8184656, 40.8733468 ], [ 23.818626516278847, 40.873388440616019 ] ] } },
{ "type": "Feature", "properties": { "element": "way", "id": 319482107, "natural": null, "alt_name:bg": null, "alt_name:de": null, "alt_name:fr": null, "boat": null, "name": null, "name:bg": null, "name:de": null, "name:el": null, "name:en": null, "name:fr": null, "name:nl": null, "old_name": null, "waterway": "ditch", "width": null, "est_width": null, "layer": "-1", "tunnel": "yes", "landuse": null, "building": null, "wetland": null, "type": null, "water": null, "label": "waterway:ditch" }, "geometry": { "type": "LineString", "coordinates": [ [ 23.8080816, 40.8720266 ], [ 23.8080393, 40.8719154 ] ] } },
{ "type": "Feature", "properties": { "element": "way", "id": 319482109, "natural": null, "alt_name:bg": null, "alt_name:de": null, "alt_name:fr": null, "boat": null, "name": null, "name:bg": null, "name:de": null, "name:el": null, "name:en": null, "name:fr": null, "name:nl": null, "old_name": null, "waterway": "ditch", "width": null, "est_width": null, "layer": "-1", "tunnel": "yes", "landuse": null, "building": null, "wetland": null, "type": null, "water": null, "label": "waterway:ditch" }, "geometry": { "type": "LineString", "coordinates": [ [ 23.818583, 40.8774353 ], [ 23.8185271, 40.877522 ] ] } },
{ "type": "Feature", "properties": { "element": "way", "id": 319482111, "natural": null, "alt_name:bg": null, "alt_name:de": null, "alt_name:fr": null, "boat": null, "name": null, "name:bg": null, "name:de": null, "name:el": null, "name:en": null, "name:fr": null, "name:nl": null, "old_name": null, "waterway": "ditch", "width": null, "est_width": null, "layer": "-1", "tunnel": "yes", "landuse": null, "building": null, "wetland": null, "type": null, "water": null, "label": "waterway:ditch" }, "geometry": { "type": "LineString", "coordinates": [ [ 23.7959285, 40.8706531 ], [ 23.7960951, 40.8706871 ] ] } },
{ "type": "Feature", "properties": { "element": "way", "id": 319482116, "natural": null, "alt_name:bg": null, "alt_name:de": null, "alt_name:fr": null, "boat": null, "name": null, "name:bg": null, "name:de": null, "name:el": null, "name:en": null, "name:fr": null, "name:nl": null, "old_name": null, "waterway": "ditch", "width": null, "est_width": null, "layer": null, "tunnel": null, "landuse": null, "building": null, "wetland": null, "type": null, "water": null, "label": "waterway:ditch" }, "geometry": { "type": "LineString", "coordinates": [ [ 23.8055834, 40.8706276 ], [ 23.8056658, 40.8706486 ] ] } },
{ "type": "Feature", "properties": { "element": "way", "id": 319482117, "natural": null, "alt_name:bg": null, "alt_name:de": null, "alt_name:fr": null, "boat": null, "name": null, "name:bg": null, "name:de": null, "name:el": null, "name:en": null, "name:fr": null, "name:nl": null, "old_name": null, "waterway": "ditch", "width": null, "est_width": null, "layer": null, "tunnel": null, "landuse": null, "building": null, "wetland": null, "type": null, "water": null, "label": "waterway:ditch" }, "geometry": { "type": "LineString", "coordinates": [ [ 23.790432, 40.8742236 ], [ 23.790404, 40.8742427 ] ] } },
{ "type": "Feature", "properties": { "element": "way", "id": 319482118, "natural": null, "alt_name:bg": null, "alt_name:de": null, "alt_name:fr": null, "boat": null, "name": null, "name:bg": null, "name:de": null, "name:el": null, "name:en": null, "name:fr": null, "name:nl": null, "old_name": null, "waterway": "ditch", "width": null, "est_width": null, "layer": "-1", "tunnel": "yes", "landuse": null, "building": null, "wetland": null, "type": null, "water": null, "label": "waterway:ditch" }, "geometry": { "type": "LineString", "coordinates": [ [ 23.799829, 40.8716807 ], [ 23.7999262, 40.871723 ] ] } },
{ "type": "Feature", "properties": { "element": "way", "id": 319482119, "natural": null, "alt_name:bg": null, "alt_name:de": null, "alt_name:fr": null, "boat": null, "name": null, "name:bg": null, "name:de": null, "name:el": null, "name:en": null, "name:fr": null, "name:nl": null, "old_name": null, "waterway": "ditch", "width": null, "est_width": null, "layer": "-1", "tunnel": "yes", "landuse": null, "building": null, "wetland": null, "type": null, "water": null, "label": "waterway:ditch" }, "geometry": { "type": "LineString", "coordinates": [ [ 23.8147392, 40.8836236 ], [ 23.8149233, 40.8834077 ] ] } },
{ "type": "Feature", "properties": { "element": "way", "id": 319482120, "natural": null, "alt_name:bg": null, "alt_name:de": null, "alt_name:fr": null, "boat": null, "name": null, "name:bg": null, "name:de": null, "name:el": null, "name:en": null, "name:fr": null, "name:nl": null, "old_name": null, "waterway": "ditch", "width": null, "est_width": null, "layer": "-1", "tunnel": "yes", "landuse": null, "building": null, "wetland": null, "type": null, "water": null, "label": "waterway:ditch" }, "geometry": { "type": "LineString", "coordinates": [ [ 23.7905213, 40.8739386 ], [ 23.7906359, 40.8738655 ] ] } },
{ "type": "Feature", "properties": { "element": "way", "id": 319482121, "natural": null, "alt_name:bg": null, "alt_name:de": null, "alt_name:fr": null, "boat": null, "name": null, "name:bg": null, "name:de": null, "name:el": null, "name:en": null, "name:fr": null, "name:nl": null, "old_name": null, "waterway": "ditch", "width": null, "est_width": null, "layer": "-1", "tunnel": "yes", "landuse": null, "building": null, "wetland": null, "type": null, "water": null, "label": "waterway:ditch" }, "geometry": { "type": "LineString", "coordinates": [ [ 23.8150865, 40.8830559 ], [ 23.8150498, 40.8831738 ] ] } },
{ "type": "Feature", "properties": { "element": "way", "id": 319482122, "natural": null, "alt_name:bg": null, "alt_name:de": null, "alt_name:fr": null, "boat": null, "name": null, "name:bg": null, "name:de": null, "name:el": null, "name:en": null, "name:fr": null, "name:nl": null, "old_name": null, "waterway": "ditch", "width": null, "est_width": null, "layer": "-1", "tunnel": "yes", "landuse": null, "building": null, "wetland": null, "type": null, "water": null, "label": "waterway:ditch" }, "geometry": { "type": "LineString", "coordinates": [ [ 23.8044538, 40.8724439 ], [ 23.8045309, 40.8723694 ] ] } },
{ "type": "Feature", "properties": { "element": "way", "id": 319482123, "natural": null, "alt_name:bg": null, "alt_name:de": null, "alt_name:fr": null, "boat": null, "name": null, "name:bg": null, "name:de": null, "name:el": null, "name:en": null, "name:fr": null, "name:nl": null, "old_name": null, "waterway": "ditch", "width": null, "est_width": null, "layer": "-1", "tunnel": "yes", "landuse": null, "building": null, "wetland": null, "type": null, "water": null, "label": "waterway:ditch" }, "geometry": { "type": "LineString", "coordinates": [ [ 23.7999262, 40.871723 ], [ 23.8000148, 40.8716607 ] ] } },
{ "type": "Feature", "properties": { "element": "way", "id": 319482124, "natural": null, "alt_name:bg": null, "alt_name:de": null, "alt_name:fr": null, "boat": null, "name": null, "name:bg": null, "name:de": null, "name:el": null, "name:en": null, "name:fr": null, "name:nl": null, "old_name": null, "waterway": "ditch", "width": null, "est_width": null, "layer": null, "tunnel": null, "landuse": null, "building": null, "wetland": null, "type": null, "water": null, "label": "waterway:ditch" }, "geometry": { "type": "LineString", "coordinates": [ [ 23.7906359, 40.8738655 ], [ 23.7920878, 40.872993 ] ] } },
{ "type": "Feature", "properties": { "element": "way", "id": 319482127, "natural": null, "alt_name:bg": null, "alt_name:de": null, "alt_name:fr": null, "boat": null, "name": null, "name:bg": null, "name:de": null, "name:el": null, "name:en": null, "name:fr": null, "name:nl": null, "old_name": null, "waterway": "ditch", "width": null, "est_width": null, "layer": "-1", "tunnel": "yes", "landuse": null, "building": null, "wetland": null, "type": null, "water": null, "label": "waterway:ditch" }, "geometry": { "type": "LineString", "coordinates": [ [ 23.8084578, 40.8737982 ], [ 23.8084656, 40.873914 ] ] } },
{ "type": "Feature", "properties": { "element": "way", "id": 319482128, "natural": null, "alt_name:bg": null, "alt_name:de": null, "alt_name:fr": null, "boat": null, "name": null, "name:bg": null, "name:de": null, "name:el": null, "name:en": null, "name:fr": null, "name:nl": null, "old_name": null, "waterway": "ditch", "width": null, "est_width": null, "layer": "-1", "tunnel": "yes", "landuse": null, "building": null, "wetland": null, "type": null, "water": null, "label": "waterway:ditch" }, "geometry": { "type": "LineString", "coordinates": [ [ 23.8095041, 40.8788198 ], [ 23.809642, 40.8793715 ] ] } },
{ "type": "Feature", "properties": { "element": "way", "id": 319482136, "natural": null, "alt_name:bg": null, "alt_name:de": null, "alt_name:fr": null, "boat": null, "name": null, "name:bg": null, "name:de": null, "name:el": null, "name:en": null, "name:fr": null, "name:nl": null, "old_name": null, "waterway": "ditch", "width": null, "est_width": null, "layer": "-1", "tunnel": "yes", "landuse": null, "building": null, "wetland": null, "type": null, "water": null, "label": "waterway:ditch" }, "geometry": { "type": "LineString", "coordinates": [ [ 23.8177575, 40.8785085 ], [ 23.817828, 40.8785343 ] ] } },
{ "type": "Feature", "properties": { "element": "way", "id": 319482139, "natural": null, "alt_name:bg": null, "alt_name:de": null, "alt_name:fr": null, "boat": null, "name": null, "name:bg": null, "name:de": null, "name:el": null, "name:en": null, "name:fr": null, "name:nl": null, "old_name": null, "waterway": "ditch", "width": null, "est_width": null, "layer": "-1", "tunnel": "yes", "landuse": null, "building": null, "wetland": null, "type": null, "water": null, "label": "waterway:ditch" }, "geometry": { "type": "LineString", "coordinates": [ [ 23.8150498, 40.8831738 ], [ 23.8149683, 40.8834277 ] ] } },
{ "type": "Feature", "properties": { "element": "way", "id": 319482140, "natural": null, "alt_name:bg": null, "alt_name:de": null, "alt_name:fr": null, "boat": null, "name": null, "name:bg": null, "name:de": null, "name:el": null, "name:en": null, "name:fr": null, "name:nl": null, "old_name": null, "waterway": "ditch", "width": null, "est_width": null, "layer": "-1", "tunnel": "yes", "landuse": null, "building": null, "wetland": null, "type": null, "water": null, "label": "waterway:ditch" }, "geometry": { "type": "LineString", "coordinates": [ [ 23.8167271, 40.8801816 ], [ 23.8167907, 40.8802056 ] ] } },
{ "type": "Feature", "properties": { "element": "way", "id": 319482141, "natural": null, "alt_name:bg": null, "alt_name:de": null, "alt_name:fr": null, "boat": null, "name": null, "name:bg": null, "name:de": null, "name:el": null, "name:en": null, "name:fr": null, "name:nl": null, "old_name": null, "waterway": "ditch", "width": null, "est_width": null, "layer": "-1", "tunnel": "yes", "landuse": null, "building": null, "wetland": null, "type": null, "water": null, "label": "waterway:ditch" }, "geometry": { "type": "LineString", "coordinates": [ [ 23.8089485, 40.876311 ], [ 23.8089615, 40.8763778 ] ] } },
{ "type": "Feature", "properties": { "element": "way", "id": 319482143, "natural": null, "alt_name:bg": null, "alt_name:de": null, "alt_name:fr": null, "boat": null, "name": null, "name:bg": null, "name:de": null, "name:el": null, "name:en": null, "name:fr": null, "name:nl": null, "old_name": null, "waterway": "ditch", "width": null, "est_width": null, "layer": null, "tunnel": null, "landuse": null, "building": null, "wetland": null, "type": null, "water": null, "label": "waterway:ditch" }, "geometry": { "type": "LineString", "coordinates": [ [ 23.8167907, 40.8802056 ], [ 23.8168552, 40.8802283 ] ] } },
{ "type": "Feature", "properties": { "element": "way", "id": 319482145, "natural": null, "alt_name:bg": null, "alt_name:de": null, "alt_name:fr": null, "boat": null, "name": null, "name:bg": null, "name:de": null, "name:el": null, "name:en": null, "name:fr": null, "name:nl": null, "old_name": null, "waterway": "ditch", "width": null, "est_width": null, "layer": "-1", "tunnel": "yes", "landuse": null, "building": null, "wetland": null, "type": null, "water": null, "label": "waterway:ditch" }, "geometry": { "type": "LineString", "coordinates": [ [ 23.7888103, 40.8754594 ], [ 23.7886983, 40.8755885 ] ] } },
{ "type": "Feature", "properties": { "element": "way", "id": 319482146, "natural": null, "alt_name:bg": null, "alt_name:de": null, "alt_name:fr": null, "boat": null, "name": null, "name:bg": null, "name:de": null, "name:el": null, "name:en": null, "name:fr": null, "name:nl": null, "old_name": null, "waterway": "ditch", "width": null, "est_width": null, "layer": "-1", "tunnel": "yes", "landuse": null, "building": null, "wetland": null, "type": null, "water": null, "label": "waterway:ditch" }, "geometry": { "type": "LineString", "coordinates": [ [ 23.804945, 40.8716985 ], [ 23.8049819, 40.8716146 ] ] } },
{ "type": "Feature", "properties": { "element": "way", "id": 319482152, "natural": null, "alt_name:bg": null, "alt_name:de": null, "alt_name:fr": null, "boat": null, "name": null, "name:bg": null, "name:de": null, "name:el": null, "name:en": null, "name:fr": null, "name:nl": null, "old_name": null, "waterway": "ditch", "width": null, "est_width": null, "layer": "-1", "tunnel": "yes", "landuse": null, "building": null, "wetland": null, "type": null, "water": null, "label": "waterway:ditch" }, "geometry": { "type": "LineString", "coordinates": [ [ 23.8052725, 40.8712531 ], [ 23.8053824, 40.8711927 ] ] } },
{ "type": "Feature", "properties": { "element": "way", "id": 319482153, "natural": null, "alt_name:bg": null, "alt_name:de": null, "alt_name:fr": null, "boat": null, "name": null, "name:bg": null, "name:de": null, "name:el": null, "name:en": null, "name:fr": null, "name:nl": null, "old_name": null, "waterway": "ditch", "width": null, "est_width": null, "layer": "-1", "tunnel": "yes", "landuse": null, "building": null, "wetland": null, "type": null, "water": null, "label": "waterway:ditch" }, "geometry": { "type": "LineString", "coordinates": [ [ 23.7920878, 40.872993 ], [ 23.7921696, 40.8729424 ] ] } },
{ "type": "Feature", "properties": { "element": "way", "id": 319482154, "natural": null, "alt_name:bg": null, "alt_name:de": null, "alt_name:fr": null, "boat": null, "name": null, "name:bg": null, "name:de": null, "name:el": null, "name:en": null, "name:fr": null, "name:nl": null, "old_name": null, "waterway": "ditch", "width": null, "est_width": null, "layer": null, "tunnel": null, "landuse": null, "building": null, "wetland": null, "type": null, "water": null, "label": "waterway:ditch" }, "geometry": { "type": "LineString", "coordinates": [ [ 23.8049819, 40.8716146 ], [ 23.8052725, 40.8712531 ] ] } },
{ "type": "Feature", "properties": { "element": "way", "id": 319482155, "natural": null, "alt_name:bg": null, "alt_name:de": null, "alt_name:fr": null, "boat": null, "name": null, "name:bg": null, "name:de": null, "name:el": null, "name:en": null, "name:fr": null, "name:nl": null, "old_name": null, "waterway": "ditch", "width": null, "est_width": null, "layer": "-1", "tunnel": "yes", "landuse": null, "building": null, "wetland": null, "type": null, "water": null, "label": "waterway:ditch" }, "geometry": { "type": "LineString", "coordinates": [ [ 23.790404, 40.8742427 ], [ 23.7903363, 40.8742948 ] ] } },
{ "type": "Feature", "properties": { "element": "way", "id": 319482156, "natural": null, "alt_name:bg": null, "alt_name:de": null, "alt_name:fr": null, "boat": null, "name": null, "name:bg": null, "name:de": null, "name:el": null, "name:en": null, "name:fr": null, "name:nl": null, "old_name": null, "waterway": "ditch", "width": null, "est_width": null, "layer": null, "tunnel": null, "landuse": null, "building": null, "wetland": null, "type": null, "water": null, "label": "waterway:ditch" }, "geometry": { "type": "LineString", "coordinates": [ [ 23.817828, 40.8785343 ], [ 23.8178964, 40.8785566 ] ] } },
{ "type": "Feature", "properties": { "element": "way", "id": 319482157, "natural": null, "alt_name:bg": null, "alt_name:de": null, "alt_name:fr": null, "boat": null, "name": null, "name:bg": null, "name:de": null, "name:el": null, "name:en": null, "name:fr": null, "name:nl": null, "old_name": null, "waterway": "ditch", "width": null, "est_width": null, "layer": "-1", "tunnel": "yes", "landuse": null, "building": null, "wetland": null, "type": null, "water": null, "label": "waterway:ditch" }, "geometry": { "type": "LineString", "coordinates": [ [ 23.80552, 40.8706044 ], [ 23.8055834, 40.8706276 ] ] } },
{ "type": "Feature", "properties": { "element": "way", "id": 319482161, "natural": null, "alt_name:bg": null, "alt_name:de": null, "alt_name:fr": null, "boat": null, "name": null, "name:bg": null, "name:de": null, "name:el": null, "name:en": null, "name:fr": null, "name:nl": null, "old_name": null, "waterway": "ditch", "width": null, "est_width": null, "layer": "-1", "tunnel": "yes", "landuse": null, "building": null, "wetland": null, "type": null, "water": null, "label": "waterway:ditch" }, "geometry": { "type": "LineString", "coordinates": [ [ 23.797874, 40.8711861 ], [ 23.7979491, 40.8712057 ] ] } },
{ "type": "Feature", "properties": { "element": "way", "id": 319482163, "natural": "cliff", "alt_name:bg": null, "alt_name:de": null, "alt_name:fr": null, "boat": null, "name": null, "name:bg": null, "name:de": null, "name:el": null, "name:en": null, "name:fr": null, "name:nl": null, "old_name": null, "waterway": null, "width": null, "est_width": null, "layer": null, "tunnel": null, "landuse": null, "building": null, "wetland": null, "type": null, "water": null, "label": "natural:cliff" }, "geometry": { "type": "LineString", "coordinates": [ [ 23.818626516278847, 40.884895174800093 ], [ 23.8180677, 40.8846534 ], [ 23.8157726, 40.8835662 ], [ 23.8146106, 40.883027 ], [ 23.8137536, 40.8826095 ], [ 23.8130921, 40.8822224 ], [ 23.8124651, 40.8817049 ], [ 23.8116138, 40.8808177 ], [ 23.8100181, 40.8793705 ], [ 23.8092424, 40.8789614 ], [ 23.8082916, 40.8785463 ], [ 23.8073289, 40.8782937 ], [ 23.8062628, 40.8779839 ], [ 23.8046084, 40.8775103 ], [ 23.8038602, 40.8772849 ], [ 23.8017195, 40.8766255 ], [ 23.8010472, 40.8764894 ], [ 23.8005437, 40.8767212 ], [ 23.7998714, 40.8771743 ], [ 23.7994888, 40.8774656 ], [ 23.7989206, 40.8777549 ], [ 23.7983721, 40.8779421 ], [ 23.797877, 40.8780505 ], [ 23.7974044, 40.8780888 ], [ 23.7965943, 40.8780867 ], [ 23.7961836, 40.878091 ], [ 23.7951738, 40.8780548 ], [ 23.7947434, 40.8780271 ] ] } },
{ "type": "Feature", "properties": { "element": "way", "id": 319482164, "natural": "cliff", "alt_name:bg": null, "alt_name:de": null, "alt_name:fr": null, "boat": null, "name": null, "name:bg": null, "name:de": null, "name:el": null, "name:en": null, "name:fr": null, "name:nl": null, "old_name": null, "waterway": null, "width": null, "est_width": null, "layer": null, "tunnel": null, "landuse": null, "building": null, "wetland": null, "type": null, "water": null, "label": "natural:cliff" }, "geometry": { "type": "LineString", "coordinates": [ [ 23.7947687, 40.8782951 ], [ 23.7958011, 40.8783164 ], [ 23.7965212, 40.8782973 ], [ 23.7971316, 40.8783696 ], [ 23.7977251, 40.8784376 ], [ 23.7982877, 40.8784249 ], [ 23.7987406, 40.8783504 ], [ 23.7991175, 40.8782143 ], [ 23.7995929, 40.8779399 ], [ 23.8000992, 40.8776167 ], [ 23.8004874, 40.8773125 ], [ 23.8009234, 40.8770509 ], [ 23.8013988, 40.877002 ], [ 23.8026112, 40.8773614 ], [ 23.8032048, 40.8775507 ], [ 23.806797, 40.8785532 ], [ 23.8085622, 40.8790821 ], [ 23.8094245, 40.8795004 ], [ 23.8105064, 40.880466 ], [ 23.8114013, 40.8813886 ], [ 23.8119951, 40.8820405 ], [ 23.8122473, 40.8822681 ], [ 23.8127659, 40.8825418 ], [ 23.8136465, 40.8829585 ], [ 23.8145236, 40.8834348 ], [ 23.8150011, 40.8836697 ], [ 23.8158164, 40.8840632 ], [ 23.8171409, 40.8846731 ], [ 23.818626516278847, 40.885309873122047 ] ] } },
{ "type": "Feature", "properties": { "element": "way", "id": 319482167, "natural": null, "alt_name:bg": null, "alt_name:de": null, "alt_name:fr": null, "boat": null, "name": null, "name:bg": null, "name:de": null, "name:el": null, "name:en": null, "name:fr": null, "name:nl": null, "old_name": null, "waterway": "ditch", "width": null, "est_width": null, "layer": null, "tunnel": null, "landuse": null, "building": null, "wetland": null, "type": null, "water": null, "label": "waterway:ditch" }, "geometry": { "type": "LineString", "coordinates": [ [ 23.8040051, 40.8701012 ], [ 23.8050056, 40.8704261 ], [ 23.80552, 40.8706044 ] ] } },
{ "type": "Feature", "properties": { "element": "way", "id": 319482168, "natural": null, "alt_name:bg": null, "alt_name:de": null, "alt_name:fr": null, "boat": null, "name": null, "name:bg": null, "name:de": null, "name:el": null, "name:en": null, "name:fr": null, "name:nl": null, "old_name": null, "waterway": "ditch", "width": null, "est_width": null, "layer": null, "tunnel": null, "landuse": null, "building": null, "wetland": null, "type": null, "water": null, "label": "waterway:ditch" }, "geometry": { "type": "LineString", "coordinates": [ [ 23.7914654, 40.8751048 ], [ 23.790432, 40.8742236 ], [ 23.7902821, 40.8740893 ], [ 23.7905213, 40.8739386 ] ] } },
{ "type": "Feature", "properties": { "element": "way", "id": 319482169, "natural": null, "alt_name:bg": null, "alt_name:de": null, "alt_name:fr": null, "boat": null, "name": null, "name:bg": null, "name:de": null, "name:el": null, "name:en": null, "name:fr": null, "name:nl": null, "old_name": null, "waterway": "ditch", "width": null, "est_width": null, "layer": null, "tunnel": null, "landuse": null, "building": null, "wetland": null, "type": null, "water": null, "label": "waterway:ditch" }, "geometry": { "type": "LineString", "coordinates": [ [ 23.7903363, 40.8742948 ], [ 23.7897034, 40.8747684 ], [ 23.7890764, 40.8752552 ], [ 23.7888103, 40.8754594 ] ] } },
{ "type": "Feature", "properties": { "element": "way", "id": 319482170, "natural": null, "alt_name:bg": null, "alt_name:de": null, "alt_name:fr": null, "boat": null, "name": null, "name:bg": null, "name:de": null, "name:el": null, "name:en": null, "name:fr": null, "name:nl": null, "old_name": null, "waterway": "ditch", "width": null, "est_width": null, "layer": null, "tunnel": null, "landuse": null, "building": null, "wetland": null, "type": null, "water": null, "label": "waterway:ditch" }, "geometry": { "type": "LineString", "coordinates": [ [ 23.7927897, 40.8761623 ], [ 23.7931769, 40.8759118 ], [ 23.7940598, 40.8753586 ], [ 23.7952419, 40.8746373 ], [ 23.7962471, 40.8740256 ], [ 23.7969896, 40.8735559 ], [ 23.7981275, 40.8728605 ], [ 23.7995818, 40.8719401 ], [ 23.7999262, 40.871723 ] ] } },
{ "type": "Feature", "properties": { "element": "way", "id": 319482171, "natural": null, "alt_name:bg": null, "alt_name:de": null, "alt_name:fr": null, "boat": null, "name": null, "name:bg": null, "name:de": null, "name:el": null, "name:en": null, "name:fr": null, "name:nl": null, "old_name": null, "waterway": "ditch", "width": null, "est_width": null, "layer": null, "tunnel": null, "landuse": null, "building": null, "wetland": null, "type": null, "water": null, "label": "waterway:ditch" }, "geometry": { "type": "LineString", "coordinates": [ [ 23.7960951, 40.8706871 ], [ 23.796571, 40.8708197 ], [ 23.7976266, 40.8711155 ], [ 23.797874, 40.8711861 ] ] } },
{ "type": "Feature", "properties": { "element": "way", "id": 319482173, "natural": null, "alt_name:bg": null, "alt_name:de": null, "alt_name:fr": null, "boat": null, "name": null, "name:bg": null, "name:de": null, "name:el": null, "name:en": null, "name:fr": null, "name:nl": null, "old_name": null, "waterway": "ditch", "width": null, "est_width": null, "layer": null, "tunnel": null, "landuse": null, "building": null, "wetland": null, "type": null, "water": null, "label": "waterway:ditch" }, "geometry": { "type": "LineString", "coordinates": [ [ 23.7979491, 40.8712057 ], [ 23.7983345, 40.8713064 ], [ 23.7992241, 40.8715305 ], [ 23.7995992, 40.8715973 ], [ 23.799829, 40.8716807 ] ] } },
{ "type": "Feature", "properties": { "element": "way", "id": 319482174, "natural": null, "alt_name:bg": null, "alt_name:de": null, "alt_name:fr": null, "boat": null, "name": null, "name:bg": null, "name:de": null, "name:el": null, "name:en": null, "name:fr": null, "name:nl": null, "old_name": null, "waterway": "ditch", "width": null, "est_width": null, "layer": null, "tunnel": null, "landuse": null, "building": null, "wetland": null, "type": null, "water": null, "label": "waterway:ditch" }, "geometry": { "type": "LineString", "coordinates": [ [ 23.8081024, 40.8720943 ], [ 23.8081463, 40.8721883 ], [ 23.8082267, 40.8724848 ], [ 23.8083773, 40.873327 ], [ 23.8084578, 40.8737982 ] ] } },
{ "type": "Feature", "properties": { "element": "way", "id": 319482175, "natural": null, "alt_name:bg": null, "alt_name:de": null, "alt_name:fr": null, "boat": null, "name": null, "name:bg": null, "name:de": null, "name:el": null, "name:en": null, "name:fr": null, "name:nl": null, "old_name": null, "waterway": "ditch", "width": null, "est_width": null, "layer": null, "tunnel": null, "landuse": null, "building": null, "wetland": null, "type": null, "water": null, "label": "waterway:ditch" }, "geometry": { "type": "LineString", "coordinates": [ [ 23.8084656, 40.873914 ], [ 23.808611, 40.8747562 ], [ 23.8087019, 40.875247 ], [ 23.8088862, 40.8760597 ], [ 23.8089485, 40.876311 ] ] } },
{ "type": "Feature", "properties": { "element": "way", "id": 319482177, "natural": null, "alt_name:bg": null, "alt_name:de": null, "alt_name:fr": null, "boat": null, "name": null, "name:bg": null, "name:de": null, "name:el": null, "name:en": null, "name:fr": null, "name:nl": null, "old_name": null, "waterway": "ditch", "width": null, "est_width": null, "layer": null, "tunnel": null, "landuse": null, "building": null, "wetland": null, "type": null, "water": null, "label": "waterway:ditch" }, "geometry": { "type": "LineString", "coordinates": [ [ 23.8089615, 40.8763778 ], [ 23.8091666, 40.8774477 ], [ 23.8091848, 40.8775635 ], [ 23.809325, 40.8783114 ], [ 23.8095041, 40.8788198 ] ] } },
{ "type": "Feature", "properties": { "element": "way", "id": 319482178, "natural": null, "alt_name:bg": null, "alt_name:de": null, "alt_name:fr": null, "boat": null, "name": null, "name:bg": null, "name:de": null, "name:el": null, "name:en": null, "name:fr": null, "name:nl": null, "old_name": null, "waterway": "ditch", "width": null, "est_width": null, "layer": null, "tunnel": null, "landuse": null, "building": null, "wetland": null, "type": null, "water": null, "label": "waterway:ditch" }, "geometry": { "type": "LineString", "coordinates": [ [ 23.7886983, 40.8755885 ], [ 23.7885735, 40.875669 ], [ 23.7884578, 40.8757509 ], [ 23.7883917, 40.8758439 ], [ 23.7884174, 40.8759591 ], [ 23.7883362, 40.8763631 ] ] } },
{ "type": "Feature", "properties": { "element": "way", "id": 319482179, "natural": null, "alt_name:bg": null, "alt_name:de": null, "alt_name:fr": null, "boat": null, "name": null, "name:bg": null, "name:de": null, "name:el": null, "name:en": null, "name:fr": null, "name:nl": null, "old_name": null, "waterway": "ditch", "width": null, "est_width": null, "layer": null, "tunnel": null, "landuse": null, "building": null, "wetland": null, "type": null, "water": null, "label": "waterway:ditch" }, "geometry": { "type": "LineString", "coordinates": [ [ 23.8104139, 40.8758718 ], [ 23.811857, 40.8763925 ], [ 23.8137568, 40.8770746 ], [ 23.8151476, 40.8775729 ], [ 23.8166429, 40.8781056 ], [ 23.8177575, 40.8785085 ] ] } },
{ "type": "Feature", "properties": { "element": "way", "id": 319482181, "natural": null, "alt_name:bg": null, "alt_name:de": null, "alt_name:fr": null, "boat": null, "name": null, "name:bg": null, "name:de": null, "name:el": null, "name:en": null, "name:fr": null, "name:nl": null, "old_name": null, "waterway": "ditch", "width": null, "est_width": null, "layer": null, "tunnel": null, "landuse": null, "building": null, "wetland": null, "type": null, "water": null, "label": "waterway:ditch" }, "geometry": { "type": "LineString", "coordinates": [ [ 23.8114696, 40.8783151 ], [ 23.812223, 40.8785539 ], [ 23.8136137, 40.8790592 ], [ 23.8150068, 40.8795764 ], [ 23.8163226, 40.8800403 ], [ 23.8167271, 40.8801816 ] ] } },
{ "type": "Feature", "properties": { "element": "way", "id": 319482182, "natural": null, "alt_name:bg": null, "alt_name:de": null, "alt_name:fr": null, "boat": null, "name": null, "name:bg": null, "name:de": null, "name:el": null, "name:en": null, "name:fr": null, "name:nl": null, "old_name": null, "waterway": "ditch", "width": null, "est_width": null, "layer": null, "tunnel": null, "landuse": null, "building": null, "wetland": null, "type": null, "water": null, "label": "waterway:ditch" }, "geometry": { "type": "LineString", "coordinates": [ [ 23.7921696, 40.8729424 ], [ 23.7938598, 40.8719288 ], [ 23.7944694, 40.8715239 ], [ 23.7957091, 40.8707797 ], [ 23.7959051, 40.870662 ], [ 23.7959285, 40.8706531 ] ] } },
{ "type": "Feature", "properties": { "element": "way", "id": 319482184, "natural": null, "alt_name:bg": null, "alt_name:de": null, "alt_name:fr": null, "boat": null, "name": null, "name:bg": null, "name:de": null, "name:el": null, "name:en": null, "name:fr": null, "name:nl": null, "old_name": null, "waterway": "ditch", "width": null, "est_width": null, "layer": null, "tunnel": null, "landuse": null, "building": null, "wetland": null, "type": null, "water": null, "label": "waterway:ditch" }, "geometry": { "type": "LineString", "coordinates": [ [ 23.8185271, 40.877522 ], [ 23.8178964, 40.8785566 ], [ 23.8173361, 40.879463 ], [ 23.8168552, 40.8802283 ], [ 23.8158952, 40.8817509 ], [ 23.8153982, 40.8825957 ], [ 23.8150865, 40.8830559 ] ] } },
{ "type": "Feature", "properties": { "element": "way", "id": 319482187, "natural": null, "alt_name:bg": null, "alt_name:de": null, "alt_name:fr": null, "boat": null, "name": null, "name:bg": null, "name:de": null, "name:el": null, "name:en": null, "name:fr": null, "name:nl": null, "old_name": null, "waterway": "ditch", "width": null, "est_width": null, "layer": null, "tunnel": null, "landuse": null, "building": null, "wetland": null, "type": null, "water": null, "label": "waterway:ditch" }, "geometry": { "type": "LineString", "coordinates": [ [ 23.818626516278847, 40.877366908084007 ], [ 23.818583, 40.8774353 ] ] } },
{ "type": "Feature", "properties": { "element": "way", "id": 319482188, "natural": null, "alt_name:bg": null, "alt_name:de": null, "alt_name:fr": null, "boat": null, "name": null, "name:bg": null, "name:de": null, "name:el": null, "name:en": null, "name:fr": null, "name:nl": null, "old_name": null, "waterway": "ditch", "width": null, "est_width": null, "layer": null, "tunnel": null, "landuse": null, "building": null, "wetland": null, "type": null, "water": null, "label": "waterway:ditch" }, "geometry": { "type": "LineString", "coordinates": [ [ 23.803483, 40.873393 ], [ 23.8043481, 40.8736743 ], [ 23.8053285, 40.8740366 ], [ 23.8064832, 40.8744503 ], [ 23.8071809, 40.8747182 ], [ 23.8079648, 40.8750097 ], [ 23.8083411, 40.8751471 ], [ 23.8087019, 40.875247 ] ] } },
{ "type": "Feature", "properties": { "element": "way", "id": 319482189, "natural": null, "alt_name:bg": null, "alt_name:de": null, "alt_name:fr": null, "boat": null, "name": null, "name:bg": null, "name:de": null, "name:el": null, "name:en": null, "name:fr": null, "name:nl": null, "old_name": null, "waterway": "ditch", "width": null, "est_width": null, "layer": null, "tunnel": null, "landuse": null, "building": null, "wetland": null, "type": null, "water": null, "label": "waterway:ditch" }, "geometry": { "type": "LineString", "coordinates": [ [ 23.8027525, 40.874107 ], [ 23.803033, 40.873841 ], [ 23.803483, 40.873393 ], [ 23.8038904, 40.872962 ], [ 23.8044538, 40.8724439 ] ] } },
{ "type": "Feature", "properties": { "element": "way", "id": 319482190, "natural": null, "alt_name:bg": null, "alt_name:de": null, "alt_name:fr": null, "boat": null, "name": null, "name:bg": null, "name:de": null, "name:el": null, "name:en": null, "name:fr": null, "name:nl": null, "old_name": null, "waterway": "ditch", "width": null, "est_width": null, "layer": null, "tunnel": null, "landuse": null, "building": null, "wetland": null, "type": null, "water": null, "label": "waterway:ditch" }, "geometry": { "type": "LineString", "coordinates": [ [ 23.8109669, 40.8697944 ], [ 23.8126108, 40.8703815 ], [ 23.8146539, 40.8710969 ], [ 23.8155953, 40.8714475 ], [ 23.8168761, 40.8718872 ], [ 23.8180045, 40.8723103 ], [ 23.818626516278847, 40.872525991638867 ] ] } },
{ "type": "Feature", "properties": { "element": "way", "id": 878364652, "natural": null, "alt_name:bg": null, "alt_name:de": null, "alt_name:fr": null, "boat": null, "name": null, "name:bg": null, "name:de": null, "name:el": null, "name:en": null, "name:fr": null, "name:nl": null, "old_name": null, "waterway": "ditch", "width": null, "est_width": null, "layer": "-1", "tunnel": "yes", "landuse": null, "building": null, "wetland": null, "type": null, "water": null, "label": "waterway:ditch" }, "geometry": { "type": "LineString", "coordinates": [ [ 23.8027116, 40.8741935 ], [ 23.8027525, 40.874107 ] ] } },
{ "type": "Feature", "properties": { "element": "way", "id": 878364653, "natural": null, "alt_name:bg": null, "alt_name:de": null, "alt_name:fr": null, "boat": null, "name": null, "name:bg": null, "name:de": null, "name:el": null, "name:en": null, "name:fr": null, "name:nl": null, "old_name": null, "waterway": "ditch", "width": null, "est_width": null, "layer": null, "tunnel": null, "landuse": null, "building": null, "wetland": null, "type": null, "water": null, "label": "waterway:ditch" }, "geometry": { "type": "LineString", "coordinates": [ [ 23.8023232, 40.8757073 ], [ 23.8025337, 40.8747899 ], [ 23.8026663, 40.8743734 ], [ 23.8027116, 40.8741935 ] ] } }
]
}
