{
"type": "FeatureCollection",
"name": "patch_40767_features",
"crs": { "type": "name", "properties": { "name": "urn:ogc:def:crs:OGC:1.3:CRS84" } },
"features": [
{ "type": "Feature", "properties": { "element": "node", "id": 8579878105, "ele": null, "historic": "ruins", "name": "Μαυροχώρι", "alt_name:bg": "Маврохори", "alt_name:el": "Τίσοβα", "name:bg": "Тисово", "name:el": "Μαυροχώρι", "name:en": "Mavrochori (Tisovo)", "name:mk": "Тисово (урнатини)", "ruins": "village", "wikidata": "Q6794296", "wikipedia": "bg:Тисово", "natural": null, "leaf_type": null, "source": null, "building": null, "military": null, "waterway": null, "landuse": null, "type": null, "label": "historic:ruins" }, "geometry": { "type": "Point", "coordinates": [ 24.1245119, 41.5073911 ] } },
{ "type": "Feature", "properties": { "element": "node", "id": 13228368315, "ele": "1280", "historic": null, "name": "Μαγκούλα Τέσοβου", "alt_name:bg": null, "alt_name:el": null, "name:bg": null, "name:el": null, "name:en": null, "name:mk": null, "ruins": null, "wikidata": null, "wikipedia": null, "natural": "peak", "leaf_type": null, "source": null, "building": null, "military": null, "waterway": null, "landuse": null, "type": null, "label": "natural:peak" }, "geometry": { "type": "Point", "coordinates": [ 24.1251021, 41.4881979 ] } },
{ "type": "Feature", "properties": { "element": "relation", "id": 1842918, "ele": null, "historic": null, "name": null, "alt_name:bg": null, "alt_name:el": null, "name:bg": null, "name:el": null, "name:en": null, "name:mk": null, "ruins": null, "wikidata": null, "wikipedia": null, "natural": "wood", "leaf_type": "needleleaved", "source": "http://geodata.gov.gr", "building": null, "military": null, "waterway": null, "landuse": null, "type": "multipolygon", "label": "natural:wood" }, "geometry": { "type": "Polygon", "coordinates": [ [ [ 24.116834, 41.487399 ], [ 24.1170776, 41.4880043 ], [ 24.117215, 41.488607 ], [ 24.116592, 41.488775 ], [ 24.116148, 41.488942 ], [ 24.115914, 41.488918 ], [ 24.115306, 41.4889 ], [ 24.114484, 41.488905 ], [ 24.113724, 41.48891 ], [ 24.113758, 41.489184 ], [ 24.113792, 41.489436 ], [ 24.113795, 41.489688 ], [ 24.1138, 41.490029 ], [ 24.113804, 41.490326 ], [ 24.113778, 41.490645 ], [ 24.113757, 41.491081 ], [ 24.113699, 41.491378 ], [ 24.113671, 41.491674 ], [ 24.113552, 41.49202 ], [ 24.113342, 41.492385 ], [ 24.11307, 41.492686 ], [ 24.112858, 41.492915 ], [ 24.11257, 41.493325 ], [ 24.111709, 41.493515 ], [ 24.111712, 41.495327 ], [ 24.110967, 41.497721 ], [ 24.11053, 41.49871 ], [ 24.110258, 41.498742 ], [ 24.109935706264544, 41.498801439418422 ], [ 24.109935706264544, 41.510446172702757 ], [ 24.139549243882684, 41.510446172702757 ], [ 24.139549243882684, 41.486649753635689 ], [ 24.132248910502614, 41.486649753635689 ], [ 24.131112, 41.487056 ], [ 24.129212, 41.487307 ], [ 24.127971, 41.48706 ], [ 24.126153, 41.487186 ], [ 24.125162, 41.487746 ], [ 24.124006, 41.488245 ], [ 24.12227, 41.488185 ], [ 24.120532, 41.487068 ], [ 24.120332491676795, 41.486649753635689 ], [ 24.116500244801351, 41.486649753635689 ], [ 24.116834, 41.487399 ] ], [ [ 24.121392, 41.497627 ], [ 24.122577, 41.498463 ], [ 24.122372, 41.500451 ], [ 24.122027, 41.502021 ], [ 24.122934, 41.503276 ], [ 24.123702, 41.504269 ], [ 24.125235, 41.505314 ], [ 24.126697, 41.505679 ], [ 24.126977, 41.50662 ], [ 24.1251, 41.507668 ], [ 24.122526, 41.50809 ], [ 24.120089, 41.507569 ], [ 24.119182, 41.506628 ], [ 24.119806, 41.505477 ], [ 24.120293, 41.50511 ], [ 24.120849, 41.504795 ], [ 24.121265, 41.503853 ], [ 24.121055, 41.50333 ], [ 24.119385, 41.503332 ], [ 24.118618, 41.502705 ], [ 24.118129, 41.501764 ], [ 24.118544, 41.500194 ], [ 24.118541, 41.498676 ], [ 24.118122, 41.497997 ], [ 24.119583, 41.497524 ], [ 24.121392, 41.497627 ] ] ] } },
{ "type": "Feature", "properties": { "element": "way", "id": 256947635, "ele": null, "historic": null, "name": null, "alt_name:bg": null, "alt_name:el": null, "name:bg": null, "name:el": null, "name:en": null, "name:mk": null, "ruins": null, "wikidata": null, "wikipedia": null, "natural": "wood", "leaf_type": "broadleaved", "source": "http://geodata.gov.gr", "building": null, "military": null, "waterway": null, "landuse": null, "type": null, "label": "natural:wood" }, "geometry": { "type": "Polygon", "coordinates": [ [ [ 24.110436, 41.49387 ], [ 24.110739, 41.493775 ], [ 24.111163, 41.493635 ], [ 24.111709, 41.493515 ], [ 24.11257, 41.493325 ], [ 24.112858, 41.492915 ], [ 24.11307, 41.492686 ], [ 24.113342, 41.492385 ], [ 24.113552, 41.49202 ], [ 24.113671, 41.491674 ], [ 24.113699, 41.491378 ], [ 24.113757, 41.491081 ], [ 24.113778, 41.490645 ], [ 24.113804, 41.490326 ], [ 24.1138, 41.490029 ], [ 24.113795, 41.489688 ], [ 24.113792, 41.489436 ], [ 24.113758, 41.489184 ], [ 24.113724, 41.48891 ], [ 24.112539, 41.489032 ], [ 24.11178, 41.489154 ], [ 24.111142, 41.489226 ], [ 24.110655, 41.489253 ], [ 24.11026, 41.489276 ], [ 24.109935706264544, 41.489291174923494 ], [ 24.109935706264544, 41.494000470598927 ], [ 24.110436, 41.49387 ] ] ] } },
{ "type": "Feature", "properties": { "element": "way", "id": 924452100, "ele": null, "historic": null, "name": "Φυλάκιο Μαγούλας", "alt_name:bg": null, "alt_name:el": null, "name:bg": null, "name:el": null, "name:en": null, "name:mk": null, "ruins": null, "wikidata": null, "wikipedia": null, "natural": null, "leaf_type": null, "source": null, "building": "bunker", "military": "bunker", "waterway": null, "landuse": null, "type": null, "label": "building:bunker;military:bunker" }, "geometry": { "type": "Polygon", "coordinates": [ [ [ 24.1245588, 41.4878608 ], [ 24.1245545, 41.4877611 ], [ 24.1243914, 41.4877676 ], [ 24.1244, 41.4878672 ], [ 24.1245588, 41.4878608 ] ] ] } },
{ "type": "Feature", "properties": { "element": "way", "id": 924452380, "ele": null, "historic": null, "name": null, "alt_name:bg": null, "alt_name:el": null, "name:bg": null, "name:el": null, "name:en": null, "name:mk": null, "ruins": null, "wikidata": null, "wikipedia": null, "natural": null, "leaf_type": null, "source": null, "building": "yes", "military": null, "waterway": null, "landuse": null, "type": null, "label": "building:yes" }, "geometry": { "type": "Polygon", "coordinates": [ [ [ 24.124322, 41.4877734 ], [ 24.1242705, 41.4877042 ], [ 24.1241975, 41.4877332 ], [ 24.124249, 41.4878023 ], [ 24.124322, 41.4877734 ] ] ] } },
{ "type": "Feature", "properties": { "element": "way", "id": 1441688758, "ele": null, "historic": null, "name": "Κερασλίκ", "alt_name:bg": null, "alt_name:el": null, "name:bg": null, "name:el": null, "name:en": null, "name:mk": null, "ruins": null, "wikidata": null, "wikipedia": null, "natural": null, "leaf_type": null, "source": null, "building": null, "military": null, "waterway": "stream", "landuse": null, "type": null, "label": "waterway:stream" }, "geometry": { "type": "LineString", "coordinates": [ [ 24.1245411, 41.4943862 ], [ 24.1236969, 41.4944264 ], [ 24.1228553, 41.4943768 ], [ 24.121897, 41.4940432 ], [ 24.1205283, 41.4937541 ], [ 24.1189873, 41.4935728 ], [ 24.1182425, 41.4931877 ], [ 24.1170059, 41.4930947 ], [ 24.1159071, 41.493365 ], [ 24.1156621, 41.4934894 ], [ 24.1151005, 41.4933541 ], [ 24.1146417, 41.4932305 ], [ 24.1141138, 41.4933813 ], [ 24.1135729, 41.4934245 ], [ 24.1132996, 41.4933866 ], [ 24.1128713, 41.493465 ], [ 24.1112236, 41.4939009 ], [ 24.109935706264544, 41.494175691135297 ] ] } },
{ "type": "Feature", "properties": { "element": "way", "id": 1442822331, "ele": null, "historic": null, "name": null, "alt_name:bg": null, "alt_name:el": null, "name:bg": null, "name:el": null, "name:en": null, "name:mk": null, "ruins": null, "wikidata": null, "wikipedia": null, "natural": null, "leaf_type": null, "source": null, "building": null, "military": null, "waterway": null, "landuse": "meadow", "type": null, "label": "landuse:meadow" }, "geometry": { "type": "Polygon", "coordinates": [ [ [ 24.1376304, 41.5075244 ], [ 24.1377448, 41.5074441 ], [ 24.1375803, 41.5072566 ], [ 24.1376001, 41.507114 ], [ 24.1378521, 41.5069941 ], [ 24.1380452, 41.5069138 ], [ 24.1382097, 41.5067799 ], [ 24.1382026, 41.5065978 ], [ 24.1379951, 41.5065442 ], [ 24.1379308, 41.5064103 ], [ 24.1378092, 41.5063299 ], [ 24.1377806, 41.5062121 ], [ 24.1376947, 41.5060889 ], [ 24.1375731, 41.5059818 ], [ 24.1376232, 41.5058532 ], [ 24.137802, 41.505714 ], [ 24.1379808, 41.5056765 ], [ 24.1379594, 41.5056068 ], [ 24.1377663, 41.5055854 ], [ 24.1377376, 41.5055265 ], [ 24.1378449, 41.5055158 ], [ 24.1379451, 41.5054461 ], [ 24.1379594, 41.505339 ], [ 24.1378605, 41.5053037 ], [ 24.1378033, 41.5051939 ], [ 24.1377818, 41.5050626 ], [ 24.137814, 41.5048859 ], [ 24.1379463, 41.5047332 ], [ 24.1380643, 41.504618 ], [ 24.1380465, 41.5045297 ], [ 24.1379964, 41.5043368 ], [ 24.1380035, 41.5042377 ], [ 24.1378998, 41.5042002 ], [ 24.1378891, 41.5040663 ], [ 24.1379213, 41.5039565 ], [ 24.1377389, 41.5039672 ], [ 24.1376137, 41.5039324 ], [ 24.1375422, 41.5038199 ], [ 24.1373956, 41.5037556 ], [ 24.1373062, 41.5037315 ], [ 24.1372132, 41.5037369 ], [ 24.1372561, 41.5038949 ], [ 24.1373062, 41.5040877 ], [ 24.1373562, 41.5043422 ], [ 24.1372954, 41.5044466 ], [ 24.1371238, 41.5045029 ], [ 24.1370523, 41.5046877 ], [ 24.1370844, 41.5048028 ], [ 24.137274, 41.5047761 ], [ 24.1371524, 41.5049046 ], [ 24.1369807, 41.5050359 ], [ 24.1368377, 41.5051778 ], [ 24.1368627, 41.505301 ], [ 24.1368663, 41.5054296 ], [ 24.1367769, 41.5055769 ], [ 24.1367447, 41.5056465 ], [ 24.1370093, 41.5055849 ], [ 24.1370594, 41.5056733 ], [ 24.1370022, 41.5058474 ], [ 24.1369056, 41.5059357 ], [ 24.1368341, 41.5059545 ], [ 24.136641, 41.505984 ], [ 24.1366734, 41.5061183 ], [ 24.1366365, 41.5062167 ], [ 24.1365666, 41.506269 ], [ 24.136431, 41.5062414 ], [ 24.1362626, 41.5061829 ], [ 24.1362626, 41.5062537 ], [ 24.1363283, 41.5063213 ], [ 24.1362133, 41.5064259 ], [ 24.1362503, 41.5064721 ], [ 24.1364064, 41.5065613 ], [ 24.1364352, 41.5066413 ], [ 24.1363407, 41.5066967 ], [ 24.1363612, 41.5067859 ], [ 24.1365091, 41.5067859 ], [ 24.1366282, 41.5067305 ], [ 24.1368542, 41.5066936 ], [ 24.1369733, 41.5067244 ], [ 24.1371089, 41.5067705 ], [ 24.1372075, 41.5068874 ], [ 24.1372321, 41.506992 ], [ 24.1371787, 41.5071089 ], [ 24.137076, 41.5071951 ], [ 24.1369363, 41.5073181 ], [ 24.1369199, 41.5074535 ], [ 24.1368172, 41.5075796 ], [ 24.1366529, 41.5076627 ], [ 24.1365502, 41.5076688 ], [ 24.1364352, 41.5076227 ], [ 24.1362256, 41.5076319 ], [ 24.1361517, 41.5077427 ], [ 24.1362708, 41.5078196 ], [ 24.1364228, 41.5078473 ], [ 24.1365584, 41.5078349 ], [ 24.1366323, 41.5078719 ], [ 24.1366118, 41.507958 ], [ 24.1366447, 41.5080165 ], [ 24.1367926, 41.5080103 ], [ 24.1368542, 41.5079119 ], [ 24.1368419, 41.5077827 ], [ 24.1369856, 41.507795 ], [ 24.1371951, 41.5078473 ], [ 24.1373443, 41.5077226 ], [ 24.1376304, 41.5075244 ] ] ] } }
]
}
