{
"type": "FeatureCollection",
"name": "patch_58683_point",
"crs": { "type": "name", "properties": { "name": "urn:ogc:def:crs:OGC:1.3:CRS84" } },
"features": [
{ "type": "Feature", "properties": { "@type": "node", "@id": 5914949843, "addr:country": null, "addr:postcode": null, "addr:street": null, "amenity": null, "bridge": null, "building": null, "contact:email": null, "contact:phone": null, "contact:website": null, "denomination": null, "disused": null, "disused:public_transport": null, "disused:railway": null, "ele": null, "electrified": null, "ford": null, "gauge": null, "highway": null, "int_name": null, "internet_access": null, "landuse": null, "lanes": null, "layer": null, "leaf_type": null, "maxspeed": null, "name": null, "name:el": null, "name:en": null, "name:ru": null, "natural": null, "network": null, "office": null, "operator": null, "place": null, "railway": null, "ref:GR:kepId": null, "reg_ref": null, "religion": null, "source": null, "surface": null, "train": null, "tunnel": null, "waterway": "waterfall", "wikidata": null, "wikipedia": null, "label": "waterway:waterfall" }, "geometry": { "type": "Point", "coordinates": [ 21.9888491, 37.3076756 ] } },
{ "type": "Feature", "properties": { "@type": "node", "@id": 5914962346, "addr:country": null, "addr:postcode": null, "addr:street": null, "amenity": "place_of_worship", "bridge": null, "building": null, "contact:email": null, "contact:phone": null, "contact:website": null, "denomination": null, "disused": null, "disused:public_transport": null, "disused:railway": null, "ele": null, "electrified": null, "ford": null, "gauge": null, "highway": null, "int_name": null, "internet_access": null, "landuse": null, "lanes": null, "layer": null, "leaf_type": null, "maxspeed": null, "name": null, "name:el": null, "name:en": null, "name:ru": null, "natural": null, "network": null, "office": null, "operator": null, "place": null, "railway": null, "ref:GR:kepId": null, "reg_ref": null, "religion": "christian", "source": null, "surface": null, "train": null, "tunnel": null, "waterway": null, "wikidata": null, "wikipedia": null, "label": "amenity:place_of_worship" }, "geometry": { "type": "Point", "coordinates": [ 21.9904501, 37.3077561 ] } },
{ "type": "Feature", "properties": { "@type": "node", "@id": 5914962347, "addr:country": null, "addr:postcode": null, "addr:street": null, "amenity": "place_of_worship", "bridge": null, "building": null, "contact:email": null, "contact:phone": null, "contact:website": null, "denomination": null, "disused": null, "disused:public_transport": null, "disused:railway": null, "ele": null, "electrified": null, "ford": null, "gauge": null, "highway": null, "int_name": null, "internet_access": null, "landuse": null, "lanes": null, "layer": null, "leaf_type": null, "maxspeed": null, "name": null, "name:el": null, "name:en": null, "name:ru": null, "natural": null, "network": null, "office": null, "operator": null, "place": null, "railway": null, "ref:GR:kepId": null, "reg_ref": null, "religion": "christian", "source": null, "surface": null, "train": null, "tunnel": null, "waterway": null, "wikidata": null, "wikipedia": null, "label": "amenity:place_of_worship" }, "geometry": { "type": "Point", "coordinates": [ 21.9899687, 37.3069791 ] } },
{ "type": "Feature", "properties": { "@type": "node", "@id": 6334513661, "addr:country": null, "addr:postcode": null, "addr:street": null, "amenity": null, "bridge": null, "building": null, "contact:email": null, "contact:phone": null, "contact:website": null, "denomination": null, "disused": null, "disused:public_transport": null, "disused:railway": null, "ele": "495", "electrified": null, "ford": null, "gauge": null, "highway": null, "int_name": null, "internet_access": null, "landuse": null, "lanes": null, "layer": null, "leaf_type": null, "maxspeed": null, "name": null, "name:el": null, "name:en": null, "name:ru": null, "natural": "spring", "network": null, "office": null, "operator": null, "place": null, "railway": null, "ref:GR:kepId": null, "reg_ref": null, "religion": null, "source": null, "surface": null, "train": null, "tunnel": null, "waterway": null, "wikidata": null, "wikipedia": null, "label": "natural:spring" }, "geometry": { "type": "Point", "coordinates": [ 21.99064, 37.3194449 ] } },
{ "type": "Feature", "properties": { "@type": "node", "@id": 6334513663, "addr:country": null, "addr:postcode": null, "addr:street": null, "amenity": null, "bridge": null, "building": null, "contact:email": null, "contact:phone": null, "contact:website": null, "denomination": null, "disused": null, "disused:public_transport": null, "disused:railway": null, "ele": "466", "electrified": null, "ford": null, "gauge": null, "highway": null, "int_name": null, "internet_access": null, "landuse": null, "lanes": null, "layer": null, "leaf_type": null, "maxspeed": null, "name": null, "name:el": null, "name:en": null, "name:ru": null, "natural": "spring", "network": null, "office": null, "operator": null, "place": null, "railway": null, "ref:GR:kepId": null, "reg_ref": null, "religion": null, "source": null, "surface": null, "train": null, "tunnel": null, "waterway": null, "wikidata": null, "wikipedia": null, "label": "natural:spring" }, "geometry": { "type": "Point", "coordinates": [ 21.9916025, 37.3192842 ] } },
{ "type": "Feature", "properties": { "@type": "node", "@id": 6348619343, "addr:country": null, "addr:postcode": null, "addr:street": null, "amenity": "place_of_worship", "bridge": null, "building": null, "contact:email": null, "contact:phone": null, "contact:website": null, "denomination": null, "disused": null, "disused:public_transport": null, "disused:railway": null, "ele": null, "electrified": null, "ford": null, "gauge": null, "highway": null, "int_name": null, "internet_access": null, "landuse": null, "lanes": null, "layer": null, "leaf_type": null, "maxspeed": null, "name": null, "name:el": null, "name:en": null, "name:ru": null, "natural": null, "network": null, "office": null, "operator": null, "place": null, "railway": null, "ref:GR:kepId": null, "reg_ref": null, "religion": "christian", "source": null, "surface": null, "train": null, "tunnel": null, "waterway": null, "wikidata": null, "wikipedia": null, "label": "amenity:place_of_worship" }, "geometry": { "type": "Point", "coordinates": [ 21.970665, 37.3078145 ] } },
{ "type": "Feature", "properties": { "@type": "node", "@id": 6348619344, "addr:country": null, "addr:postcode": null, "addr:street": null, "amenity": null, "bridge": null, "building": null, "contact:email": null, "contact:phone": null, "contact:website": null, "denomination": null, "disused": null, "disused:public_transport": null, "disused:railway": null, "ele": null, "electrified": null, "ford": null, "gauge": null, "highway": null, "int_name": null, "internet_access": null, "landuse": null, "lanes": null, "layer": null, "leaf_type": null, "maxspeed": null, "name": null, "name:el": null, "name:en": null, "name:ru": null, "natural": "spring", "network": null, "office": null, "operator": null, "place": null, "railway": null, "ref:GR:kepId": null, "reg_ref": null, "religion": null, "source": null, "surface": null, "train": null, "tunnel": null, "waterway": null, "wikidata": null, "wikipedia": null, "label": "natural:spring" }, "geometry": { "type": "Point", "coordinates": [ 21.971078, 37.3076993 ] } },
{ "type": "Feature", "properties": { "@type": "node", "@id": 6348619376, "addr:country": null, "addr:postcode": null, "addr:street": null, "amenity": null, "bridge": null, "building": null, "contact:email": null, "contact:phone": null, "contact:website": null, "denomination": null, "disused": null, "disused:public_transport": null, "disused:railway": null, "ele": null, "electrified": null, "ford": null, "gauge": null, "highway": null, "int_name": null, "internet_access": null, "landuse": null, "lanes": null, "layer": null, "leaf_type": null, "maxspeed": null, "name": null, "name:el": null, "name:en": null, "name:ru": null, "natural": "spring", "network": null, "office": null, "operator": null, "place": null, "railway": null, "ref:GR:kepId": null, "reg_ref": null, "religion": null, "source": null, "surface": null, "train": null, "tunnel": null, "waterway": null, "wikidata": null, "wikipedia": null, "label": "natural:spring" }, "geometry": { "type": "Point", "coordinates": [ 21.9687705, 37.3009715 ] } },
{ "type": "Feature", "properties": { "@type": "node", "@id": 6348619377, "addr:country": null, "addr:postcode": null, "addr:street": null, "amenity": "place_of_worship", "bridge": null, "building": null, "contact:email": null, "contact:phone": null, "contact:website": null, "denomination": null, "disused": null, "disused:public_transport": null, "disused:railway": null, "ele": null, "electrified": null, "ford": null, "gauge": null, "highway": null, "int_name": null, "internet_access": null, "landuse": null, "lanes": null, "layer": null, "leaf_type": null, "maxspeed": null, "name": "Μεταμόρφωση του Σωτήρα", "name:el": "Μεταμόρφωση του Σωτήρα", "name:en": "Transformation of the Savior", "name:ru": "Преображение Спасителя", "natural": null, "network": null, "office": null, "operator": null, "place": null, "railway": null, "ref:GR:kepId": null, "reg_ref": null, "religion": "christian", "source": null, "surface": null, "train": null, "tunnel": null, "waterway": null, "wikidata": null, "wikipedia": null, "label": "amenity:place_of_worship" }, "geometry": { "type": "Point", "coordinates": [ 21.9689545, 37.3008054 ] } },
{ "type": "Feature", "properties": { "@type": "node", "@id": 6348619378, "addr:country": null, "addr:postcode": null, "addr:street": null, "amenity": "place_of_worship", "bridge": null, "building": null, "contact:email": null, "contact:phone": null, "contact:website": null, "denomination": null, "disused": null, "disused:public_transport": null, "disused:railway": null, "ele": null, "electrified": null, "ford": null, "gauge": null, "highway": null, "int_name": null, "internet_access": null, "landuse": null, "lanes": null, "layer": null, "leaf_type": null, "maxspeed": null, "name": "Άγιος Παντελεήμων", "name:el": "Άγιος Παντελεήμων", "name:en": "Agios Panteleimon", "name:ru": "Святого Пантелемона", "natural": null, "network": null, "office": null, "operator": null, "place": null, "railway": null, "ref:GR:kepId": null, "reg_ref": null, "religion": "christian", "source": null, "surface": null, "train": null, "tunnel": null, "waterway": null, "wikidata": null, "wikipedia": null, "label": "amenity:place_of_worship" }, "geometry": { "type": "Point", "coordinates": [ 21.9692323, 37.299149 ] } },
{ "type": "Feature", "properties": { "@type": "node", "@id": 6348632477, "addr:country": null, "addr:postcode": null, "addr:street": null, "amenity": null, "bridge": null, "building": null, "contact:email": null, "contact:phone": null, "contact:website": null, "denomination": null, "disused": null, "disused:public_transport": null, "disused:railway": null, "ele": null, "electrified": null, "ford": null, "gauge": null, "highway": null, "int_name": null, "internet_access": null, "landuse": null, "lanes": null, "layer": null, "leaf_type": null, "maxspeed": null, "name": null, "name:el": null, "name:en": null, "name:ru": null, "natural": "spring", "network": null, "office": null, "operator": null, "place": null, "railway": null, "ref:GR:kepId": null, "reg_ref": null, "religion": null, "source": null, "surface": null, "train": null, "tunnel": null, "waterway": null, "wikidata": null, "wikipedia": null, "label": "natural:spring" }, "geometry": { "type": "Point", "coordinates": [ 21.988686, 37.3073585 ] } },
{ "type": "Feature", "properties": { "@type": "node", "@id": 11614902336, "addr:country": "GR", "addr:postcode": "24008", "addr:street": "ΔΙΑΒΟΛΙΤΣΙ", "amenity": null, "bridge": null, "building": null, "contact:email": "d.andanias@kep.gov.gr", "contact:phone": "+30 2724027525", "contact:website": "https://www.kep.gov.gr/", "denomination": null, "disused": null, "disused:public_transport": null, "disused:railway": null, "ele": null, "electrified": null, "ford": null, "gauge": null, "highway": null, "int_name": null, "internet_access": null, "landuse": null, "lanes": null, "layer": null, "leaf_type": null, "maxspeed": null, "name": "ΚΕΠ ΔΙΑΒΟΛΙΤΣΙΟΥ", "name:el": "ΚΕΠ ΔΙΑΒΟΛΙΤΣΙΟΥ", "name:en": null, "name:ru": null, "natural": null, "network": null, "office": "government", "operator": null, "place": null, "railway": null, "ref:GR:kepId": "0456", "reg_ref": null, "religion": null, "source": null, "surface": null, "train": null, "tunnel": null, "waterway": null, "wikidata": null, "wikipedia": null, "label": "office:government" }, "geometry": { "type": "Point", "coordinates": [ 21.967109, 37.3000987 ] } }
]
}
