{
"type": "FeatureCollection",
"name": "patch_72035_features",
"crs": { "type": "name", "properties": { "name": "urn:ogc:def:crs:OGC:1.3:CRS84" } },
"features": [
{ "type": "Feature", "properties": { "element": "node", "id": 356502560, "ele": "2578", "int_name": "Mosia", "name": "Μόσια", "natural": "peak", "intermittent": null, "waterway": null, "width": null, "boat": null, "leaf_type": null, "source": null, "boundary": null, "information": null, "leisure": null, "tourism": null, "name:el": null, "name:mk": null, "water": null, "label": "natural:peak" }, "geometry": { "type": "Point", "coordinates": [ 20.9500534, 40.0853176 ] } },
{ "type": "Feature", "properties": { "element": "node", "id": 356502610, "ele": "2276", "int_name": null, "name": null, "natural": "peak", "intermittent": null, "waterway": null, "width": null, "boat": null, "leaf_type": null, "source": null, "boundary": null, "information": null, "leisure": null, "tourism": null, "name:el": null, "name:mk": null, "water": null, "label": "natural:peak" }, "geometry": { "type": "Point", "coordinates": [ 20.9650671, 40.0743065 ] } },
{ "type": "Feature", "properties": { "element": "node", "id": 356502949, "ele": "2376", "int_name": null, "name": null, "natural": "peak", "intermittent": null, "waterway": null, "width": null, "boat": null, "leaf_type": null, "source": null, "boundary": null, "information": null, "leisure": null, "tourism": null, "name:el": null, "name:mk": null, "water": null, "label": "natural:peak" }, "geometry": { "type": "Point", "coordinates": [ 20.9608787, 40.0871549 ] } },
{ "type": "Feature", "properties": { "element": "way", "id": 27844528, "ele": null, "int_name": null, "name": null, "natural": null, "intermittent": "yes", "waterway": "stream", "width": "1", "boat": null, "leaf_type": null, "source": null, "boundary": null, "information": null, "leisure": null, "tourism": null, "name:el": null, "name:mk": null, "water": null, "label": "waterway:stream" }, "geometry": { "type": "LineString", "coordinates": [ [ 20.9539202, 40.083375 ], [ 20.9544568, 40.0834123 ], [ 20.9552211, 40.0832257 ], [ 20.9560342, 40.0829147 ], [ 20.9569449, 40.0824792 ], [ 20.9575791, 40.0824543 ], [ 20.9585711, 40.0822428 ], [ 20.9588056, 40.0820923 ], [ 20.9590752, 40.0819193 ], [ 20.9595037, 40.0813485 ], [ 20.9595142, 40.0813345 ], [ 20.959966, 40.0812686 ], [ 20.9601972, 40.0812349 ], [ 20.9611892, 40.0812474 ], [ 20.9623601, 40.0813345 ], [ 20.9627178, 40.0815584 ], [ 20.9631406, 40.0813843 ], [ 20.965027, 40.0811478 ], [ 20.9657263, 40.0812349 ], [ 20.9667996, 40.0811976 ] ] } },
{ "type": "Feature", "properties": { "element": "way", "id": 27844576, "ele": null, "int_name": null, "name": null, "natural": null, "intermittent": "yes", "waterway": "stream", "width": null, "boat": "no", "leaf_type": null, "source": null, "boundary": null, "information": null, "leisure": null, "tourism": null, "name:el": null, "name:mk": null, "water": null, "label": "waterway:stream" }, "geometry": { "type": "LineString", "coordinates": [ [ 20.9516474, 40.0724574 ], [ 20.9516474, 40.0721745 ], [ 20.9516474, 40.0718066 ], [ 20.951783, 40.0713162 ], [ 20.9521034, 40.0708164 ], [ 20.9521034, 40.0705878 ], [ 20.9521034, 40.0701468 ], [ 20.9522883, 40.0698261 ], [ 20.9527196, 40.0696564 ], [ 20.9529415, 40.0694206 ], [ 20.9527885, 40.0690037 ], [ 20.9527885, 40.0688179 ], [ 20.9530407, 40.0687035 ], [ 20.9531434, 40.0684033 ], [ 20.9531341, 40.068146 ], [ 20.953022, 40.0677958 ], [ 20.9527979, 40.0675099 ], [ 20.9527512, 40.0672311 ], [ 20.9526484, 40.0669309 ], [ 20.9524056, 40.0667594 ], [ 20.9520133, 40.0666879 ], [ 20.9519199, 40.0663877 ], [ 20.9519853, 40.066259 ], [ 20.9521441, 40.0658659 ], [ 20.9520974, 40.06563 ], [ 20.95206, 40.0653226 ], [ 20.95194152416515, 40.065016497776092 ] ] } },
{ "type": "Feature", "properties": { "element": "way", "id": 136648550, "ele": null, "int_name": null, "name": null, "natural": "wood", "intermittent": null, "waterway": null, "width": null, "boat": null, "leaf_type": "broadleaved", "source": "http://geodata.gov.gr/", "boundary": null, "information": null, "leisure": null, "tourism": null, "name:el": null, "name:mk": null, "water": null, "label": "natural:wood" }, "geometry": { "type": "Polygon", "coordinates": [ [ [ 20.973526, 40.067532 ], [ 20.973289, 40.067816 ], [ 20.973133, 40.068069 ], [ 20.973037, 40.068341 ], [ 20.972788, 40.068703 ], [ 20.972634, 40.068906 ], [ 20.972479, 40.069109 ], [ 20.972019, 40.069583 ], [ 20.972165, 40.069757 ], [ 20.972706, 40.069648 ], [ 20.973885, 40.069679 ], [ 20.973900265342682, 40.069675693149946 ], [ 20.973900265342682, 40.067697760414511 ], [ 20.973526, 40.067532 ] ] ] } },
{ "type": "Feature", "properties": { "element": "way", "id": 136649141, "ele": null, "int_name": null, "name": null, "natural": "wood", "intermittent": null, "waterway": null, "width": null, "boat": null, "leaf_type": "broadleaved", "source": "http://geodata.gov.gr/", "boundary": null, "information": null, "leisure": null, "tourism": null, "name:el": null, "name:mk": null, "water": null, "label": "natural:wood" }, "geometry": { "type": "Polygon", "coordinates": [ [ [ 20.973082, 40.074479 ], [ 20.972248, 40.074295 ], [ 20.972123, 40.074503 ], [ 20.971906, 40.074822 ], [ 20.971717, 40.075186 ], [ 20.97153, 40.075478 ], [ 20.971369, 40.07591 ], [ 20.971148, 40.076386 ], [ 20.970955, 40.076889 ], [ 20.970733, 40.077388 ], [ 20.970509, 40.077935 ], [ 20.970409, 40.078342 ], [ 20.970369, 40.07871 ], [ 20.970364, 40.078907 ], [ 20.970359, 40.079074 ], [ 20.970378, 40.079466 ], [ 20.970425, 40.079944 ], [ 20.970471, 40.080404 ], [ 20.970579, 40.080816 ], [ 20.9706, 40.081213 ], [ 20.970656, 40.081205 ], [ 20.971804, 40.081853 ], [ 20.973900265342682, 40.083249983462444 ], [ 20.973900265342682, 40.074434163542868 ], [ 20.973082, 40.074479 ] ] ] } },
{ "type": "Feature", "properties": { "element": "way", "id": 136655637, "ele": null, "int_name": null, "name": null, "natural": "wood", "intermittent": null, "waterway": null, "width": null, "boat": null, "leaf_type": "mixed", "source": "http://geodata.gov.gr/", "boundary": null, "information": null, "leisure": null, "tourism": null, "name:el": null, "name:mk": null, "water": null, "label": "natural:wood" }, "geometry": { "type": "Polygon", "coordinates": [ [ [ 20.950763, 40.065097 ], [ 20.952014, 40.066195 ], [ 20.954112, 40.06675 ], [ 20.956012, 40.0669 ], [ 20.957601, 40.066242 ], [ 20.958986, 40.06528 ], [ 20.959201236965072, 40.065016497776092 ], [ 20.950734609139353, 40.065016497776092 ], [ 20.950763, 40.065097 ] ] ] } },
{ "type": "Feature", "properties": { "element": "way", "id": 138261853, "ele": null, "int_name": null, "name": "Βάλια Κύρνα (Σαμαρίνας)", "natural": null, "intermittent": null, "waterway": null, "width": null, "boat": null, "leaf_type": null, "source": "http://geodata.gov.gr/", "boundary": "protected_area", "information": "wild_life", "leisure": "nature_reserve", "tourism": "information", "name:el": null, "name:mk": null, "water": null, "label": "tourism:information;leisure:nature_reserve" }, "geometry": { "type": "Polygon", "coordinates": [ [ [ 20.9710002, 40.0655652 ], [ 20.9709414, 40.0667076 ], [ 20.9710002, 40.0676279 ], [ 20.9711191, 40.0689911 ], [ 20.9715329, 40.0701369 ], [ 20.9718521, 40.0712736 ], [ 20.9719177, 40.0715071 ], [ 20.9725685, 40.0721907 ], [ 20.9725289, 40.0724965 ], [ 20.972451, 40.0730973 ], [ 20.9723318, 40.074013 ], [ 20.9721255, 40.0747012 ], [ 20.9717406, 40.0751595 ], [ 20.9708234, 40.0758471 ], [ 20.9701429, 40.0763067 ], [ 20.9691072, 40.0767659 ], [ 20.9680426, 40.0774497 ], [ 20.9672134, 40.0781395 ], [ 20.9655569, 40.0790509 ], [ 20.9645804, 40.0792865 ], [ 20.9637524, 40.0799764 ], [ 20.9631015, 40.0806619 ], [ 20.9623316, 40.0811191 ], [ 20.9616211, 40.081803 ], [ 20.9612367, 40.0824865 ], [ 20.960941, 40.0831723 ], [ 20.9611477, 40.0834029 ], [ 20.9615624, 40.0838641 ], [ 20.9620948, 40.0838601 ], [ 20.9627161, 40.0836332 ], [ 20.9637513, 40.0833992 ], [ 20.9645509, 40.0838525 ], [ 20.9650244, 40.0843063 ], [ 20.9655863, 40.0849876 ], [ 20.966001, 40.0854488 ], [ 20.9665337, 40.0868139 ], [ 20.9669186, 40.0874995 ], [ 20.967168309810926, 40.088091934737669 ], [ 20.973900265342682, 40.088091934737669 ], [ 20.973900265342682, 40.065016497776092 ], [ 20.971071332522317, 40.065016497776092 ], [ 20.9710002, 40.0655652 ] ] ] } },
{ "type": "Feature", "properties": { "element": "way", "id": 138574872, "ele": null, "int_name": null, "name": "Πάδες", "natural": null, "intermittent": null, "waterway": null, "width": null, "boat": null, "leaf_type": null, "source": "http://geodata.gov.gr/", "boundary": "protected_area", "information": "wild_life", "leisure": "nature_reserve", "tourism": null, "name:el": "Πάδες", "name:mk": "Падеж", "water": null, "label": "leisure:nature_reserve" }, "geometry": { "type": "Polygon", "coordinates": [ [ [ 20.9442819, 40.0829859 ], [ 20.9459389, 40.0827504 ], [ 20.9472402, 40.0825235 ], [ 20.948306, 40.0822904 ], [ 20.9491349, 40.0816096 ], [ 20.9497559, 40.0811486 ], [ 20.950585, 40.0802337 ], [ 20.9513254, 40.0790912 ], [ 20.951799, 40.078176 ], [ 20.9525676, 40.0770342 ], [ 20.9531305, 40.0761123 ], [ 20.9536924, 40.0749741 ], [ 20.9544913, 40.0738332 ], [ 20.9548766, 40.0724562 ], [ 20.9556754, 40.0713152 ], [ 20.9562975, 40.0704038 ], [ 20.9570073, 40.0699451 ], [ 20.9575988, 40.0694833 ], [ 20.9582789, 40.0687985 ], [ 20.9586049, 40.0681135 ], [ 20.9589601, 40.0671951 ], [ 20.9589308, 40.0658252 ], [ 20.958635504175628, 40.065016497776092 ], [ 20.943889850879692, 40.065016497776092 ], [ 20.943889850879692, 40.083034264405093 ], [ 20.9442819, 40.0829859 ] ] ] } },
{ "type": "Feature", "properties": { "element": "way", "id": 444880983, "ele": null, "int_name": null, "name": null, "natural": null, "intermittent": "yes", "waterway": "stream", "width": "1", "boat": null, "leaf_type": null, "source": null, "boundary": null, "information": null, "leisure": null, "tourism": null, "name:el": null, "name:mk": null, "water": null, "label": "waterway:stream" }, "geometry": { "type": "LineString", "coordinates": [ [ 20.9684213, 40.0705796 ], [ 20.9682711, 40.0703415 ], [ 20.9677346, 40.0701937 ], [ 20.9670694, 40.0698489 ], [ 20.9662004, 40.0694958 ], [ 20.9660287, 40.0689047 ], [ 20.9658356, 40.0685106 ], [ 20.9657927, 40.0681493 ], [ 20.9654387, 40.0676567 ], [ 20.9656103, 40.0674104 ], [ 20.966136, 40.0670245 ], [ 20.9662541, 40.0665564 ], [ 20.9666188, 40.0664743 ], [ 20.9674879, 40.0662855 ], [ 20.9677775, 40.0659817 ], [ 20.9680136, 40.0651934 ], [ 20.968104767315253, 40.065016497776092 ] ] } },
{ "type": "Feature", "properties": { "element": "way", "id": 444880986, "ele": null, "int_name": null, "name": null, "natural": null, "intermittent": "yes", "waterway": "stream", "width": "1", "boat": null, "leaf_type": null, "source": null, "boundary": null, "information": null, "leisure": null, "tourism": null, "name:el": null, "name:mk": null, "water": null, "label": "waterway:stream" }, "geometry": { "type": "LineString", "coordinates": [ [ 20.9702287, 40.0695605 ], [ 20.9712909, 40.0688955 ], [ 20.9716986, 40.0684521 ], [ 20.973265, 40.0679677 ], [ 20.973900265342682, 40.068035119263939 ] ] } },
{ "type": "Feature", "properties": { "element": "way", "id": 444880987, "ele": null, "int_name": null, "name": null, "natural": null, "intermittent": "yes", "waterway": "stream", "width": "1", "boat": null, "leaf_type": null, "source": null, "boundary": null, "information": null, "leisure": null, "tourism": null, "name:el": null, "name:mk": null, "water": null, "label": "waterway:stream" }, "geometry": { "type": "LineString", "coordinates": [ [ 20.9711998, 40.0712232 ], [ 20.9718521, 40.0712736 ], [ 20.9723869, 40.0711423 ], [ 20.9735009, 40.0709245 ], [ 20.973900265342682, 40.070877736964768 ] ] } },
{ "type": "Feature", "properties": { "element": "way", "id": 444880988, "ele": null, "int_name": null, "name": null, "natural": null, "intermittent": "yes", "waterway": "stream", "width": "1", "boat": null, "leaf_type": null, "source": null, "boundary": null, "information": null, "leisure": null, "tourism": null, "name:el": null, "name:mk": null, "water": null, "label": "waterway:stream" }, "geometry": { "type": "LineString", "coordinates": [ [ 20.9725289, 40.0724965 ], [ 20.9731675, 40.0724925 ], [ 20.973900265342682, 40.072247181002368 ] ] } },
{ "type": "Feature", "properties": { "element": "way", "id": 444880989, "ele": null, "int_name": null, "name": null, "natural": null, "intermittent": "yes", "waterway": "stream", "width": "1", "boat": null, "leaf_type": null, "source": null, "boundary": null, "information": null, "leisure": null, "tourism": null, "name:el": null, "name:mk": null, "water": null, "label": "waterway:stream" }, "geometry": { "type": "LineString", "coordinates": [ [ 20.9705541, 40.0733241 ], [ 20.9718617, 40.0736958 ], [ 20.9726369, 40.0739817 ], [ 20.9730572, 40.0742032 ], [ 20.973900265342682, 40.074165590018616 ] ] } },
{ "type": "Feature", "properties": { "element": "way", "id": 444881013, "ele": null, "int_name": null, "name": null, "natural": null, "intermittent": "yes", "waterway": "stream", "width": "1", "boat": null, "leaf_type": null, "source": null, "boundary": null, "information": null, "leisure": null, "tourism": null, "name:el": null, "name:mk": null, "water": null, "label": "waterway:stream" }, "geometry": { "type": "LineString", "coordinates": [ [ 20.968351816115025, 40.088091934737669 ], [ 20.9691269, 40.0876543 ], [ 20.9700174, 40.0876789 ], [ 20.9705002, 40.0877528 ], [ 20.9710151, 40.0876132 ], [ 20.9716052, 40.0873916 ], [ 20.9728498, 40.0870961 ], [ 20.9729892, 40.0868088 ], [ 20.973472, 40.0865297 ], [ 20.973900265342682, 40.086185717383188 ] ] } },
{ "type": "Feature", "properties": { "element": "way", "id": 444881014, "ele": null, "int_name": null, "name": null, "natural": null, "intermittent": "yes", "waterway": "stream", "width": "1", "boat": null, "leaf_type": null, "source": null, "boundary": null, "information": null, "leisure": null, "tourism": null, "name:el": null, "name:mk": null, "water": null, "label": "waterway:stream" }, "geometry": { "type": "LineString", "coordinates": [ [ 20.9664017, 40.0858687 ], [ 20.9675225, 40.0853971 ], [ 20.9679147, 40.085197 ], [ 20.9684004, 40.085147 ], [ 20.9689048, 40.0852113 ], [ 20.9692877, 40.0850612 ], [ 20.970231, 40.0849112 ], [ 20.9710716, 40.0845396 ], [ 20.9716134, 40.0842537 ], [ 20.9721364, 40.0843752 ], [ 20.972977, 40.0843967 ], [ 20.973900265342682, 40.084474547361204 ] ] } },
{ "type": "Feature", "properties": { "element": "way", "id": 444881015, "ele": null, "int_name": null, "name": null, "natural": null, "intermittent": "yes", "waterway": "stream", "width": "1", "boat": null, "leaf_type": null, "source": null, "boundary": null, "information": null, "leisure": null, "tourism": null, "name:el": null, "name:mk": null, "water": null, "label": "waterway:stream" }, "geometry": { "type": "LineString", "coordinates": [ [ 20.96317, 40.0851613 ], [ 20.9633319, 40.0850862 ], [ 20.9643562, 40.084611 ], [ 20.9651594, 40.0843038 ], [ 20.9655517, 40.0842109 ], [ 20.9660467, 40.0838178 ], [ 20.9665791, 40.0833247 ], [ 20.9673357, 40.0826602 ], [ 20.9680362, 40.0823028 ], [ 20.9684378, 40.08231 ], [ 20.9688954, 40.0822099 ], [ 20.969652, 40.0821099 ], [ 20.9703618, 40.0819027 ], [ 20.9707523, 40.0817434 ], [ 20.9712305, 40.0815484 ] ] } },
{ "type": "Feature", "properties": { "element": "way", "id": 444881016, "ele": null, "int_name": null, "name": null, "natural": null, "intermittent": "yes", "waterway": "stream", "width": "1", "boat": null, "leaf_type": null, "source": null, "boundary": null, "information": null, "leisure": null, "tourism": null, "name:el": null, "name:mk": null, "water": null, "label": "waterway:stream" }, "geometry": { "type": "LineString", "coordinates": [ [ 20.9666522, 40.0741183 ], [ 20.9666275, 40.0744012 ], [ 20.9665289, 40.0747785 ], [ 20.9663564, 40.075184 ], [ 20.9663933, 40.0754386 ], [ 20.9666029, 40.0759007 ], [ 20.9670096, 40.0766928 ], [ 20.9673053, 40.0776359 ], [ 20.9677983, 40.0784091 ], [ 20.9681939, 40.0787194 ], [ 20.9682913, 40.0787958 ], [ 20.9689075, 40.0792201 ], [ 20.9695258, 40.0794139 ], [ 20.9697541, 40.0794854 ], [ 20.9702567, 40.0797075 ], [ 20.9703699, 40.0800324 ], [ 20.9706672, 40.0802924 ], [ 20.9707876, 40.0805578 ], [ 20.9707309, 40.0807907 ], [ 20.9711132, 40.0813214 ], [ 20.9713114, 40.0815492 ] ] } },
{ "type": "Feature", "properties": { "element": "way", "id": 444881017, "ele": null, "int_name": null, "name": null, "natural": null, "intermittent": "yes", "waterway": "stream", "width": "1", "boat": null, "leaf_type": null, "source": null, "boundary": null, "information": null, "leisure": null, "tourism": null, "name:el": null, "name:mk": null, "water": null, "label": "waterway:stream" }, "geometry": { "type": "LineString", "coordinates": [ [ 20.9606726, 40.0758206 ], [ 20.9609515, 40.0760423 ], [ 20.9614343, 40.076108 ], [ 20.9619278, 40.0762557 ], [ 20.9622068, 40.0768468 ], [ 20.9623999, 40.0774297 ], [ 20.9630544, 40.0782917 ], [ 20.9630589, 40.0783682 ], [ 20.9630758, 40.0786529 ], [ 20.9635372, 40.079244 ], [ 20.9640951, 40.0794164 ], [ 20.9645886, 40.0795067 ], [ 20.9648139, 40.0798432 ], [ 20.9653611, 40.0800403 ], [ 20.9659619, 40.0803522 ], [ 20.9661443, 40.0806806 ], [ 20.966155, 40.0808201 ], [ 20.9667996, 40.0811976 ] ] } },
{ "type": "Feature", "properties": { "element": "way", "id": 444881018, "ele": null, "int_name": null, "name": null, "natural": null, "intermittent": "yes", "waterway": "stream", "width": "1", "boat": null, "leaf_type": null, "source": null, "boundary": null, "information": null, "leisure": null, "tourism": null, "name:el": null, "name:mk": null, "water": null, "label": "waterway:stream" }, "geometry": { "type": "LineString", "coordinates": [ [ 20.9618849, 40.0750653 ], [ 20.9618098, 40.0754019 ], [ 20.962121, 40.0756729 ], [ 20.9621531, 40.0758781 ], [ 20.9619278, 40.0762557 ] ] } },
{ "type": "Feature", "properties": { "element": "way", "id": 445477530, "ele": null, "int_name": null, "name": null, "natural": null, "intermittent": null, "waterway": "stream", "width": "1", "boat": null, "leaf_type": null, "source": null, "boundary": null, "information": null, "leisure": null, "tourism": null, "name:el": null, "name:mk": null, "water": null, "label": "waterway:stream" }, "geometry": { "type": "LineString", "coordinates": [ [ 20.9667996, 40.0811976 ], [ 20.9677915, 40.0813096 ], [ 20.9687185, 40.0816829 ], [ 20.9696454, 40.0816207 ], [ 20.970745, 40.0815441 ], [ 20.9712305, 40.0815484 ], [ 20.9713114, 40.0815492 ], [ 20.971831, 40.0815538 ], [ 20.97257, 40.0820833 ], [ 20.9729436, 40.082351 ], [ 20.973288, 40.0828848 ], [ 20.973900265342682, 40.083306759254505 ] ] } },
{ "type": "Feature", "properties": { "element": "way", "id": 451174382, "ele": null, "int_name": null, "name": null, "natural": null, "intermittent": "yes", "waterway": "stream", "width": "1", "boat": null, "leaf_type": null, "source": null, "boundary": null, "information": null, "leisure": null, "tourism": null, "name:el": null, "name:mk": null, "water": null, "label": "waterway:stream" }, "geometry": { "type": "LineString", "coordinates": [ [ 20.943889850879692, 40.086657406089302 ], [ 20.9438922, 40.0866573 ], [ 20.9442217, 40.086557 ], [ 20.9443626, 40.0865722 ], [ 20.9444063, 40.0865965 ], [ 20.944448, 40.0866725 ], [ 20.944712, 40.0869003 ], [ 20.9449026, 40.0869094 ], [ 20.9453691, 40.0867894 ], [ 20.9454286, 40.0868046 ], [ 20.9454584, 40.0868517 ], [ 20.9454504, 40.0869094 ], [ 20.9453135, 40.087125 ], [ 20.9451308, 40.0873893 ], [ 20.9446624, 40.0875199 ], [ 20.9444996, 40.0876308 ], [ 20.9443249, 40.0877963 ], [ 20.9439735, 40.0878874 ], [ 20.943889850879692, 40.087929365068192 ] ] } },
{ "type": "Feature", "properties": { "element": "way", "id": 631840122, "ele": null, "int_name": null, "name": null, "natural": null, "intermittent": "yes", "waterway": "stream", "width": "1", "boat": null, "leaf_type": null, "source": null, "boundary": null, "information": null, "leisure": null, "tourism": null, "name:el": null, "name:mk": null, "water": null, "label": "waterway:stream" }, "geometry": { "type": "LineString", "coordinates": [ [ 20.952894, 40.0809757 ], [ 20.9531515, 40.0807213 ], [ 20.9537094, 40.0806392 ], [ 20.9545838, 40.0807869 ], [ 20.9549721, 40.0808624 ], [ 20.9555333, 40.0809716 ], [ 20.9558712, 40.0810784 ], [ 20.9563647, 40.0810578 ], [ 20.9567832, 40.0810373 ], [ 20.9571694, 40.0810825 ], [ 20.9576468, 40.0812466 ], [ 20.9580599, 40.0813041 ], [ 20.9582272, 40.0813126 ], [ 20.9586232, 40.0813328 ], [ 20.9590899, 40.081378 ], [ 20.9595037, 40.0813485 ] ] } },
{ "type": "Feature", "properties": { "element": "way", "id": 655863467, "ele": null, "int_name": null, "name": null, "natural": null, "intermittent": "yes", "waterway": "stream", "width": null, "boat": null, "leaf_type": null, "source": null, "boundary": null, "information": null, "leisure": null, "tourism": null, "name:el": null, "name:mk": null, "water": null, "label": "waterway:stream" }, "geometry": { "type": "LineString", "coordinates": [ [ 20.9489376, 40.0729474 ], [ 20.9487975, 40.07244 ], [ 20.9489937, 40.0719254 ], [ 20.9492832, 40.0715466 ], [ 20.949909, 40.0710749 ], [ 20.95032, 40.0707461 ], [ 20.9506095, 40.0704101 ], [ 20.9504974, 40.0701743 ], [ 20.9505908, 40.0699527 ], [ 20.9505254, 40.0697669 ], [ 20.9502919, 40.0696239 ], [ 20.9500958, 40.0693166 ], [ 20.9499744, 40.0689163 ], [ 20.9492926, 40.0684732 ], [ 20.9490217, 40.0680943 ], [ 20.9487882, 40.0674439 ], [ 20.948536, 40.0671437 ], [ 20.9485454, 40.0668863 ], [ 20.9488816, 40.0665147 ], [ 20.9490124, 40.0661072 ], [ 20.9491992, 40.0654353 ], [ 20.94932657430612, 40.065016497776092 ] ] } },
{ "type": "Feature", "properties": { "element": "way", "id": 655863470, "ele": null, "int_name": null, "name": null, "natural": null, "intermittent": "yes", "waterway": "stream", "width": null, "boat": null, "leaf_type": null, "source": null, "boundary": null, "information": null, "leisure": null, "tourism": null, "name:el": null, "name:mk": null, "water": null, "label": "waterway:stream" }, "geometry": { "type": "LineString", "coordinates": [ [ 20.9504366, 40.0679601 ], [ 20.9504613, 40.0676677 ], [ 20.9503134, 40.0673942 ], [ 20.9500176, 40.0672244 ], [ 20.9500115, 40.0670594 ], [ 20.9501409, 40.0669179 ], [ 20.9502148, 40.0667623 ], [ 20.9504366, 40.0665972 ], [ 20.950603, 40.0665359 ], [ 20.9506153, 40.0664039 ], [ 20.9505106, 40.0662765 ], [ 20.9503812, 40.0659512 ], [ 20.9503689, 40.0654418 ], [ 20.9503997, 40.0651164 ], [ 20.950357925787628, 40.065016497776092 ] ] } },
{ "type": "Feature", "properties": { "element": "way", "id": 655863471, "ele": null, "int_name": null, "name": null, "natural": null, "intermittent": "yes", "waterway": "stream", "width": null, "boat": null, "leaf_type": null, "source": null, "boundary": null, "information": null, "leisure": null, "tourism": null, "name:el": null, "name:mk": null, "water": null, "label": "waterway:stream" }, "geometry": { "type": "LineString", "coordinates": [ [ 20.9456097, 40.079423 ], [ 20.9455247, 40.0786539 ], [ 20.9451849, 40.077874 ], [ 20.9452416, 40.0773324 ], [ 20.9452557, 40.0768882 ], [ 20.9450292, 40.0763466 ], [ 20.9446114, 40.075867 ], [ 20.9445196, 40.0757616 ], [ 20.9442081, 40.0755992 ], [ 20.9442506, 40.0750359 ], [ 20.9443072, 40.0745592 ], [ 20.9440524, 40.0738442 ], [ 20.943889850879692, 40.073681140601494 ] ] } },
{ "type": "Feature", "properties": { "element": "way", "id": 655863473, "ele": null, "int_name": null, "name": null, "natural": null, "intermittent": "yes", "waterway": "stream", "width": null, "boat": null, "leaf_type": null, "source": null, "boundary": null, "information": null, "leisure": null, "tourism": null, "name:el": null, "name:mk": null, "water": null, "label": "waterway:stream" }, "geometry": { "type": "LineString", "coordinates": [ [ 20.9444179, 40.0698619 ], [ 20.9440424, 40.0695171 ], [ 20.943889850879692, 40.069407893909968 ] ] } },
{ "type": "Feature", "properties": { "element": "way", "id": 656205587, "ele": null, "int_name": null, "name": null, "natural": null, "intermittent": "yes", "waterway": "stream", "width": "1", "boat": null, "leaf_type": null, "source": null, "boundary": null, "information": null, "leisure": null, "tourism": null, "name:el": null, "name:mk": null, "water": null, "label": "waterway:stream" }, "geometry": { "type": "LineString", "coordinates": [ [ 20.95001, 40.074506 ], [ 20.9504064, 40.0743869 ], [ 20.9509585, 40.0744302 ], [ 20.9515389, 40.0747552 ], [ 20.9523459, 40.074961 ], [ 20.9529263, 40.074961 ], [ 20.9539597, 40.0749393 ], [ 20.9546393, 40.0747985 ], [ 20.9551489, 40.074571 ], [ 20.9555453, 40.0741594 ], [ 20.95597, 40.073726 ], [ 20.956508, 40.0731086 ], [ 20.957145, 40.0725344 ], [ 20.9576405, 40.0718736 ], [ 20.9580794, 40.0714619 ], [ 20.9584899, 40.0711911 ], [ 20.9591836, 40.0709311 ], [ 20.9601887, 40.0704652 ], [ 20.9610664, 40.0699886 ], [ 20.9615902, 40.0698694 ], [ 20.9621565, 40.0695119 ], [ 20.962383, 40.0690352 ], [ 20.9628219, 40.0686885 ], [ 20.9629649, 40.0682759 ], [ 20.9630059, 40.0681577 ], [ 20.9629918, 40.0675726 ], [ 20.9632324, 40.0670309 ], [ 20.9634448, 40.0666842 ], [ 20.9634589, 40.0663809 ], [ 20.9634884, 40.0661805 ] ] } },
{ "type": "Feature", "properties": { "element": "way", "id": 656205588, "ele": null, "int_name": null, "name": null, "natural": null, "intermittent": "yes", "waterway": "stream", "width": "1", "boat": null, "leaf_type": null, "source": null, "boundary": null, "information": null, "leisure": null, "tourism": null, "name:el": null, "name:mk": null, "water": null, "label": "waterway:stream" }, "geometry": { "type": "LineString", "coordinates": [ [ 20.965469, 40.0748162 ], [ 20.965925, 40.075118 ], [ 20.9663564, 40.075184 ] ] } },
{ "type": "Feature", "properties": { "element": "way", "id": 656205589, "ele": null, "int_name": null, "name": null, "natural": null, "intermittent": "yes", "waterway": "stream", "width": "1", "boat": null, "leaf_type": null, "source": null, "boundary": null, "information": null, "leisure": null, "tourism": null, "name:el": null, "name:mk": null, "water": null, "label": "waterway:stream" }, "geometry": { "type": "LineString", "coordinates": [ [ 20.9652102, 40.0754103 ], [ 20.9654321, 40.0761553 ], [ 20.9658388, 40.0768626 ], [ 20.9664057, 40.0774944 ], [ 20.9668986, 40.0778433 ], [ 20.9675148, 40.0783903 ], [ 20.9680201, 40.0786732 ], [ 20.9681939, 40.0787194 ] ] } },
{ "type": "Feature", "properties": { "element": "way", "id": 656205590, "ele": null, "int_name": null, "name": null, "natural": null, "intermittent": "yes", "waterway": "stream", "width": "1", "boat": null, "leaf_type": null, "source": null, "boundary": null, "information": null, "leisure": null, "tourism": null, "name:el": null, "name:mk": null, "water": null, "label": "waterway:stream" }, "geometry": { "type": "LineString", "coordinates": [ [ 20.9588386, 40.0756178 ], [ 20.9588633, 40.0761459 ], [ 20.958777, 40.076674 ], [ 20.9588263, 40.0770512 ], [ 20.958814, 40.0774284 ], [ 20.9582347, 40.0775981 ], [ 20.9580129, 40.0781639 ], [ 20.9580074, 40.0782407 ], [ 20.9579759, 40.0786826 ], [ 20.9580868, 40.0791824 ], [ 20.9582159, 40.07979 ], [ 20.9582471, 40.0799368 ], [ 20.9584254, 40.0802161 ], [ 20.9585059, 40.0803423 ], [ 20.9590481, 40.0806629 ], [ 20.9596274, 40.0809458 ], [ 20.959966, 40.0812686 ] ] } },
{ "type": "Feature", "properties": { "element": "way", "id": 656205592, "ele": null, "int_name": null, "name": null, "natural": null, "intermittent": "yes", "waterway": "stream", "width": "1", "boat": null, "leaf_type": null, "source": null, "boundary": null, "information": null, "leisure": null, "tourism": null, "name:el": null, "name:mk": null, "water": null, "label": "waterway:stream" }, "geometry": { "type": "LineString", "coordinates": [ [ 20.9555481, 40.0773152 ], [ 20.9563245, 40.077419 ], [ 20.9569284, 40.077617 ], [ 20.957483, 40.0779282 ], [ 20.9580074, 40.0782407 ] ] } },
{ "type": "Feature", "properties": { "element": "way", "id": 656205593, "ele": null, "int_name": null, "name": null, "natural": null, "intermittent": "yes", "waterway": "stream", "width": "1", "boat": null, "leaf_type": null, "source": null, "boundary": null, "information": null, "leisure": null, "tourism": null, "name:el": null, "name:mk": null, "water": null, "label": "waterway:stream" }, "geometry": { "type": "LineString", "coordinates": [ [ 20.9553755, 40.0785411 ], [ 20.9559301, 40.0784563 ], [ 20.9562505, 40.0784657 ], [ 20.9566326, 40.0785977 ], [ 20.9573474, 40.0792295 ], [ 20.957828, 40.0794559 ], [ 20.9582159, 40.07979 ] ] } },
{ "type": "Feature", "properties": { "element": "way", "id": 656205594, "ele": null, "int_name": null, "name": null, "natural": null, "intermittent": "yes", "waterway": "stream", "width": "1", "boat": null, "leaf_type": null, "source": null, "boundary": null, "information": null, "leisure": null, "tourism": null, "name:el": null, "name:mk": null, "water": null, "label": "waterway:stream" }, "geometry": { "type": "LineString", "coordinates": [ [ 20.9671677, 40.0740505 ], [ 20.9676237, 40.0742485 ], [ 20.9679688, 40.0745503 ], [ 20.9684494, 40.0749558 ], [ 20.9692998, 40.0756537 ], [ 20.9696942, 40.0761063 ], [ 20.9702611, 40.0768042 ], [ 20.9709143, 40.0776623 ], [ 20.971284, 40.0782187 ], [ 20.9714072, 40.0787751 ], [ 20.9716044, 40.0790768 ], [ 20.971703, 40.0792245 ], [ 20.9719002, 40.07952 ], [ 20.9722206, 40.0800858 ], [ 20.9724548, 40.0807836 ], [ 20.9726397, 40.0812834 ], [ 20.9726766, 40.0817077 ], [ 20.97257, 40.0820833 ] ] } },
{ "type": "Feature", "properties": { "element": "way", "id": 656205595, "ele": null, "int_name": null, "name": null, "natural": null, "intermittent": "yes", "waterway": "stream", "width": "1", "boat": null, "leaf_type": null, "source": null, "boundary": null, "information": null, "leisure": null, "tourism": null, "name:el": null, "name:mk": null, "water": null, "label": "waterway:stream" }, "geometry": { "type": "LineString", "coordinates": [ [ 20.969078, 40.0746257 ], [ 20.9696079, 40.0750973 ], [ 20.9701132, 40.0756725 ], [ 20.9706678, 40.0764552 ], [ 20.9714196, 40.0772191 ], [ 20.9717277, 40.0779452 ], [ 20.9718756, 40.0786713 ], [ 20.971982, 40.0792005 ], [ 20.9719988, 40.0792843 ], [ 20.9719002, 40.07952 ] ] } },
{ "type": "Feature", "properties": { "element": "way", "id": 656205596, "ele": null, "int_name": null, "name": null, "natural": null, "intermittent": "yes", "waterway": "stream", "width": "1", "boat": null, "leaf_type": null, "source": null, "boundary": null, "information": null, "leisure": null, "tourism": null, "name:el": null, "name:mk": null, "water": null, "label": "waterway:stream" }, "geometry": { "type": "LineString", "coordinates": [ [ 20.9720745, 40.0763387 ], [ 20.9729526, 40.077695 ], [ 20.9737657, 40.0788895 ], [ 20.973900265342682, 40.078996672648678 ] ] } },
{ "type": "Feature", "properties": { "element": "way", "id": 656205597, "ele": null, "int_name": null, "name": null, "natural": null, "intermittent": "yes", "waterway": "stream", "width": "1", "boat": null, "leaf_type": null, "source": null, "boundary": null, "information": null, "leisure": null, "tourism": null, "name:el": null, "name:mk": null, "water": null, "label": "waterway:stream" }, "geometry": { "type": "LineString", "coordinates": [ [ 20.9713752, 40.0743975 ], [ 20.9730339, 40.0751192 ], [ 20.973900265342682, 40.075735470445132 ] ] } },
{ "type": "Feature", "properties": { "element": "way", "id": 739861963, "ele": null, "int_name": null, "name": null, "natural": "water", "intermittent": "yes", "waterway": null, "width": null, "boat": null, "leaf_type": null, "source": null, "boundary": null, "information": null, "leisure": null, "tourism": null, "name:el": null, "name:mk": null, "water": "lake", "label": "water:lake;natural:water" }, "geometry": { "type": "Polygon", "coordinates": [ [ [ 20.9457328, 40.0868188 ], [ 20.9457972, 40.08671 ], [ 20.9457838, 40.0865479 ], [ 20.9457302, 40.0864125 ], [ 20.9456416, 40.0863899 ], [ 20.9455639, 40.0863448 ], [ 20.9454297, 40.086314 ], [ 20.9453225, 40.0862196 ], [ 20.94525, 40.0861006 ], [ 20.9451991, 40.0860739 ], [ 20.9452366, 40.086158 ], [ 20.945301, 40.0862873 ], [ 20.945293, 40.0863961 ], [ 20.9453949, 40.0864864 ], [ 20.945419, 40.0866587 ], [ 20.9454888, 40.0867531 ], [ 20.9456336, 40.0868126 ], [ 20.9457328, 40.0868188 ] ] ] } }
]
}
