{
"type": "FeatureCollection",
"name": "patch_72035_point",
"crs": { "type": "name", "properties": { "name": "urn:ogc:def:crs:OGC:1.3:CRS84" } },
"features": [
{ "type": "Feature", "properties": { "element": "node", "id": 356502560, "ele": "2578", "int_name": "Mosia", "name": "Μόσια", "natural": "peak", "intermittent": null, "waterway": null, "width": null, "boat": null, "leaf_type": null, "source": null, "boundary": null, "information": null, "leisure": null, "tourism": null, "name:el": null, "name:mk": null, "water": null, "label": "natural:peak" }, "geometry": { "type": "Point", "coordinates": [ 20.9500534, 40.0853176 ] } },
{ "type": "Feature", "properties": { "element": "node", "id": 356502610, "ele": "2276", "int_name": null, "name": null, "natural": "peak", "intermittent": null, "waterway": null, "width": null, "boat": null, "leaf_type": null, "source": null, "boundary": null, "information": null, "leisure": null, "tourism": null, "name:el": null, "name:mk": null, "water": null, "label": "natural:peak" }, "geometry": { "type": "Point", "coordinates": [ 20.9650671, 40.0743065 ] } },
{ "type": "Feature", "properties": { "element": "node", "id": 356502949, "ele": "2376", "int_name": null, "name": null, "natural": "peak", "intermittent": null, "waterway": null, "width": null, "boat": null, "leaf_type": null, "source": null, "boundary": null, "information": null, "leisure": null, "tourism": null, "name:el": null, "name:mk": null, "water": null, "label": "natural:peak" }, "geometry": { "type": "Point", "coordinates": [ 20.9608787, 40.0871549 ] } }
]
}
