{
"type": "FeatureCollection",
"name": "patch_44386_point",
"crs": { "type": "name", "properties": { "name": "urn:ogc:def:crs:OGC:1.3:CRS84" } },
"features": [
{ "type": "Feature", "properties": { "@type": "node", "@id": 1386516315, "access": null, "addr:postcode": null, "admin_level": null, "amenity": "place_of_worship", "archaeological_site": null, "area": null, "barrier": null, "boundary": null, "bridge": null, "building": null, "date": null, "denomination": "greek_orthodox", "embankment": null, "generator:method": null, "generator:output:electricity": null, "generator:source": null, "generator:type": null, "highway": null, "historic": null, "int_name": null, "int_ref": null, "isced:level": null, "landuse": null, "lanes": null, "layer": null, "leisure": null, "lit": null, "man_made": null, "maxspeed": null, "name": null, "name:bg": null, "name:de": null, "name:el": null, "name:en": null, "name:fr": null, "name:it": null, "name:mk": null, "name:sq": null, "name:tr": null, "natural": null, "noexit": null, "note": null, "oneway": null, "operator": null, "place": null, "plant:method": null, "plant:output:electricity": null, "plant:source": null, "power": null, "ref": null, "reg_ref": null, "religion": "christian", "service": null, "smoothness": null, "source": null, "source:ref": null, "sport": null, "surface": null, "toll": null, "traffic_sign": null, "traffic_sign:direction": null, "wikidata": null, "label": "amenity:place_of_worship" }, "geometry": { "type": "Point", "coordinates": [ 21.2342828, 38.552424 ] } },
{ "type": "Feature", "properties": { "@type": "node", "@id": 8202670325, "access": null, "addr:postcode": null, "admin_level": null, "amenity": null, "archaeological_site": null, "area": null, "barrier": null, "boundary": null, "bridge": null, "building": null, "date": null, "denomination": null, "embankment": null, "generator:method": null, "generator:output:electricity": null, "generator:source": null, "generator:type": null, "highway": null, "historic": "city_gate", "int_name": null, "int_ref": null, "isced:level": null, "landuse": null, "lanes": null, "layer": null, "leisure": null, "lit": null, "man_made": null, "maxspeed": null, "name": "Αυλόπορτα-Μεγάλη Πύλη-Λα Πόρτα, Παλαιομάνινας", "name:bg": null, "name:de": null, "name:el": null, "name:en": null, "name:fr": null, "name:it": null, "name:mk": null, "name:sq": null, "name:tr": null, "natural": null, "noexit": null, "note": null, "oneway": null, "operator": null, "place": null, "plant:method": null, "plant:output:electricity": null, "plant:source": null, "power": null, "ref": null, "reg_ref": null, "religion": null, "service": null, "smoothness": null, "source": null, "source:ref": null, "sport": null, "surface": null, "toll": null, "traffic_sign": null, "traffic_sign:direction": null, "wikidata": null, "label": "historic:city_gate" }, "geometry": { "type": "Point", "coordinates": [ 21.2477517, 38.5534057 ] } },
{ "type": "Feature", "properties": { "@type": "node", "@id": 13146975466, "access": null, "addr:postcode": null, "admin_level": null, "amenity": "kindergarten", "archaeological_site": null, "area": null, "barrier": null, "boundary": null, "bridge": null, "building": null, "date": null, "denomination": null, "embankment": null, "generator:method": null, "generator:output:electricity": null, "generator:source": null, "generator:type": null, "highway": null, "historic": null, "int_name": null, "int_ref": null, "isced:level": "0", "landuse": null, "lanes": null, "layer": null, "leisure": null, "lit": null, "man_made": null, "maxspeed": null, "name": "Νηπιαγωγείο Παλαιομάνινας", "name:bg": null, "name:de": null, "name:el": null, "name:en": null, "name:fr": null, "name:it": null, "name:mk": null, "name:sq": null, "name:tr": null, "natural": null, "noexit": null, "note": null, "oneway": null, "operator": null, "place": null, "plant:method": null, "plant:output:electricity": null, "plant:source": null, "power": null, "ref": null, "reg_ref": null, "religion": null, "service": null, "smoothness": null, "source": null, "source:ref": null, "sport": null, "surface": null, "toll": null, "traffic_sign": null, "traffic_sign:direction": null, "wikidata": null, "label": "amenity:kindergarten" }, "geometry": { "type": "Point", "coordinates": [ 21.2424262, 38.5531914 ] } },
{ "type": "Feature", "properties": { "@type": "node", "@id": 13146975467, "access": null, "addr:postcode": null, "admin_level": null, "amenity": "school", "archaeological_site": null, "area": null, "barrier": null, "boundary": null, "bridge": null, "building": null, "date": null, "denomination": null, "embankment": null, "generator:method": null, "generator:output:electricity": null, "generator:source": null, "generator:type": null, "highway": null, "historic": null, "int_name": null, "int_ref": null, "isced:level": "1", "landuse": null, "lanes": null, "layer": null, "leisure": null, "lit": null, "man_made": null, "maxspeed": null, "name": "Δημοτικό Σχολείο Παλαιομάνινας", "name:bg": null, "name:de": null, "name:el": null, "name:en": null, "name:fr": null, "name:it": null, "name:mk": null, "name:sq": null, "name:tr": null, "natural": null, "noexit": null, "note": null, "oneway": null, "operator": null, "place": null, "plant:method": null, "plant:output:electricity": null, "plant:source": null, "power": null, "ref": null, "reg_ref": null, "religion": null, "service": null, "smoothness": null, "source": null, "source:ref": null, "sport": null, "surface": null, "toll": null, "traffic_sign": null, "traffic_sign:direction": null, "wikidata": null, "label": "amenity:school" }, "geometry": { "type": "Point", "coordinates": [ 21.2424463, 38.5537262 ] } }
]
}
