{
"type": "FeatureCollection",
"name": "patch_57308_features",
"crs": { "type": "name", "properties": { "name": "urn:ogc:def:crs:OGC:1.3:CRS84" } },
"features": [
{ "type": "Feature", "properties": { "osm_id": 1149597684, "name": null, "label": "building:yes", "building": "yes", "water": null, "natural": null, "amenity": null, "historic": null, "landuse": null, "tourism": null, "leisure": null, "waterway": null }, "geometry": { "type": "Polygon", "coordinates": [ [ [ 25.4507442, 37.120923899863548 ], [ 25.4507526, 37.120854699863543 ], [ 25.4505991, 37.120842899863533 ], [ 25.4505908, 37.120912099863546 ], [ 25.4507442, 37.120923899863548 ] ] ] } },
{ "type": "Feature", "properties": { "osm_id": 1149597683, "name": null, "label": "building:farm_auxiliary", "building": "farm_auxiliary", "water": null, "natural": null, "amenity": null, "historic": null, "landuse": null, "tourism": null, "leisure": null, "waterway": null }, "geometry": { "type": "Polygon", "coordinates": [ [ [ 25.4503488, 37.120798199863536 ], [ 25.450457, 37.120791399863528 ], [ 25.4504466, 37.12068619986352 ], [ 25.4508054, 37.120663699863513 ], [ 25.4507979, 37.120587799863507 ], [ 25.4503309, 37.12061719986351 ], [ 25.4503488, 37.120798199863536 ] ] ] } },
{ "type": "Feature", "properties": { "osm_id": 1206736326, "name": null, "label": "building:yes", "building": "yes", "water": null, "natural": null, "amenity": null, "historic": null, "landuse": null, "tourism": null, "leisure": null, "waterway": null }, "geometry": { "type": "Polygon", "coordinates": [ [ [ 25.4472803, 37.115868499862913 ], [ 25.4473916, 37.115778099862894 ], [ 25.4474151, 37.115789899862904 ], [ 25.4474607, 37.115719799862894 ], [ 25.4474446, 37.115686199862878 ], [ 25.4474084, 37.115672799862878 ], [ 25.4473756, 37.115748699862891 ], [ 25.447336, 37.115791999862886 ], [ 25.4472595, 37.11581659986291 ], [ 25.4472549, 37.115836399862907 ], [ 25.4472803, 37.115868499862913 ] ] ] } },
{ "type": "Feature", "properties": { "osm_id": 1206736327, "name": null, "label": "building:yes", "building": "yes", "water": null, "natural": null, "amenity": null, "historic": null, "landuse": null, "tourism": null, "leisure": null, "waterway": null }, "geometry": { "type": "Polygon", "coordinates": [ [ [ 25.4473776, 37.115465899862855 ], [ 25.44746, 37.11547119986286 ], [ 25.4474614, 37.115366399862857 ], [ 25.4473648, 37.115365299862844 ], [ 25.4473776, 37.115465899862855 ] ] ] } },
{ "type": "Feature", "properties": { "osm_id": 734505833, "name": null, "label": "building:yes", "building": "yes", "water": null, "natural": null, "amenity": null, "historic": null, "landuse": null, "tourism": null, "leisure": null, "waterway": null }, "geometry": { "type": "Polygon", "coordinates": [ [ [ 25.4474754, 37.113941699862657 ], [ 25.4475428, 37.113859399862648 ], [ 25.4474926, 37.113830899862648 ], [ 25.4474198, 37.11390789986266 ], [ 25.4474754, 37.113941699862657 ] ] ] } },
{ "type": "Feature", "properties": { "osm_id": 734505834, "name": null, "label": "building:yes", "building": "yes", "water": null, "natural": null, "amenity": null, "historic": null, "landuse": null, "tourism": null, "leisure": null, "waterway": null }, "geometry": { "type": "Polygon", "coordinates": [ [ [ 25.4477148, 37.113641099862626 ], [ 25.4477558, 37.113589399862633 ], [ 25.447728, 37.113574599862616 ], [ 25.4477426, 37.113547199862609 ], [ 25.4477029, 37.113530299862617 ], [ 25.4476381, 37.113599899862614 ], [ 25.4477148, 37.113641099862626 ] ] ] } },
{ "type": "Feature", "properties": { "osm_id": 1206736332, "name": null, "label": "water:lake;natural:water", "building": null, "water": "lake", "natural": "water", "amenity": null, "historic": null, "landuse": null, "tourism": null, "leisure": null, "waterway": null }, "geometry": { "type": "Polygon", "coordinates": [ [ [ 25.4476042, 37.11488029986279 ], [ 25.4476619, 37.114867499862783 ], [ 25.4477128, 37.114845099862769 ], [ 25.4477692, 37.114733799862769 ], [ 25.4477209, 37.114685699862768 ], [ 25.4476726, 37.114688899862749 ], [ 25.4476444, 37.11471989986277 ], [ 25.4476015, 37.114832199862768 ], [ 25.4476042, 37.11488029986279 ] ] ] } },
{ "type": "Feature", "properties": { "osm_id": 1149597680, "name": "Παναγιά Μοναστηριώτισσα", "label": "amenity:place_of_worship;building:ruins", "building": "ruins", "water": null, "natural": null, "amenity": "place_of_worship", "historic": null, "landuse": null, "tourism": null, "leisure": null, "waterway": null }, "geometry": { "type": "Polygon", "coordinates": [ [ [ 25.4466309, 37.115310899862834 ], [ 25.446699, 37.115290499862837 ], [ 25.4466857, 37.11526229986282 ], [ 25.4466176, 37.115282699862838 ], [ 25.4466309, 37.115310899862834 ] ] ] } },
{ "type": "Feature", "properties": { "osm_id": 1149587714, "name": "Πύργος Πραντούνα", "label": "building:yes;historic:manor", "building": "yes", "water": null, "natural": null, "amenity": null, "historic": "manor", "landuse": null, "tourism": null, "leisure": null, "waterway": null }, "geometry": { "type": "Polygon", "coordinates": [ [ [ 25.4441777, 37.114865999862786 ], [ 25.4442565, 37.114813699862779 ], [ 25.444177, 37.114737599862757 ], [ 25.4440983, 37.114789899862764 ], [ 25.4441777, 37.114865999862786 ] ] ] } },
{ "type": "Feature", "properties": { "osm_id": 1149597682, "name": "Αγία Κυριακή", "label": "amenity:place_of_worship;building:ruins", "building": "ruins", "water": null, "natural": null, "amenity": "place_of_worship", "historic": null, "landuse": null, "tourism": null, "leisure": null, "waterway": null }, "geometry": { "type": "Polygon", "coordinates": [ [ [ 25.4508628, 37.114622899862745 ], [ 25.4509258, 37.114620299862743 ], [ 25.4509237, 37.114587399862749 ], [ 25.4508606, 37.114590099862745 ], [ 25.4508628, 37.114622899862745 ] ] ] } },
{ "type": "Feature", "properties": { "osm_id": 1149597681, "name": "Άγιος Γεώργιος", "label": "amenity:place_of_worship;building:chapel", "building": "chapel", "water": null, "natural": null, "amenity": "place_of_worship", "historic": null, "landuse": null, "tourism": null, "leisure": null, "waterway": null }, "geometry": { "type": "Polygon", "coordinates": [ [ [ 25.4508733, 37.112461499862469 ], [ 25.4508804, 37.112434399862472 ], [ 25.4508127, 37.112423099862475 ], [ 25.4508056, 37.112450199862465 ], [ 25.4508733, 37.112461499862469 ] ] ] } },
{ "type": "Feature", "properties": { "osm_id": 1168297270, "name": null, "label": "landuse:vineyard", "building": null, "water": null, "natural": null, "amenity": null, "historic": null, "landuse": "vineyard", "tourism": null, "leisure": null, "waterway": null }, "geometry": { "type": "Polygon", "coordinates": [ [ [ 25.4417916, 37.099607499860838 ], [ 25.4416709, 37.09973159986086 ], [ 25.4415783, 37.099802199860868 ], [ 25.4414911, 37.099854599860869 ], [ 25.4414979, 37.099871699860877 ], [ 25.4416132, 37.099898499860878 ], [ 25.4417057, 37.099895299860869 ], [ 25.4417942, 37.099867499860878 ], [ 25.4418452, 37.099814999860861 ], [ 25.4418613, 37.099776499860845 ], [ 25.4418546, 37.099739099860855 ], [ 25.442047689597938, 37.099553889492121 ], [ 25.441840554856714, 37.099553889492121 ], [ 25.4417916, 37.099607499860838 ] ] ] } },
{ "type": "Feature", "properties": { "osm_id": 1168297263, "name": null, "label": "building:yes", "building": "yes", "water": null, "natural": null, "amenity": null, "historic": null, "landuse": null, "tourism": null, "leisure": null, "waterway": null }, "geometry": { "type": "Polygon", "coordinates": [ [ [ 25.4420285, 37.100398899860942 ], [ 25.4422232, 37.100079599860898 ], [ 25.4421381, 37.100046599860903 ], [ 25.4419435, 37.10036589986094 ], [ 25.4420285, 37.100398899860942 ] ] ] } },
{ "type": "Feature", "properties": { "osm_id": 1168297264, "name": null, "label": "building:yes", "building": "yes", "water": null, "natural": null, "amenity": null, "historic": null, "landuse": null, "tourism": null, "leisure": null, "waterway": null }, "geometry": { "type": "Polygon", "coordinates": [ [ [ 25.4427038, 37.099554699860839 ], [ 25.442704593525239, 37.099553889492121 ], [ 25.442702498033039, 37.099553889492121 ], [ 25.4427038, 37.099554699860839 ] ] ] } },
{ "type": "Feature", "properties": { "osm_id": 1168297261, "name": null, "label": "building:yes", "building": "yes", "water": null, "natural": null, "amenity": null, "historic": null, "landuse": null, "tourism": null, "leisure": null, "waterway": null }, "geometry": { "type": "Polygon", "coordinates": [ [ [ 25.4418061, 37.100686199860981 ], [ 25.4418065, 37.100607399860969 ], [ 25.4410542, 37.100605099860971 ], [ 25.4410538, 37.10068369986098 ], [ 25.4418061, 37.100686199860981 ] ] ] } },
{ "type": "Feature", "properties": { "osm_id": 1168297262, "name": null, "label": "building:yes", "building": "yes", "water": null, "natural": null, "amenity": null, "historic": null, "landuse": null, "tourism": null, "leisure": null, "waterway": null }, "geometry": { "type": "Polygon", "coordinates": [ [ [ 25.4410517, 37.100565599860964 ], [ 25.4418154, 37.100560899860945 ], [ 25.4418145, 37.100467399860939 ], [ 25.4410508, 37.100471899860949 ], [ 25.4410517, 37.100565599860964 ] ] ] } },
{ "type": "Feature", "properties": { "osm_id": 1168297268, "name": null, "label": "building:yes", "building": "yes", "water": null, "natural": null, "amenity": null, "historic": null, "landuse": null, "tourism": null, "leisure": null, "waterway": null }, "geometry": { "type": "Polygon", "coordinates": [ [ [ 25.4410661, 37.10007949986089 ], [ 25.4410816, 37.100124799860922 ], [ 25.4410995, 37.100160699860908 ], [ 25.441226, 37.100125799860912 ], [ 25.4412395, 37.100156999860921 ], [ 25.4415224, 37.100078799860896 ], [ 25.4414685, 37.09995459986088 ], [ 25.4410591, 37.100067699860894 ], [ 25.4410661, 37.10007949986089 ] ] ] } },
{ "type": "Feature", "properties": { "osm_id": 1168297269, "name": null, "label": "building:yes", "building": "yes", "water": null, "natural": null, "amenity": null, "historic": null, "landuse": null, "tourism": null, "leisure": null, "waterway": null }, "geometry": { "type": "Polygon", "coordinates": [ [ [ 25.4407988, 37.100186199860914 ], [ 25.4410816, 37.100124799860922 ], [ 25.4410661, 37.10007949986089 ], [ 25.4407833, 37.100140999860898 ], [ 25.4407988, 37.100186199860914 ] ] ] } },
{ "type": "Feature", "properties": { "osm_id": 698545615, "name": "Ancient Aqueduct", "label": "tourism:attraction;historic:archaeological_site", "building": null, "water": null, "natural": null, "amenity": null, "historic": "archaeological_site", "landuse": null, "tourism": "attraction", "leisure": null, "waterway": null }, "geometry": { "type": "Polygon", "coordinates": [ [ [ 25.4413181, 37.099695699860852 ], [ 25.4414476, 37.099653599860851 ], [ 25.4414397, 37.09963809986084 ], [ 25.4414321, 37.099623199860844 ], [ 25.4413026, 37.09966529986086 ], [ 25.4413181, 37.099695699860852 ] ] ] } },
{ "type": "Feature", "properties": { "osm_id": 1168297260, "name": null, "label": "landuse:orchard", "building": null, "water": null, "natural": null, "amenity": null, "historic": null, "landuse": "orchard", "tourism": null, "leisure": null, "waterway": null }, "geometry": { "type": "Polygon", "coordinates": [ [ [ 25.4401257, 37.10051839986096 ], [ 25.440141, 37.100491899860963 ], [ 25.4401504, 37.100434099860948 ], [ 25.440137, 37.100088599860904 ], [ 25.43990100965954, 37.100112122399061 ], [ 25.43990100965954, 37.100427666536682 ], [ 25.4401257, 37.10051839986096 ] ] ] } },
{ "type": "Feature", "properties": { "osm_id": 1168297259, "name": null, "label": "landuse:orchard", "building": null, "water": null, "natural": null, "amenity": null, "historic": null, "landuse": "orchard", "tourism": null, "leisure": null, "waterway": null }, "geometry": { "type": "Polygon", "coordinates": [ [ [ 25.4399237, 37.101024499861019 ], [ 25.4399371, 37.100958199861019 ], [ 25.4399666, 37.100823399860992 ], [ 25.4400243, 37.100720799860987 ], [ 25.4400981, 37.100618099860981 ], [ 25.4401343, 37.100521799860964 ], [ 25.4401257, 37.10051839986096 ], [ 25.43990100965954, 37.100427666536682 ], [ 25.43990100965954, 37.101033557194242 ], [ 25.4399237, 37.101024499861019 ] ] ] } },
{ "type": "Feature", "properties": { "osm_id": 499739674, "name": null, "label": "leisure:swimming_pool", "building": null, "water": null, "natural": null, "amenity": null, "historic": null, "landuse": null, "tourism": null, "leisure": "swimming_pool", "waterway": null }, "geometry": { "type": "Polygon", "coordinates": [ [ [ 25.4405888, 37.119221899863334 ], [ 25.4405907, 37.119183999863317 ], [ 25.4404921, 37.119180899863323 ], [ 25.4404902, 37.119218799863333 ], [ 25.4405888, 37.119221899863334 ] ] ] } },
{ "type": "Feature", "properties": { "osm_id": 1157615689, "name": "Ταξιάρχης Κυριασώματος", "label": "amenity:place_of_worship;building:chapel", "building": "chapel", "water": null, "natural": null, "amenity": "place_of_worship", "historic": null, "landuse": null, "tourism": null, "leisure": null, "waterway": null }, "geometry": { "type": "Polygon", "coordinates": [ [ [ 25.4407478, 37.120481799863491 ], [ 25.4407486, 37.120387299863474 ], [ 25.4406492, 37.120386699863474 ], [ 25.4406484, 37.120481199863491 ], [ 25.4407478, 37.120481799863491 ] ] ] } },
{ "type": "Feature", "properties": { "osm_id": 1157615688, "name": null, "label": "building:yes", "building": "yes", "water": null, "natural": null, "amenity": null, "historic": null, "landuse": null, "tourism": null, "leisure": null, "waterway": null }, "geometry": { "type": "Polygon", "coordinates": [ [ [ 25.44073, 37.120323399863466 ], [ 25.4407278, 37.12036839986348 ], [ 25.4408288, 37.120371499863481 ], [ 25.4408328, 37.120288199863467 ], [ 25.4406877, 37.120283699863464 ], [ 25.4406859, 37.120322099863472 ], [ 25.44073, 37.120323399863466 ] ] ] } },
{ "type": "Feature", "properties": { "osm_id": 1157615687, "name": null, "label": "building:yes", "building": "yes", "water": null, "natural": null, "amenity": null, "historic": null, "landuse": null, "tourism": null, "leisure": null, "waterway": null }, "geometry": { "type": "Polygon", "coordinates": [ [ [ 25.4410446, 37.120533399863504 ], [ 25.4410529, 37.120453399863493 ], [ 25.4409332, 37.120445399863485 ], [ 25.4409249, 37.120525499863504 ], [ 25.4410446, 37.120533399863504 ] ] ] } },
{ "type": "Feature", "properties": { "osm_id": 1157615690, "name": null, "label": "water:basin;natural:water", "building": null, "water": "basin", "natural": "water", "amenity": null, "historic": null, "landuse": null, "tourism": null, "leisure": null, "waterway": null }, "geometry": { "type": "Polygon", "coordinates": [ [ [ 25.4412602, 37.120541199863503 ], [ 25.4413231, 37.1205390998635 ], [ 25.4413178, 37.120437099863487 ], [ 25.4412549, 37.120439099863482 ], [ 25.4412602, 37.120541199863503 ] ] ] } },
{ "type": "Feature", "properties": { "osm_id": 508291538, "name": null, "label": "natural:wood", "building": null, "water": null, "natural": "wood", "amenity": null, "historic": null, "landuse": null, "tourism": null, "leisure": null, "waterway": null }, "geometry": { "type": "Polygon", "coordinates": [ [ [ 25.4680411, 37.10965289986212 ], [ 25.4677031, 37.110168899862174 ], [ 25.4673115, 37.110422999862209 ], [ 25.4669521, 37.110750699862258 ], [ 25.4662869, 37.110836199862263 ], [ 25.4666463, 37.111004799862293 ], [ 25.4668448, 37.111417999862333 ], [ 25.4672525, 37.111725999862379 ], [ 25.4673169, 37.111897199862405 ], [ 25.4675904, 37.111603699862371 ], [ 25.4678909, 37.111244299862321 ], [ 25.4678694, 37.110953399862268 ], [ 25.4680625, 37.110782299862258 ], [ 25.468235293313288, 37.110783513429567 ], [ 25.468235293313288, 37.109454194519017 ], [ 25.4680411, 37.10965289986212 ] ] ] } },
{ "type": "Feature", "properties": { "osm_id": 183698673, "name": null, "label": "waterway:stream", "building": null, "water": null, "natural": null, "amenity": null, "historic": null, "landuse": null, "tourism": null, "leisure": null, "waterway": "stream" }, "geometry": { "type": "LineString", "coordinates": [ [ 25.468235293313288, 37.11252254048128 ], [ 25.4682338, 37.112522199862482 ], [ 25.4680246, 37.112463999862477 ], [ 25.4678592, 37.112417499862474 ], [ 25.4676007, 37.112327499862452 ], [ 25.4673055, 37.112175099862441 ], [ 25.4672186, 37.112008899862417 ], [ 25.4671086, 37.111766499862391 ], [ 25.4670797, 37.111662699862379 ], [ 25.4669552, 37.111579499862366 ], [ 25.4668047, 37.111528799862356 ], [ 25.4667149, 37.111434099862343 ], [ 25.4666368, 37.111385599862324 ], [ 25.4664925, 37.111207599862311 ], [ 25.4663738, 37.111041099862298 ], [ 25.4662197, 37.111024699862284 ], [ 25.4659424, 37.110861799862271 ], [ 25.4657186, 37.110784199862259 ], [ 25.465524, 37.110753099862251 ], [ 25.4653392, 37.110733699862251 ], [ 25.4653147, 37.110727699862252 ], [ 25.4652127, 37.110702699862244 ], [ 25.4649597, 37.110687199862255 ], [ 25.4647603, 37.110636799862235 ], [ 25.4647116, 37.110601799862245 ], [ 25.4645997, 37.110446699862209 ], [ 25.4645511, 37.110330299862206 ], [ 25.4643857, 37.11018279986218 ], [ 25.4642105, 37.110085799862155 ], [ 25.4639478, 37.110027699862165 ], [ 25.4634808, 37.10996949986216 ], [ 25.4630041, 37.109950099862161 ], [ 25.4627657, 37.109833699862143 ], [ 25.4624981, 37.109756099862125 ], [ 25.4621624, 37.10970179986213 ], [ 25.4618705, 37.109693999862124 ], [ 25.4615884, 37.109717299862126 ], [ 25.4612868, 37.109736699862118 ], [ 25.4609268, 37.109759999862135 ], [ 25.4606495, 37.10981429986213 ], [ 25.4603187, 37.10986079986214 ], [ 25.4600024, 37.109907399862152 ], [ 25.4595889, 37.109934499862142 ], [ 25.4593019, 37.109864699862143 ], [ 25.4589854, 37.109670399862118 ], [ 25.4588592, 37.109662999862124 ], [ 25.4587394, 37.109654299862108 ], [ 25.4585744, 37.10961739986211 ], [ 25.4583775, 37.10961739986211 ], [ 25.4581575, 37.109575799862114 ], [ 25.4579665, 37.1095526998621 ], [ 25.4576249, 37.109575799862114 ], [ 25.4573065, 37.109677399862115 ], [ 25.4568636, 37.109804299862141 ], [ 25.4566089, 37.109887399862139 ], [ 25.4565192, 37.109892099862144 ], [ 25.4563976, 37.109942799862154 ], [ 25.456056, 37.109954399862154 ], [ 25.4557637, 37.109901299862152 ], [ 25.455451, 37.109751199862124 ], [ 25.45526, 37.109751199862124 ], [ 25.4549879, 37.109721199862122 ], [ 25.4548808, 37.10970279986212 ], [ 25.4547563, 37.109730499862131 ], [ 25.454571, 37.109806599862125 ], [ 25.4542787, 37.109972899862157 ], [ 25.4539284, 37.110279899862192 ], [ 25.4534016, 37.110533799862232 ], [ 25.452967, 37.11082499986226 ], [ 25.4525576, 37.110991499862294 ], [ 25.4522874, 37.111099199862309 ], [ 25.4520786, 37.111246099862321 ], [ 25.4519886, 37.111334299862328 ], [ 25.4519395, 37.111451799862351 ], [ 25.4520009, 37.111562799862362 ], [ 25.4521278, 37.111774999862384 ], [ 25.4522137, 37.111921899862402 ], [ 25.4522506, 37.11212429986243 ], [ 25.4520991, 37.112486599862471 ], [ 25.4519026, 37.112806599862516 ], [ 25.4515874, 37.113142799862558 ], [ 25.4511248, 37.113416999862579 ], [ 25.4507441, 37.113622699862617 ], [ 25.4503184, 37.113782599862645 ], [ 25.4499254, 37.113942599862661 ], [ 25.449314, 37.114050799862682 ], [ 25.4483252, 37.114363099862722 ], [ 25.447969, 37.114550299862735 ], [ 25.4476493, 37.114771799862773 ], [ 25.4475919, 37.114974099862792 ], [ 25.4475929, 37.115081699862799 ], [ 25.4476211, 37.115296099862825 ], [ 25.4476779, 37.115643399862876 ], [ 25.4475919, 37.11599829986293 ], [ 25.4475551, 37.116093799862945 ], [ 25.4474323, 37.116191799862946 ], [ 25.4470475, 37.116217899862953 ], [ 25.4465767, 37.116132999862934 ], [ 25.4463516, 37.116116699862935 ], [ 25.4460691, 37.116217899862953 ], [ 25.4457662, 37.116247299862948 ], [ 25.4452545, 37.116116699862935 ], [ 25.4448451, 37.11597309986292 ], [ 25.4446363, 37.115871899862917 ], [ 25.4442515, 37.115440999862848 ], [ 25.4439363, 37.115147199862818 ], [ 25.443617, 37.114885999862771 ], [ 25.443224, 37.114442099862721 ], [ 25.442876, 37.1142657998627 ], [ 25.4426632, 37.114259199862708 ], [ 25.4425199, 37.114363699862714 ], [ 25.4421351, 37.114957799862793 ], [ 25.441562, 37.115803299862897 ], [ 25.4409639, 37.116431299862974 ], [ 25.4405511, 37.116974399863039 ], [ 25.4402484, 37.117369399863101 ], [ 25.43990100965954, 37.117524352085788 ] ] } },
{ "type": "Feature", "properties": { "osm_id": 1206736333, "name": null, "label": "waterway:drain", "building": null, "water": null, "natural": null, "amenity": null, "historic": null, "landuse": null, "tourism": null, "leisure": null, "waterway": "drain" }, "geometry": { "type": "LineString", "coordinates": [ [ 25.4635298, 37.109713699862141 ], [ 25.4631865, 37.109685899862122 ], [ 25.4625589, 37.109523399862105 ], [ 25.4621243, 37.109450599862093 ], [ 25.461266, 37.109488099862098 ], [ 25.4607095, 37.109598199862106 ], [ 25.4602857, 37.109704099862128 ], [ 25.4599263, 37.109758699862134 ], [ 25.4597171, 37.109787499862136 ], [ 25.4593067, 37.109599299862111 ], [ 25.4589245, 37.109317999862071 ], [ 25.4582861, 37.109290199862073 ], [ 25.4575565, 37.109322299862072 ], [ 25.4570349, 37.109411099862079 ], [ 25.4569624, 37.109520199862096 ], [ 25.4568377, 37.10950629986209 ], [ 25.4564998, 37.109581099862105 ], [ 25.4562946, 37.109555499862097 ], [ 25.4561873, 37.10937679986209 ], [ 25.456147, 37.109277399862059 ], [ 25.4560652, 37.109283799862062 ], [ 25.4559727, 37.109369399862075 ], [ 25.4558721, 37.109394999862076 ], [ 25.4554215, 37.109238899862063 ], [ 25.4547644, 37.109213199862062 ], [ 25.4544425, 37.109403599862084 ], [ 25.4542226, 37.109735099862121 ], [ 25.4538497, 37.109869899862147 ], [ 25.4529431, 37.110239899862194 ], [ 25.4522002, 37.110590699862236 ], [ 25.45183, 37.110915899862277 ], [ 25.4515672, 37.111161799862316 ], [ 25.4516959, 37.111720099862374 ], [ 25.4519185, 37.111882699862399 ], [ 25.4518354, 37.112175699862441 ], [ 25.4515243, 37.112449499862478 ], [ 25.4511943, 37.112729699862513 ], [ 25.4512802, 37.113112599862568 ], [ 25.4505077, 37.113471899862596 ], [ 25.4503709, 37.113568099862626 ], [ 25.4499726, 37.113615199862608 ], [ 25.4499136, 37.113771299862648 ], [ 25.4497406, 37.113822699862652 ], [ 25.4492296, 37.113928499862659 ], [ 25.4485953, 37.114080399862672 ], [ 25.4478738, 37.114383099862714 ], [ 25.4474151, 37.114667499862747 ], [ 25.4473373, 37.115170199862824 ], [ 25.4473481, 37.115365899862844 ], [ 25.4473655, 37.115479199862854 ], [ 25.4473749, 37.115529499862859 ], [ 25.4474486, 37.115610799862878 ], [ 25.4474869, 37.115699499862885 ], [ 25.4474493, 37.115796299862886 ], [ 25.4472656, 37.115917699862905 ], [ 25.4470745, 37.115917699862905 ], [ 25.4468358, 37.115858899862893 ], [ 25.4464495, 37.115826799862894 ], [ 25.4460606, 37.115893099862916 ], [ 25.4457267, 37.115898399862921 ], [ 25.4454222, 37.115833199862891 ], [ 25.445272, 37.115736999862882 ], [ 25.4449756, 37.115644999862873 ], [ 25.4447973, 37.115504899862856 ], [ 25.4446283, 37.115303799862829 ], [ 25.4443091, 37.115056799862799 ], [ 25.4437861, 37.114584099862746 ], [ 25.4435796, 37.114297499862708 ], [ 25.4429653, 37.113897499862652 ], [ 25.4424155, 37.11391459986266 ], [ 25.4420024, 37.114216199862689 ], [ 25.441694, 37.114708199862761 ], [ 25.441238, 37.11496479986279 ], [ 25.4410288, 37.115097399862805 ], [ 25.4408102, 37.115164799862804 ], [ 25.43990100965954, 37.115376227889342 ] ] } },
{ "type": "Feature", "properties": { "osm_id": 1206736329, "name": null, "label": "historic:aqueduct", "building": null, "water": null, "natural": null, "amenity": null, "historic": "aqueduct", "landuse": null, "tourism": null, "leisure": null, "waterway": null }, "geometry": { "type": "LineString", "coordinates": [ [ 25.4499847, 37.113536599862606 ], [ 25.4499008, 37.113765999862629 ] ] } },
{ "type": "Feature", "properties": { "osm_id": 12190323622, "name": null, "label": "amenity:bench", "building": null, "water": null, "natural": null, "amenity": "bench", "historic": null, "landuse": null, "tourism": null, "leisure": null, "waterway": null }, "geometry": { "type": "Point", "coordinates": [ 25.4652438, 37.11041459986221 ] } },
{ "type": "Feature", "properties": { "osm_id": 11182085001, "name": null, "label": "tourism:information", "building": null, "water": null, "natural": null, "amenity": null, "historic": null, "landuse": null, "tourism": "information", "leisure": null, "waterway": null }, "geometry": { "type": "Point", "coordinates": [ 25.4673396, 37.112378899862478 ] } },
{ "type": "Feature", "properties": { "osm_id": 10694481585, "name": "Αγία Γέννηση του Χριστού", "label": "amenity:place_of_worship", "building": null, "water": null, "natural": null, "amenity": "place_of_worship", "historic": null, "landuse": null, "tourism": null, "leisure": null, "waterway": null }, "geometry": { "type": "Point", "coordinates": [ 25.4456933, 37.118395299863224 ] } },
{ "type": "Feature", "properties": { "osm_id": 12190306827, "name": null, "label": "amenity:bench", "building": null, "water": null, "natural": null, "amenity": "bench", "historic": null, "landuse": null, "tourism": null, "leisure": null, "waterway": null }, "geometry": { "type": "Point", "coordinates": [ 25.4506746, 37.112390799862467 ] } },
{ "type": "Feature", "properties": { "osm_id": 10815940677, "name": "Κορακιά", "label": "natural:peak", "building": null, "water": null, "natural": "peak", "amenity": null, "historic": null, "landuse": null, "tourism": null, "leisure": null, "waterway": null }, "geometry": { "type": "Point", "coordinates": [ 25.4407216, 37.10915079986205 ] } }
]
}
