{
"type": "FeatureCollection",
"name": "patch_39783_point",
"crs": { "type": "name", "properties": { "name": "urn:ogc:def:crs:OGC:1.3:CRS84" } },
"features": [
{ "type": "Feature", "properties": { "@type": "node", "@id": 293039153, "access": null, "addr:city": null, "addr:country": null, "addr:place": null, "addr:postcode": null, "amenity": "parking", "archaeological_site": null, "authentication:app": null, "board_type": null, "boundary": null, "brand": null, "building": null, "cables": null, "capacity": null, "contact:phone": null, "contact:website": null, "covered": null, "created_by": null, "description": null, "destination:backward": null, "destination:forward": null, "entrance": null, "fee": null, "hazard": null, "highway": null, "historic": null, "historic:civilization": null, "information": null, "int_name": null, "landuse": null, "lanes": null, "layer": null, "leisure": null, "line_attachment": null, "lit": null, "man_made": null, "manufacturer": null, "maxspeed": null, "motorcar": null, "name": "Υστερομιυωικό Νεκροταφείο Αρμένωυ", "name:de": "Spätminoische Nekropole Armeni", "name:el": "Υστερομιυωικό Νεκροταφείο Αρμένωυ", "name:en": "Late Minoan Necropole Armeni", "name:fr": null, "name:pl": null, "name:ru": null, "natural": null, "opening_hours": null, "operator": null, "parking": "surface", "parking:right": null, "payment:app": null, "place": null, "power": null, "ref:EU:EVSE": null, "ref:GR:IDRO": null, "reg_ref": null, "service": null, "smoothness": null, "socket:type2": null, "socket:type2:output": null, "source": null, "source:reg_ref": null, "surface": null, "tourism": null, "tower:type": null, "tracktype": null, "tunnel": null, "voltage": null, "waterway": null, "wikidata": null, "wikipedia": null, "label": "amenity:parking" }, "geometry": { "type": "Point", "coordinates": [ 24.4635666, 35.3181365 ] } },
{ "type": "Feature", "properties": { "@type": "node", "@id": 5184156621, "access": null, "addr:city": null, "addr:country": null, "addr:place": null, "addr:postcode": null, "amenity": null, "archaeological_site": null, "authentication:app": null, "board_type": null, "boundary": null, "brand": null, "building": null, "cables": null, "capacity": null, "contact:phone": null, "contact:website": null, "covered": null, "created_by": null, "description": null, "destination:backward": null, "destination:forward": null, "entrance": null, "fee": null, "hazard": null, "highway": null, "historic": null, "historic:civilization": null, "information": null, "int_name": null, "landuse": null, "lanes": null, "layer": null, "leisure": null, "line_attachment": null, "lit": null, "man_made": null, "manufacturer": null, "maxspeed": null, "motorcar": null, "name": null, "name:de": null, "name:el": null, "name:en": "Late minoan cemetery of Armeni", "name:fr": null, "name:pl": "Późno minojskie cmentarzysko w Armeni", "name:ru": null, "natural": null, "opening_hours": "Mo-Sa 10:00-18:00", "operator": null, "parking": null, "parking:right": null, "payment:app": null, "place": null, "power": null, "ref:EU:EVSE": null, "ref:GR:IDRO": null, "reg_ref": null, "service": null, "smoothness": null, "socket:type2": null, "socket:type2:output": null, "source": null, "source:reg_ref": null, "surface": null, "tourism": "attraction", "tower:type": null, "tracktype": null, "tunnel": null, "voltage": null, "waterway": null, "wikidata": null, "wikipedia": null, "label": "tourism:attraction" }, "geometry": { "type": "Point", "coordinates": [ 24.4631289, 35.3179085 ] } },
{ "type": "Feature", "properties": { "@type": "node", "@id": 13239419909, "access": "yes", "addr:city": "Ρέθυμνο", "addr:country": "GR", "addr:place": "Τρία Μοναστήρια", "addr:postcode": "74150", "amenity": "charging_station", "archaeological_site": null, "authentication:app": "yes", "board_type": null, "boundary": null, "brand": "DEI Blue", "building": null, "cables": null, "capacity": "2", "contact:phone": "+30 2112110900", "contact:website": "https://www.deiblue.gr/", "covered": "no", "created_by": null, "description": null, "destination:backward": null, "destination:forward": null, "entrance": null, "fee": "yes", "hazard": null, "highway": null, "historic": null, "historic:civilization": null, "information": null, "int_name": "DEI blue - Ktima Thymeli", "landuse": null, "lanes": null, "layer": null, "leisure": null, "line_attachment": null, "lit": "yes", "man_made": null, "manufacturer": "IoCharger", "maxspeed": null, "motorcar": "yes", "name": "DEI blue - Κτήμα Θυμέλη", "name:de": null, "name:el": "DEI blue - Κτήμα Θυμέλη", "name:en": "DEI blue - Ktima Thymeli", "name:fr": null, "name:pl": null, "name:ru": null, "natural": null, "opening_hours": "24/7", "operator": "Κτήμα Θυμέλη", "parking": null, "parking:right": null, "payment:app": "yes", "place": null, "power": null, "ref:EU:EVSE": "GR*PPC*EDEIBLUE*VBPU*60*1;GR*PPC*EDEIBLUE*VBPU*60*2", "ref:GR:IDRO": "GR-PPC-Scs41886-L", "reg_ref": null, "service": null, "smoothness": null, "socket:type2": "2", "socket:type2:output": "22", "source": null, "source:reg_ref": null, "surface": null, "tourism": null, "tower:type": null, "tracktype": null, "tunnel": null, "voltage": null, "waterway": null, "wikidata": null, "wikipedia": null, "label": "amenity:charging_station" }, "geometry": { "type": "Point", "coordinates": [ 24.4665286, 35.3397984 ] } }
]
}
