{
"type": "FeatureCollection",
"name": "patch_39783_linestring",
"crs": { "type": "name", "properties": { "name": "urn:ogc:def:crs:OGC:1.3:CRS84" } },
"features": [
{ "type": "Feature", "properties": { "@type": "way", "@id": 98611343, "access": null, "addr:city": null, "addr:country": null, "addr:place": null, "addr:postcode": null, "amenity": null, "archaeological_site": null, "authentication:app": null, "board_type": null, "boundary": null, "brand": null, "building": null, "cables": null, "capacity": null, "contact:phone": null, "contact:website": null, "covered": null, "created_by": null, "description": null, "destination:backward": null, "destination:forward": null, "entrance": null, "fee": null, "hazard": null, "highway": null, "historic": null, "historic:civilization": null, "information": null, "int_name": null, "landuse": null, "lanes": null, "layer": null, "leisure": null, "line_attachment": null, "lit": null, "man_made": null, "manufacturer": null, "maxspeed": null, "motorcar": null, "name": "Ρέμα Αγίας Φωτεινής (Γαλλιανό Φαράγγι)", "name:de": null, "name:el": null, "name:en": null, "name:fr": null, "name:pl": null, "name:ru": null, "natural": null, "opening_hours": null, "operator": null, "parking": null, "parking:right": null, "payment:app": null, "place": null, "power": null, "ref:EU:EVSE": null, "ref:GR:IDRO": null, "reg_ref": null, "service": null, "smoothness": null, "socket:type2": null, "socket:type2:output": null, "source": "Bing", "source:reg_ref": null, "surface": null, "tourism": null, "tower:type": null, "tracktype": null, "tunnel": null, "voltage": null, "waterway": "stream", "wikidata": null, "wikipedia": null, "label": "waterway:stream" }, "geometry": { "type": "LineString", "coordinates": [ [ 24.4683959, 35.3202309 ], [ 24.4677955, 35.3205738 ], [ 24.4671201, 35.3209779 ], [ 24.4663096, 35.3213943 ], [ 24.4660694, 35.3216882 ], [ 24.4662946, 35.3221046 ], [ 24.4666248, 35.3224842 ], [ 24.4663546, 35.3228027 ], [ 24.465289, 35.3231823 ], [ 24.4649437, 35.3236231 ], [ 24.4647107, 35.3237464 ] ] } },
{ "type": "Feature", "properties": { "@type": "way", "@id": 240268365, "access": null, "addr:city": null, "addr:country": null, "addr:place": null, "addr:postcode": null, "amenity": null, "archaeological_site": null, "authentication:app": null, "board_type": null, "boundary": null, "brand": null, "building": null, "cables": null, "capacity": null, "contact:phone": null, "contact:website": null, "covered": null, "created_by": null, "description": null, "destination:backward": null, "destination:forward": null, "entrance": null, "fee": null, "hazard": null, "highway": null, "historic": null, "historic:civilization": null, "information": null, "int_name": null, "landuse": null, "lanes": null, "layer": "-1", "leisure": null, "line_attachment": null, "lit": null, "man_made": null, "manufacturer": null, "maxspeed": null, "motorcar": null, "name": "Ρέμα Αγίας Φωτεινής (Γαλλιανό Φαράγγι)", "name:de": null, "name:el": null, "name:en": null, "name:fr": null, "name:pl": null, "name:ru": null, "natural": null, "opening_hours": null, "operator": null, "parking": null, "parking:right": null, "payment:app": null, "place": null, "power": null, "ref:EU:EVSE": null, "ref:GR:IDRO": null, "reg_ref": null, "service": null, "smoothness": null, "socket:type2": null, "socket:type2:output": null, "source": "Bing", "source:reg_ref": null, "surface": null, "tourism": null, "tower:type": null, "tracktype": null, "tunnel": "yes", "voltage": null, "waterway": "stream", "wikidata": null, "wikipedia": null, "label": "waterway:stream" }, "geometry": { "type": "LineString", "coordinates": [ [ 24.4647107, 35.3237464 ], [ 24.4645356, 35.3238392 ] ] } },
{ "type": "Feature", "properties": { "@type": "way", "@id": 240268366, "access": null, "addr:city": null, "addr:country": null, "addr:place": null, "addr:postcode": null, "amenity": null, "archaeological_site": null, "authentication:app": null, "board_type": null, "boundary": null, "brand": null, "building": null, "cables": null, "capacity": null, "contact:phone": null, "contact:website": null, "covered": null, "created_by": null, "description": null, "destination:backward": null, "destination:forward": null, "entrance": null, "fee": null, "hazard": null, "highway": null, "historic": null, "historic:civilization": null, "information": null, "int_name": null, "landuse": null, "lanes": null, "layer": null, "leisure": null, "line_attachment": null, "lit": null, "man_made": null, "manufacturer": null, "maxspeed": null, "motorcar": null, "name": "Ρέμα Αγίας Φωτεινής (Γαλλιανό Φαράγγι)", "name:de": null, "name:el": null, "name:en": null, "name:fr": null, "name:pl": null, "name:ru": null, "natural": null, "opening_hours": null, "operator": null, "parking": null, "parking:right": null, "payment:app": null, "place": null, "power": null, "ref:EU:EVSE": null, "ref:GR:IDRO": null, "reg_ref": null, "service": null, "smoothness": null, "socket:type2": null, "socket:type2:output": null, "source": "Bing", "source:reg_ref": null, "surface": null, "tourism": null, "tower:type": null, "tracktype": null, "tunnel": null, "voltage": null, "waterway": "stream", "wikidata": null, "wikipedia": null, "label": "waterway:stream" }, "geometry": { "type": "LineString", "coordinates": [ [ 24.4639657, 35.325477 ], [ 24.4640132, 35.326305 ], [ 24.4642233, 35.327052 ], [ 24.4645685, 35.32775 ], [ 24.4648537, 35.3280439 ], [ 24.4648087, 35.3284725 ], [ 24.4646736, 35.3289133 ], [ 24.4643284, 35.3291582 ], [ 24.4642233, 35.3294154 ], [ 24.4646286, 35.3297827 ], [ 24.4647336, 35.3302235 ], [ 24.4647186, 35.3305786 ], [ 24.4649738, 35.3312644 ], [ 24.4652589, 35.331497 ], [ 24.465349, 35.332048 ], [ 24.4651539, 35.3323174 ], [ 24.4648087, 35.3326113 ], [ 24.4648537, 35.3329297 ], [ 24.4648687, 35.333297 ], [ 24.4647937, 35.3333705 ], [ 24.4646436, 35.3337256 ], [ 24.4644034, 35.334399 ], [ 24.4641783, 35.3346317 ], [ 24.4639381, 35.3347541 ], [ 24.4639081, 35.334999 ], [ 24.463818, 35.3355255 ], [ 24.463713, 35.3361867 ], [ 24.4639081, 35.3365663 ], [ 24.4635629, 35.3369458 ], [ 24.4629775, 35.3371295 ], [ 24.4627674, 35.3373254 ], [ 24.4628574, 35.3377784 ], [ 24.4626173, 35.338158 ], [ 24.4629175, 35.3384886 ], [ 24.4634428, 35.3386477 ], [ 24.4635028, 35.3389416 ], [ 24.4629925, 35.3393946 ], [ 24.462850948261167, 35.340010479747633 ] ] } },
{ "type": "Feature", "properties": { "@type": "way", "@id": 983689401, "access": null, "addr:city": null, "addr:country": null, "addr:place": null, "addr:postcode": null, "amenity": null, "archaeological_site": null, "authentication:app": null, "board_type": null, "boundary": null, "brand": null, "building": null, "cables": null, "capacity": null, "contact:phone": null, "contact:website": null, "covered": null, "created_by": null, "description": null, "destination:backward": null, "destination:forward": null, "entrance": null, "fee": null, "hazard": null, "highway": null, "historic": null, "historic:civilization": null, "information": null, "int_name": null, "landuse": null, "lanes": null, "layer": null, "leisure": null, "line_attachment": null, "lit": null, "man_made": null, "manufacturer": null, "maxspeed": null, "motorcar": null, "name": "Ρέμα Αγίας Φωτεινής (Γαλλιανό Φαράγγι)", "name:de": null, "name:el": null, "name:en": null, "name:fr": null, "name:pl": null, "name:ru": null, "natural": null, "opening_hours": null, "operator": null, "parking": null, "parking:right": null, "payment:app": null, "place": null, "power": null, "ref:EU:EVSE": null, "ref:GR:IDRO": null, "reg_ref": null, "service": null, "smoothness": null, "socket:type2": null, "socket:type2:output": null, "source": "Bing", "source:reg_ref": null, "surface": null, "tourism": null, "tower:type": null, "tracktype": null, "tunnel": null, "voltage": null, "waterway": "stream", "wikidata": null, "wikipedia": null, "label": "waterway:stream" }, "geometry": { "type": "LineString", "coordinates": [ [ 24.4645356, 35.3238392 ], [ 24.4643884, 35.3239171 ], [ 24.4640432, 35.3241865 ], [ 24.4639381, 35.3249947 ], [ 24.46396, 35.3253771 ] ] } },
{ "type": "Feature", "properties": { "@type": "way", "@id": 983689402, "access": null, "addr:city": null, "addr:country": null, "addr:place": null, "addr:postcode": null, "amenity": null, "archaeological_site": null, "authentication:app": null, "board_type": null, "boundary": null, "brand": null, "building": null, "cables": null, "capacity": null, "contact:phone": null, "contact:website": null, "covered": null, "created_by": null, "description": null, "destination:backward": null, "destination:forward": null, "entrance": null, "fee": null, "hazard": null, "highway": null, "historic": null, "historic:civilization": null, "information": null, "int_name": null, "landuse": null, "lanes": null, "layer": "-1", "leisure": null, "line_attachment": null, "lit": null, "man_made": null, "manufacturer": null, "maxspeed": null, "motorcar": null, "name": "Ρέμα Αγίας Φωτεινής (Γαλλιανό Φαράγγι)", "name:de": null, "name:el": null, "name:en": null, "name:fr": null, "name:pl": null, "name:ru": null, "natural": null, "opening_hours": null, "operator": null, "parking": null, "parking:right": null, "payment:app": null, "place": null, "power": null, "ref:EU:EVSE": null, "ref:GR:IDRO": null, "reg_ref": null, "service": null, "smoothness": null, "socket:type2": null, "socket:type2:output": null, "source": "Bing", "source:reg_ref": null, "surface": null, "tourism": null, "tower:type": null, "tracktype": null, "tunnel": "culvert", "voltage": null, "waterway": "stream", "wikidata": null, "wikipedia": null, "label": "waterway:stream" }, "geometry": { "type": "LineString", "coordinates": [ [ 24.46396, 35.3253771 ], [ 24.4639657, 35.325477 ] ] } }
]
}
