{
"type": "FeatureCollection",
"name": "patch_52767_polygon",
"crs": { "type": "name", "properties": { "name": "urn:ogc:def:crs:OGC:1.3:CRS84" } },
"features": [
{ "type": "Feature", "properties": { "@type": "way", "@id": 822273694, "access": null, "generator:method": null, "generator:output:electricity": null, "generator:source": null, "generator:type": null, "highway": null, "landuse": "military", "leisure": null, "lit": null, "name": null, "name:el": null, "natural": null, "noexit": null, "power": null, "source": "Maxar Premium Imagery (2020-07-02)", "tracktype": null, "label": "landuse:military" }, "geometry": { "type": "Polygon", "coordinates": [ [ [ 24.1908941, 35.5308424 ], [ 24.1932356, 35.5304407 ], [ 24.1941127, 35.529155 ], [ 24.1930988, 35.5286901 ], [ 24.1906124, 35.528498 ], [ 24.1903147, 35.52893 ], [ 24.1900063, 35.5293777 ], [ 24.1908941, 35.5308424 ] ] ] } },
{ "type": "Feature", "properties": { "@type": "way", "@id": 1152847144, "access": null, "generator:method": null, "generator:output:electricity": null, "generator:source": null, "generator:type": null, "highway": null, "landuse": null, "leisure": null, "lit": null, "name": null, "name:el": null, "natural": "bare_rock", "noexit": null, "power": null, "source": "Maxar Premium", "tracktype": null, "label": "natural:bare_rock" }, "geometry": { "type": "Polygon", "coordinates": [ [ [ 24.1962145, 35.531106 ], [ 24.1962233, 35.5312333 ], [ 24.1962959, 35.5312637 ], [ 24.1963792, 35.5312771 ], [ 24.1964261, 35.5313055 ], [ 24.1964959, 35.5313132 ], [ 24.1965643, 35.5312782 ], [ 24.1966327, 35.5312815 ], [ 24.196685, 35.5313164 ], [ 24.1967627, 35.5313339 ], [ 24.1968412, 35.531336 ], [ 24.1968102, 35.5312684 ], [ 24.1967904, 35.531247 ], [ 24.1967841, 35.5312164 ], [ 24.1967496, 35.5311702 ], [ 24.1967747, 35.531146 ], [ 24.1967485, 35.5311314 ], [ 24.1967387, 35.5311008 ], [ 24.1967688, 35.5310588 ], [ 24.1967347, 35.5309937 ], [ 24.1967319, 35.5309354 ], [ 24.1967768, 35.5309306 ], [ 24.1968255, 35.5308778 ], [ 24.1967914, 35.5308557 ], [ 24.1967955, 35.5308093 ], [ 24.196851, 35.530793 ], [ 24.1968362, 35.5307561 ], [ 24.1968873, 35.5307394 ], [ 24.1968499, 35.5306867 ], [ 24.196454, 35.5306854 ], [ 24.1962689, 35.5307203 ], [ 24.196178, 35.5308308 ], [ 24.1961697, 35.5309757 ], [ 24.1962145, 35.531106 ] ] ] } }
]
}
