{
"type": "FeatureCollection",
"name": "patch_52767_linestring",
"crs": { "type": "name", "properties": { "name": "urn:ogc:def:crs:OGC:1.3:CRS84" } },
"features": [
{ "type": "Feature", "properties": { "@type": "way", "@id": 27267393, "access": null, "generator:method": null, "generator:output:electricity": null, "generator:source": null, "generator:type": null, "highway": null, "landuse": null, "leisure": null, "lit": null, "name": null, "name:el": null, "natural": "coastline", "noexit": null, "power": null, "source": null, "tracktype": null, "label": "natural:coastline" }, "geometry": { "type": "LineString", "coordinates": [ [ 24.18921529401349, 35.522637713955 ], [ 24.1893669, 35.5228641 ], [ 24.189624, 35.5231832 ], [ 24.1898674, 35.523432 ], [ 24.189979, 35.5234938 ], [ 24.1899608, 35.5235773 ], [ 24.1898715, 35.5236802 ], [ 24.1896674, 35.523676 ], [ 24.1896126, 35.5237848 ], [ 24.1897095, 35.5238552 ], [ 24.189913, 35.5238659 ], [ 24.1901469, 35.5239236 ], [ 24.1903742, 35.5240355 ], [ 24.1907367, 35.5243712 ], [ 24.1908504, 35.5244191 ], [ 24.1911306, 35.5244235 ], [ 24.1912069, 35.5244657 ], [ 24.1912817, 35.5245396 ], [ 24.1913032, 35.5246189 ], [ 24.1910088, 35.5246868 ], [ 24.1914291, 35.5248853 ], [ 24.1916293, 35.5249916 ], [ 24.1918942, 35.5251802 ], [ 24.1918727, 35.5252496 ], [ 24.1915926, 35.5254762 ], [ 24.1914516, 35.5255889 ], [ 24.1914397, 35.5257423 ], [ 24.1914012, 35.5258171 ], [ 24.1914823, 35.5258291 ], [ 24.1916366, 35.5257463 ], [ 24.1919359, 35.5256258 ], [ 24.1920086, 35.5256351 ], [ 24.1920987, 35.5257415 ], [ 24.1922914, 35.5257751 ], [ 24.1924034, 35.5258616 ], [ 24.1925653, 35.5261216 ], [ 24.1930324, 35.5266418 ], [ 24.1933576, 35.5269593 ], [ 24.1934985, 35.5270606 ], [ 24.1936516, 35.527314 ], [ 24.1940047, 35.5276908 ], [ 24.1941525, 35.5280914 ], [ 24.1942757, 35.5280965 ], [ 24.1943509, 35.5281358 ], [ 24.1943628, 35.5282645 ], [ 24.1944843, 35.5283427 ], [ 24.1946072, 35.5283375 ], [ 24.1952517, 35.52888 ], [ 24.1956901, 35.5291146 ], [ 24.1959792, 35.529399 ], [ 24.1962477, 35.5295668 ], [ 24.1964482, 35.5297706 ], [ 24.196604, 35.530031 ], [ 24.1968355, 35.5300212 ], [ 24.1968812, 35.5299913 ], [ 24.1969801, 35.530059 ], [ 24.1970249, 35.5301433 ], [ 24.1970524, 35.5303473 ], [ 24.1969682, 35.530564 ], [ 24.1968499, 35.5306867 ], [ 24.1968873, 35.5307394 ], [ 24.1968362, 35.5307561 ], [ 24.196851, 35.530793 ], [ 24.1967955, 35.5308093 ], [ 24.1967914, 35.5308557 ], [ 24.1968255, 35.5308778 ], [ 24.1967768, 35.5309306 ], [ 24.1967319, 35.5309354 ], [ 24.1967347, 35.5309937 ], [ 24.1967688, 35.5310588 ], [ 24.1967387, 35.5311008 ], [ 24.1967485, 35.5311314 ], [ 24.1967747, 35.531146 ], [ 24.1967496, 35.5311702 ], [ 24.1967841, 35.5312164 ], [ 24.1967904, 35.531247 ], [ 24.1968102, 35.5312684 ], [ 24.1968412, 35.531336 ], [ 24.197068, 35.531497 ], [ 24.1971898, 35.5315829 ], [ 24.1972595, 35.5318444 ], [ 24.1973882, 35.5320204 ], [ 24.1975104, 35.5320582 ], [ 24.197795, 35.5324201 ], [ 24.1978845, 35.5326953 ], [ 24.1979589, 35.5328402 ], [ 24.198085021667143, 35.533149504722807 ] ] } }
]
}
