{
"type": "FeatureCollection",
"name": "patch_66856_point",
"crs": { "type": "name", "properties": { "name": "urn:ogc:def:crs:OGC:1.3:CRS84" } },
"features": [
{ "type": "Feature", "properties": { "element": "node", "id": 1109534408, "boundary": "marker", "ele": "1064.2", "historic": "boundary_stone", "marker": "stone", "name": "156", "leaf_type": null, "natural": null, "source": null, "bridge": null, "layer": null, "waterway": null, "type": null, "label": "historic:boundary_stone" }, "geometry": { "type": "Point", "coordinates": [ 25.9031324, 41.3065238 ] } }
]
}
