{
"type": "FeatureCollection",
"name": "patch_66856_linestring",
"crs": { "type": "name", "properties": { "name": "urn:ogc:def:crs:OGC:1.3:CRS84" } },
"features": [
{ "type": "Feature", "properties": { "element": "way", "id": 1035236852, "boundary": null, "ele": null, "historic": null, "marker": null, "name": "Юроклерска река", "leaf_type": null, "natural": null, "source": null, "bridge": "aqueduct", "layer": "1", "waterway": "stream", "type": null, "label": "waterway:stream" }, "geometry": { "type": "LineString", "coordinates": [ [ 25.9020603, 41.3225243 ], [ 25.9030473, 41.3227418 ], [ 25.9033799, 41.3231286 ], [ 25.9040129, 41.3234831 ], [ 25.9044635, 41.3236765 ], [ 25.9046566, 41.3239988 ], [ 25.9048927, 41.3242405 ], [ 25.9051716, 41.3242566 ], [ 25.9054291, 41.3241841 ], [ 25.9059119, 41.3242566 ], [ 25.9063733, 41.3243855 ], [ 25.906738, 41.324168 ], [ 25.9071994, 41.3241438 ], [ 25.9075427, 41.3242888 ], [ 25.907886, 41.3246434 ], [ 25.908165, 41.3249254 ], [ 25.9088731, 41.3251993 ], [ 25.9093451, 41.3252638 ], [ 25.9097421, 41.3254893 ], [ 25.9100211, 41.3257311 ], [ 25.9102356, 41.3261178 ], [ 25.910338984734889, 41.326309605889726 ] ] } }
]
}
