{
"type": "FeatureCollection",
"name": "patch_42219_linestring",
"crs": { "type": "name", "properties": { "name": "urn:ogc:def:crs:OGC:1.3:CRS84" } },
"features": [
{ "type": "Feature", "properties": { "osm_id": 312970014, "name": "Ποδονίφτης", "label": "waterway:stream", "waterway": "stream" }, "geometry": { "type": "LineString", "coordinates": [ [ 23.7368715, 38.028717399986036 ], [ 23.7366579, 38.028044399985951 ], [ 23.7364989, 38.027685699985888 ], [ 23.7364192, 38.027583799985884 ], [ 23.7363386, 38.02749419998586 ], [ 23.7362299, 38.027415699985845 ], [ 23.7360995, 38.027352099985848 ], [ 23.7360088, 38.027319499985836 ], [ 23.7358293, 38.027290599985839 ], [ 23.7356292, 38.027280599985829 ], [ 23.7349293, 38.027304899985843 ], [ 23.7346012, 38.027271899985834 ], [ 23.7338909, 38.027183299985822 ], [ 23.7336653, 38.027109899985803 ], [ 23.7334616, 38.027030299985803 ], [ 23.7329125, 38.026798799985777 ], [ 23.7326487, 38.026686299985755 ], [ 23.732379, 38.026540099985716 ], [ 23.7320517, 38.026333699985706 ] ] } },
{ "type": "Feature", "properties": { "osm_id": 312970016, "name": "Ποδονίφτης", "label": "waterway:stream", "waterway": "stream" }, "geometry": { "type": "LineString", "coordinates": [ [ 23.7370841, 38.029217099986099 ], [ 23.7368715, 38.028717399986036 ] ] } },
{ "type": "Feature", "properties": { "osm_id": 978048962, "name": "Ποδονίφτης", "label": "waterway:stream", "waterway": "stream" }, "geometry": { "type": "LineString", "coordinates": [ [ 23.738352172456189, 38.031002432242985 ], [ 23.7383435, 38.030997199986359 ], [ 23.738077, 38.030757499986322 ] ] } },
{ "type": "Feature", "properties": { "osm_id": 97134467, "name": "Ποδονίφτης", "label": "waterway:stream", "waterway": "stream" }, "geometry": { "type": "LineString", "coordinates": [ [ 23.738077, 38.030757499986322 ], [ 23.7379631, 38.030582999986301 ], [ 23.7379078, 38.03046079998628 ], [ 23.7377077, 38.03018869998624 ], [ 23.7372856, 38.029676499986174 ], [ 23.7371517, 38.029489399986147 ], [ 23.7371106, 38.029366299986123 ], [ 23.7370841, 38.029217099986099 ] ] } },
{ "type": "Feature", "properties": { "osm_id": 97131201, "name": "Κηφισός", "label": "waterway:river", "waterway": "river" }, "geometry": { "type": "LineString", "coordinates": [ [ 23.728641809888785, 38.031002432242985 ], [ 23.7286055, 38.030953899986358 ], [ 23.7282548, 38.030453199986283 ], [ 23.7281028, 38.030228699986246 ], [ 23.7278824, 38.029872599986192 ], [ 23.7276832, 38.029407199986146 ], [ 23.7275492, 38.029108699986097 ], [ 23.7274009, 38.028742499986031 ], [ 23.727225158477893, 38.028331708597655 ] ] } },
{ "type": "Feature", "properties": { "osm_id": 51446539, "name": "Ποδονίφτης", "label": "waterway:river", "waterway": "river" }, "geometry": { "type": "LineString", "coordinates": [ [ 23.7302464, 38.025402699985577 ], [ 23.7294887, 38.024779899985482 ], [ 23.7292246, 38.024548599985451 ], [ 23.7289655, 38.024283699985418 ], [ 23.7288312, 38.024078999985377 ], [ 23.7286917, 38.023761999985346 ], [ 23.7285202, 38.023224299985266 ], [ 23.7283791, 38.023051999985228 ], [ 23.7282283, 38.022940899985223 ], [ 23.7280032, 38.022832299985197 ], [ 23.7274744, 38.022588199985165 ], [ 23.727225158477893, 38.022455897853185 ] ] } },
{ "type": "Feature", "properties": { "osm_id": 51446537, "name": "Ποδονίφτης", "label": "waterway:river", "waterway": "river" }, "geometry": { "type": "LineString", "coordinates": [ [ 23.7320517, 38.026333699985706 ], [ 23.7312711, 38.025924899985654 ], [ 23.7308616, 38.025743099985611 ], [ 23.7302464, 38.025402699985577 ] ] } }
]
}
