{
"type": "FeatureCollection",
"name": "patch_38221_linestring",
"crs": { "type": "name", "properties": { "name": "urn:ogc:def:crs:OGC:1.3:CRS84" } },
"features": [
{ "type": "Feature", "properties": { "osm_id": 803719657, "name": null, "label": "waterway:stream", "waterway": "stream" }, "geometry": { "type": "LineString", "coordinates": [ [ 24.0773855, 40.985158000390484 ], [ 24.0773929, 40.985161100390492 ], [ 24.077518, 40.985214300390496 ], [ 24.0775571, 40.985230900390491 ] ] } },
{ "type": "Feature", "properties": { "osm_id": 803719493, "name": null, "label": "waterway:stream", "waterway": "stream" }, "geometry": { "type": "LineString", "coordinates": [ [ 24.0736908, 40.975418600389389 ], [ 24.0734875, 40.975848400389431 ], [ 24.0732029, 40.97622900038948 ], [ 24.0728858, 40.976812100389537 ], [ 24.0727801, 40.977254100389601 ], [ 24.0729102, 40.97769000038965 ], [ 24.073268, 40.978156500389701 ], [ 24.073455, 40.978426600389732 ], [ 24.0735282, 40.978794900389779 ], [ 24.0735282, 40.97901590038979 ], [ 24.0736339, 40.979249100389808 ], [ 24.0737884, 40.97955610038985 ], [ 24.0739428, 40.979856800389882 ], [ 24.0741705, 40.980206700389921 ], [ 24.074325, 40.980654800389992 ], [ 24.074512, 40.981207300390039 ], [ 24.0746421, 40.981772000390116 ], [ 24.0747895, 40.98215090039016 ], [ 24.0747755, 40.982369500390163 ], [ 24.0747521, 40.982425900390176 ], [ 24.0747423, 40.982543100390195 ], [ 24.0747335, 40.982648000390213 ], [ 24.0748269, 40.982739600390218 ], [ 24.0749109, 40.982848900390231 ], [ 24.0748829, 40.983028700390243 ], [ 24.0748175, 40.983187400390257 ], [ 24.0747475, 40.983398900390291 ], [ 24.0746961, 40.983511700390309 ], [ 24.0746721, 40.983630300390324 ], [ 24.0748138, 40.983858200390351 ], [ 24.0750603, 40.984114100390379 ], [ 24.0753561, 40.984281500390395 ], [ 24.0757196, 40.984416400390415 ], [ 24.0759785, 40.98449550039043 ], [ 24.0762619, 40.984709500390437 ], [ 24.0764344, 40.984844400390443 ], [ 24.0769336, 40.985072300390478 ], [ 24.0771493, 40.985137400390492 ], [ 24.0772987, 40.985150400390502 ], [ 24.0773855, 40.985158000390484 ] ] } },
{ "type": "Feature", "properties": { "osm_id": 803719492, "name": null, "label": "waterway:stream", "waterway": "stream" }, "geometry": { "type": "LineString", "coordinates": [ [ 24.0758456, 40.97954760038985 ], [ 24.0759811, 40.979905800389893 ], [ 24.0761413, 40.980133700389921 ], [ 24.0763632, 40.98031980038995 ], [ 24.0765727, 40.980566400389968 ], [ 24.0767095, 40.980893700390006 ], [ 24.0769134, 40.981112400390046 ], [ 24.0770582, 40.98128660039005 ], [ 24.0771709, 40.981428300390064 ], [ 24.0772835, 40.981590300390096 ], [ 24.0773747, 40.981740100390098 ], [ 24.0774981, 40.981857600390114 ], [ 24.077643, 40.982031700390145 ], [ 24.0776966, 40.982157300390149 ], [ 24.077761, 40.982347600390163 ], [ 24.0777932, 40.982525800390185 ], [ 24.0778629, 40.982740400390213 ], [ 24.0780399, 40.982963100390243 ], [ 24.0780936, 40.98321830039027 ], [ 24.0780936, 40.983408600390277 ], [ 24.0780506, 40.983603000390318 ], [ 24.0781365, 40.983801400390341 ], [ 24.0781418, 40.983967400390341 ], [ 24.0780882, 40.984125400390369 ], [ 24.0778522, 40.984465500390407 ], [ 24.0775518, 40.984870500390457 ], [ 24.0774016, 40.985085100390478 ], [ 24.0773855, 40.985158000390484 ] ] } },
{ "type": "Feature", "properties": { "osm_id": 803719658, "name": null, "label": "waterway:stream", "waterway": "stream" }, "geometry": { "type": "LineString", "coordinates": [ [ 24.0775571, 40.985230900390491 ], [ 24.0777985, 40.985392900390522 ], [ 24.0780131, 40.985526500390527 ], [ 24.07804072391108, 40.985565469425858 ] ] } },
{ "type": "Feature", "properties": { "osm_id": 802412716, "name": null, "label": "waterway:stream", "waterway": "stream" }, "geometry": { "type": "LineString", "coordinates": [ [ 24.0598612, 40.983911300390361 ], [ 24.059748, 40.984280000390392 ], [ 24.0596701, 40.984552500390414 ], [ 24.0596206, 40.984814300390447 ], [ 24.0595781, 40.985012000390469 ], [ 24.0594295, 40.985209700390492 ], [ 24.0592313, 40.985380700390515 ], [ 24.059086434674541, 40.985565469425858 ] ] } },
{ "type": "Feature", "properties": { "osm_id": 803719502, "name": null, "label": "waterway:stream", "waterway": "stream" }, "geometry": { "type": "LineString", "coordinates": [ [ 24.0587107, 40.970039600388787 ], [ 24.0586541, 40.970435100388826 ], [ 24.0585266, 40.97071830038886 ], [ 24.0582647, 40.971092500388899 ], [ 24.0581019, 40.971316900388942 ], [ 24.0580099, 40.97155740038896 ], [ 24.0579887, 40.971792600388987 ], [ 24.0579958, 40.972166700389025 ], [ 24.0580241, 40.972498000389059 ], [ 24.0580099, 40.972711800389092 ], [ 24.0578825, 40.973080600389139 ], [ 24.0577268, 40.97325160038914 ], [ 24.0574861, 40.973444000389165 ], [ 24.0573021, 40.973700500389199 ], [ 24.0569977, 40.974325800389266 ], [ 24.0567712, 40.974844200389327 ], [ 24.056694577490202, 40.975028063892061 ] ] } },
{ "type": "Feature", "properties": { "osm_id": 803719495, "name": null, "label": "waterway:stream", "waterway": "stream" }, "geometry": { "type": "LineString", "coordinates": [ [ 24.0689981, 40.963831300388087 ], [ 24.0689132, 40.964440600388151 ], [ 24.0687008, 40.964964400388219 ], [ 24.0684743, 40.96540270038826 ], [ 24.0682195, 40.965776900388306 ], [ 24.0678939, 40.966225900388352 ], [ 24.0676532, 40.966535900388394 ], [ 24.0675541, 40.966888600388423 ], [ 24.0675762, 40.967327800388475 ] ] } },
{ "type": "Feature", "properties": { "osm_id": 803719494, "name": null, "label": "waterway:stream", "waterway": "stream" }, "geometry": { "type": "LineString", "coordinates": [ [ 24.07708889860368, 40.961761868811728 ], [ 24.0764808, 40.962132500387902 ], [ 24.0759853, 40.962485200387938 ], [ 24.0753058, 40.962848700387958 ], [ 24.0748528, 40.963116000387998 ], [ 24.0744705, 40.963500800388047 ], [ 24.0739467, 40.964249100388145 ], [ 24.0732531, 40.964698100388183 ], [ 24.0716533, 40.965414300388261 ], [ 24.0708889, 40.965938100388314 ], [ 24.0705208, 40.966151900388354 ], [ 24.0697705, 40.966387100388388 ], [ 24.0688928, 40.966654300388399 ], [ 24.068015, 40.96701780038844 ], [ 24.0675762, 40.967327800388475 ], [ 24.0674063, 40.967734000388525 ], [ 24.0672647, 40.968118800388567 ], [ 24.0671939, 40.968567800388627 ], [ 24.0670524, 40.969177100388691 ], [ 24.0666418, 40.969957400388765 ], [ 24.0666041, 40.970755200388865 ], [ 24.0662608, 40.971630100388964 ], [ 24.0661321, 40.971889300388995 ], [ 24.066014, 40.972253800389034 ], [ 24.0660033, 40.972513100389072 ], [ 24.0658722, 40.972655000389082 ] ] } },
{ "type": "Feature", "properties": { "osm_id": 803719491, "name": null, "label": "waterway:stream", "waterway": "stream" }, "geometry": { "type": "LineString", "coordinates": [ [ 24.063546616552689, 40.961761868811728 ], [ 24.0635295, 40.961826500387879 ], [ 24.0635048, 40.962096400387885 ], [ 24.0633508, 40.962403500387936 ], [ 24.063209, 40.962854900387974 ], [ 24.0631906, 40.963208500388028 ], [ 24.0630611, 40.963501700388051 ], [ 24.0630365, 40.963887900388094 ], [ 24.0630242, 40.964097300388119 ], [ 24.0630796, 40.96437180038815 ], [ 24.0630735, 40.964576600388177 ], [ 24.0628516, 40.964795200388188 ], [ 24.0627654, 40.964962800388221 ], [ 24.0627469, 40.965153500388233 ], [ 24.0627469, 40.965339700388263 ], [ 24.0628886, 40.965521100388266 ], [ 24.0629317, 40.9657119003883 ], [ 24.0629071, 40.965884100388315 ], [ 24.0628948, 40.96605620038833 ], [ 24.0629687, 40.966158600388347 ], [ 24.0630303, 40.966209800388363 ], [ 24.0630119, 40.966298200388358 ], [ 24.0629626, 40.966386600388375 ], [ 24.0628886, 40.966493600388375 ], [ 24.0628824, 40.966582000388392 ], [ 24.0629687, 40.966712300388416 ], [ 24.063055, 40.966786700388411 ], [ 24.0631228, 40.966847200388415 ], [ 24.0631228, 40.966917000388442 ], [ 24.063092, 40.967033300388451 ], [ 24.0630365, 40.967359000388491 ], [ 24.0630057, 40.967568400388508 ], [ 24.0631228, 40.967777800388539 ], [ 24.0630858, 40.967922000388555 ], [ 24.0630735, 40.968103500388573 ], [ 24.0631166, 40.968405900388596 ], [ 24.0634432, 40.969006200388669 ], [ 24.0636034, 40.969341100388711 ], [ 24.0635418, 40.969522600388721 ], [ 24.0636404, 40.969704100388761 ], [ 24.0637944, 40.969857600388771 ], [ 24.0640348, 40.97002980038878 ], [ 24.0642011, 40.970150700388807 ], [ 24.0643552, 40.970397300388825 ], [ 24.0644969, 40.97067180038885 ], [ 24.0647126, 40.970774200388867 ], [ 24.0648297, 40.971006800388892 ], [ 24.0649776, 40.971272000388922 ], [ 24.0650946, 40.971527900388956 ], [ 24.0652549, 40.971783800388991 ], [ 24.0655137, 40.97213740038903 ], [ 24.0656246, 40.972388600389053 ], [ 24.0658279, 40.97258400038907 ], [ 24.0658722, 40.972655000389082 ], [ 24.065982, 40.972830600389102 ], [ 24.0661853, 40.973067900389111 ], [ 24.0663147, 40.97330980038916 ], [ 24.0664688, 40.973523800389188 ], [ 24.066629, 40.973714600389201 ], [ 24.0668262, 40.973905300389212 ], [ 24.0670111, 40.974082100389232 ], [ 24.0671096, 40.974272900389266 ], [ 24.0672206, 40.974500900389295 ], [ 24.0673068, 40.974873000389323 ], [ 24.0673808, 40.975124300389353 ], [ 24.0675472, 40.97528710038938 ], [ 24.0678245, 40.975440600389391 ], [ 24.0679723, 40.975566200389409 ], [ 24.0680216, 40.975775600389426 ], [ 24.0680093, 40.976161700389476 ], [ 24.068034, 40.976413000389506 ], [ 24.068151, 40.976785100389542 ], [ 24.0682743, 40.977273600389609 ], [ 24.0683051, 40.977562100389619 ], [ 24.0681942, 40.977831900389667 ], [ 24.0682188, 40.978087800389687 ], [ 24.0683113, 40.978306400389719 ], [ 24.0683852, 40.978478500389734 ], [ 24.0682989, 40.978646000389752 ], [ 24.0682127, 40.978822800389786 ], [ 24.0682989, 40.979050700389799 ], [ 24.0684468, 40.979404300389838 ], [ 24.0685454, 40.979576400389853 ], [ 24.0685577, 40.979767200389887 ], [ 24.0685442, 40.979845700389887 ], [ 24.0685146, 40.980018400389902 ], [ 24.0686009, 40.980218400389923 ], [ 24.0687118, 40.980404500389952 ], [ 24.0687796, 40.980599900389976 ], [ 24.0689583, 40.980888300390006 ], [ 24.0690877, 40.981139500390043 ], [ 24.0692048, 40.981432600390072 ], [ 24.0692294, 40.981586100390082 ], [ 24.0693465, 40.981711700390107 ], [ 24.0694512, 40.98187450039012 ], [ 24.0695314, 40.982023300390132 ], [ 24.0695745, 40.982186200390153 ], [ 24.0696608, 40.982325700390163 ], [ 24.0698271, 40.982581600390198 ], [ 24.0698949, 40.982744400390217 ], [ 24.0699812, 40.982883900390227 ], [ 24.070049, 40.983032800390241 ], [ 24.0701229, 40.98313510039025 ], [ 24.0702708, 40.983223500390267 ], [ 24.0704803, 40.983302600390289 ], [ 24.0707083, 40.983418900390284 ], [ 24.0708685, 40.983502600390302 ], [ 24.0709918, 40.983539800390318 ], [ 24.0711335, 40.983549100390292 ], [ 24.0712999, 40.983544500390309 ], [ 24.0715032, 40.983577000390305 ], [ 24.0716696, 40.983660800390318 ], [ 24.0719715, 40.983786400390329 ], [ 24.0722057, 40.983916600390344 ], [ 24.0724275, 40.984070100390369 ], [ 24.0725878, 40.984219000390389 ], [ 24.0727418, 40.984363200390383 ], [ 24.0729082, 40.98441900039041 ], [ 24.0730561, 40.984507400390406 ], [ 24.0732902, 40.984665600390429 ], [ 24.0735367, 40.984870200390461 ], [ 24.0738202, 40.985065600390477 ], [ 24.0739373, 40.985233100390502 ], [ 24.074079, 40.985474900390535 ], [ 24.074174309497636, 40.985565469425858 ] ] } }
]
}
