{
"type": "FeatureCollection",
"name": "patch_38252_polygon",
"crs": { "type": "name", "properties": { "name": "urn:ogc:def:crs:OGC:1.3:CRS84" } },
"features": [
{ "type": "Feature", "properties": { "osm_id": 1238950999, "name": null, "label": "building:barn", "building": "barn", "landuse": null, "amenity": null }, "geometry": { "type": "Polygon", "coordinates": [ [ [ 24.4337859, 35.275497199671541 ], [ 24.4339413, 35.275474699671534 ], [ 24.4339177, 35.275384799671528 ], [ 24.4337624, 35.275431099671529 ], [ 24.4337859, 35.275497199671541 ] ] ] } },
{ "type": "Feature", "properties": { "osm_id": 1238950998, "name": null, "label": "building:barn", "building": "barn", "landuse": null, "amenity": null }, "geometry": { "type": "Polygon", "coordinates": [ [ [ 24.433839, 35.275323799671533 ], [ 24.4339314, 35.275288499671532 ], [ 24.4338744, 35.275164899671516 ], [ 24.4337682, 35.275200199671524 ], [ 24.433839, 35.275323799671533 ] ] ] } },
{ "type": "Feature", "properties": { "osm_id": 1238950997, "name": null, "label": "building:barn", "building": "barn", "landuse": null, "amenity": null }, "geometry": { "type": "Polygon", "coordinates": [ [ [ 24.4336994, 35.275474699671534 ], [ 24.4337624, 35.275431099671529 ], [ 24.4337899, 35.275412099671534 ], [ 24.4336306, 35.275238699671526 ], [ 24.4335382, 35.275310999671525 ], [ 24.4336994, 35.275474699671534 ] ] ] } },
{ "type": "Feature", "properties": { "osm_id": 1238950996, "name": null, "label": "landuse:farmyard", "building": null, "landuse": "farmyard", "amenity": null }, "geometry": { "type": "Polygon", "coordinates": [ [ [ 24.4352425, 35.27647009967162 ], [ 24.4353422, 35.276433099671614 ], [ 24.4356004, 35.276473799671614 ], [ 24.4355823, 35.276238999671598 ], [ 24.435512, 35.276244499671591 ], [ 24.4351814, 35.276311099671602 ], [ 24.4352425, 35.27647009967162 ] ] ] } },
{ "type": "Feature", "properties": { "osm_id": 561345214, "name": null, "label": "building:yes", "building": "yes", "landuse": null, "amenity": null }, "geometry": { "type": "Polygon", "coordinates": [ [ [ 24.4380961, 35.283014999672119 ], [ 24.4383503, 35.28300899967212 ], [ 24.4383552, 35.282877999672117 ], [ 24.4384589, 35.282871999672096 ], [ 24.4384663, 35.282759099672099 ], [ 24.4380887, 35.282763199672097 ], [ 24.4380961, 35.283014999672119 ] ] ] } },
{ "type": "Feature", "properties": { "osm_id": 181642245, "name": null, "label": "landuse:residential", "building": null, "landuse": "residential", "amenity": null }, "geometry": { "type": "Polygon", "coordinates": [ [ [ 24.4380441, 35.273056999671354 ], [ 24.4390135, 35.273181599671361 ], [ 24.4400238, 35.273182299671362 ], [ 24.4406529, 35.273771099671407 ], [ 24.44076, 35.274828599671494 ], [ 24.4408831, 35.275499999671545 ], [ 24.4413282, 35.275449899671536 ], [ 24.4414049, 35.274698199671484 ], [ 24.4421415, 35.274522799671466 ], [ 24.442387, 35.273933999671428 ], [ 24.4416351, 35.273157199671367 ], [ 24.4418346, 35.272042199671276 ], [ 24.441144, 35.27146579967124 ], [ 24.4399931, 35.272330299671303 ], [ 24.4392104, 35.272681099671338 ], [ 24.437906, 35.272280199671286 ], [ 24.4380441, 35.273056999671354 ] ] ] } },
{ "type": "Feature", "properties": { "osm_id": 1238950995, "name": null, "label": "building:yes", "building": "yes", "landuse": null, "amenity": null }, "geometry": { "type": "Polygon", "coordinates": [ [ [ 24.4376245, 35.274648499671478 ], [ 24.4376323, 35.274680999671475 ], [ 24.4376778, 35.274687299671477 ], [ 24.4377108, 35.274589899671476 ], [ 24.4376197, 35.274568599671476 ], [ 24.437578, 35.274639799671483 ], [ 24.4376245, 35.274648499671478 ] ] ] } },
{ "type": "Feature", "properties": { "osm_id": 1353768604, "name": null, "label": "building:yes", "building": "yes", "landuse": null, "amenity": null }, "geometry": { "type": "Polygon", "coordinates": [ [ [ 24.4381688, 35.271416799671222 ], [ 24.4381967, 35.271348399671226 ], [ 24.4382503, 35.271365499671234 ], [ 24.4383457, 35.27115069967121 ], [ 24.4381106, 35.271072699671194 ], [ 24.4379895, 35.271363599671226 ], [ 24.4381688, 35.271416799671222 ] ] ] } },
{ "type": "Feature", "properties": { "osm_id": 1353768605, "name": null, "label": "building:yes", "building": "yes", "landuse": null, "amenity": null }, "geometry": { "type": "Polygon", "coordinates": [ [ [ 24.4403352, 35.270764199671184 ], [ 24.4403701, 35.270747799671184 ], [ 24.4403952, 35.270783599671184 ], [ 24.4404768, 35.270745299671184 ], [ 24.4404952, 35.270771399671176 ], [ 24.4405636, 35.270739299671177 ], [ 24.4404917, 35.27063709967117 ], [ 24.4403068, 35.270723799671181 ], [ 24.4403352, 35.270764199671184 ] ] ] } },
{ "type": "Feature", "properties": { "osm_id": 561800277, "name": null, "label": "building:yes", "building": "yes", "landuse": null, "amenity": null }, "geometry": { "type": "Polygon", "coordinates": [ [ [ 24.4427595, 35.269475799671078 ], [ 24.4428901, 35.269277099671065 ], [ 24.4427886, 35.269232599671071 ], [ 24.442658, 35.269431299671076 ], [ 24.4427595, 35.269475799671078 ] ] ] } },
{ "type": "Feature", "properties": { "osm_id": 614236649, "name": null, "label": "amenity:place_of_worship;building:yes", "building": "yes", "landuse": null, "amenity": "place_of_worship" }, "geometry": { "type": "Polygon", "coordinates": [ [ [ 24.445107, 35.270220999671146 ], [ 24.4451571, 35.270209899671137 ], [ 24.44514, 35.270158499671133 ], [ 24.4450899, 35.270169599671135 ], [ 24.445107, 35.270220999671146 ] ] ] } },
{ "type": "Feature", "properties": { "osm_id": 591333858, "name": null, "label": "amenity:grave_yard", "building": null, "landuse": null, "amenity": "grave_yard" }, "geometry": { "type": "Polygon", "coordinates": [ [ [ 24.4435503, 35.271550599671244 ], [ 24.4436439, 35.271698299671257 ], [ 24.4436967, 35.271749699671254 ], [ 24.4437821, 35.271797799671269 ], [ 24.443904, 35.271811099671261 ], [ 24.4439833, 35.27179949967126 ], [ 24.4440199, 35.271747999671256 ], [ 24.4440301, 35.271665099671253 ], [ 24.4439284, 35.271575499671236 ], [ 24.4438288, 35.27151899967123 ], [ 24.4437414, 35.271494099671237 ], [ 24.4436621, 35.27148579967124 ], [ 24.4435829, 35.271484199671235 ], [ 24.4435463, 35.271509099671249 ], [ 24.4435503, 35.271550599671244 ] ] ] } },
{ "type": "Feature", "properties": { "osm_id": 591333857, "name": null, "label": "amenity:place_of_worship;building:yes", "building": "yes", "landuse": null, "amenity": "place_of_worship" }, "geometry": { "type": "Polygon", "coordinates": [ [ [ 24.4414031, 35.273952399671423 ], [ 24.4414139, 35.27387799967142 ], [ 24.4412502, 35.273864799671422 ], [ 24.4412395, 35.273937099671421 ], [ 24.4414031, 35.273952399671423 ] ] ] } },
{ "type": "Feature", "properties": { "osm_id": 561345218, "name": null, "label": "building:yes", "building": "yes", "landuse": null, "amenity": null }, "geometry": { "type": "Polygon", "coordinates": [ [ [ 24.4455719, 35.279516899671847 ], [ 24.4456385, 35.27950739967185 ], [ 24.4456123, 35.279384799671838 ], [ 24.4455457, 35.279394299671843 ], [ 24.4455719, 35.279516899671847 ] ] ] } },
{ "type": "Feature", "properties": { "osm_id": 561345217, "name": null, "label": "building:yes", "building": "yes", "landuse": null, "amenity": null }, "geometry": { "type": "Polygon", "coordinates": [ [ [ 24.4457761, 35.279302199671825 ], [ 24.4458115, 35.279171699671828 ], [ 24.4457043, 35.279152199671813 ], [ 24.4456689, 35.27928279967184 ], [ 24.4457761, 35.279302199671825 ] ] ] } }
]
}
