{
"type": "FeatureCollection",
"name": "patch_38252_linestring",
"crs": { "type": "name", "properties": { "name": "urn:ogc:def:crs:OGC:1.3:CRS84" } },
"features": [
{ "type": "Feature", "properties": { "osm_id": 332045553, "name": "Babatsonas", "label": "waterway:stream", "waterway": "stream" }, "geometry": { "type": "LineString", "coordinates": [ [ 24.434496494118079, 35.28628935037024 ], [ 24.4345417, 35.285844399672335 ], [ 24.4344317, 35.285107499672279 ], [ 24.4341036, 35.284931499672261 ], [ 24.4339027, 35.284923799672264 ], [ 24.4335495, 35.284929399672272 ], [ 24.4327238, 35.284801399672254 ], [ 24.4322629, 35.284767199672253 ], [ 24.4318808, 35.284836799672263 ], [ 24.4317417, 35.284983999672278 ], [ 24.4316342, 35.285132799672283 ], [ 24.431478, 35.285681999672327 ], [ 24.431217, 35.286217599672362 ], [ 24.431180327301721, 35.28628935037024 ] ] } },
{ "type": "Feature", "properties": { "osm_id": 560394605, "name": null, "label": "waterway:stream", "waterway": "stream" }, "geometry": { "type": "LineString", "coordinates": [ [ 24.4423498, 35.263421199670624 ], [ 24.4431747, 35.264467399670707 ], [ 24.443098, 35.266252999670833 ], [ 24.4440571, 35.267333699670921 ], [ 24.4441097, 35.268209999670994 ], [ 24.4441766, 35.268304799670993 ], [ 24.4454192, 35.269761399671097 ], [ 24.4456717, 35.27013389967113 ], [ 24.4457069, 35.270748199671175 ], [ 24.4475294, 35.271922799671273 ], [ 24.4475102, 35.273504599671384 ], [ 24.44822, 35.274820199671495 ], [ 24.4481432, 35.275618899671557 ], [ 24.4485845, 35.276746499671638 ], [ 24.4484885, 35.277654799671716 ], [ 24.4487379, 35.279126899671816 ], [ 24.4484502, 35.279815999671882 ], [ 24.4482967, 35.28086519967195 ], [ 24.4484694, 35.281977099672041 ], [ 24.4489298, 35.283229899672136 ], [ 24.4482967, 35.284059799672193 ], [ 24.4485077, 35.285312599672302 ], [ 24.4486946, 35.286049899672356 ], [ 24.448584222219658, 35.28628935037024 ] ] } }
]
}
