{
"type": "FeatureCollection",
"name": "patch_38221_polygon",
"crs": { "type": "name", "properties": { "name": "urn:ogc:def:crs:OGC:1.3:CRS84" } },
"features": [
{ "type": "Feature", "properties": { "@type": "way", "@id": 139889236, "amenity": null, "board_type": "wildlife", "boundary": "protected_area", "brand": null, "building": null, "cables": null, "design": null, "ford": null, "full_name": null, "highway": null, "information": "board", "intermittent": null, "landuse": null, "lanes": null, "layer": null, "leisure": "nature_reserve", "line_attachment": null, "lit": null, "material": null, "name": "Πέτρα Κορμίτσας Ηλιοκώμης (Ι. Μ. Εικοσιφοινίσσης)", "old_ref": null, "oneway": null, "operator": null, "power": null, "service": null, "source": "http://geodata.gov.gr/", "surface": null, "tourism": "information", "tunnel": null, "voltage": null, "waterway": null, "wires": null, "label": "tourism:information;leisure:nature_reserve" }, "geometry": { "type": "Polygon", "coordinates": [ [ [ 24.0633083, 40.9618129 ], [ 24.0633825, 40.9624975 ], [ 24.0634913, 40.9629569 ], [ 24.0638648, 40.9636413 ], [ 24.0644181, 40.9643346 ], [ 24.064976, 40.9647937 ], [ 24.0655887, 40.965487 ], [ 24.066326, 40.965946 ], [ 24.0672087, 40.9666391 ], [ 24.0678809, 40.9673324 ], [ 24.0684342, 40.9680257 ], [ 24.0688672, 40.96871 ], [ 24.0693955, 40.9691691 ], [ 24.0700985, 40.9698623 ], [ 24.0708008, 40.9705555 ], [ 24.071534, 40.9712487 ], [ 24.0725011, 40.972167 ], [ 24.0734179, 40.9726348 ], [ 24.0741214, 40.973328 ], [ 24.0747087, 40.973787 ], [ 24.0751776, 40.9742551 ], [ 24.0757551, 40.9751646 ], [ 24.0761292, 40.975858 ], [ 24.0763224, 40.9765425 ], [ 24.0768165, 40.9772268 ], [ 24.0774043, 40.9776948 ], [ 24.0776286, 40.9776947 ], [ 24.0777787, 40.9777576 ], [ 24.0781177, 40.9779285 ], [ 24.0788357, 40.9779371 ], [ 24.0798889, 40.9777201 ], [ 24.0807577, 40.9777285 ], [ 24.0823092, 40.9779797 ], [ 24.0836207, 40.978222 ], [ 24.0849973, 40.978239 ], [ 24.086062678159077, 40.978249423466671 ], [ 24.086062678159077, 40.961761868811735 ], [ 24.063313492584129, 40.961761868811735 ], [ 24.0633083, 40.9618129 ] ] ] } },
{ "type": "Feature", "properties": { "@type": "way", "@id": 209596777, "amenity": null, "board_type": null, "boundary": null, "brand": null, "building": null, "cables": null, "design": null, "ford": null, "full_name": null, "highway": null, "information": null, "intermittent": null, "landuse": "residential", "lanes": null, "layer": null, "leisure": null, "line_attachment": null, "lit": null, "material": null, "name": null, "old_ref": null, "oneway": null, "operator": null, "power": null, "service": null, "source": null, "surface": null, "tourism": null, "tunnel": null, "voltage": null, "waterway": null, "wires": null, "label": "landuse:residential" }, "geometry": { "type": "Polygon", "coordinates": [ [ [ 24.0567111, 40.9832593 ], [ 24.0568962, 40.9832289 ], [ 24.0571884, 40.9834212 ], [ 24.057288, 40.9836733 ], [ 24.0568719, 40.984053 ], [ 24.0569041, 40.9843243 ], [ 24.0568344, 40.9846645 ], [ 24.057564, 40.9849682 ], [ 24.05758, 40.9845551 ], [ 24.0575049, 40.984138 ], [ 24.0581433, 40.9841178 ], [ 24.058154, 40.9839963 ], [ 24.0592079, 40.9839722 ], [ 24.0592194, 40.9832751 ], [ 24.059777, 40.9832165 ], [ 24.0598034, 40.9828549 ], [ 24.059993, 40.9829373 ], [ 24.0600237, 40.9829567 ], [ 24.0600584, 40.9829892 ], [ 24.060079, 40.9830148 ], [ 24.0600969, 40.98305 ], [ 24.0600998, 40.9830614 ], [ 24.060105, 40.9830821 ], [ 24.0601127, 40.9831328 ], [ 24.0601291, 40.9832279 ], [ 24.0601374, 40.9834573 ], [ 24.060162, 40.9835391 ], [ 24.0602103, 40.9836141 ], [ 24.0602616, 40.9836697 ], [ 24.0603935, 40.9837609 ], [ 24.060155, 40.9840044 ], [ 24.060332, 40.9841826 ], [ 24.0614961, 40.9843567 ], [ 24.0616463, 40.98381 ], [ 24.0622846, 40.9839193 ], [ 24.0622417, 40.9832147 ], [ 24.0617222, 40.9829452 ], [ 24.0612171, 40.9820849 ], [ 24.0607665, 40.9811696 ], [ 24.0592913, 40.981202 ], [ 24.0592752, 40.9808499 ], [ 24.0595005, 40.9802424 ], [ 24.0593342, 40.9801695 ], [ 24.0593542, 40.9800544 ], [ 24.059479, 40.9793353 ], [ 24.0591387, 40.979166 ], [ 24.0584306, 40.9792591 ], [ 24.0572743, 40.9789303 ], [ 24.0573655, 40.9784038 ], [ 24.0571538, 40.9782062 ], [ 24.056694577490205, 40.97867685571606 ], [ 24.056694577490205, 40.983258369338998 ], [ 24.0567111, 40.9832593 ] ] ] } },
{ "type": "Feature", "properties": { "@type": "way", "@id": 590978186, "amenity": null, "board_type": null, "boundary": null, "brand": null, "building": "house", "cables": null, "design": null, "ford": null, "full_name": null, "highway": null, "information": null, "intermittent": null, "landuse": null, "lanes": null, "layer": null, "leisure": null, "line_attachment": null, "lit": null, "material": null, "name": null, "old_ref": null, "oneway": null, "operator": null, "power": null, "service": null, "source": null, "surface": null, "tourism": null, "tunnel": null, "voltage": null, "waterway": null, "wires": null, "label": "building:house" }, "geometry": { "type": "Polygon", "coordinates": [ [ [ 24.0575517, 40.9799974 ], [ 24.0575962, 40.9799362 ], [ 24.0575536, 40.9799186 ], [ 24.0575091, 40.9799798 ], [ 24.0575517, 40.9799974 ] ] ] } },
{ "type": "Feature", "properties": { "@type": "way", "@id": 590978187, "amenity": null, "board_type": null, "boundary": null, "brand": null, "building": "house", "cables": null, "design": null, "ford": null, "full_name": null, "highway": null, "information": null, "intermittent": null, "landuse": null, "lanes": null, "layer": null, "leisure": null, "line_attachment": null, "lit": null, "material": null, "name": null, "old_ref": null, "oneway": null, "operator": null, "power": null, "service": null, "source": null, "surface": null, "tourism": null, "tunnel": null, "voltage": null, "waterway": null, "wires": null, "label": "building:house" }, "geometry": { "type": "Polygon", "coordinates": [ [ [ 24.0575027, 40.980065 ], [ 24.0575517, 40.9799974 ], [ 24.0575091, 40.9799798 ], [ 24.0574601, 40.9800474 ], [ 24.0575027, 40.980065 ] ] ] } },
{ "type": "Feature", "properties": { "@type": "way", "@id": 590978188, "amenity": null, "board_type": null, "boundary": null, "brand": null, "building": "house", "cables": null, "design": null, "ford": null, "full_name": null, "highway": null, "information": null, "intermittent": null, "landuse": null, "lanes": null, "layer": null, "leisure": null, "line_attachment": null, "lit": null, "material": null, "name": null, "old_ref": null, "oneway": null, "operator": null, "power": null, "service": null, "source": null, "surface": null, "tourism": null, "tunnel": null, "voltage": null, "waterway": null, "wires": null, "label": "building:house" }, "geometry": { "type": "Polygon", "coordinates": [ [ [ 24.0580857, 40.9807813 ], [ 24.0581455, 40.9807061 ], [ 24.0581674, 40.9806784 ], [ 24.0580823, 40.9806399 ], [ 24.0580592, 40.9806689 ], [ 24.0579675, 40.9806274 ], [ 24.0579089, 40.9807012 ], [ 24.0580857, 40.9807813 ] ] ] } },
{ "type": "Feature", "properties": { "@type": "way", "@id": 590978189, "amenity": null, "board_type": null, "boundary": null, "brand": null, "building": "house", "cables": null, "design": null, "ford": null, "full_name": null, "highway": null, "information": null, "intermittent": null, "landuse": null, "lanes": null, "layer": null, "leisure": null, "line_attachment": null, "lit": null, "material": null, "name": null, "old_ref": null, "oneway": null, "operator": null, "power": null, "service": null, "source": null, "surface": null, "tourism": null, "tunnel": null, "voltage": null, "waterway": null, "wires": null, "label": "building:house" }, "geometry": { "type": "Polygon", "coordinates": [ [ [ 24.0584687, 40.9800952 ], [ 24.0585837, 40.9800744 ], [ 24.058564, 40.9800122 ], [ 24.0584489, 40.980033 ], [ 24.0584687, 40.9800952 ] ] ] } },
{ "type": "Feature", "properties": { "@type": "way", "@id": 590978190, "amenity": null, "board_type": null, "boundary": null, "brand": null, "building": "house", "cables": null, "design": null, "ford": null, "full_name": null, "highway": null, "information": null, "intermittent": null, "landuse": null, "lanes": null, "layer": null, "leisure": null, "line_attachment": null, "lit": null, "material": null, "name": null, "old_ref": null, "oneway": null, "operator": null, "power": null, "service": null, "source": null, "surface": null, "tourism": null, "tunnel": null, "voltage": null, "waterway": null, "wires": null, "label": "building:house" }, "geometry": { "type": "Polygon", "coordinates": [ [ [ 24.0592614, 40.9800206 ], [ 24.0592852, 40.9799702 ], [ 24.059148, 40.9799333 ], [ 24.0591242, 40.9799836 ], [ 24.0592614, 40.9800206 ] ] ] } },
{ "type": "Feature", "properties": { "@type": "way", "@id": 590978191, "amenity": null, "board_type": null, "boundary": null, "brand": null, "building": "house", "cables": null, "design": null, "ford": null, "full_name": null, "highway": null, "information": null, "intermittent": null, "landuse": null, "lanes": null, "layer": null, "leisure": null, "line_attachment": null, "lit": null, "material": null, "name": null, "old_ref": null, "oneway": null, "operator": null, "power": null, "service": null, "source": null, "surface": null, "tourism": null, "tunnel": null, "voltage": null, "waterway": null, "wires": null, "label": "building:house" }, "geometry": { "type": "Polygon", "coordinates": [ [ [ 24.0589826, 40.9801069 ], [ 24.0589845, 40.9800586 ], [ 24.05907, 40.9800605 ], [ 24.0591202, 40.9800558 ], [ 24.0591507, 40.9800051 ], [ 24.059096, 40.9799775 ], [ 24.0590734, 40.9799754 ], [ 24.0589893, 40.9799735 ], [ 24.0589896, 40.9799672 ], [ 24.0589386, 40.979966 ], [ 24.0589383, 40.9799734 ], [ 24.058935, 40.9800585 ], [ 24.0589356, 40.9800586 ], [ 24.0589337, 40.9801058 ], [ 24.0589826, 40.9801069 ] ] ] } },
{ "type": "Feature", "properties": { "@type": "way", "@id": 590978192, "amenity": null, "board_type": null, "boundary": null, "brand": null, "building": "house", "cables": null, "design": null, "ford": null, "full_name": null, "highway": null, "information": null, "intermittent": null, "landuse": null, "lanes": null, "layer": null, "leisure": null, "line_attachment": null, "lit": null, "material": null, "name": null, "old_ref": null, "oneway": null, "operator": null, "power": null, "service": null, "source": null, "surface": null, "tourism": null, "tunnel": null, "voltage": null, "waterway": null, "wires": null, "label": "building:house" }, "geometry": { "type": "Polygon", "coordinates": [ [ [ 24.0592748, 40.9798167 ], [ 24.0593271, 40.9797286 ], [ 24.0592117, 40.9796895 ], [ 24.0591594, 40.9797776 ], [ 24.0592748, 40.9798167 ] ] ] } },
{ "type": "Feature", "properties": { "@type": "way", "@id": 590978194, "amenity": null, "board_type": null, "boundary": null, "brand": null, "building": "house", "cables": null, "design": null, "ford": null, "full_name": null, "highway": null, "information": null, "intermittent": null, "landuse": null, "lanes": null, "layer": null, "leisure": null, "line_attachment": null, "lit": null, "material": null, "name": null, "old_ref": null, "oneway": null, "operator": null, "power": null, "service": null, "source": null, "surface": null, "tourism": null, "tunnel": null, "voltage": null, "waterway": null, "wires": null, "label": "building:house" }, "geometry": { "type": "Polygon", "coordinates": [ [ [ 24.0593716, 40.9796829 ], [ 24.0594192, 40.9796054 ], [ 24.0593284, 40.9795736 ], [ 24.0592808, 40.979651 ], [ 24.0593716, 40.9796829 ] ] ] } },
{ "type": "Feature", "properties": { "@type": "way", "@id": 590978196, "amenity": null, "board_type": null, "boundary": null, "brand": null, "building": "house", "cables": null, "design": null, "ford": null, "full_name": null, "highway": null, "information": null, "intermittent": null, "landuse": null, "lanes": null, "layer": null, "leisure": null, "line_attachment": null, "lit": null, "material": null, "name": null, "old_ref": null, "oneway": null, "operator": null, "power": null, "service": null, "source": null, "surface": null, "tourism": null, "tunnel": null, "voltage": null, "waterway": null, "wires": null, "label": "building:house" }, "geometry": { "type": "Polygon", "coordinates": [ [ [ 24.0593016, 40.9795268 ], [ 24.0593378, 40.9794534 ], [ 24.059144, 40.9793989 ], [ 24.0591077, 40.9794723 ], [ 24.0593016, 40.9795268 ] ] ] } },
{ "type": "Feature", "properties": { "@type": "way", "@id": 590978197, "amenity": null, "board_type": null, "boundary": null, "brand": null, "building": "house", "cables": null, "design": null, "ford": null, "full_name": null, "highway": null, "information": null, "intermittent": null, "landuse": null, "lanes": null, "layer": null, "leisure": null, "line_attachment": null, "lit": null, "material": null, "name": null, "old_ref": null, "oneway": null, "operator": null, "power": null, "service": null, "source": null, "surface": null, "tourism": null, "tunnel": null, "voltage": null, "waterway": null, "wires": null, "label": "building:house" }, "geometry": { "type": "Polygon", "coordinates": [ [ [ 24.0588863, 40.9796341 ], [ 24.0589018, 40.9795531 ], [ 24.0587638, 40.9795381 ], [ 24.0587483, 40.9796191 ], [ 24.0588863, 40.9796341 ] ] ] } },
{ "type": "Feature", "properties": { "@type": "way", "@id": 590978199, "amenity": null, "board_type": null, "boundary": null, "brand": null, "building": "house", "cables": null, "design": null, "ford": null, "full_name": null, "highway": null, "information": null, "intermittent": null, "landuse": null, "lanes": null, "layer": null, "leisure": null, "line_attachment": null, "lit": null, "material": null, "name": null, "old_ref": null, "oneway": null, "operator": null, "power": null, "service": null, "source": null, "surface": null, "tourism": null, "tunnel": null, "voltage": null, "waterway": null, "wires": null, "label": "building:house" }, "geometry": { "type": "Polygon", "coordinates": [ [ [ 24.0567206, 40.9795898 ], [ 24.056694577490205, 40.97957250313889 ], [ 24.056694577490205, 40.979612120120187 ], [ 24.0567206, 40.9795898 ] ] ] } },
{ "type": "Feature", "properties": { "@type": "way", "@id": 590978201, "amenity": null, "board_type": null, "boundary": null, "brand": null, "building": "house", "cables": null, "design": null, "ford": null, "full_name": null, "highway": null, "information": null, "intermittent": null, "landuse": null, "lanes": null, "layer": null, "leisure": null, "line_attachment": null, "lit": null, "material": null, "name": null, "old_ref": null, "oneway": null, "operator": null, "power": null, "service": null, "source": null, "surface": null, "tourism": null, "tunnel": null, "voltage": null, "waterway": null, "wires": null, "label": "building:house" }, "geometry": { "type": "Polygon", "coordinates": [ [ [ 24.0567006, 40.9796888 ], [ 24.0567744, 40.9796255 ], [ 24.0567206, 40.9795898 ], [ 24.056694577490205, 40.979612120120187 ], [ 24.056694577490205, 40.979684803650564 ], [ 24.0567006, 40.9796888 ] ] ] } },
{ "type": "Feature", "properties": { "@type": "way", "@id": 590978207, "amenity": null, "board_type": null, "boundary": null, "brand": null, "building": "house", "cables": null, "design": null, "ford": null, "full_name": null, "highway": null, "information": null, "intermittent": null, "landuse": null, "lanes": null, "layer": null, "leisure": null, "line_attachment": null, "lit": null, "material": null, "name": null, "old_ref": null, "oneway": null, "operator": null, "power": null, "service": null, "source": null, "surface": null, "tourism": null, "tunnel": null, "voltage": null, "waterway": null, "wires": null, "label": "building:house" }, "geometry": { "type": "Polygon", "coordinates": [ [ [ 24.0573268, 40.9806483 ], [ 24.0574218, 40.9806399 ], [ 24.057407, 40.9805452 ], [ 24.057312, 40.9805536 ], [ 24.0573268, 40.9806483 ] ] ] } },
{ "type": "Feature", "properties": { "@type": "way", "@id": 590978234, "amenity": null, "board_type": null, "boundary": null, "brand": null, "building": "house", "cables": null, "design": null, "ford": null, "full_name": null, "highway": null, "information": null, "intermittent": null, "landuse": null, "lanes": null, "layer": null, "leisure": null, "line_attachment": null, "lit": null, "material": null, "name": null, "old_ref": null, "oneway": null, "operator": null, "power": null, "service": null, "source": null, "surface": null, "tourism": null, "tunnel": null, "voltage": null, "waterway": null, "wires": null, "label": "building:house" }, "geometry": { "type": "Polygon", "coordinates": [ [ [ 24.0568786, 40.9801183 ], [ 24.0569309, 40.9800185 ], [ 24.0567836, 40.9799745 ], [ 24.0567313, 40.9800742 ], [ 24.0568786, 40.9801183 ] ] ] } },
{ "type": "Feature", "properties": { "@type": "way", "@id": 590978258, "amenity": null, "board_type": null, "boundary": null, "brand": null, "building": "house", "cables": null, "design": null, "ford": null, "full_name": null, "highway": null, "information": null, "intermittent": null, "landuse": null, "lanes": null, "layer": null, "leisure": null, "line_attachment": null, "lit": null, "material": null, "name": null, "old_ref": null, "oneway": null, "operator": null, "power": null, "service": null, "source": null, "surface": null, "tourism": null, "tunnel": null, "voltage": null, "waterway": null, "wires": null, "label": "building:house" }, "geometry": { "type": "Polygon", "coordinates": [ [ [ 24.0572497, 40.9805045 ], [ 24.0573476, 40.9804843 ], [ 24.057317, 40.9804 ], [ 24.0572191, 40.9804203 ], [ 24.0572497, 40.9805045 ] ] ] } },
{ "type": "Feature", "properties": { "@type": "way", "@id": 590978259, "amenity": null, "board_type": null, "boundary": null, "brand": null, "building": "house", "cables": null, "design": null, "ford": null, "full_name": null, "highway": null, "information": null, "intermittent": null, "landuse": null, "lanes": null, "layer": null, "leisure": null, "line_attachment": null, "lit": null, "material": null, "name": null, "old_ref": null, "oneway": null, "operator": null, "power": null, "service": null, "source": null, "surface": null, "tourism": null, "tunnel": null, "voltage": null, "waterway": null, "wires": null, "label": "building:house" }, "geometry": { "type": "Polygon", "coordinates": [ [ [ 24.0573167, 40.9803977 ], [ 24.0574805, 40.9803861 ], [ 24.0574718, 40.9803162 ], [ 24.057308, 40.9803279 ], [ 24.0573167, 40.9803977 ] ] ] } },
{ "type": "Feature", "properties": { "@type": "way", "@id": 590978260, "amenity": null, "board_type": null, "boundary": null, "brand": null, "building": "house", "cables": null, "design": null, "ford": null, "full_name": null, "highway": null, "information": null, "intermittent": null, "landuse": null, "lanes": null, "layer": null, "leisure": null, "line_attachment": null, "lit": null, "material": null, "name": null, "old_ref": null, "oneway": null, "operator": null, "power": null, "service": null, "source": null, "surface": null, "tourism": null, "tunnel": null, "voltage": null, "waterway": null, "wires": null, "label": "building:house" }, "geometry": { "type": "Polygon", "coordinates": [ [ [ 24.0573552, 40.9801523 ], [ 24.0574488, 40.9800914 ], [ 24.0573777, 40.9800292 ], [ 24.0572841, 40.9800901 ], [ 24.0573552, 40.9801523 ] ] ] } },
{ "type": "Feature", "properties": { "@type": "way", "@id": 590978261, "amenity": null, "board_type": null, "boundary": null, "brand": null, "building": "house", "cables": null, "design": null, "ford": null, "full_name": null, "highway": null, "information": null, "intermittent": null, "landuse": null, "lanes": null, "layer": null, "leisure": null, "line_attachment": null, "lit": null, "material": null, "name": null, "old_ref": null, "oneway": null, "operator": null, "power": null, "service": null, "source": null, "surface": null, "tourism": null, "tunnel": null, "voltage": null, "waterway": null, "wires": null, "label": "building:house" }, "geometry": { "type": "Polygon", "coordinates": [ [ [ 24.0575339, 40.9802699 ], [ 24.0575991, 40.9801818 ], [ 24.0575101, 40.9801442 ], [ 24.0574713, 40.9801967 ], [ 24.0574429, 40.9801847 ], [ 24.0574165, 40.9802204 ], [ 24.0575339, 40.9802699 ] ] ] } },
{ "type": "Feature", "properties": { "@type": "way", "@id": 590978262, "amenity": null, "board_type": null, "boundary": null, "brand": null, "building": "house", "cables": null, "design": null, "ford": null, "full_name": null, "highway": null, "information": null, "intermittent": null, "landuse": null, "lanes": null, "layer": null, "leisure": null, "line_attachment": null, "lit": null, "material": null, "name": null, "old_ref": null, "oneway": null, "operator": null, "power": null, "service": null, "source": null, "surface": null, "tourism": null, "tunnel": null, "voltage": null, "waterway": null, "wires": null, "label": "building:house" }, "geometry": { "type": "Polygon", "coordinates": [ [ [ 24.0575536, 40.9799186 ], [ 24.0575962, 40.9799362 ], [ 24.0576582, 40.9798507 ], [ 24.0575706, 40.9798144 ], [ 24.0575085, 40.9798999 ], [ 24.0575536, 40.9799186 ] ] ] } },
{ "type": "Feature", "properties": { "@type": "way", "@id": 590978263, "amenity": null, "board_type": null, "boundary": null, "brand": null, "building": "house", "cables": null, "design": null, "ford": null, "full_name": null, "highway": null, "information": null, "intermittent": null, "landuse": null, "lanes": null, "layer": null, "leisure": null, "line_attachment": null, "lit": null, "material": null, "name": null, "old_ref": null, "oneway": null, "operator": null, "power": null, "service": null, "source": null, "surface": null, "tourism": null, "tunnel": null, "voltage": null, "waterway": null, "wires": null, "label": "building:house" }, "geometry": { "type": "Polygon", "coordinates": [ [ [ 24.0568534, 40.9795807 ], [ 24.0569117, 40.9794966 ], [ 24.056745, 40.9794307 ], [ 24.056694577490205, 40.979503349928351 ], [ 24.056694577490205, 40.979517818862348 ], [ 24.0568534, 40.9795807 ] ] ] } },
{ "type": "Feature", "properties": { "@type": "way", "@id": 590978264, "amenity": null, "board_type": null, "boundary": null, "brand": null, "building": "house", "cables": null, "design": null, "ford": null, "full_name": null, "highway": null, "information": null, "intermittent": null, "landuse": null, "lanes": null, "layer": null, "leisure": null, "line_attachment": null, "lit": null, "material": null, "name": null, "old_ref": null, "oneway": null, "operator": null, "power": null, "service": null, "source": null, "surface": null, "tourism": null, "tunnel": null, "voltage": null, "waterway": null, "wires": null, "label": "building:house" }, "geometry": { "type": "Polygon", "coordinates": [ [ [ 24.0582588, 40.9803594 ], [ 24.0583285, 40.9802902 ], [ 24.058257, 40.9802522 ], [ 24.0582211, 40.9802627 ], [ 24.0581732, 40.9803102 ], [ 24.0582588, 40.9803594 ] ] ] } },
{ "type": "Feature", "properties": { "@type": "way", "@id": 590978265, "amenity": null, "board_type": null, "boundary": null, "brand": null, "building": "house", "cables": null, "design": null, "ford": null, "full_name": null, "highway": null, "information": null, "intermittent": null, "landuse": null, "lanes": null, "layer": null, "leisure": null, "line_attachment": null, "lit": null, "material": null, "name": null, "old_ref": null, "oneway": null, "operator": null, "power": null, "service": null, "source": null, "surface": null, "tourism": null, "tunnel": null, "voltage": null, "waterway": null, "wires": null, "label": "building:house" }, "geometry": { "type": "Polygon", "coordinates": [ [ [ 24.0580926, 40.9801784 ], [ 24.0580959, 40.9801181 ], [ 24.0580369, 40.9801163 ], [ 24.0580335, 40.9801765 ], [ 24.0580926, 40.9801784 ] ] ] } },
{ "type": "Feature", "properties": { "@type": "way", "@id": 590978266, "amenity": null, "board_type": null, "boundary": null, "brand": null, "building": "house", "cables": null, "design": null, "ford": null, "full_name": null, "highway": null, "information": null, "intermittent": null, "landuse": null, "lanes": null, "layer": null, "leisure": null, "line_attachment": null, "lit": null, "material": null, "name": null, "old_ref": null, "oneway": null, "operator": null, "power": null, "service": null, "source": null, "surface": null, "tourism": null, "tunnel": null, "voltage": null, "waterway": null, "wires": null, "label": "building:house" }, "geometry": { "type": "Polygon", "coordinates": [ [ [ 24.058003, 40.9801709 ], [ 24.0580164, 40.980097 ], [ 24.0579135, 40.9800864 ], [ 24.0579001, 40.9801603 ], [ 24.058003, 40.9801709 ] ] ] } },
{ "type": "Feature", "properties": { "@type": "way", "@id": 590978267, "amenity": null, "board_type": null, "boundary": null, "brand": null, "building": "house", "cables": null, "design": null, "ford": null, "full_name": null, "highway": null, "information": null, "intermittent": null, "landuse": null, "lanes": null, "layer": null, "leisure": null, "line_attachment": null, "lit": null, "material": null, "name": null, "old_ref": null, "oneway": null, "operator": null, "power": null, "service": null, "source": null, "surface": null, "tourism": null, "tunnel": null, "voltage": null, "waterway": null, "wires": null, "label": "building:house" }, "geometry": { "type": "Polygon", "coordinates": [ [ [ 24.057709, 40.9801659 ], [ 24.057811, 40.9801438 ], [ 24.0577781, 40.9800572 ], [ 24.0576761, 40.9800793 ], [ 24.057709, 40.9801659 ] ] ] } },
{ "type": "Feature", "properties": { "@type": "way", "@id": 590978269, "amenity": null, "board_type": null, "boundary": null, "brand": null, "building": "house", "cables": null, "design": null, "ford": null, "full_name": null, "highway": null, "information": null, "intermittent": null, "landuse": null, "lanes": null, "layer": null, "leisure": null, "line_attachment": null, "lit": null, "material": null, "name": null, "old_ref": null, "oneway": null, "operator": null, "power": null, "service": null, "source": null, "surface": null, "tourism": null, "tunnel": null, "voltage": null, "waterway": null, "wires": null, "label": "building:house" }, "geometry": { "type": "Polygon", "coordinates": [ [ [ 24.0579752, 40.9799892 ], [ 24.0580826, 40.979978 ], [ 24.0580672, 40.9798939 ], [ 24.0579598, 40.9799052 ], [ 24.0579752, 40.9799892 ] ] ] } },
{ "type": "Feature", "properties": { "@type": "way", "@id": 590978270, "amenity": null, "board_type": null, "boundary": null, "brand": null, "building": "house", "cables": null, "design": null, "ford": null, "full_name": null, "highway": null, "information": null, "intermittent": null, "landuse": null, "lanes": null, "layer": null, "leisure": null, "line_attachment": null, "lit": null, "material": null, "name": null, "old_ref": null, "oneway": null, "operator": null, "power": null, "service": null, "source": null, "surface": null, "tourism": null, "tunnel": null, "voltage": null, "waterway": null, "wires": null, "label": "building:house" }, "geometry": { "type": "Polygon", "coordinates": [ [ [ 24.0579557, 40.9798088 ], [ 24.0580054, 40.9797133 ], [ 24.0579182, 40.9796875 ], [ 24.0578685, 40.979783 ], [ 24.0579557, 40.9798088 ] ] ] } },
{ "type": "Feature", "properties": { "@type": "way", "@id": 590978271, "amenity": null, "board_type": null, "boundary": null, "brand": null, "building": "house", "cables": null, "design": null, "ford": null, "full_name": null, "highway": null, "information": null, "intermittent": null, "landuse": null, "lanes": null, "layer": null, "leisure": null, "line_attachment": null, "lit": null, "material": null, "name": null, "old_ref": null, "oneway": null, "operator": null, "power": null, "service": null, "source": null, "surface": null, "tourism": null, "tunnel": null, "voltage": null, "waterway": null, "wires": null, "label": "building:house" }, "geometry": { "type": "Polygon", "coordinates": [ [ [ 24.0580963, 40.9798186 ], [ 24.0581438, 40.9797373 ], [ 24.0580966, 40.9797216 ], [ 24.0581073, 40.9797033 ], [ 24.0580527, 40.9796851 ], [ 24.0580184, 40.9797439 ], [ 24.0579945, 40.9797848 ], [ 24.0580963, 40.9798186 ] ] ] } },
{ "type": "Feature", "properties": { "@type": "way", "@id": 590978272, "amenity": null, "board_type": null, "boundary": null, "brand": null, "building": "house", "cables": null, "design": null, "ford": null, "full_name": null, "highway": null, "information": null, "intermittent": null, "landuse": null, "lanes": null, "layer": null, "leisure": null, "line_attachment": null, "lit": null, "material": null, "name": null, "old_ref": null, "oneway": null, "operator": null, "power": null, "service": null, "source": null, "surface": null, "tourism": null, "tunnel": null, "voltage": null, "waterway": null, "wires": null, "label": "building:house" }, "geometry": { "type": "Polygon", "coordinates": [ [ [ 24.0581785, 40.9797106 ], [ 24.0582228, 40.9796063 ], [ 24.0581314, 40.9795842 ], [ 24.0580872, 40.9796885 ], [ 24.0581785, 40.9797106 ] ] ] } },
{ "type": "Feature", "properties": { "@type": "way", "@id": 590978273, "amenity": null, "board_type": null, "boundary": null, "brand": null, "building": "house", "cables": null, "design": null, "ford": null, "full_name": null, "highway": null, "information": null, "intermittent": null, "landuse": null, "lanes": null, "layer": null, "leisure": null, "line_attachment": null, "lit": null, "material": null, "name": null, "old_ref": null, "oneway": null, "operator": null, "power": null, "service": null, "source": null, "surface": null, "tourism": null, "tunnel": null, "voltage": null, "waterway": null, "wires": null, "label": "building:house" }, "geometry": { "type": "Polygon", "coordinates": [ [ [ 24.0591968, 40.9807638 ], [ 24.0592016, 40.980708 ], [ 24.0591098, 40.9807035 ], [ 24.0591049, 40.9807593 ], [ 24.0591968, 40.9807638 ] ] ] } },
{ "type": "Feature", "properties": { "@type": "way", "@id": 590978274, "amenity": null, "board_type": null, "boundary": null, "brand": null, "building": "house", "cables": null, "design": null, "ford": null, "full_name": null, "highway": null, "information": null, "intermittent": null, "landuse": null, "lanes": null, "layer": null, "leisure": null, "line_attachment": null, "lit": null, "material": null, "name": null, "old_ref": null, "oneway": null, "operator": null, "power": null, "service": null, "source": null, "surface": null, "tourism": null, "tunnel": null, "voltage": null, "waterway": null, "wires": null, "label": "building:house" }, "geometry": { "type": "Polygon", "coordinates": [ [ [ 24.0589649, 40.9810224 ], [ 24.0591159, 40.9810178 ], [ 24.0591119, 40.9809419 ], [ 24.0589609, 40.9809465 ], [ 24.0589649, 40.9810224 ] ] ] } },
{ "type": "Feature", "properties": { "@type": "way", "@id": 590978275, "amenity": null, "board_type": null, "boundary": null, "brand": null, "building": "house", "cables": null, "design": null, "ford": null, "full_name": null, "highway": null, "information": null, "intermittent": null, "landuse": null, "lanes": null, "layer": null, "leisure": null, "line_attachment": null, "lit": null, "material": null, "name": null, "old_ref": null, "oneway": null, "operator": null, "power": null, "service": null, "source": null, "surface": null, "tourism": null, "tunnel": null, "voltage": null, "waterway": null, "wires": null, "label": "building:house" }, "geometry": { "type": "Polygon", "coordinates": [ [ [ 24.0620293, 40.9820477 ], [ 24.0621816, 40.9819693 ], [ 24.0620372, 40.9818095 ], [ 24.0619944, 40.9818315 ], [ 24.0620602, 40.9819044 ], [ 24.0619507, 40.9819607 ], [ 24.0620293, 40.9820477 ] ] ] } },
{ "type": "Feature", "properties": { "@type": "way", "@id": 590978276, "amenity": null, "board_type": null, "boundary": null, "brand": null, "building": "house", "cables": null, "design": null, "ford": null, "full_name": null, "highway": null, "information": null, "intermittent": null, "landuse": null, "lanes": null, "layer": null, "leisure": null, "line_attachment": null, "lit": null, "material": null, "name": null, "old_ref": null, "oneway": null, "operator": null, "power": null, "service": null, "source": null, "surface": null, "tourism": null, "tunnel": null, "voltage": null, "waterway": null, "wires": null, "label": "building:house" }, "geometry": { "type": "Polygon", "coordinates": [ [ [ 24.0574028, 40.9793994 ], [ 24.0574538, 40.9793007 ], [ 24.0573522, 40.9792709 ], [ 24.0573013, 40.9793696 ], [ 24.0574028, 40.9793994 ] ] ] } },
{ "type": "Feature", "properties": { "@type": "way", "@id": 590978278, "amenity": null, "board_type": null, "boundary": null, "brand": null, "building": "house", "cables": null, "design": null, "ford": null, "full_name": null, "highway": null, "information": null, "intermittent": null, "landuse": null, "lanes": null, "layer": null, "leisure": null, "line_attachment": null, "lit": null, "material": null, "name": null, "old_ref": null, "oneway": null, "operator": null, "power": null, "service": null, "source": null, "surface": null, "tourism": null, "tunnel": null, "voltage": null, "waterway": null, "wires": null, "label": "building:house" }, "geometry": { "type": "Polygon", "coordinates": [ [ [ 24.0578268, 40.9793219 ], [ 24.057875, 40.9792455 ], [ 24.0577613, 40.9792045 ], [ 24.057713, 40.979281 ], [ 24.0578268, 40.9793219 ] ] ] } },
{ "type": "Feature", "properties": { "@type": "way", "@id": 590978280, "amenity": null, "board_type": null, "boundary": null, "brand": null, "building": "house", "cables": null, "design": null, "ford": null, "full_name": null, "highway": null, "information": null, "intermittent": null, "landuse": null, "lanes": null, "layer": null, "leisure": null, "line_attachment": null, "lit": null, "material": null, "name": null, "old_ref": null, "oneway": null, "operator": null, "power": null, "service": null, "source": null, "surface": null, "tourism": null, "tunnel": null, "voltage": null, "waterway": null, "wires": null, "label": "building:house" }, "geometry": { "type": "Polygon", "coordinates": [ [ [ 24.0575058, 40.9791862 ], [ 24.0575326, 40.9791179 ], [ 24.0574267, 40.9790942 ], [ 24.0573999, 40.9791625 ], [ 24.0575058, 40.9791862 ] ] ] } },
{ "type": "Feature", "properties": { "@type": "way", "@id": 590978282, "amenity": null, "board_type": null, "boundary": null, "brand": null, "building": "house", "cables": null, "design": null, "ford": null, "full_name": null, "highway": null, "information": null, "intermittent": null, "landuse": null, "lanes": null, "layer": null, "leisure": null, "line_attachment": null, "lit": null, "material": null, "name": null, "old_ref": null, "oneway": null, "operator": null, "power": null, "service": null, "source": null, "surface": null, "tourism": null, "tunnel": null, "voltage": null, "waterway": null, "wires": null, "label": "building:house" }, "geometry": { "type": "Polygon", "coordinates": [ [ [ 24.0573215, 40.9791313 ], [ 24.0573617, 40.9790124 ], [ 24.0572557, 40.9789919 ], [ 24.0572155, 40.9791109 ], [ 24.0573215, 40.9791313 ] ] ] } },
{ "type": "Feature", "properties": { "@type": "way", "@id": 590978284, "amenity": null, "board_type": null, "boundary": null, "brand": null, "building": "house", "cables": null, "design": null, "ford": null, "full_name": null, "highway": null, "information": null, "intermittent": null, "landuse": null, "lanes": null, "layer": null, "leisure": null, "line_attachment": null, "lit": null, "material": null, "name": null, "old_ref": null, "oneway": null, "operator": null, "power": null, "service": null, "source": null, "surface": null, "tourism": null, "tunnel": null, "voltage": null, "waterway": null, "wires": null, "label": "building:house" }, "geometry": { "type": "Polygon", "coordinates": [ [ [ 24.0569948, 40.9789236 ], [ 24.0570464, 40.9788399 ], [ 24.0569512, 40.9788065 ], [ 24.0568996, 40.9788902 ], [ 24.0569948, 40.9789236 ] ] ] } },
{ "type": "Feature", "properties": { "@type": "way", "@id": 590978286, "amenity": null, "board_type": null, "boundary": null, "brand": null, "building": "house", "cables": null, "design": null, "ford": null, "full_name": null, "highway": null, "information": null, "intermittent": null, "landuse": null, "lanes": null, "layer": null, "leisure": null, "line_attachment": null, "lit": null, "material": null, "name": null, "old_ref": null, "oneway": null, "operator": null, "power": null, "service": null, "source": null, "surface": null, "tourism": null, "tunnel": null, "voltage": null, "waterway": null, "wires": null, "label": "building:house" }, "geometry": { "type": "Polygon", "coordinates": [ [ [ 24.0572202, 40.9787518 ], [ 24.0572357, 40.9787209 ], [ 24.0570887, 40.9786791 ], [ 24.0570733, 40.9787099 ], [ 24.0572202, 40.9787518 ] ] ] } },
{ "type": "Feature", "properties": { "@type": "way", "@id": 590978288, "amenity": null, "board_type": null, "boundary": null, "brand": null, "building": "house", "cables": null, "design": null, "ford": null, "full_name": null, "highway": null, "information": null, "intermittent": null, "landuse": null, "lanes": null, "layer": null, "leisure": null, "line_attachment": null, "lit": null, "material": null, "name": null, "old_ref": null, "oneway": null, "operator": null, "power": null, "service": null, "source": null, "surface": null, "tourism": null, "tunnel": null, "voltage": null, "waterway": null, "wires": null, "label": "building:house" }, "geometry": { "type": "Polygon", "coordinates": [ [ [ 24.0572154, 40.9784733 ], [ 24.0572652, 40.9784527 ], [ 24.0572543, 40.9784376 ], [ 24.0573222, 40.9784095 ], [ 24.0572481, 40.9783075 ], [ 24.0571753, 40.9783376 ], [ 24.057139, 40.9782876 ], [ 24.0570941, 40.9783062 ], [ 24.0572154, 40.9784733 ] ] ] } },
{ "type": "Feature", "properties": { "@type": "way", "@id": 590978291, "amenity": null, "board_type": null, "boundary": null, "brand": null, "building": "house", "cables": null, "design": null, "ford": null, "full_name": null, "highway": null, "information": null, "intermittent": null, "landuse": null, "lanes": null, "layer": null, "leisure": null, "line_attachment": null, "lit": null, "material": null, "name": null, "old_ref": null, "oneway": null, "operator": null, "power": null, "service": null, "source": null, "surface": null, "tourism": null, "tunnel": null, "voltage": null, "waterway": null, "wires": null, "label": "building:house" }, "geometry": { "type": "Polygon", "coordinates": [ [ [ 24.0570704, 40.9786539 ], [ 24.0570972, 40.978572 ], [ 24.0571093, 40.978535 ], [ 24.0569663, 40.9785084 ], [ 24.0569582, 40.9785333 ], [ 24.0569251, 40.9785272 ], [ 24.0568944, 40.9786211 ], [ 24.0570704, 40.9786539 ] ] ] } },
{ "type": "Feature", "properties": { "@type": "way", "@id": 590978293, "amenity": null, "board_type": null, "boundary": null, "brand": null, "building": "house", "cables": null, "design": null, "ford": null, "full_name": null, "highway": null, "information": null, "intermittent": null, "landuse": null, "lanes": null, "layer": null, "leisure": null, "line_attachment": null, "lit": null, "material": null, "name": null, "old_ref": null, "oneway": null, "operator": null, "power": null, "service": null, "source": null, "surface": null, "tourism": null, "tunnel": null, "voltage": null, "waterway": null, "wires": null, "label": "building:house" }, "geometry": { "type": "Polygon", "coordinates": [ [ [ 24.0567629, 40.9789109 ], [ 24.0568144, 40.9788514 ], [ 24.0567322, 40.9788109 ], [ 24.0567488, 40.9787916 ], [ 24.056694577490205, 40.978764925383174 ], [ 24.056694577490205, 40.978877209285805 ], [ 24.0567629, 40.9789109 ] ] ] } },
{ "type": "Feature", "properties": { "@type": "way", "@id": 590978295, "amenity": null, "board_type": null, "boundary": null, "brand": null, "building": "house", "cables": null, "design": null, "ford": null, "full_name": null, "highway": null, "information": null, "intermittent": null, "landuse": null, "lanes": null, "layer": null, "leisure": null, "line_attachment": null, "lit": null, "material": null, "name": null, "old_ref": null, "oneway": null, "operator": null, "power": null, "service": null, "source": null, "surface": null, "tourism": null, "tunnel": null, "voltage": null, "waterway": null, "wires": null, "label": "building:house" }, "geometry": { "type": "Polygon", "coordinates": [ [ [ 24.0570181, 40.9791349 ], [ 24.0570785, 40.9790605 ], [ 24.0569016, 40.9789788 ], [ 24.0568413, 40.9790532 ], [ 24.0570181, 40.9791349 ] ] ] } },
{ "type": "Feature", "properties": { "@type": "way", "@id": 590978356, "amenity": null, "board_type": null, "boundary": null, "brand": null, "building": "house", "cables": null, "design": null, "ford": null, "full_name": null, "highway": null, "information": null, "intermittent": null, "landuse": null, "lanes": null, "layer": null, "leisure": null, "line_attachment": null, "lit": null, "material": null, "name": null, "old_ref": null, "oneway": null, "operator": null, "power": null, "service": null, "source": null, "surface": null, "tourism": null, "tunnel": null, "voltage": null, "waterway": null, "wires": null, "label": "building:house" }, "geometry": { "type": "Polygon", "coordinates": [ [ [ 24.0603444, 40.982946 ], [ 24.0604745, 40.9828619 ], [ 24.0603764, 40.9827754 ], [ 24.0602463, 40.9828594 ], [ 24.0603444, 40.982946 ] ] ] } },
{ "type": "Feature", "properties": { "@type": "way", "@id": 590978357, "amenity": null, "board_type": null, "boundary": null, "brand": null, "building": "house", "cables": null, "design": null, "ford": null, "full_name": null, "highway": null, "information": null, "intermittent": null, "landuse": null, "lanes": null, "layer": null, "leisure": null, "line_attachment": null, "lit": null, "material": null, "name": null, "old_ref": null, "oneway": null, "operator": null, "power": null, "service": null, "source": null, "surface": null, "tourism": null, "tunnel": null, "voltage": null, "waterway": null, "wires": null, "label": "building:house" }, "geometry": { "type": "Polygon", "coordinates": [ [ [ 24.0611006, 40.982743 ], [ 24.0612562, 40.9826575 ], [ 24.0611449, 40.9825421 ], [ 24.0609893, 40.9826276 ], [ 24.0611006, 40.982743 ] ] ] } },
{ "type": "Feature", "properties": { "@type": "way", "@id": 590978358, "amenity": null, "board_type": null, "boundary": null, "brand": null, "building": "house", "cables": null, "design": null, "ford": null, "full_name": null, "highway": null, "information": null, "intermittent": null, "landuse": null, "lanes": null, "layer": null, "leisure": null, "line_attachment": null, "lit": null, "material": null, "name": null, "old_ref": null, "oneway": null, "operator": null, "power": null, "service": null, "source": null, "surface": null, "tourism": null, "tunnel": null, "voltage": null, "waterway": null, "wires": null, "label": "building:house" }, "geometry": { "type": "Polygon", "coordinates": [ [ [ 24.0610497, 40.9821922 ], [ 24.0611587, 40.9821198 ], [ 24.0610469, 40.982024 ], [ 24.0609379, 40.9820964 ], [ 24.0610497, 40.9821922 ] ] ] } },
{ "type": "Feature", "properties": { "@type": "way", "@id": 590978359, "amenity": null, "board_type": null, "boundary": null, "brand": null, "building": "house", "cables": null, "design": null, "ford": null, "full_name": null, "highway": null, "information": null, "intermittent": null, "landuse": null, "lanes": null, "layer": null, "leisure": null, "line_attachment": null, "lit": null, "material": null, "name": null, "old_ref": null, "oneway": null, "operator": null, "power": null, "service": null, "source": null, "surface": null, "tourism": null, "tunnel": null, "voltage": null, "waterway": null, "wires": null, "label": "building:house" }, "geometry": { "type": "Polygon", "coordinates": [ [ [ 24.0601294, 40.9825807 ], [ 24.0602666, 40.9825206 ], [ 24.0600979, 40.9823012 ], [ 24.0599607, 40.9823613 ], [ 24.0601294, 40.9825807 ] ] ] } },
{ "type": "Feature", "properties": { "@type": "way", "@id": 590978360, "amenity": null, "board_type": null, "boundary": null, "brand": null, "building": "house", "cables": null, "design": null, "ford": null, "full_name": null, "highway": null, "information": null, "intermittent": null, "landuse": null, "lanes": null, "layer": null, "leisure": null, "line_attachment": null, "lit": null, "material": null, "name": null, "old_ref": null, "oneway": null, "operator": null, "power": null, "service": null, "source": null, "surface": null, "tourism": null, "tunnel": null, "voltage": null, "waterway": null, "wires": null, "label": "building:house" }, "geometry": { "type": "Polygon", "coordinates": [ [ [ 24.0596321, 40.9823221 ], [ 24.0596326, 40.9821862 ], [ 24.0595226, 40.9821859 ], [ 24.0595222, 40.9823218 ], [ 24.0596321, 40.9823221 ] ] ] } },
{ "type": "Feature", "properties": { "@type": "way", "@id": 590978361, "amenity": null, "board_type": null, "boundary": null, "brand": null, "building": "house", "cables": null, "design": null, "ford": null, "full_name": null, "highway": null, "information": null, "intermittent": null, "landuse": null, "lanes": null, "layer": null, "leisure": null, "line_attachment": null, "lit": null, "material": null, "name": null, "old_ref": null, "oneway": null, "operator": null, "power": null, "service": null, "source": null, "surface": null, "tourism": null, "tunnel": null, "voltage": null, "waterway": null, "wires": null, "label": "building:house" }, "geometry": { "type": "Polygon", "coordinates": [ [ [ 24.059071, 40.9823453 ], [ 24.0591213, 40.9822314 ], [ 24.0589354, 40.9821847 ], [ 24.0588851, 40.9822986 ], [ 24.059071, 40.9823453 ] ] ] } },
{ "type": "Feature", "properties": { "@type": "way", "@id": 1090549903, "amenity": null, "board_type": null, "boundary": null, "brand": null, "building": "roof", "cables": null, "design": null, "ford": null, "full_name": null, "highway": null, "information": null, "intermittent": null, "landuse": null, "lanes": null, "layer": "1", "leisure": null, "line_attachment": null, "lit": null, "material": null, "name": null, "old_ref": null, "oneway": null, "operator": null, "power": null, "service": null, "source": null, "surface": null, "tourism": null, "tunnel": null, "voltage": null, "waterway": null, "wires": null, "label": "building:roof" }, "geometry": { "type": "Polygon", "coordinates": [ [ [ 24.0601586, 40.9830069 ], [ 24.0602285, 40.9829725 ], [ 24.0601867, 40.9829241 ], [ 24.0601169, 40.9829585 ], [ 24.0601586, 40.9830069 ] ] ] } }
]
}
