{
"type": "FeatureCollection",
"name": "patch_38221_point",
"crs": { "type": "name", "properties": { "name": "urn:ogc:def:crs:OGC:1.3:CRS84" } },
"features": [
{ "type": "Feature", "properties": { "@type": "node", "@id": 9988795167, "amenity": "fuel", "board_type": null, "boundary": null, "brand": "CYCLON", "building": null, "cables": null, "design": null, "ford": null, "full_name": null, "highway": null, "information": null, "intermittent": null, "landuse": null, "lanes": null, "layer": null, "leisure": null, "line_attachment": null, "lit": null, "material": null, "name": "CYCLON", "old_ref": null, "oneway": null, "operator": "ΤΣΙΑΤΣΙΑΡΗ ΕΛΕΝΗ", "power": null, "service": null, "source": null, "surface": null, "tourism": null, "tunnel": null, "voltage": null, "waterway": null, "wires": null, "label": "amenity:fuel" }, "geometry": { "type": "Point", "coordinates": [ 24.0601712, 40.9829673 ] } }
]
}
