{
"type": "FeatureCollection",
"name": "patch_87270_linestring",
"crs": { "type": "name", "properties": { "name": "urn:ogc:def:crs:OGC:1.3:CRS84" } },
"features": [
{ "type": "Feature", "properties": { "osm_id": 489655957, "name": null, "label": "waterway:drain", "waterway": "drain" }, "geometry": { "type": "LineString", "coordinates": [ [ 22.754862602111096, 37.261779608541445 ], [ 22.7548453, 37.261799399881681 ], [ 22.7547932, 37.261936799881695 ], [ 22.7545878, 37.262098199881713 ], [ 22.7544161, 37.262217799881725 ], [ 22.7542445, 37.262328799881743 ], [ 22.7540191, 37.262362899881744 ], [ 22.7538582, 37.262277499881733 ], [ 22.7536866, 37.262157999881715 ], [ 22.7535578, 37.262149399881714 ], [ 22.7533754, 37.262303099881727 ], [ 22.7531716, 37.262448299881747 ], [ 22.7530321, 37.262542199881764 ], [ 22.7529892, 37.262712999881799 ], [ 22.752839, 37.262781299881802 ], [ 22.7525386, 37.262781299881802 ], [ 22.7523133, 37.262841099881818 ], [ 22.7521325, 37.262935899881825 ], [ 22.7519715, 37.263029799881828 ], [ 22.7517232, 37.263037499881847 ], [ 22.7514871, 37.263003299881838 ], [ 22.7512189, 37.263003299881838 ], [ 22.7510043, 37.262977699881823 ], [ 22.7508327, 37.262909399881813 ], [ 22.7505752, 37.262986199881837 ], [ 22.7503837, 37.262969999881825 ], [ 22.7502227, 37.262858999881807 ], [ 22.7500924, 37.262772799881795 ], [ 22.74991, 37.262661799881776 ], [ 22.7496632, 37.262584899881773 ], [ 22.7494916, 37.262542199881764 ], [ 22.749277, 37.262567799881779 ], [ 22.7491375, 37.262661799881776 ], [ 22.7490748, 37.262799199881805 ], [ 22.7490732, 37.263028899881832 ], [ 22.7490748, 37.26314929988186 ], [ 22.7489766, 37.263250899881868 ], [ 22.7486456, 37.263379899881869 ], [ 22.7483329, 37.263472899881883 ], [ 22.7479912, 37.263576299881905 ], [ 22.74768, 37.263678699881922 ], [ 22.7474333, 37.263738499881931 ], [ 22.7472509, 37.263806799881927 ], [ 22.7470041, 37.263815299881934 ], [ 22.7467573, 37.263798299881941 ], [ 22.7465519, 37.263797399881938 ], [ 22.7462853, 37.263806799881927 ], [ 22.7460798, 37.263805999881939 ], [ 22.7457451, 37.263720599881921 ], [ 22.7455208, 37.263721799881935 ], [ 22.7452336, 37.263652599881915 ] ] } },
{ "type": "Feature", "properties": { "osm_id": 489655207, "name": null, "label": "waterway:drain", "waterway": "drain" }, "geometry": { "type": "LineString", "coordinates": [ [ 22.7393223, 37.267905199882478 ], [ 22.7392767, 37.267786099882457 ], [ 22.7391806, 37.26767339988244 ], [ 22.7392579, 37.267529499882428 ], [ 22.7394295, 37.267392899882395 ], [ 22.739687, 37.267222199882376 ], [ 22.7399, 37.267144499882377 ], [ 22.7401162, 37.267034299882347 ], [ 22.7403613, 37.266785899882329 ], [ 22.740481, 37.266573299882289 ], [ 22.7405115, 37.266384599882272 ], [ 22.7406296, 37.266188199882251 ], [ 22.7407599, 37.265975599882211 ], [ 22.7408656, 37.265906399882212 ], [ 22.7409943, 37.265846699882196 ], [ 22.7410587, 37.265744199882185 ], [ 22.7410496, 37.265616999882177 ], [ 22.7410373, 37.265436799882146 ], [ 22.741114, 37.265172999882111 ], [ 22.7411982, 37.264975699882086 ], [ 22.7413393, 37.264694799882058 ], [ 22.7414358, 37.264293499882001 ], [ 22.7414358, 37.264097099881972 ], [ 22.7415646, 37.263849499881935 ], [ 22.741629, 37.263661599881921 ], [ 22.7416703, 37.263421699881896 ], [ 22.7416273, 37.263199699881859 ], [ 22.7416381, 37.263011899881832 ], [ 22.7417041, 37.262713899881788 ], [ 22.741681, 37.262465399881769 ], [ 22.7416381, 37.262328799881743 ], [ 22.741681, 37.262157999881715 ], [ 22.741681, 37.26203839988171 ], [ 22.7417684, 37.26189409988168 ], [ 22.7419165, 37.261774599881676 ] ] } },
{ "type": "Feature", "properties": { "osm_id": 489655955, "name": null, "label": "waterway:stream", "waterway": "stream" }, "geometry": { "type": "LineString", "coordinates": [ [ 22.7452336, 37.263652599881915 ], [ 22.7449517, 37.263628299881901 ], [ 22.7446545, 37.263593299881904 ], [ 22.7442881, 37.263481499881884 ], [ 22.7441057, 37.263430299881882 ], [ 22.743882, 37.263345699881874 ], [ 22.7436352, 37.263226199881856 ], [ 22.7435371, 37.263097199881834 ], [ 22.7435172, 37.262927299881824 ], [ 22.7434207, 37.262782199881798 ], [ 22.7432474, 37.262712999881799 ], [ 22.7430543, 37.262601999881788 ], [ 22.742895, 37.26245769988175 ], [ 22.7427233, 37.262235699881728 ], [ 22.7426482, 37.262124699881724 ], [ 22.7424856, 37.26203839988171 ], [ 22.7423033, 37.262004299881696 ], [ 22.7420994, 37.261935999881679 ], [ 22.7419723, 37.261868499881679 ], [ 22.7419165, 37.261774599881676 ], [ 22.7417899, 37.26164649988165 ], [ 22.7417255, 37.261526999881646 ], [ 22.7416917, 37.261338299881615 ], [ 22.7416397, 37.261210999881605 ], [ 22.7415002, 37.261091499881573 ], [ 22.7412947, 37.260953999881551 ], [ 22.7411891, 37.260852399881557 ], [ 22.7411445, 37.260629499881524 ], [ 22.7411231, 37.260492899881505 ], [ 22.7410802, 37.260381899881473 ], [ 22.7409407, 37.260253799881468 ], [ 22.7408227, 37.260117199881464 ], [ 22.740769, 37.259971999881444 ], [ 22.7407905, 37.259775599881394 ], [ 22.7408441, 37.25960479988138 ], [ 22.7409622, 37.259434099881354 ], [ 22.74093, 37.259331599881349 ], [ 22.7408012, 37.259220599881338 ], [ 22.7405974, 37.259126599881327 ], [ 22.7403721, 37.259066899881311 ], [ 22.7400287, 37.259015599881316 ], [ 22.7399107, 37.258947299881299 ], [ 22.7397729, 37.258871299881292 ], [ 22.7397085, 37.258751799881274 ], [ 22.7397927, 37.258588699881251 ], [ 22.7398785, 37.258469099881246 ], [ 22.7398571, 37.25839229988123 ], [ 22.7397283, 37.258332499881227 ], [ 22.739503, 37.258332499881227 ], [ 22.7393206, 37.258366699881243 ], [ 22.7390953, 37.258349599881235 ], [ 22.7388808, 37.258264199881218 ], [ 22.7386984, 37.258136099881192 ], [ 22.7386018, 37.257973899881179 ], [ 22.7385267, 37.257794499881157 ], [ 22.7383658, 37.257692099881133 ], [ 22.7381941, 37.257640799881138 ], [ 22.7380546, 37.257529799881112 ], [ 22.7378186, 37.257418799881108 ], [ 22.737552, 37.257342799881094 ], [ 22.7373358, 37.257282199881082 ] ] } },
{ "type": "Feature", "properties": { "osm_id": 489656546, "name": null, "label": "waterway:drain", "waterway": "drain" }, "geometry": { "type": "LineString", "coordinates": [ [ 22.738252270476867, 37.256342587222981 ], [ 22.7381083, 37.256462399880981 ], [ 22.7379366, 37.256667299880995 ], [ 22.7378079, 37.256803999881036 ], [ 22.7376255, 37.256923499881026 ], [ 22.7374876, 37.257129299881072 ], [ 22.7374216, 37.25722239988108 ], [ 22.7373358, 37.257282199881082 ] ] } },
{ "type": "Feature", "properties": { "osm_id": 489657396, "name": null, "label": "waterway:stream", "waterway": "stream" }, "geometry": { "type": "LineString", "coordinates": [ [ 22.7373358, 37.257282199881082 ], [ 22.7370365, 37.25721509988108 ], [ 22.7368637, 37.257188199881078 ], [ 22.7366937, 37.257189099881067 ], [ 22.7364668, 37.257171199881078 ], [ 22.7361787, 37.257163499881074 ], [ 22.7359856, 37.257137899881052 ], [ 22.7359212, 37.257052499881063 ], [ 22.7359089, 37.256940599881041 ], [ 22.7359518, 37.256863699881031 ], [ 22.7360392, 37.256787699881009 ], [ 22.7362415, 37.256598999880993 ], [ 22.7363611, 37.256471799880977 ], [ 22.7364255, 37.256386399880974 ], [ 22.73641857208224, 37.256342587222981 ] ] } },
{ "type": "Feature", "properties": { "osm_id": 689202353, "name": null, "label": "waterway:drain", "waterway": "drain" }, "geometry": { "type": "LineString", "coordinates": [ [ 22.7291525, 37.268542799882546 ], [ 22.7290269, 37.268548399882555 ], [ 22.7288928, 37.268535499882539 ], [ 22.7287789, 37.268519299882549 ], [ 22.7286366, 37.268519299882549 ], [ 22.7285269, 37.26853219988255 ], [ 22.7284049, 37.26853219988255 ], [ 22.7283033, 37.268561299882563 ], [ 22.728222, 37.268600199882556 ], [ 22.7281244, 37.268635799882567 ], [ 22.7280227, 37.268658399882568 ], [ 22.7279414, 37.268703699882565 ], [ 22.7278927, 37.268745799882581 ], [ 22.727787, 37.268761899882584 ], [ 22.7276812, 37.268797499882588 ], [ 22.7275837, 37.268871899882598 ], [ 22.7275064, 37.268930199882604 ], [ 22.7273845, 37.268985199882621 ], [ 22.7272788, 37.269004599882614 ], [ 22.7271446, 37.269020799882611 ], [ 22.7270633, 37.269056299882614 ], [ 22.7269576, 37.269095199882614 ], [ 22.7268397, 37.269091899882618 ], [ 22.7267096, 37.269091899882618 ], [ 22.7265592, 37.269101599882617 ], [ 22.7263966, 37.269091899882618 ], [ 22.7262665, 37.269082199882611 ], [ 22.726173, 37.26904019988261 ], [ 22.7261038, 37.269007799882608 ], [ 22.72599, 37.268978699882588 ], [ 22.7258762, 37.268985199882621 ], [ 22.7257461, 37.268962499882612 ], [ 22.725677, 37.268907499882594 ], [ 22.7255713, 37.268865499882587 ], [ 22.725471713548441, 37.26883611371715 ] ] } },
{ "type": "Feature", "properties": { "osm_id": 689202352, "name": null, "label": "waterway:drain", "waterway": "drain" }, "geometry": { "type": "LineString", "coordinates": [ [ 22.748961, 37.27621139988355 ], [ 22.7488088, 37.276228299883549 ], [ 22.7486708, 37.276208599883546 ], [ 22.7485363, 37.276208599883546 ], [ 22.748423, 37.276185999883552 ], [ 22.7483098, 37.276132499883538 ], [ 22.7481576, 37.276093099883539 ], [ 22.748016, 37.276064899883536 ], [ 22.7478532, 37.275994499883517 ], [ 22.7476798, 37.275957899883508 ], [ 22.7474922, 37.2759212998835 ], [ 22.747379, 37.2759212998835 ], [ 22.7472693, 37.275957899883508 ], [ 22.7471277, 37.276016999883531 ], [ 22.7469967, 37.276050799883528 ], [ 22.7468658, 37.276022699883526 ], [ 22.7467915, 37.275974799883514 ], [ 22.7466924, 37.275926899883508 ], [ 22.7466004, 37.275887499883517 ], [ 22.7464942, 37.27585649988351 ], [ 22.7463561, 37.27585649988351 ], [ 22.7461898, 37.275881899883501 ], [ 22.7460589, 37.2758677998835 ], [ 22.7459279, 37.275862199883498 ], [ 22.7457828, 37.275833999883503 ], [ 22.7456625, 37.275833999883503 ], [ 22.7456058, 37.27579459988349 ], [ 22.7455457, 37.275721299883472 ], [ 22.7454501, 37.27563689988348 ], [ 22.7453333, 37.275555199883463 ], [ 22.7452307, 37.275504499883461 ], [ 22.7450962, 37.275515799883465 ], [ 22.7449829, 37.275515799883465 ], [ 22.7448414, 37.27553549988346 ], [ 22.7447246, 37.27557769988347 ], [ 22.7445901, 37.275583299883465 ], [ 22.7443919, 37.275608699883463 ], [ 22.7442539, 37.275653799883479 ], [ 22.7441406, 37.275684699883477 ], [ 22.743992, 37.275695999883482 ], [ 22.743861, 37.275695999883482 ], [ 22.7437584, 37.275684699883477 ], [ 22.7436664, 37.27570439988348 ], [ 22.7436239, 37.275738199883492 ], [ 22.7435213, 37.275771999883496 ], [ 22.7433761, 37.275771999883496 ], [ 22.7432558, 37.275780499883496 ], [ 22.7431496, 37.275828399883494 ], [ 22.7430151, 37.275819899883501 ], [ 22.742909, 37.275822699883513 ], [ 22.7427886, 37.275842399883501 ], [ 22.7426612, 37.275859299883514 ], [ 22.7425303, 37.275879099883497 ], [ 22.7424135, 37.275864999883503 ], [ 22.7423144, 37.275864999883503 ], [ 22.7422224, 37.275876199883506 ], [ 22.7420985, 37.275853699883498 ], [ 22.7419923, 37.275853699883498 ], [ 22.7418755, 37.275817099883497 ], [ 22.7417658, 37.275786099883497 ], [ 22.741649, 37.275771999883496 ], [ 22.741511, 37.275777699883498 ], [ 22.7413871, 37.275774899883494 ], [ 22.7412668, 37.275743899883487 ], [ 22.7411712, 37.27570439988348 ], [ 22.7410474, 37.275698799883479 ], [ 22.7409199, 37.275701599883476 ], [ 22.7407324, 37.275746699883491 ], [ 22.740605, 37.275749499883496 ], [ 22.7405023, 37.275777699883498 ], [ 22.7404032, 37.275786099883497 ], [ 22.7403183, 37.275819899883501 ], [ 22.7402581, 37.275864999883503 ], [ 22.7401767, 37.275901599883497 ], [ 22.7401272, 37.275938199883505 ], [ 22.7400422, 37.275943799883514 ], [ 22.7399219, 37.275943799883514 ], [ 22.7397945, 37.275955099883525 ], [ 22.7396352, 37.275991699883519 ], [ 22.7395007, 37.275988899883522 ], [ 22.7393698, 37.276022699883526 ], [ 22.7392247, 37.276047999883531 ], [ 22.739115, 37.276045199883526 ], [ 22.7389875, 37.276033899883529 ], [ 22.7388672, 37.276047999883531 ], [ 22.7387363, 37.276107199883526 ], [ 22.7386088, 37.276132499883538 ], [ 22.7384991, 37.276185999883552 ], [ 22.738354, 37.27625639988355 ], [ 22.7382408, 37.276318399883564 ], [ 22.7381098, 37.276366299883563 ], [ 22.7379859, 37.276377499883566 ], [ 22.7378727, 37.276371899883571 ], [ 22.7377948, 37.276394399883586 ], [ 22.7376851, 37.27649019988359 ], [ 22.7375789, 37.276543699883597 ], [ 22.7375506, 37.276622499883601 ], [ 22.7374975, 37.276704199883611 ], [ 22.7373914, 37.276735199883611 ], [ 22.737264, 37.276737999883622 ], [ 22.7371649, 37.276757699883603 ], [ 22.7370091, 37.276754899883606 ], [ 22.7368853, 37.27671269988361 ], [ 22.7367614, 37.276687299883605 ], [ 22.7366446, 37.276667599883609 ], [ 22.7365172, 37.276628199883611 ], [ 22.7363969, 37.276585899883607 ], [ 22.7362836, 37.276585899883607 ], [ 22.7361491, 37.276577499883587 ], [ 22.7359686, 37.276543699883597 ], [ 22.7358093, 37.276498599883581 ], [ 22.7357102, 37.27643949988358 ], [ 22.7355722, 37.276391599883581 ], [ 22.7354519, 37.276332499883566 ], [ 22.735328, 37.27625639988355 ], [ 22.7351617, 37.276194499883552 ], [ 22.7350378, 37.276163499883538 ], [ 22.7349529, 37.276107199883526 ], [ 22.7348325, 37.276104399883536 ], [ 22.7347299, 37.276126899883543 ], [ 22.7345919, 37.276149399883529 ], [ 22.7344821, 37.276166299883542 ], [ 22.7343264, 37.27619169988354 ], [ 22.7341884, 37.276242299883556 ], [ 22.7340504, 37.276281799883563 ], [ 22.7339371, 37.276326799883563 ], [ 22.7338097, 37.276338099883567 ], [ 22.7336575, 37.276332499883566 ], [ 22.7335655, 37.276301499883573 ], [ 22.7334841, 37.276270499883552 ], [ 22.7334027, 37.27621139988355 ], [ 22.7333036, 37.276152199883541 ], [ 22.7332116, 37.276095899883536 ], [ 22.7331302, 37.276064899883536 ], [ 22.7330275, 37.276036799883535 ], [ 22.7329355, 37.276045199883526 ], [ 22.7328754, 37.276101499883538 ], [ 22.7328754, 37.276157899883536 ], [ 22.7328258, 37.276259199883562 ], [ 22.7328116, 37.276397199883561 ], [ 22.7327621, 37.276478899883593 ], [ 22.7326736, 37.276521199883597 ], [ 22.7325674, 37.27653519988359 ], [ 22.7325037, 37.276583099883602 ], [ 22.7323692, 37.276628199883611 ], [ 22.7322277, 37.276709799883612 ], [ 22.7321427, 37.276746399883628 ], [ 22.7320543, 37.276737999883622 ], [ 22.7319587, 37.276754899883606 ], [ 22.7318313, 37.276737999883622 ], [ 22.7317322, 37.276695799883605 ], [ 22.7316756, 37.276639399883607 ], [ 22.7315835, 37.276602799883605 ], [ 22.731488, 37.276594399883599 ], [ 22.7314314, 37.276630999883594 ], [ 22.7313783, 37.276698599883616 ], [ 22.7312898, 37.276746399883628 ], [ 22.7312438, 37.276825299883626 ], [ 22.7311765, 37.276878799883633 ], [ 22.7310881, 37.276912599883637 ], [ 22.7310067, 37.276985799883647 ], [ 22.7308863, 37.277028099883658 ], [ 22.7307058, 37.277047799883647 ], [ 22.7305784, 37.277013999883657 ], [ 22.7304864, 37.27697169988366 ], [ 22.7304404, 37.276901299883633 ], [ 22.7304015, 37.276873199883632 ], [ 22.7303342, 37.276870399883634 ], [ 22.7302408, 37.276853099883638 ], [ 22.7302141, 37.276852099883641 ], [ 22.7301409, 37.276853899883641 ], [ 22.7300474, 37.276891799883636 ], [ 22.7299742, 37.276959799883642 ], [ 22.7299376, 37.277040699883663 ], [ 22.7299376, 37.277105399883659 ], [ 22.7299051, 37.277192699883678 ], [ 22.7299132, 37.277276799883701 ], [ 22.7299579, 37.277351199883704 ], [ 22.7299416, 37.277412699883705 ], [ 22.7298522, 37.27747089988371 ], [ 22.7297262, 37.277493499883718 ], [ 22.7296083, 37.27752589988372 ], [ 22.7294213, 37.277584099883725 ], [ 22.729283, 37.277629399883729 ], [ 22.7291692, 37.277635899883727 ], [ 22.7290594, 37.277671499883731 ], [ 22.7289619, 37.277723199883731 ], [ 22.7288399, 37.277732899883745 ], [ 22.7287098, 37.27773939988375 ], [ 22.7286163, 37.277774999883746 ], [ 22.7285675, 37.277849399883763 ], [ 22.7285838, 37.277920599883764 ], [ 22.7286122, 37.27797549988378 ], [ 22.7286976, 37.278049999883784 ], [ 22.7287464, 37.278150199883804 ], [ 22.7288358, 37.278205199883814 ], [ 22.7288724, 37.278266699883822 ], [ 22.7288724, 37.278360499883817 ], [ 22.7288196, 37.278425199883841 ], [ 22.7287139, 37.278480199883845 ], [ 22.7286448, 37.278535199883848 ], [ 22.7285065, 37.278573999883868 ], [ 22.7283764, 37.278619299883857 ], [ 22.7283236, 37.278674299883875 ], [ 22.7282789, 37.278768099883877 ], [ 22.7282138, 37.2788618998839 ], [ 22.7281163, 37.278958999883898 ], [ 22.728090618616697, 37.278983482390636 ] ] } }
]
}
