{
"type": "FeatureCollection",
"name": "patch_49272_point",
"crs": { "type": "name", "properties": { "name": "urn:ogc:def:crs:OGC:1.3:CRS84" } },
"features": [
{ "type": "Feature", "properties": { "@type": "node", "@id": 8779369824, "addr:postcode": null, "created_by": null, "ele": "309", "highway": null, "int_name": null, "landuse": null, "lanes": null, "leaf_type": null, "lit": null, "man_made": "survey_point", "name": null, "name:el": null, "name:en": null, "name:ru": null, "natural": "peak", "noexit": null, "place": null, "source": null, "surface": null, "label": "natural:peak" }, "geometry": { "type": "Point", "coordinates": [ 23.7048, 38.7584301 ] } }
]
}
