{
"type": "FeatureCollection",
"name": "patch_72868_linestring",
"crs": { "type": "name", "properties": { "name": "urn:ogc:def:crs:OGC:1.3:CRS84" } },
"features": [
{ "type": "Feature", "properties": { "osm_id": 27105370, "name": "Εύηνος", "label": "waterway:river", "waterway": "river" }, "geometry": { "type": "LineString", "coordinates": [ [ 22.099577, 38.726843800086272 ], [ 22.0991469, 38.726743800086268 ], [ 22.0987511, 38.7270256000863 ], [ 22.0987154, 38.727408000086356 ], [ 22.0984521, 38.728120200086465 ], [ 22.0978603, 38.728174500086475 ], [ 22.0970409, 38.72804010008646 ], [ 22.0967616, 38.728253500086481 ], [ 22.0963813, 38.728505100086515 ], [ 22.0959634, 38.728643600086535 ], [ 22.0953179, 38.728528300086523 ], [ 22.0947415, 38.728411300086492 ], [ 22.0938515, 38.72787070008642 ], [ 22.0932927, 38.72805710008646 ], [ 22.0927206, 38.727541400086373 ], [ 22.0919955, 38.727740200086416 ], [ 22.0914053, 38.727433700086372 ], [ 22.0914493, 38.726657700086243 ], [ 22.0901103, 38.725586400086087 ], [ 22.0897127, 38.725571600086091 ], [ 22.0892903, 38.725861200086122 ], [ 22.0889559, 38.725607100086094 ], [ 22.0885229, 38.725814400086129 ], [ 22.0882783, 38.726001400086169 ], [ 22.088097771029783, 38.725944832658364 ] ] } },
{ "type": "Feature", "properties": { "osm_id": 538324495, "name": "Εύηνος", "label": "waterway:stream", "waterway": "stream" }, "geometry": { "type": "LineString", "coordinates": [ [ 22.113803423091898, 38.717545874503969 ], [ 22.1138912, 38.717782500084958 ], [ 22.1138268, 38.718050400085005 ], [ 22.1134084, 38.718142400085007 ], [ 22.1128934, 38.718284800085051 ], [ 22.112593, 38.718494000085073 ], [ 22.112314, 38.718803800085112 ], [ 22.1122282, 38.719004700085144 ], [ 22.1122711, 38.719456700085203 ], [ 22.1122818, 38.719900300085271 ], [ 22.1125608, 38.720553300085363 ], [ 22.1125072, 38.720821100085416 ], [ 22.112357, 38.72100530008543 ], [ 22.1120887, 38.721038700085437 ], [ 22.1118205, 38.721030400085425 ], [ 22.1116167, 38.721172700085461 ], [ 22.1114772, 38.7214740000855 ], [ 22.111445, 38.721741900085547 ], [ 22.111563, 38.721951100085583 ], [ 22.1117454, 38.722126900085598 ], [ 22.1117239, 38.722252500085609 ], [ 22.1115308, 38.722286000085624 ], [ 22.1112626, 38.722327800085623 ], [ 22.1112197, 38.722503600085645 ], [ 22.111048, 38.723231800085763 ], [ 22.1108335, 38.723516400085792 ], [ 22.110576, 38.724035400085874 ], [ 22.1104365, 38.724303200085906 ], [ 22.1101361, 38.724587800085942 ], [ 22.1097391, 38.724939400086001 ], [ 22.1090739, 38.725282500086053 ], [ 22.1086662, 38.725483400086077 ], [ 22.1074002, 38.725759600086121 ], [ 22.107014, 38.725809900086134 ], [ 22.1065419, 38.725809900086134 ], [ 22.1060269, 38.72578470008613 ], [ 22.1057587, 38.725901900086143 ], [ 22.1054798, 38.725901900086143 ], [ 22.1051579, 38.725868400086149 ], [ 22.1048682, 38.725910300086142 ], [ 22.1047502, 38.726127900086176 ], [ 22.1047073, 38.7263707000862 ], [ 22.1045356, 38.726613400086251 ], [ 22.1043103, 38.726638500086246 ], [ 22.1040421, 38.726713800086259 ], [ 22.1039455, 38.727048600086313 ], [ 22.1036022, 38.727082100086321 ], [ 22.1029907, 38.726981700086306 ], [ 22.1024328, 38.727073700086308 ], [ 22.1020573, 38.727107200086301 ], [ 22.1017354, 38.727048600086313 ], [ 22.1014672, 38.727098800086317 ], [ 22.1009415, 38.727257900086336 ], [ 22.1006089, 38.727257900086336 ], [ 22.1000832, 38.727157400086341 ], [ 22.0998471, 38.727015100086312 ], [ 22.099577, 38.726843800086272 ] ] } }
]
}
