{
"type": "FeatureCollection",
"name": "patch_38252_point",
"crs": { "type": "name", "properties": { "name": "urn:ogc:def:crs:OGC:1.3:CRS84" } },
"features": [
{ "type": "Feature", "properties": { "element": "node", "id": 5645496186, "amenity": "place_of_worship", "religion": "christian", "landuse": null, "intermittent": null, "name": null, "source": null, "waterway": null, "name:en": null, "building": null, "label": "amenity:place_of_worship" }, "geometry": { "type": "Point", "coordinates": [ 24.4437211, 35.2715821 ] } }
]
}
