{
"type": "FeatureCollection",
"name": "patch_87520_polygon",
"crs": { "type": "name", "properties": { "name": "urn:ogc:def:crs:OGC:1.3:CRS84" } },
"features": [
{ "type": "Feature", "properties": { "@type": "way", "@id": 135298938, "addr:postcode": null, "amenity": null, "barrier": null, "boat": null, "bridge": null, "building": null, "building:part": null, "cables": null, "circuits": null, "entrance": null, "fence_type": null, "ford": null, "highway": null, "landuse": null, "layer": null, "leaf_type": "needleleaved", "line_management": null, "lit": null, "material": null, "name": null, "natural": "wood", "old_ref": null, "operator": null, "operator:wikidata": null, "place": null, "power": null, "reg_ref": null, "religion": null, "source": "http://geodata.gov.gr/geodata/", "structure": null, "voltage": null, "waterway": null, "wikidata": null, "wikipedia": null, "label": "natural:wood" }, "geometry": { "type": "Polygon", "coordinates": [ [ [ 21.917703, 38.247127 ], [ 21.917573, 38.246775 ], [ 21.9176, 38.245834 ], [ 21.917619, 38.245162 ], [ 21.917392, 38.244149 ], [ 21.917408, 38.243611 ], [ 21.917262, 38.242735 ], [ 21.917466, 38.242149 ], [ 21.916055, 38.242115 ], [ 21.91567, 38.242288 ], [ 21.915049, 38.242756 ], [ 21.913906, 38.242856 ], [ 21.912621, 38.242777 ], [ 21.912541, 38.242772 ], [ 21.911578, 38.242319 ], [ 21.910873, 38.243137 ], [ 21.910542, 38.243864 ], [ 21.9105, 38.244037 ], [ 21.910401, 38.244448 ], [ 21.910693, 38.245089 ], [ 21.910993, 38.245436 ], [ 21.911224, 38.246026 ], [ 21.911212, 38.246417 ], [ 21.910647, 38.2467 ], [ 21.910715, 38.247237 ], [ 21.910863294493872, 38.247408655955233 ], [ 21.917763182896419, 38.247408655955233 ], [ 21.917703, 38.247127 ] ] ] } },
{ "type": "Feature", "properties": { "@type": "way", "@id": 814792237, "addr:postcode": null, "amenity": null, "barrier": null, "boat": null, "bridge": null, "building": null, "building:part": null, "cables": null, "circuits": null, "entrance": null, "fence_type": null, "ford": null, "highway": null, "landuse": null, "layer": null, "leaf_type": null, "line_management": null, "lit": null, "material": null, "name": null, "natural": "wood", "old_ref": null, "operator": null, "operator:wikidata": null, "place": null, "power": null, "reg_ref": null, "religion": null, "source": null, "structure": null, "voltage": null, "waterway": null, "wikidata": null, "wikipedia": null, "label": "natural:wood" }, "geometry": { "type": "Polygon", "coordinates": [ [ [ 21.8920032, 38.2246878 ], [ 21.891668, 38.2247442 ], [ 21.8914644, 38.2249793 ], [ 21.891668, 38.2251016 ], [ 21.8917757, 38.2249041 ], [ 21.892075, 38.2248382 ], [ 21.8924102, 38.2248194 ], [ 21.8926496, 38.224669 ], [ 21.892733706576077, 38.224564670875736 ], [ 21.892138528964999, 38.224564670875736 ], [ 21.8920032, 38.2246878 ] ] ] } },
{ "type": "Feature", "properties": { "@type": "way", "@id": 985694364, "addr:postcode": null, "amenity": null, "barrier": null, "boat": null, "bridge": null, "building": null, "building:part": null, "cables": null, "circuits": null, "entrance": null, "fence_type": null, "ford": null, "highway": null, "landuse": "cemetery", "layer": null, "leaf_type": null, "line_management": null, "lit": null, "material": null, "name": null, "natural": null, "old_ref": null, "operator": null, "operator:wikidata": null, "place": null, "power": null, "reg_ref": null, "religion": null, "source": null, "structure": null, "voltage": null, "waterway": null, "wikidata": null, "wikipedia": null, "label": "landuse:cemetery" }, "geometry": { "type": "Polygon", "coordinates": [ [ [ 21.9120972, 38.2340317 ], [ 21.9121197, 38.2339403 ], [ 21.9121345, 38.2338799 ], [ 21.9121262, 38.233788 ], [ 21.9121159, 38.2337647 ], [ 21.9121317, 38.2336478 ], [ 21.9119482, 38.2336354 ], [ 21.9118981, 38.2340319 ], [ 21.9120972, 38.2340317 ] ] ] } },
{ "type": "Feature", "properties": { "@type": "way", "@id": 985694365, "addr:postcode": null, "amenity": "place_of_worship", "barrier": null, "boat": null, "bridge": null, "building": "yes", "building:part": null, "cables": null, "circuits": null, "entrance": null, "fence_type": null, "ford": null, "highway": null, "landuse": null, "layer": null, "leaf_type": null, "line_management": null, "lit": null, "material": null, "name": null, "natural": null, "old_ref": null, "operator": null, "operator:wikidata": null, "place": null, "power": null, "reg_ref": null, "religion": "christian", "source": null, "structure": null, "voltage": null, "waterway": null, "wikidata": null, "wikipedia": null, "label": "building:yes;amenity:place_of_worship" }, "geometry": { "type": "Polygon", "coordinates": [ [ [ 21.9119814, 38.2340255 ], [ 21.9120023, 38.2340256 ], [ 21.9120024, 38.2340133 ], [ 21.9120681, 38.2340136 ], [ 21.9120682, 38.2340023 ], [ 21.9120745, 38.2339968 ], [ 21.9120744, 38.2339865 ], [ 21.9120683, 38.2339799 ], [ 21.9120684, 38.2339686 ], [ 21.9120685, 38.2339459 ], [ 21.9119819, 38.2339456 ], [ 21.9119817, 38.2339683 ], [ 21.9119814, 38.2340139 ], [ 21.9119814, 38.2340255 ] ] ] } }
]
}
