{
"type": "FeatureCollection",
"name": "patch_66507_linestring",
"crs": { "type": "name", "properties": { "name": "urn:ogc:def:crs:OGC:1.3:CRS84" } },
"features": [
{ "type": "Feature", "properties": { "osm_id": 8880845, "name": null, "label": "natural:coastline", "natural": "coastline" }, "geometry": { "type": "LineString", "coordinates": [ [ 23.6141596, 39.129490900144653 ], [ 23.6142557, 39.129583800144651 ], [ 23.6142868, 39.129714600144695 ], [ 23.6145939, 39.129785100144687 ], [ 23.6147661, 39.129855700144716 ], [ 23.6149569, 39.129947700144719 ], [ 23.6150446, 39.130009300144728 ], [ 23.6150358, 39.130052100144738 ], [ 23.6149467, 39.13011530014473 ], [ 23.6148763, 39.130123600144749 ], [ 23.6140959, 39.130019900144724 ], [ 23.6139658, 39.129950300144721 ], [ 23.6139333, 39.129874300144699 ], [ 23.6139492, 39.129729100144687 ], [ 23.6140099, 39.129606000144669 ], [ 23.6140908, 39.129531100144646 ], [ 23.6141596, 39.129490900144653 ] ] } },
{ "type": "Feature", "properties": { "osm_id": 8880842, "name": null, "label": "natural:coastline", "natural": "coastline" }, "geometry": { "type": "LineString", "coordinates": [ [ 23.5918991, 39.147309400147222 ], [ 23.5920799, 39.147394500147236 ], [ 23.5921709, 39.147518000147258 ], [ 23.5921868, 39.147620700147272 ], [ 23.5920898, 39.14783440014731 ], [ 23.5919396, 39.147902900147301 ], [ 23.5917894, 39.147913100147321 ], [ 23.5915319, 39.147833600147301 ], [ 23.5914195, 39.14770900014728 ], [ 23.5913267, 39.147618900147279 ], [ 23.5912127, 39.147542000147254 ], [ 23.5912154, 39.147450100147239 ], [ 23.5914486, 39.14736140014724 ], [ 23.5916792, 39.14732710014723 ], [ 23.5918991, 39.147309400147222 ] ] } }
]
}
