{
"type": "FeatureCollection",
"name": "patch_38252_features",
"crs": { "type": "name", "properties": { "name": "urn:ogc:def:crs:OGC:1.3:CRS84" } },
"features": [
{ "type": "Feature", "properties": { "@type": "way", "@id": 332045553, "amenity": null, "bridge": null, "building": null, "highway": null, "intermittent": "yes", "landuse": null, "layer": null, "man_made": null, "name": "Babatsonas", "name:de": null, "name:el": null, "name:en": null, "name:ru": null, "place": null, "religion": null, "service": null, "smoothness": null, "source": "Bing", "surface": null, "tracktype": null, "waterway": "stream", "width": null, "label": "waterway:stream" }, "geometry": { "type": "LineString", "coordinates": [ [ 24.434496493770801, 35.286289350370254 ], [ 24.4345417, 35.2858444 ], [ 24.4344317, 35.2851075 ], [ 24.4341036, 35.2849315 ], [ 24.4339027, 35.2849238 ], [ 24.4335495, 35.2849294 ], [ 24.4327238, 35.2848014 ], [ 24.4322629, 35.2847672 ], [ 24.4318808, 35.2848368 ], [ 24.4317417, 35.284984 ], [ 24.4316342, 35.2851328 ], [ 24.431478, 35.285682 ], [ 24.431217, 35.2862176 ], [ 24.431180327263338, 35.286289350370254 ] ] } },
{ "type": "Feature", "properties": { "@type": "way", "@id": 560394605, "amenity": null, "bridge": null, "building": null, "highway": null, "intermittent": "yes", "landuse": null, "layer": null, "man_made": null, "name": null, "name:de": null, "name:el": null, "name:en": "Dafnorrema", "name:ru": null, "place": null, "religion": null, "service": null, "smoothness": null, "source": null, "surface": null, "tracktype": null, "waterway": "stream", "width": null, "label": "waterway:stream" }, "geometry": { "type": "LineString", "coordinates": [ [ 24.4423498, 35.2634212 ], [ 24.4431747, 35.2644674 ], [ 24.443098, 35.266253 ], [ 24.4440571, 35.2673337 ], [ 24.4441097, 35.26821 ], [ 24.4441766, 35.2683048 ], [ 24.4454192, 35.2697614 ], [ 24.4456717, 35.2701339 ], [ 24.4457069, 35.2707482 ], [ 24.4475294, 35.2719228 ], [ 24.4475102, 35.2735046 ], [ 24.44822, 35.2748202 ], [ 24.4481432, 35.2756189 ], [ 24.4485845, 35.2767465 ], [ 24.4484885, 35.2776548 ], [ 24.4487379, 35.2791269 ], [ 24.4484502, 35.279816 ], [ 24.4482967, 35.2808652 ], [ 24.4484694, 35.2819771 ], [ 24.4489298, 35.2832299 ], [ 24.4482967, 35.2840598 ], [ 24.4485077, 35.2853126 ], [ 24.4486946, 35.2860499 ], [ 24.448584222342692, 35.286289350370254 ] ] } },
{ "type": "Feature", "properties": { "@type": "node", "@id": 5645496186, "amenity": "place_of_worship", "bridge": null, "building": null, "highway": null, "intermittent": null, "landuse": null, "layer": null, "man_made": null, "name": null, "name:de": null, "name:el": null, "name:en": null, "name:ru": null, "place": null, "religion": "christian", "service": null, "smoothness": null, "source": null, "surface": null, "tracktype": null, "waterway": null, "width": null, "label": "amenity:place_of_worship" }, "geometry": { "type": "Point", "coordinates": [ 24.4437211, 35.2715821 ] } },
{ "type": "Feature", "properties": { "@type": "way", "@id": 181642245, "amenity": null, "bridge": null, "building": null, "highway": null, "intermittent": null, "landuse": "residential", "layer": null, "man_made": null, "name": null, "name:de": null, "name:el": null, "name:en": null, "name:ru": null, "place": null, "religion": null, "service": null, "smoothness": null, "source": null, "surface": null, "tracktype": null, "waterway": null, "width": null, "label": "landuse:residential" }, "geometry": { "type": "Polygon", "coordinates": [ [ [ 24.4380441, 35.273057 ], [ 24.4390135, 35.2731816 ], [ 24.4400238, 35.2731823 ], [ 24.4406529, 35.2737711 ], [ 24.44076, 35.2748286 ], [ 24.4408831, 35.2755 ], [ 24.4413282, 35.2754499 ], [ 24.4414049, 35.2746982 ], [ 24.4421415, 35.2745228 ], [ 24.442387, 35.273934 ], [ 24.4416351, 35.2731572 ], [ 24.4418346, 35.2720422 ], [ 24.441144, 35.2714658 ], [ 24.4399931, 35.2723303 ], [ 24.4392104, 35.2726811 ], [ 24.437906, 35.2722802 ], [ 24.4380441, 35.273057 ] ] ] } },
{ "type": "Feature", "properties": { "@type": "way", "@id": 561345214, "amenity": null, "bridge": null, "building": "yes", "highway": null, "intermittent": null, "landuse": null, "layer": null, "man_made": null, "name": null, "name:de": null, "name:el": null, "name:en": null, "name:ru": null, "place": null, "religion": null, "service": null, "smoothness": null, "source": null, "surface": null, "tracktype": null, "waterway": null, "width": null, "label": "building:yes" }, "geometry": { "type": "Polygon", "coordinates": [ [ [ 24.4380961, 35.283015 ], [ 24.4383503, 35.283009 ], [ 24.4383552, 35.282878 ], [ 24.4384589, 35.282872 ], [ 24.4384663, 35.2827591 ], [ 24.4380887, 35.2827632 ], [ 24.4380961, 35.283015 ] ] ] } },
{ "type": "Feature", "properties": { "@type": "way", "@id": 561345217, "amenity": null, "bridge": null, "building": "yes", "highway": null, "intermittent": null, "landuse": null, "layer": null, "man_made": null, "name": null, "name:de": null, "name:el": null, "name:en": null, "name:ru": null, "place": null, "religion": null, "service": null, "smoothness": null, "source": null, "surface": null, "tracktype": null, "waterway": null, "width": null, "label": "building:yes" }, "geometry": { "type": "Polygon", "coordinates": [ [ [ 24.4457761, 35.2793022 ], [ 24.4458115, 35.2791717 ], [ 24.4457043, 35.2791522 ], [ 24.4456689, 35.2792828 ], [ 24.4457761, 35.2793022 ] ] ] } },
{ "type": "Feature", "properties": { "@type": "way", "@id": 561345218, "amenity": null, "bridge": null, "building": "yes", "highway": null, "intermittent": null, "landuse": null, "layer": null, "man_made": null, "name": null, "name:de": null, "name:el": null, "name:en": null, "name:ru": null, "place": null, "religion": null, "service": null, "smoothness": null, "source": null, "surface": null, "tracktype": null, "waterway": null, "width": null, "label": "building:yes" }, "geometry": { "type": "Polygon", "coordinates": [ [ [ 24.4455719, 35.2795169 ], [ 24.4456385, 35.2795074 ], [ 24.4456123, 35.2793848 ], [ 24.4455457, 35.2793943 ], [ 24.4455719, 35.2795169 ] ] ] } },
{ "type": "Feature", "properties": { "@type": "way", "@id": 561800277, "amenity": null, "bridge": null, "building": "yes", "highway": null, "intermittent": null, "landuse": null, "layer": null, "man_made": null, "name": null, "name:de": null, "name:el": null, "name:en": null, "name:ru": null, "place": null, "religion": null, "service": null, "smoothness": null, "source": null, "surface": null, "tracktype": null, "waterway": null, "width": null, "label": "building:yes" }, "geometry": { "type": "Polygon", "coordinates": [ [ [ 24.4427595, 35.2694758 ], [ 24.4428901, 35.2692771 ], [ 24.4427886, 35.2692326 ], [ 24.442658, 35.2694313 ], [ 24.4427595, 35.2694758 ] ] ] } },
{ "type": "Feature", "properties": { "@type": "way", "@id": 591333857, "amenity": "place_of_worship", "bridge": null, "building": "yes", "highway": null, "intermittent": null, "landuse": null, "layer": null, "man_made": null, "name": null, "name:de": null, "name:el": null, "name:en": null, "name:ru": null, "place": null, "religion": "christian", "service": null, "smoothness": null, "source": null, "surface": null, "tracktype": null, "waterway": null, "width": null, "label": "building:yes;amenity:place_of_worship" }, "geometry": { "type": "Polygon", "coordinates": [ [ [ 24.4414031, 35.2739524 ], [ 24.4414139, 35.273878 ], [ 24.4412502, 35.2738648 ], [ 24.4412395, 35.2739371 ], [ 24.4414031, 35.2739524 ] ] ] } },
{ "type": "Feature", "properties": { "@type": "way", "@id": 591333858, "amenity": "grave_yard", "bridge": null, "building": null, "highway": null, "intermittent": null, "landuse": null, "layer": null, "man_made": null, "name": null, "name:de": null, "name:el": null, "name:en": null, "name:ru": null, "place": null, "religion": null, "service": null, "smoothness": null, "source": null, "surface": null, "tracktype": null, "waterway": null, "width": null, "label": "amenity:grave_yard" }, "geometry": { "type": "Polygon", "coordinates": [ [ [ 24.4435503, 35.2715506 ], [ 24.4436439, 35.2716983 ], [ 24.4436967, 35.2717497 ], [ 24.4437821, 35.2717978 ], [ 24.443904, 35.2718111 ], [ 24.4439833, 35.2717995 ], [ 24.4440199, 35.271748 ], [ 24.4440301, 35.2716651 ], [ 24.4439284, 35.2715755 ], [ 24.4438288, 35.271519 ], [ 24.4437414, 35.2714941 ], [ 24.4436621, 35.2714858 ], [ 24.4435829, 35.2714842 ], [ 24.4435463, 35.2715091 ], [ 24.4435503, 35.2715506 ] ] ] } },
{ "type": "Feature", "properties": { "@type": "way", "@id": 614236649, "amenity": "place_of_worship", "bridge": null, "building": "yes", "highway": null, "intermittent": null, "landuse": null, "layer": null, "man_made": null, "name": null, "name:de": null, "name:el": null, "name:en": null, "name:ru": null, "place": null, "religion": "christian", "service": null, "smoothness": null, "source": null, "surface": null, "tracktype": null, "waterway": null, "width": null, "label": "building:yes;amenity:place_of_worship" }, "geometry": { "type": "Polygon", "coordinates": [ [ [ 24.445107, 35.270221 ], [ 24.4451571, 35.2702099 ], [ 24.44514, 35.2701585 ], [ 24.4450899, 35.2701696 ], [ 24.445107, 35.270221 ] ] ] } },
{ "type": "Feature", "properties": { "@type": "way", "@id": 1238950995, "amenity": null, "bridge": null, "building": "yes", "highway": null, "intermittent": null, "landuse": null, "layer": null, "man_made": null, "name": null, "name:de": null, "name:el": null, "name:en": null, "name:ru": null, "place": null, "religion": null, "service": null, "smoothness": null, "source": null, "surface": null, "tracktype": null, "waterway": null, "width": null, "label": "building:yes" }, "geometry": { "type": "Polygon", "coordinates": [ [ [ 24.4376245, 35.2746485 ], [ 24.4376323, 35.274681 ], [ 24.4376778, 35.2746873 ], [ 24.4377108, 35.2745899 ], [ 24.4376197, 35.2745686 ], [ 24.437578, 35.2746398 ], [ 24.4376245, 35.2746485 ] ] ] } },
{ "type": "Feature", "properties": { "@type": "way", "@id": 1238950996, "amenity": null, "bridge": null, "building": null, "highway": null, "intermittent": null, "landuse": "farmyard", "layer": null, "man_made": null, "name": null, "name:de": null, "name:el": null, "name:en": null, "name:ru": null, "place": null, "religion": null, "service": null, "smoothness": null, "source": null, "surface": null, "tracktype": null, "waterway": null, "width": null, "label": "landuse:farmyard" }, "geometry": { "type": "Polygon", "coordinates": [ [ [ 24.4352425, 35.2764701 ], [ 24.4353422, 35.2764331 ], [ 24.4356004, 35.2764738 ], [ 24.4355823, 35.276239 ], [ 24.435512, 35.2762445 ], [ 24.4351814, 35.2763111 ], [ 24.4352425, 35.2764701 ] ] ] } },
{ "type": "Feature", "properties": { "@type": "way", "@id": 1238950997, "amenity": null, "bridge": null, "building": "barn", "highway": null, "intermittent": null, "landuse": null, "layer": null, "man_made": null, "name": null, "name:de": null, "name:el": null, "name:en": null, "name:ru": null, "place": null, "religion": null, "service": null, "smoothness": null, "source": null, "surface": null, "tracktype": null, "waterway": null, "width": null, "label": "building:barn" }, "geometry": { "type": "Polygon", "coordinates": [ [ [ 24.4336994, 35.2754747 ], [ 24.4337624, 35.2754311 ], [ 24.4337899, 35.2754121 ], [ 24.4336306, 35.2752387 ], [ 24.4335382, 35.275311 ], [ 24.4336994, 35.2754747 ] ] ] } },
{ "type": "Feature", "properties": { "@type": "way", "@id": 1238950998, "amenity": null, "bridge": null, "building": "barn", "highway": null, "intermittent": null, "landuse": null, "layer": null, "man_made": null, "name": null, "name:de": null, "name:el": null, "name:en": null, "name:ru": null, "place": null, "religion": null, "service": null, "smoothness": null, "source": null, "surface": null, "tracktype": null, "waterway": null, "width": null, "label": "building:barn" }, "geometry": { "type": "Polygon", "coordinates": [ [ [ 24.433839, 35.2753238 ], [ 24.4339314, 35.2752885 ], [ 24.4338744, 35.2751649 ], [ 24.4337682, 35.2752002 ], [ 24.433839, 35.2753238 ] ] ] } },
{ "type": "Feature", "properties": { "@type": "way", "@id": 1238950999, "amenity": null, "bridge": null, "building": "barn", "highway": null, "intermittent": null, "landuse": null, "layer": null, "man_made": null, "name": null, "name:de": null, "name:el": null, "name:en": null, "name:ru": null, "place": null, "religion": null, "service": null, "smoothness": null, "source": null, "surface": null, "tracktype": null, "waterway": null, "width": null, "label": "building:barn" }, "geometry": { "type": "Polygon", "coordinates": [ [ [ 24.4337859, 35.2754972 ], [ 24.4339413, 35.2754747 ], [ 24.4339177, 35.2753848 ], [ 24.4337624, 35.2754311 ], [ 24.4337859, 35.2754972 ] ] ] } },
{ "type": "Feature", "properties": { "@type": "way", "@id": 1353768604, "amenity": null, "bridge": null, "building": "yes", "highway": null, "intermittent": null, "landuse": null, "layer": null, "man_made": null, "name": null, "name:de": null, "name:el": null, "name:en": null, "name:ru": null, "place": null, "religion": null, "service": null, "smoothness": null, "source": null, "surface": null, "tracktype": null, "waterway": null, "width": null, "label": "building:yes" }, "geometry": { "type": "Polygon", "coordinates": [ [ [ 24.4381688, 35.2714168 ], [ 24.4381967, 35.2713484 ], [ 24.4382503, 35.2713655 ], [ 24.4383457, 35.2711507 ], [ 24.4381106, 35.2710727 ], [ 24.4379895, 35.2713636 ], [ 24.4381688, 35.2714168 ] ] ] } },
{ "type": "Feature", "properties": { "@type": "way", "@id": 1353768605, "amenity": null, "bridge": null, "building": "yes", "highway": null, "intermittent": null, "landuse": null, "layer": null, "man_made": null, "name": null, "name:de": null, "name:el": null, "name:en": null, "name:ru": null, "place": null, "religion": null, "service": null, "smoothness": null, "source": null, "surface": null, "tracktype": null, "waterway": null, "width": null, "label": "building:yes" }, "geometry": { "type": "Polygon", "coordinates": [ [ [ 24.4403352, 35.2707642 ], [ 24.4403701, 35.2707478 ], [ 24.4403952, 35.2707836 ], [ 24.4404768, 35.2707453 ], [ 24.4404952, 35.2707714 ], [ 24.4405636, 35.2707393 ], [ 24.4404917, 35.2706371 ], [ 24.4403068, 35.2707238 ], [ 24.4403352, 35.2707642 ] ] ] } }
]
}
