{
"type": "FeatureCollection",
"name": "patch_54424_polygon",
"crs": { "type": "name", "properties": { "name": "urn:ogc:def:crs:OGC:1.3:CRS84" } },
"features": [
{ "type": "Feature", "properties": { "osm_id": 138271390, "name": "Δασόκτημα Πολυδενδρίου", "label": "leisure:nature_reserve", "leisure": "nature_reserve", "natural": null }, "geometry": { "type": "Polygon", "coordinates": [ [ [ 22.8163088, 39.640635600217657 ], [ 22.8171389, 39.641366000217751 ], [ 22.8172599, 39.641472500217759 ], [ 22.8173343, 39.641538000217778 ], [ 22.8187097, 39.641993500217836 ], [ 22.8198226, 39.642212000217881 ], [ 22.8208472, 39.642204400217878 ], [ 22.8218131, 39.642430400217911 ], [ 22.8222873, 39.642855500217962 ], [ 22.8225755, 39.643113900218005 ], [ 22.823658, 39.643791600218108 ], [ 22.8243905, 39.644215900218157 ], [ 22.8247204, 39.644407100218189 ], [ 22.8248294, 39.644470200218187 ], [ 22.8262652, 39.645367700218323 ], [ 22.8270848, 39.646051700218415 ], [ 22.8275256, 39.646731900218512 ], [ 22.8284632, 39.64786760021866 ], [ 22.8293143, 39.649453000218898 ], [ 22.8300184, 39.651045800219116 ], [ 22.8310736, 39.652407900219309 ], [ 22.8322747, 39.653546200219466 ], [ 22.8335941, 39.655361500219719 ], [ 22.834327, 39.656269800219839 ], [ 22.8353227, 39.65717180021997 ], [ 22.8362322, 39.657847700220067 ], [ 22.836481635133833, 39.658237452079682 ], [ 22.846269291159064, 39.658237452079682 ], [ 22.846269291159064, 39.635653022332292 ], [ 22.815838612754295, 39.635653022332292 ], [ 22.815838612754295, 39.640296269452911 ], [ 22.8163088, 39.640635600217657 ] ] ] } },
{ "type": "Feature", "properties": { "osm_id": -1839292, "name": null, "label": "natural:wood", "leisure": null, "natural": "wood" }, "geometry": { "type": "Polygon", "coordinates": [ [ [ 22.815838612754295, 39.658237452079682 ], [ 22.846269291159064, 39.658237452079682 ], [ 22.846269291159064, 39.635653022332292 ], [ 22.815838612754295, 39.635653022332292 ], [ 22.815838612754295, 39.658237452079682 ] ] ] } }
]
}
