{
"type": "FeatureCollection",
"name": "patch_73767_multipolygon",
"crs": { "type": "name", "properties": { "name": "urn:ogc:def:crs:OGC:1.3:CRS84" } },
"features": [
{ "type": "Feature", "properties": { "element": "way", "id": 136245292, "ele": null, "man_made": null, "name": null, "natural": "wood", "leaf_type": "mixed", "source": "http://geodata.gov.gr/", "label": "natural:wood" }, "geometry": { "type": "MultiPolygon", "coordinates": [ [ [ [ 23.394556, 38.75613 ], [ 23.394907, 38.756643 ], [ 23.395256, 38.757386 ], [ 23.395309, 38.758129 ], [ 23.395305, 38.758546 ], [ 23.395422, 38.758779 ], [ 23.395777, 38.758781 ], [ 23.396252, 38.758644 ], [ 23.396907, 38.758276 ], [ 23.397737, 38.758188 ], [ 23.398788348685144, 38.758706783480406 ], [ 23.398788348685144, 38.755917065227244 ], [ 23.394489864065196, 38.755917065227244 ], [ 23.394556, 38.75613 ] ] ], [ [ [ 23.398784, 38.765526 ], [ 23.398778, 38.766315 ], [ 23.398788348685144, 38.766321301427091 ], [ 23.398788348685144, 38.765491414363453 ], [ 23.398784, 38.765526 ] ] ] ] } }
]
}
