{
"type": "FeatureCollection",
"name": "patch_35114_features",
"crs": { "type": "name", "properties": { "name": "urn:ogc:def:crs:OGC:1.3:CRS84" } },
"features": [
{ "type": "Feature", "properties": { "osm_id": -1842449, "name": null, "label": "natural:wood", "natural": "wood", "waterway": null }, "geometry": { "type": "Polygon", "coordinates": [ [ [ 21.907636, 41.012926000393605 ], [ 21.907852, 41.013364000393658 ], [ 21.908174, 41.014065000393728 ], [ 21.908155, 41.014673000393792 ], [ 21.908701, 41.015552000393896 ], [ 21.908687, 41.015987000393949 ], [ 21.909238, 41.016692000394009 ], [ 21.909798, 41.017137000394051 ], [ 21.909782903893973, 41.017604981101918 ], [ 21.937860400500579, 41.017604981101918 ], [ 21.937860400500579, 40.994790517695627 ], [ 21.907100523594231, 40.994790517695627 ], [ 21.907100523594231, 41.012499726750065 ], [ 21.907636, 41.012926000393605 ] ] ] } },
{ "type": "Feature", "properties": { "osm_id": 202672289, "name": "Τσέρνα Ρέκα", "label": "waterway:stream", "natural": null, "waterway": "stream" }, "geometry": { "type": "LineString", "coordinates": [ [ 21.922487364518432, 41.017604981101918 ], [ 21.9225081, 41.017533900394099 ], [ 21.9230656, 41.017226500394067 ], [ 21.9233015, 41.017048600394048 ], [ 21.9238805, 41.016822000394015 ], [ 21.924245, 41.016571300394006 ], [ 21.9245774, 41.016425600393987 ], [ 21.9249312, 41.016538900393996 ], [ 21.925092, 41.016652200393999 ], [ 21.9251349, 41.01683820039402 ], [ 21.9253494, 41.017016200394039 ], [ 21.9259605, 41.017105200394056 ], [ 21.9262178, 41.016967700394055 ], [ 21.9264323, 41.016773500394017 ], [ 21.9267218, 41.016636000394008 ], [ 21.9269684, 41.016644100394011 ], [ 21.9273651, 41.016627900393999 ], [ 21.9281478, 41.016530800393987 ], [ 21.9288768, 41.016401400393981 ], [ 21.9293915, 41.016280000393969 ], [ 21.9296488, 41.016158700393945 ], [ 21.9300348, 41.015665200393897 ], [ 21.9300455, 41.015487200393885 ], [ 21.9302707, 41.015034200393814 ], [ 21.930335, 41.014742900393806 ], [ 21.9302385, 41.014039100393703 ], [ 21.9301742, 41.013804500393704 ], [ 21.9295738, 41.013108700393602 ], [ 21.9294558, 41.012825600393583 ], [ 21.9293593, 41.012574800393551 ], [ 21.9295309, 41.012105500393503 ], [ 21.9299169, 41.011660500393454 ], [ 21.9301099, 41.011191300393406 ], [ 21.9306031, 41.010568300393331 ], [ 21.9310105, 41.010414600393304 ], [ 21.9315787, 41.010002000393278 ], [ 21.9316538, 41.009702600393233 ], [ 21.9317074, 41.009516500393218 ], [ 21.9317289, 41.009362800393198 ], [ 21.9317074, 41.009225300393183 ], [ 21.9316216, 41.009047300393156 ], [ 21.9314822, 41.008853100393132 ], [ 21.9311177, 41.008578000393101 ], [ 21.9306567, 41.007995500393044 ], [ 21.9308175, 41.007671800393013 ], [ 21.9309247, 41.00738870039298 ], [ 21.9307103, 41.006757600392902 ], [ 21.9306138, 41.006531000392876 ], [ 21.930528, 41.006288300392853 ], [ 21.9308068, 41.005819000392812 ], [ 21.930914, 41.005398200392754 ], [ 21.9305387, 41.004791400392698 ], [ 21.9303672, 41.004411100392652 ], [ 21.9298847, 41.00331880039252 ], [ 21.9295952, 41.00294660039247 ], [ 21.929949, 41.002590500392429 ], [ 21.9301313, 41.002307300392417 ], [ 21.9302814, 41.001393000392305 ], [ 21.9303136, 41.000778000392245 ], [ 21.9300777, 41.000074000392161 ], [ 21.9297453, 40.999507600392093 ], [ 21.9293593, 40.998981600392035 ], [ 21.9290913, 40.998301900391951 ], [ 21.9290698, 40.997541200391879 ], [ 21.9297453, 40.996934300391814 ], [ 21.9306031, 40.99620600039173 ], [ 21.9306567, 40.995995600391701 ], [ 21.9307103, 40.995599100391651 ], [ 21.9306459, 40.995137800391603 ], [ 21.9306567, 40.994895000391587 ], [ 21.930781330216817, 40.994790517695627 ] ] } },
{ "type": "Feature", "properties": { "osm_id": 6715415222, "name": null, "label": "natural:saddle", "natural": "saddle", "waterway": null }, "geometry": { "type": "Point", "coordinates": [ 21.9114241, 40.997186600391828 ] } },
{ "type": "Feature", "properties": { "osm_id": 345213004, "name": null, "label": "natural:peak", "natural": "peak", "waterway": null }, "geometry": { "type": "Point", "coordinates": [ 21.9089944, 41.001283000392291 ] } }
]
}
