{
"type": "FeatureCollection",
"name": "patch_35114_polygon",
"crs": { "type": "name", "properties": { "name": "urn:ogc:def:crs:OGC:1.3:CRS84" } },
"features": [
{ "type": "Feature", "properties": { "osm_id": -1842449, "name": null, "label": "natural:wood", "natural": "wood" }, "geometry": { "type": "Polygon", "coordinates": [ [ [ 21.907636, 41.012926000393605 ], [ 21.907852, 41.013364000393658 ], [ 21.908174, 41.014065000393728 ], [ 21.908155, 41.014673000393792 ], [ 21.908701, 41.015552000393896 ], [ 21.908687, 41.015987000393949 ], [ 21.909238, 41.016692000394009 ], [ 21.909798, 41.017137000394051 ], [ 21.909782903893973, 41.017604981101918 ], [ 21.937860400500579, 41.017604981101918 ], [ 21.937860400500579, 40.994790517695627 ], [ 21.907100523594231, 40.994790517695627 ], [ 21.907100523594231, 41.012499726750065 ], [ 21.907636, 41.012926000393605 ] ] ] } }
]
}
