{
"type": "FeatureCollection",
"name": "patch_35114_point",
"crs": { "type": "name", "properties": { "name": "urn:ogc:def:crs:OGC:1.3:CRS84" } },
"features": [
{ "type": "Feature", "properties": { "osm_id": 6715415222, "name": null, "label": "natural:saddle", "natural": "saddle" }, "geometry": { "type": "Point", "coordinates": [ 21.9114241, 40.997186600391828 ] } },
{ "type": "Feature", "properties": { "osm_id": 345213004, "name": null, "label": "natural:peak", "natural": "peak" }, "geometry": { "type": "Point", "coordinates": [ 21.9089944, 41.001283000392291 ] } }
]
}
