{
"type": "FeatureCollection",
"name": "patch_3952_features",
"crs": { "type": "name", "properties": { "name": "urn:ogc:def:crs:OGC:1.3:CRS84" } },
"features": [
{ "type": "Feature", "properties": { "@type": "way", "@id": 254067481, "access": null, "addr:city": null, "addr:postcode": null, "addr:street": null, "alt_name": null, "alt_name:el": null, "alt_name:en": null, "amenity": null, "area": null, "barrier": null, "brand": null, "brand:wikidata": null, "bridge": null, "bridge:structure": null, "building": null, "charge:conditional": null, "charge:motorcar:conditional": null, "charge:motorcycle": null, "check_date": null, "construction": null, "covered": null, "denomination": null, "description": null, "emergency": null, "fixme": null, "ford": null, "highway": null, "historic": null, "historic:civilization": null, "historic:period": null, "historic:sport": null, "int_name": null, "int_ref": null, "landuse": null, "lanes": null, "lanes:backward": null, "lanes:forward": null, "lanes:reversible": null, "layer": "-1", "level": null, "lift_gate:type": null, "lit": null, "man_made": null, "maxheight": null, "maxspeed": null, "maxspeed:backward": null, "maxspeed:forward": null, "name": "Ελισσώνας", "name:bg": null, "name:ca": null, "name:de": null, "name:el": "Ελισσώνας", "name:en": "Elissonas", "name:es": null, "name:fr": null, "name:it": null, "name:mk": null, "name:nl": null, "name:pl": null, "name:pt": null, "name:ro": null, "name:ru": null, "name:sq": null, "name:sr": null, "name:tr": null, "name:uk": null, "nat_name": null, "noexit": null, "note": null, "old_ref": null, "oneway": null, "opening_hours": null, "operator": null, "overtaking": null, "payment:cash": null, "payment:contactless": null, "payment:credit_cards": null, "payment:debit_cards": null, "payment:grits": null, "payment:prepaid_ticket": null, "phone": null, "place": null, "placement": null, "ref": null, "reg_ref": null, "religion": null, "ruins": null, "service": null, "shop": null, "sidewalk": null, "smoothness": null, "source": null, "source:ref": null, "source:reg_ref": null, "surface": null, "toll": null, "tourism": null, "tracktype": null, "traffic_sign": null, "traffic_sign:backward": null, "traffic_sign:direction": null, "traffic_sign:forward": null, "tunnel": "yes", "waterway": "river", "website": null, "width": null, "wikidata": "Q3723337", "wikipedia": "en:Elissonas (Corinthia)", "label": "waterway:river" }, "geometry": { "type": "LineString", "coordinates": [ [ 22.735302, 38.0013092 ], [ 22.7360852, 38.0016474 ] ] } },
{ "type": "Feature", "properties": { "@type": "way", "@id": 355386730, "access": null, "addr:city": null, "addr:postcode": null, "addr:street": null, "alt_name": null, "alt_name:el": null, "alt_name:en": null, "amenity": null, "area": null, "barrier": null, "brand": null, "brand:wikidata": null, "bridge": null, "bridge:structure": null, "building": null, "charge:conditional": null, "charge:motorcar:conditional": null, "charge:motorcycle": null, "check_date": null, "construction": null, "covered": null, "denomination": null, "description": null, "emergency": null, "fixme": null, "ford": null, "highway": null, "historic": null, "historic:civilization": null, "historic:period": null, "historic:sport": null, "int_name": null, "int_ref": null, "landuse": null, "lanes": null, "lanes:backward": null, "lanes:forward": null, "lanes:reversible": null, "layer": null, "level": null, "lift_gate:type": null, "lit": null, "man_made": null, "maxheight": null, "maxspeed": null, "maxspeed:backward": null, "maxspeed:forward": null, "name": "Ελισσώνας", "name:bg": null, "name:ca": null, "name:de": null, "name:el": "Ελισσώνας", "name:en": "Elissonas", "name:es": null, "name:fr": null, "name:it": null, "name:mk": null, "name:nl": null, "name:pl": null, "name:pt": null, "name:ro": null, "name:ru": null, "name:sq": null, "name:sr": null, "name:tr": null, "name:uk": null, "nat_name": null, "noexit": null, "note": null, "old_ref": null, "oneway": null, "opening_hours": null, "operator": null, "overtaking": null, "payment:cash": null, "payment:contactless": null, "payment:credit_cards": null, "payment:debit_cards": null, "payment:grits": null, "payment:prepaid_ticket": null, "phone": null, "place": null, "placement": null, "ref": null, "reg_ref": null, "religion": null, "ruins": null, "service": null, "shop": null, "sidewalk": null, "smoothness": null, "source": null, "source:ref": null, "source:reg_ref": null, "surface": null, "toll": null, "tourism": null, "tracktype": null, "traffic_sign": null, "traffic_sign:backward": null, "traffic_sign:direction": null, "traffic_sign:forward": null, "tunnel": null, "waterway": "river", "website": null, "width": null, "wikidata": "Q3723337", "wikipedia": "en:Elissonas (Corinthia)", "label": "waterway:river" }, "geometry": { "type": "LineString", "coordinates": [ [ 22.711645764003986, 37.990436111459857 ], [ 22.7119224, 37.9905948 ], [ 22.7122724, 37.990997 ], [ 22.7125707, 37.9913388 ], [ 22.7128935, 37.9915525 ], [ 22.7135591, 37.9918614 ], [ 22.7137587, 37.9919741 ], [ 22.7139584, 37.9922227 ], [ 22.7142073, 37.9923587 ], [ 22.7146115, 37.9924791 ], [ 22.7152006, 37.9925821 ], [ 22.7159475, 37.9928113 ], [ 22.7163788, 37.9930638 ], [ 22.7170468, 37.9932503 ], [ 22.7180549, 37.9933124 ], [ 22.7193588, 37.9935825 ], [ 22.7200114, 37.9937631 ], [ 22.7202736, 37.9939088 ], [ 22.7203533, 37.9939736 ], [ 22.7208968, 37.9943299 ], [ 22.7214105, 37.9945949 ], [ 22.7218533, 37.9951042 ], [ 22.7227443, 37.9958682 ], [ 22.7229516, 37.9962009 ], [ 22.723088, 37.996563 ], [ 22.7231964, 37.9972211 ], [ 22.7234373, 37.9974934 ], [ 22.7237343, 37.9976347 ], [ 22.7241114, 37.9976615 ], [ 22.7248787, 37.9975544 ], [ 22.725091, 37.9976303 ], [ 22.7252411, 37.9978244 ], [ 22.7254279, 37.9979985 ], [ 22.725847, 37.9981569 ], [ 22.7262264, 37.9981189 ], [ 22.7268323, 37.9978914 ], [ 22.7271834, 37.9977441 ], [ 22.7275401, 37.9977285 ], [ 22.7280215, 37.9978043 ], [ 22.7283329, 37.9980297 ], [ 22.7284858, 37.9983064 ], [ 22.7284632, 37.9987236 ], [ 22.7287774, 37.998998 ], [ 22.7291002, 37.9990962 ], [ 22.7294711, 37.9990895 ], [ 22.7300034, 37.9989199 ], [ 22.7305867, 37.998853 ], [ 22.7312174, 37.9988718 ], [ 22.7316327, 37.9990155 ], [ 22.7319868, 37.9991745 ], [ 22.7321627, 37.9993351 ], [ 22.7324524, 37.9996944 ], [ 22.7328816, 38.000096 ], [ 22.7331659, 38.0002271 ], [ 22.7334513, 38.0002947 ], [ 22.7338429, 38.0004596 ], [ 22.7341798, 38.000654 ], [ 22.7345456, 38.0008823 ], [ 22.7349791, 38.0011486 ], [ 22.735302, 38.0013092 ] ] } },
{ "type": "Feature", "properties": { "@type": "way", "@id": 355386731, "access": null, "addr:city": null, "addr:postcode": null, "addr:street": null, "alt_name": null, "alt_name:el": null, "alt_name:en": null, "amenity": null, "area": null, "barrier": null, "brand": null, "brand:wikidata": null, "bridge": null, "bridge:structure": null, "building": null, "charge:conditional": null, "charge:motorcar:conditional": null, "charge:motorcycle": null, "check_date": null, "construction": null, "covered": null, "denomination": null, "description": null, "emergency": null, "fixme": null, "ford": null, "highway": null, "historic": null, "historic:civilization": null, "historic:period": null, "historic:sport": null, "int_name": null, "int_ref": null, "landuse": null, "lanes": null, "lanes:backward": null, "lanes:forward": null, "lanes:reversible": null, "layer": null, "level": null, "lift_gate:type": null, "lit": null, "man_made": null, "maxheight": null, "maxspeed": null, "maxspeed:backward": null, "maxspeed:forward": null, "name": "Ελισσώνας", "name:bg": null, "name:ca": null, "name:de": null, "name:el": "Ελισσώνας", "name:en": "Elissonas", "name:es": null, "name:fr": null, "name:it": null, "name:mk": null, "name:nl": null, "name:pl": null, "name:pt": null, "name:ro": null, "name:ru": null, "name:sq": null, "name:sr": null, "name:tr": null, "name:uk": null, "nat_name": null, "noexit": null, "note": null, "old_ref": null, "oneway": null, "opening_hours": null, "operator": null, "overtaking": null, "payment:cash": null, "payment:contactless": null, "payment:credit_cards": null, "payment:debit_cards": null, "payment:grits": null, "payment:prepaid_ticket": null, "phone": null, "place": null, "placement": null, "ref": null, "reg_ref": null, "religion": null, "ruins": null, "service": null, "shop": null, "sidewalk": null, "smoothness": null, "source": null, "source:ref": null, "source:reg_ref": null, "surface": null, "toll": null, "tourism": null, "tracktype": null, "traffic_sign": null, "traffic_sign:backward": null, "traffic_sign:direction": null, "traffic_sign:forward": null, "tunnel": null, "waterway": "river", "website": null, "width": "12", "wikidata": "Q3723337", "wikipedia": "en:Elissonas (Corinthia)", "label": "waterway:river" }, "geometry": { "type": "LineString", "coordinates": [ [ 22.7360852, 38.0016474 ], [ 22.7363749, 38.0017911 ], [ 22.736922, 38.0019602 ], [ 22.7372643, 38.0021251 ], [ 22.737439091019233, 38.002246913122683 ] ] } },
{ "type": "Feature", "properties": { "@type": "node", "@id": 3190052860, "access": null, "addr:city": null, "addr:postcode": null, "addr:street": null, "alt_name": null, "alt_name:el": null, "alt_name:en": null, "amenity": "place_of_worship", "area": null, "barrier": null, "brand": null, "brand:wikidata": null, "bridge": null, "bridge:structure": null, "building": "basilica", "charge:conditional": null, "charge:motorcar:conditional": null, "charge:motorcycle": null, "check_date": null, "construction": null, "covered": null, "denomination": "greek_orthodox", "description": null, "emergency": null, "fixme": null, "ford": null, "highway": null, "historic": null, "historic:civilization": null, "historic:period": null, "historic:sport": null, "int_name": null, "int_ref": null, "landuse": null, "lanes": null, "lanes:backward": null, "lanes:forward": null, "lanes:reversible": null, "layer": null, "level": null, "lift_gate:type": null, "lit": null, "man_made": null, "maxheight": null, "maxspeed": null, "maxspeed:backward": null, "maxspeed:forward": null, "name": null, "name:bg": null, "name:ca": null, "name:de": null, "name:el": null, "name:en": null, "name:es": null, "name:fr": null, "name:it": null, "name:mk": null, "name:nl": null, "name:pl": null, "name:pt": null, "name:ro": null, "name:ru": null, "name:sq": null, "name:sr": null, "name:tr": null, "name:uk": null, "nat_name": null, "noexit": null, "note": null, "old_ref": null, "oneway": null, "opening_hours": null, "operator": null, "overtaking": null, "payment:cash": null, "payment:contactless": null, "payment:credit_cards": null, "payment:debit_cards": null, "payment:grits": null, "payment:prepaid_ticket": null, "phone": null, "place": null, "placement": null, "ref": null, "reg_ref": null, "religion": "christian", "ruins": null, "service": null, "shop": null, "sidewalk": null, "smoothness": null, "source": null, "source:ref": null, "source:reg_ref": null, "surface": null, "toll": null, "tourism": null, "tracktype": null, "traffic_sign": null, "traffic_sign:backward": null, "traffic_sign:direction": null, "traffic_sign:forward": null, "tunnel": null, "waterway": null, "website": null, "width": null, "wikidata": null, "wikipedia": null, "label": "amenity:place_of_worship" }, "geometry": { "type": "Point", "coordinates": [ 22.725332, 37.9811175 ] } },
{ "type": "Feature", "properties": { "@type": "node", "@id": 3190052864, "access": null, "addr:city": null, "addr:postcode": null, "addr:street": null, "alt_name": null, "alt_name:el": null, "alt_name:en": null, "amenity": null, "area": null, "barrier": null, "brand": null, "brand:wikidata": null, "bridge": null, "bridge:structure": null, "building": null, "charge:conditional": null, "charge:motorcar:conditional": null, "charge:motorcycle": null, "check_date": null, "construction": null, "covered": null, "denomination": null, "description": "closed since 2015", "emergency": null, "fixme": null, "ford": null, "highway": null, "historic": null, "historic:civilization": null, "historic:period": null, "historic:sport": null, "int_name": null, "int_ref": null, "landuse": null, "lanes": null, "lanes:backward": null, "lanes:forward": null, "lanes:reversible": null, "layer": null, "level": null, "lift_gate:type": null, "lit": null, "man_made": null, "maxheight": null, "maxspeed": null, "maxspeed:backward": null, "maxspeed:forward": null, "name": "Μουσείο Σικυώνας", "name:bg": null, "name:ca": null, "name:de": null, "name:el": null, "name:en": null, "name:es": null, "name:fr": null, "name:it": null, "name:mk": null, "name:nl": null, "name:pl": null, "name:pt": null, "name:ro": null, "name:ru": null, "name:sq": null, "name:sr": null, "name:tr": null, "name:uk": null, "nat_name": null, "noexit": null, "note": null, "old_ref": null, "oneway": null, "opening_hours": "closed", "operator": null, "overtaking": null, "payment:cash": null, "payment:contactless": null, "payment:credit_cards": null, "payment:debit_cards": null, "payment:grits": null, "payment:prepaid_ticket": null, "phone": null, "place": null, "placement": null, "ref": null, "reg_ref": null, "religion": null, "ruins": null, "service": null, "shop": null, "sidewalk": null, "smoothness": null, "source": null, "source:ref": null, "source:reg_ref": null, "surface": null, "toll": null, "tourism": "museum", "tracktype": null, "traffic_sign": null, "traffic_sign:backward": null, "traffic_sign:direction": null, "traffic_sign:forward": null, "tunnel": null, "waterway": null, "website": null, "width": null, "wikidata": null, "wikipedia": null, "label": "tourism:museum" }, "geometry": { "type": "Point", "coordinates": [ 22.7137726, 37.9844839 ] } },
{ "type": "Feature", "properties": { "@type": "node", "@id": 4237609181, "access": null, "addr:city": null, "addr:postcode": null, "addr:street": null, "alt_name": null, "alt_name:el": null, "alt_name:en": null, "amenity": "parking", "area": null, "barrier": null, "brand": null, "brand:wikidata": null, "bridge": null, "bridge:structure": null, "building": null, "charge:conditional": null, "charge:motorcar:conditional": null, "charge:motorcycle": null, "check_date": null, "construction": null, "covered": null, "denomination": null, "description": null, "emergency": null, "fixme": null, "ford": null, "highway": null, "historic": null, "historic:civilization": null, "historic:period": null, "historic:sport": null, "int_name": null, "int_ref": null, "landuse": null, "lanes": null, "lanes:backward": null, "lanes:forward": null, "lanes:reversible": null, "layer": null, "level": null, "lift_gate:type": null, "lit": null, "man_made": null, "maxheight": null, "maxspeed": null, "maxspeed:backward": null, "maxspeed:forward": null, "name": null, "name:bg": null, "name:ca": null, "name:de": null, "name:el": null, "name:en": null, "name:es": null, "name:fr": null, "name:it": null, "name:mk": null, "name:nl": null, "name:pl": null, "name:pt": null, "name:ro": null, "name:ru": null, "name:sq": null, "name:sr": null, "name:tr": null, "name:uk": null, "nat_name": null, "noexit": null, "note": null, "old_ref": null, "oneway": null, "opening_hours": null, "operator": null, "overtaking": null, "payment:cash": null, "payment:contactless": null, "payment:credit_cards": null, "payment:debit_cards": null, "payment:grits": null, "payment:prepaid_ticket": null, "phone": null, "place": null, "placement": null, "ref": null, "reg_ref": null, "religion": null, "ruins": null, "service": null, "shop": null, "sidewalk": null, "smoothness": null, "source": null, "source:ref": null, "source:reg_ref": null, "surface": null, "toll": null, "tourism": null, "tracktype": null, "traffic_sign": null, "traffic_sign:backward": null, "traffic_sign:direction": null, "traffic_sign:forward": null, "tunnel": null, "waterway": null, "website": null, "width": null, "wikidata": null, "wikipedia": null, "label": "amenity:parking" }, "geometry": { "type": "Point", "coordinates": [ 22.7136428, 37.9841771 ] } },
{ "type": "Feature", "properties": { "@type": "node", "@id": 9143411159, "access": null, "addr:city": "Μούλκι", "addr:postcode": null, "addr:street": null, "alt_name": null, "alt_name:el": null, "alt_name:en": null, "amenity": "fuel", "area": null, "barrier": null, "brand": "Revoil", "brand:wikidata": "Q62530755", "bridge": null, "bridge:structure": null, "building": null, "charge:conditional": null, "charge:motorcar:conditional": null, "charge:motorcycle": null, "check_date": null, "construction": null, "covered": null, "denomination": null, "description": null, "emergency": null, "fixme": null, "ford": null, "highway": null, "historic": null, "historic:civilization": null, "historic:period": null, "historic:sport": null, "int_name": null, "int_ref": null, "landuse": null, "lanes": null, "lanes:backward": null, "lanes:forward": null, "lanes:reversible": null, "layer": null, "level": null, "lift_gate:type": null, "lit": null, "man_made": null, "maxheight": null, "maxspeed": null, "maxspeed:backward": null, "maxspeed:forward": null, "name": "REVOIL", "name:bg": null, "name:ca": null, "name:de": null, "name:el": null, "name:en": null, "name:es": null, "name:fr": null, "name:it": null, "name:mk": null, "name:nl": null, "name:pl": null, "name:pt": null, "name:ro": null, "name:ru": null, "name:sq": null, "name:sr": null, "name:tr": null, "name:uk": null, "nat_name": null, "noexit": null, "note": null, "old_ref": null, "oneway": null, "opening_hours": null, "operator": "ΘΕΟΧΑΡΗΣ ΠΑΝΑΓΙΩΤΗΣ", "overtaking": null, "payment:cash": null, "payment:contactless": null, "payment:credit_cards": null, "payment:debit_cards": null, "payment:grits": null, "payment:prepaid_ticket": null, "phone": null, "place": null, "placement": null, "ref": null, "reg_ref": null, "religion": null, "ruins": null, "service": null, "shop": null, "sidewalk": null, "smoothness": null, "source": null, "source:ref": null, "source:reg_ref": null, "surface": null, "toll": null, "tourism": null, "tracktype": null, "traffic_sign": null, "traffic_sign:backward": null, "traffic_sign:direction": null, "traffic_sign:forward": null, "tunnel": null, "waterway": null, "website": null, "width": null, "wikidata": null, "wikipedia": null, "label": "amenity:fuel" }, "geometry": { "type": "Point", "coordinates": [ 22.7367373, 37.9961477 ] } },
{ "type": "Feature", "properties": { "@type": "node", "@id": 9513106249, "access": null, "addr:city": null, "addr:postcode": null, "addr:street": null, "alt_name": null, "alt_name:el": null, "alt_name:en": null, "amenity": "place_of_worship", "area": null, "barrier": null, "brand": null, "brand:wikidata": null, "bridge": null, "bridge:structure": null, "building": null, "charge:conditional": null, "charge:motorcar:conditional": null, "charge:motorcycle": null, "check_date": null, "construction": null, "covered": null, "denomination": null, "description": null, "emergency": null, "fixme": null, "ford": null, "highway": null, "historic": null, "historic:civilization": null, "historic:period": null, "historic:sport": null, "int_name": null, "int_ref": null, "landuse": null, "lanes": null, "lanes:backward": null, "lanes:forward": null, "lanes:reversible": null, "layer": null, "level": null, "lift_gate:type": null, "lit": null, "man_made": null, "maxheight": null, "maxspeed": null, "maxspeed:backward": null, "maxspeed:forward": null, "name": null, "name:bg": null, "name:ca": null, "name:de": null, "name:el": null, "name:en": null, "name:es": null, "name:fr": null, "name:it": null, "name:mk": null, "name:nl": null, "name:pl": null, "name:pt": null, "name:ro": null, "name:ru": null, "name:sq": null, "name:sr": null, "name:tr": null, "name:uk": null, "nat_name": null, "noexit": null, "note": null, "old_ref": null, "oneway": null, "opening_hours": null, "operator": null, "overtaking": null, "payment:cash": null, "payment:contactless": null, "payment:credit_cards": null, "payment:debit_cards": null, "payment:grits": null, "payment:prepaid_ticket": null, "phone": null, "place": null, "placement": null, "ref": null, "reg_ref": null, "religion": "christian", "ruins": null, "service": null, "shop": null, "sidewalk": null, "smoothness": null, "source": null, "source:ref": null, "source:reg_ref": null, "surface": null, "toll": null, "tourism": null, "tracktype": null, "traffic_sign": null, "traffic_sign:backward": null, "traffic_sign:direction": null, "traffic_sign:forward": null, "tunnel": null, "waterway": null, "website": null, "width": null, "wikidata": null, "wikipedia": null, "label": "amenity:place_of_worship" }, "geometry": { "type": "Point", "coordinates": [ 22.7185857, 37.980176 ] } },
{ "type": "Feature", "properties": { "@type": "node", "@id": 10581252887, "access": null, "addr:city": "Κιάτο", "addr:postcode": "20200", "addr:street": "Μουλκίου", "alt_name": null, "alt_name:el": null, "alt_name:en": null, "amenity": null, "area": null, "barrier": null, "brand": null, "brand:wikidata": null, "bridge": null, "bridge:structure": null, "building": null, "charge:conditional": null, "charge:motorcar:conditional": null, "charge:motorcycle": null, "check_date": null, "construction": null, "covered": null, "denomination": null, "description": null, "emergency": null, "fixme": "approximate location", "ford": null, "highway": null, "historic": null, "historic:civilization": null, "historic:period": null, "historic:sport": null, "int_name": null, "int_ref": null, "landuse": null, "lanes": null, "lanes:backward": null, "lanes:forward": null, "lanes:reversible": null, "layer": null, "level": null, "lift_gate:type": null, "lit": null, "man_made": null, "maxheight": null, "maxspeed": null, "maxspeed:backward": null, "maxspeed:forward": null, "name": null, "name:bg": null, "name:ca": null, "name:de": null, "name:el": null, "name:en": null, "name:es": null, "name:fr": null, "name:it": null, "name:mk": null, "name:nl": null, "name:pl": null, "name:pt": null, "name:ro": null, "name:ru": null, "name:sq": null, "name:sr": null, "name:tr": null, "name:uk": null, "nat_name": null, "noexit": null, "note": null, "old_ref": null, "oneway": null, "opening_hours": null, "operator": null, "overtaking": null, "payment:cash": null, "payment:contactless": null, "payment:credit_cards": null, "payment:debit_cards": null, "payment:grits": null, "payment:prepaid_ticket": null, "phone": "+302111119682", "place": null, "placement": null, "ref": null, "reg_ref": null, "religion": null, "ruins": null, "service": null, "shop": "health_food", "sidewalk": null, "smoothness": null, "source": null, "source:ref": null, "source:reg_ref": null, "surface": null, "toll": null, "tourism": null, "tracktype": null, "traffic_sign": null, "traffic_sign:backward": null, "traffic_sign:direction": null, "traffic_sign:forward": null, "tunnel": null, "waterway": null, "website": "https://genuinetastes.com/", "width": null, "wikidata": null, "wikipedia": null, "label": "shop:health_food" }, "geometry": { "type": "Point", "coordinates": [ 22.7179853, 38.0005343 ] } },
{ "type": "Feature", "properties": { "@type": "way", "@id": 167039762, "access": null, "addr:city": null, "addr:postcode": null, "addr:street": null, "alt_name": null, "alt_name:el": null, "alt_name:en": null, "amenity": null, "area": null, "barrier": null, "brand": null, "brand:wikidata": null, "bridge": null, "bridge:structure": null, "building": null, "charge:conditional": null, "charge:motorcar:conditional": null, "charge:motorcycle": null, "check_date": null, "construction": null, "covered": null, "denomination": null, "description": null, "emergency": null, "fixme": null, "ford": null, "highway": null, "historic": null, "historic:civilization": null, "historic:period": null, "historic:sport": null, "int_name": null, "int_ref": null, "landuse": "residential", "lanes": null, "lanes:backward": null, "lanes:forward": null, "lanes:reversible": null, "layer": null, "level": null, "lift_gate:type": null, "lit": null, "man_made": null, "maxheight": null, "maxspeed": null, "maxspeed:backward": null, "maxspeed:forward": null, "name": null, "name:bg": null, "name:ca": null, "name:de": null, "name:el": null, "name:en": null, "name:es": null, "name:fr": null, "name:it": null, "name:mk": null, "name:nl": null, "name:pl": null, "name:pt": null, "name:ro": null, "name:ru": null, "name:sq": null, "name:sr": null, "name:tr": null, "name:uk": null, "nat_name": null, "noexit": null, "note": null, "old_ref": null, "oneway": null, "opening_hours": null, "operator": null, "overtaking": null, "payment:cash": null, "payment:contactless": null, "payment:credit_cards": null, "payment:debit_cards": null, "payment:grits": null, "payment:prepaid_ticket": null, "phone": null, "place": null, "placement": null, "ref": null, "reg_ref": null, "religion": null, "ruins": null, "service": null, "shop": null, "sidewalk": null, "smoothness": null, "source": null, "source:ref": null, "source:reg_ref": null, "surface": null, "toll": null, "tourism": null, "tracktype": null, "traffic_sign": null, "traffic_sign:backward": null, "traffic_sign:direction": null, "traffic_sign:forward": null, "tunnel": null, "waterway": null, "website": null, "width": null, "wikidata": null, "wikipedia": null, "label": "landuse:residential" }, "geometry": { "type": "Polygon", "coordinates": [ [ [ 22.7160669, 37.9800544 ], [ 22.7177513, 37.9803314 ], [ 22.7190655, 37.9811919 ], [ 22.7203368, 37.9814249 ], [ 22.7196595, 37.9842235 ], [ 22.719676, 37.9847844 ], [ 22.7221912, 37.9855147 ], [ 22.7222213, 37.9852359 ], [ 22.7222574, 37.9849017 ], [ 22.7232833, 37.9852147 ], [ 22.7235481, 37.9849539 ], [ 22.7225718, 37.9838192 ], [ 22.7230516, 37.9837019 ], [ 22.7243258, 37.9838192 ], [ 22.7257323, 37.9836758 ], [ 22.726841, 37.9831802 ], [ 22.727205, 37.9827889 ], [ 22.7269237, 37.9818629 ], [ 22.7279165, 37.9806108 ], [ 22.7261129, 37.9808325 ], [ 22.7254977, 37.9805717 ], [ 22.7262979, 37.9797975 ], [ 22.726300738081694, 37.979612247133261 ], [ 22.716627716198278, 37.979612247133261 ], [ 22.7160669, 37.9800544 ] ] ] } },
{ "type": "Feature", "properties": { "@type": "way", "@id": 254211154, "access": null, "addr:city": null, "addr:postcode": null, "addr:street": null, "alt_name": null, "alt_name:el": null, "alt_name:en": null, "amenity": null, "area": null, "barrier": null, "brand": null, "brand:wikidata": null, "bridge": null, "bridge:structure": null, "building": null, "charge:conditional": null, "charge:motorcar:conditional": null, "charge:motorcycle": null, "check_date": null, "construction": null, "covered": null, "denomination": null, "description": "closed since 2015", "emergency": null, "fixme": null, "ford": null, "highway": null, "historic": "archaeological_site", "historic:civilization": null, "historic:period": null, "historic:sport": null, "int_name": null, "int_ref": null, "landuse": null, "lanes": null, "lanes:backward": null, "lanes:forward": null, "lanes:reversible": null, "layer": null, "level": null, "lift_gate:type": null, "lit": null, "man_made": null, "maxheight": null, "maxspeed": null, "maxspeed:backward": null, "maxspeed:forward": null, "name": "Σικυώνα", "name:bg": null, "name:ca": "Sició", "name:de": "Sikyon", "name:el": "Σικυώνα", "name:en": "Sicyon", "name:es": null, "name:fr": null, "name:it": null, "name:mk": null, "name:nl": null, "name:pl": null, "name:pt": null, "name:ro": null, "name:ru": null, "name:sq": null, "name:sr": null, "name:tr": null, "name:uk": null, "nat_name": null, "noexit": null, "note": null, "old_ref": null, "oneway": null, "opening_hours": "closed", "operator": null, "overtaking": null, "payment:cash": null, "payment:contactless": null, "payment:credit_cards": null, "payment:debit_cards": null, "payment:grits": null, "payment:prepaid_ticket": null, "phone": null, "place": null, "placement": null, "ref": null, "reg_ref": null, "religion": null, "ruins": null, "service": null, "shop": null, "sidewalk": null, "smoothness": null, "source": null, "source:ref": null, "source:reg_ref": null, "surface": null, "toll": null, "tourism": null, "tracktype": null, "traffic_sign": null, "traffic_sign:backward": null, "traffic_sign:direction": null, "traffic_sign:forward": null, "tunnel": null, "waterway": null, "website": null, "width": null, "wikidata": "Q368628", "wikipedia": "el:Σικυώνα", "label": "historic:archaeological_site" }, "geometry": { "type": "Polygon", "coordinates": [ [ [ 22.711792, 37.9842843 ], [ 22.7121311, 37.9842403 ], [ 22.7122491, 37.9843756 ], [ 22.71241, 37.9844771 ], [ 22.7126246, 37.9844771 ], [ 22.7129406, 37.9844487 ], [ 22.7133201, 37.984389 ], [ 22.7133145, 37.9840553 ], [ 22.7139706, 37.9840498 ], [ 22.713968, 37.9842871 ], [ 22.7156416, 37.9840238 ], [ 22.7156662, 37.9822767 ], [ 22.7134518, 37.9822657 ], [ 22.7128558, 37.9824146 ], [ 22.7124653, 37.9826218 ], [ 22.7123891, 37.9829207 ], [ 22.7121021, 37.9834327 ], [ 22.7119857, 37.9836708 ], [ 22.7119943, 37.9838255 ], [ 22.7117234, 37.9838936 ], [ 22.711645764003986, 37.983820406488299 ], [ 22.711645764003986, 37.984383856144177 ], [ 22.711792, 37.9842843 ] ] ] } },
{ "type": "Feature", "properties": { "@type": "way", "@id": 271137439, "access": null, "addr:city": null, "addr:postcode": null, "addr:street": null, "alt_name": null, "alt_name:el": null, "alt_name:en": null, "amenity": null, "area": null, "barrier": null, "brand": null, "brand:wikidata": null, "bridge": null, "bridge:structure": null, "building": "yes", "charge:conditional": null, "charge:motorcar:conditional": null, "charge:motorcycle": null, "check_date": null, "construction": null, "covered": null, "denomination": null, "description": null, "emergency": null, "fixme": null, "ford": null, "highway": null, "historic": null, "historic:civilization": null, "historic:period": null, "historic:sport": null, "int_name": null, "int_ref": null, "landuse": null, "lanes": null, "lanes:backward": null, "lanes:forward": null, "lanes:reversible": null, "layer": null, "level": null, "lift_gate:type": null, "lit": null, "man_made": null, "maxheight": null, "maxspeed": null, "maxspeed:backward": null, "maxspeed:forward": null, "name": "ΗΛΕΚΤΡΟΛΟΓΕΙΟ ΑΥΤΟΚΙΝΗΤΩΝ - ΔΗΜΟΠΟΥΛΟΣ ΓΙΩΡΓΟΣ", "name:bg": null, "name:ca": null, "name:de": null, "name:el": null, "name:en": null, "name:es": null, "name:fr": null, "name:it": null, "name:mk": null, "name:nl": null, "name:pl": null, "name:pt": null, "name:ro": null, "name:ru": null, "name:sq": null, "name:sr": null, "name:tr": null, "name:uk": null, "nat_name": null, "noexit": null, "note": null, "old_ref": null, "oneway": null, "opening_hours": null, "operator": null, "overtaking": null, "payment:cash": null, "payment:contactless": null, "payment:credit_cards": null, "payment:debit_cards": null, "payment:grits": null, "payment:prepaid_ticket": null, "phone": null, "place": null, "placement": null, "ref": null, "reg_ref": null, "religion": null, "ruins": null, "service": null, "shop": "car_repair", "sidewalk": null, "smoothness": null, "source": null, "source:ref": null, "source:reg_ref": null, "surface": null, "toll": null, "tourism": null, "tracktype": null, "traffic_sign": null, "traffic_sign:backward": null, "traffic_sign:direction": null, "traffic_sign:forward": null, "tunnel": null, "waterway": null, "website": null, "width": null, "wikidata": null, "wikipedia": null, "label": "shop:car_repair;building:yes" }, "geometry": { "type": "Polygon", "coordinates": [ [ [ 22.7178622, 38.0003538 ], [ 22.7179195, 38.0002792 ], [ 22.7176836, 38.0001668 ], [ 22.7176263, 38.0002414 ], [ 22.7178622, 38.0003538 ] ] ] } },
{ "type": "Feature", "properties": { "@type": "way", "@id": 461906526, "access": null, "addr:city": null, "addr:postcode": null, "addr:street": null, "alt_name": null, "alt_name:el": null, "alt_name:en": null, "amenity": null, "area": null, "barrier": null, "brand": null, "brand:wikidata": null, "bridge": null, "bridge:structure": null, "building": null, "charge:conditional": null, "charge:motorcar:conditional": null, "charge:motorcycle": null, "check_date": null, "construction": null, "covered": null, "denomination": null, "description": null, "emergency": null, "fixme": null, "ford": null, "highway": null, "historic": "archaeological_site", "historic:civilization": "ancient_greek", "historic:period": "hellenistic_greece", "historic:sport": null, "int_name": null, "int_ref": null, "landuse": null, "lanes": null, "lanes:backward": null, "lanes:forward": null, "lanes:reversible": null, "layer": null, "level": null, "lift_gate:type": null, "lit": null, "man_made": null, "maxheight": null, "maxspeed": null, "maxspeed:backward": null, "maxspeed:forward": null, "name": "Κοίλο θεάτρου Αρχαίας Σικυώνας", "name:bg": null, "name:ca": null, "name:de": null, "name:el": null, "name:en": null, "name:es": null, "name:fr": null, "name:it": null, "name:mk": null, "name:nl": null, "name:pl": null, "name:pt": null, "name:ro": null, "name:ru": null, "name:sq": null, "name:sr": null, "name:tr": null, "name:uk": null, "nat_name": null, "noexit": null, "note": null, "old_ref": null, "oneway": null, "opening_hours": null, "operator": null, "overtaking": null, "payment:cash": null, "payment:contactless": null, "payment:credit_cards": null, "payment:debit_cards": null, "payment:grits": null, "payment:prepaid_ticket": null, "phone": null, "place": null, "placement": null, "ref": null, "reg_ref": null, "religion": null, "ruins": null, "service": null, "shop": null, "sidewalk": null, "smoothness": null, "source": null, "source:ref": null, "source:reg_ref": null, "surface": null, "toll": null, "tourism": null, "tracktype": null, "traffic_sign": null, "traffic_sign:backward": null, "traffic_sign:direction": null, "traffic_sign:forward": null, "tunnel": null, "waterway": null, "website": null, "width": null, "wikidata": "Q38280194", "wikipedia": null, "label": "historic:archaeological_site" }, "geometry": { "type": "Polygon", "coordinates": [ [ [ 22.7117083, 37.9839039 ], [ 22.711645764003986, 37.983840343227421 ], [ 22.711645764003986, 37.983942713421001 ], [ 22.7117083, 37.9839039 ] ] ] } },
{ "type": "Feature", "properties": { "@type": "way", "@id": 461924642, "access": null, "addr:city": null, "addr:postcode": null, "addr:street": null, "alt_name": null, "alt_name:el": null, "alt_name:en": null, "amenity": null, "area": null, "barrier": null, "brand": null, "brand:wikidata": null, "bridge": null, "bridge:structure": null, "building": null, "charge:conditional": null, "charge:motorcar:conditional": null, "charge:motorcycle": null, "check_date": null, "construction": null, "covered": null, "denomination": null, "description": null, "emergency": null, "fixme": null, "ford": null, "highway": null, "historic": "ruins", "historic:civilization": null, "historic:period": null, "historic:sport": null, "int_name": null, "int_ref": null, "landuse": null, "lanes": null, "lanes:backward": null, "lanes:forward": null, "lanes:reversible": null, "layer": null, "level": null, "lift_gate:type": null, "lit": null, "man_made": null, "maxheight": null, "maxspeed": null, "maxspeed:backward": null, "maxspeed:forward": null, "name": "Σκηνικό οικοδόμημα", "name:bg": null, "name:ca": null, "name:de": null, "name:el": "Σκηνικό οικοδόμημα", "name:en": "Stage building", "name:es": null, "name:fr": null, "name:it": null, "name:mk": null, "name:nl": null, "name:pl": null, "name:pt": null, "name:ro": null, "name:ru": null, "name:sq": null, "name:sr": null, "name:tr": null, "name:uk": null, "nat_name": null, "noexit": null, "note": null, "old_ref": null, "oneway": null, "opening_hours": null, "operator": null, "overtaking": null, "payment:cash": null, "payment:contactless": null, "payment:credit_cards": null, "payment:debit_cards": null, "payment:grits": null, "payment:prepaid_ticket": null, "phone": null, "place": null, "placement": null, "ref": null, "reg_ref": null, "religion": null, "ruins": "building", "service": null, "shop": null, "sidewalk": null, "smoothness": null, "source": null, "source:ref": null, "source:reg_ref": null, "surface": null, "toll": null, "tourism": null, "tracktype": null, "traffic_sign": null, "traffic_sign:backward": null, "traffic_sign:direction": null, "traffic_sign:forward": null, "tunnel": null, "waterway": null, "website": null, "width": null, "wikidata": null, "wikipedia": null, "label": "historic:ruins" }, "geometry": { "type": "Polygon", "coordinates": [ [ [ 22.7116692, 37.984146 ], [ 22.711645764003986, 37.984133444244669 ], [ 22.711645764003986, 37.984170884173317 ], [ 22.7116692, 37.984146 ] ] ] } },
{ "type": "Feature", "properties": { "@type": "way", "@id": 461924644, "access": null, "addr:city": null, "addr:postcode": null, "addr:street": null, "alt_name": null, "alt_name:el": null, "alt_name:en": null, "amenity": null, "area": null, "barrier": null, "brand": null, "brand:wikidata": null, "bridge": null, "bridge:structure": null, "building": null, "charge:conditional": null, "charge:motorcar:conditional": null, "charge:motorcycle": null, "check_date": null, "construction": null, "covered": null, "denomination": null, "description": null, "emergency": null, "fixme": null, "ford": null, "highway": null, "historic": "ruins", "historic:civilization": null, "historic:period": null, "historic:sport": null, "int_name": null, "int_ref": null, "landuse": null, "lanes": null, "lanes:backward": null, "lanes:forward": null, "lanes:reversible": null, "layer": null, "level": null, "lift_gate:type": null, "lit": null, "man_made": null, "maxheight": null, "maxspeed": null, "maxspeed:backward": null, "maxspeed:forward": null, "name": "Βοηθητικός χώρος", "name:bg": null, "name:ca": null, "name:de": null, "name:el": "Βοηθητικός χώρος", "name:en": "Service area", "name:es": null, "name:fr": null, "name:it": null, "name:mk": null, "name:nl": null, "name:pl": null, "name:pt": null, "name:ro": null, "name:ru": null, "name:sq": null, "name:sr": null, "name:tr": null, "name:uk": null, "nat_name": null, "noexit": null, "note": null, "old_ref": null, "oneway": null, "opening_hours": null, "operator": null, "overtaking": null, "payment:cash": null, "payment:contactless": null, "payment:credit_cards": null, "payment:debit_cards": null, "payment:grits": null, "payment:prepaid_ticket": null, "phone": null, "place": null, "placement": null, "ref": null, "reg_ref": null, "religion": null, "ruins": "building", "service": null, "shop": null, "sidewalk": null, "smoothness": null, "source": null, "source:ref": null, "source:reg_ref": null, "surface": null, "toll": null, "tourism": null, "tracktype": null, "traffic_sign": null, "traffic_sign:backward": null, "traffic_sign:direction": null, "traffic_sign:forward": null, "tunnel": null, "waterway": null, "website": null, "width": null, "wikidata": null, "wikipedia": null, "label": "historic:ruins" }, "geometry": { "type": "Polygon", "coordinates": [ [ [ 22.7116658, 37.9841396 ], [ 22.7117293, 37.9840746 ], [ 22.711645764003986, 37.984027259648066 ], [ 22.711645764003986, 37.984128340507759 ], [ 22.7116658, 37.9841396 ] ] ] } },
{ "type": "Feature", "properties": { "@type": "way", "@id": 461979104, "access": null, "addr:city": null, "addr:postcode": null, "addr:street": null, "alt_name": null, "alt_name:el": null, "alt_name:en": null, "amenity": null, "area": "yes", "barrier": null, "brand": null, "brand:wikidata": null, "bridge": null, "bridge:structure": null, "building": null, "charge:conditional": null, "charge:motorcar:conditional": null, "charge:motorcycle": null, "check_date": null, "construction": null, "covered": null, "denomination": null, "description": null, "emergency": null, "fixme": null, "ford": null, "highway": null, "historic": "yes", "historic:civilization": "ancient_greek", "historic:period": "hellenistic_greece", "historic:sport": null, "int_name": null, "int_ref": null, "landuse": null, "lanes": null, "lanes:backward": null, "lanes:forward": null, "lanes:reversible": null, "layer": null, "level": null, "lift_gate:type": null, "lit": null, "man_made": null, "maxheight": null, "maxspeed": null, "maxspeed:backward": null, "maxspeed:forward": null, "name": "Βουλευτήριον", "name:bg": null, "name:ca": null, "name:de": null, "name:el": "Βουλευτήριον", "name:en": "bouleuterion", "name:es": null, "name:fr": null, "name:it": null, "name:mk": null, "name:nl": null, "name:pl": null, "name:pt": null, "name:ro": null, "name:ru": null, "name:sq": null, "name:sr": null, "name:tr": null, "name:uk": null, "nat_name": null, "noexit": null, "note": null, "old_ref": null, "oneway": null, "opening_hours": null, "operator": null, "overtaking": null, "payment:cash": null, "payment:contactless": null, "payment:credit_cards": null, "payment:debit_cards": null, "payment:grits": null, "payment:prepaid_ticket": null, "phone": null, "place": null, "placement": null, "ref": null, "reg_ref": null, "religion": null, "ruins": "yes", "service": null, "shop": null, "sidewalk": null, "smoothness": null, "source": null, "source:ref": null, "source:reg_ref": null, "surface": null, "toll": null, "tourism": null, "tracktype": null, "traffic_sign": null, "traffic_sign:backward": null, "traffic_sign:direction": null, "traffic_sign:forward": null, "tunnel": null, "waterway": null, "website": null, "width": null, "wikidata": null, "wikipedia": null, "label": "historic:yes" }, "geometry": { "type": "Polygon", "coordinates": [ [ [ 22.713923, 37.9829493 ], [ 22.7144223, 37.9829414 ], [ 22.7144123, 37.9825486 ], [ 22.713913, 37.9825565 ], [ 22.713923, 37.9829493 ] ] ] } },
{ "type": "Feature", "properties": { "@type": "way", "@id": 461979108, "access": null, "addr:city": null, "addr:postcode": null, "addr:street": null, "alt_name": null, "alt_name:el": null, "alt_name:en": null, "amenity": null, "area": null, "barrier": null, "brand": null, "brand:wikidata": null, "bridge": null, "bridge:structure": null, "building": "temple", "charge:conditional": null, "charge:motorcar:conditional": null, "charge:motorcycle": null, "check_date": null, "construction": null, "covered": null, "denomination": null, "description": null, "emergency": null, "fixme": "shape approximated", "ford": null, "highway": null, "historic": "temple", "historic:civilization": "ancient_greek", "historic:period": "hellenistic_greece", "historic:sport": null, "int_name": null, "int_ref": null, "landuse": null, "lanes": null, "lanes:backward": null, "lanes:forward": null, "lanes:reversible": null, "layer": null, "level": null, "lift_gate:type": null, "lit": null, "man_made": null, "maxheight": null, "maxspeed": null, "maxspeed:backward": null, "maxspeed:forward": null, "name": "Ναός", "name:bg": null, "name:ca": null, "name:de": null, "name:el": "Ναός", "name:en": "Temple", "name:es": null, "name:fr": null, "name:it": null, "name:mk": null, "name:nl": null, "name:pl": null, "name:pt": null, "name:ro": null, "name:ru": null, "name:sq": null, "name:sr": null, "name:tr": null, "name:uk": null, "nat_name": null, "noexit": null, "note": null, "old_ref": null, "oneway": null, "opening_hours": null, "operator": null, "overtaking": null, "payment:cash": null, "payment:contactless": null, "payment:credit_cards": null, "payment:debit_cards": null, "payment:grits": null, "payment:prepaid_ticket": null, "phone": null, "place": null, "placement": null, "ref": null, "reg_ref": null, "religion": "ancient_greek", "ruins": "yes", "service": null, "shop": null, "sidewalk": null, "smoothness": null, "source": null, "source:ref": null, "source:reg_ref": null, "surface": null, "toll": null, "tourism": null, "tracktype": null, "traffic_sign": null, "traffic_sign:backward": null, "traffic_sign:direction": null, "traffic_sign:forward": null, "tunnel": null, "waterway": null, "website": null, "width": null, "wikidata": null, "wikipedia": null, "label": "building:temple" }, "geometry": { "type": "Polygon", "coordinates": [ [ [ 22.7133802, 37.9839822 ], [ 22.7139403, 37.9839825 ], [ 22.7139389, 37.9838194 ], [ 22.7138095, 37.9838167 ], [ 22.713782, 37.983776 ], [ 22.7137376, 37.9837559 ], [ 22.7136541, 37.9837635 ], [ 22.713624, 37.9838129 ], [ 22.713377, 37.9838078 ], [ 22.7133802, 37.9839822 ] ] ] } },
{ "type": "Feature", "properties": { "@type": "way", "@id": 582436072, "access": null, "addr:city": null, "addr:postcode": null, "addr:street": null, "alt_name": null, "alt_name:el": null, "alt_name:en": null, "amenity": null, "area": null, "barrier": null, "brand": null, "brand:wikidata": null, "bridge": null, "bridge:structure": null, "building": null, "charge:conditional": null, "charge:motorcar:conditional": null, "charge:motorcycle": null, "check_date": null, "construction": null, "covered": null, "denomination": null, "description": null, "emergency": null, "fixme": null, "ford": null, "highway": null, "historic": null, "historic:civilization": null, "historic:period": null, "historic:sport": null, "int_name": null, "int_ref": null, "landuse": "residential", "lanes": null, "lanes:backward": null, "lanes:forward": null, "lanes:reversible": null, "layer": null, "level": null, "lift_gate:type": null, "lit": null, "man_made": null, "maxheight": null, "maxspeed": null, "maxspeed:backward": null, "maxspeed:forward": null, "name": null, "name:bg": null, "name:ca": null, "name:de": null, "name:el": null, "name:en": null, "name:es": null, "name:fr": null, "name:it": null, "name:mk": null, "name:nl": null, "name:pl": null, "name:pt": null, "name:ro": null, "name:ru": null, "name:sq": null, "name:sr": null, "name:tr": null, "name:uk": null, "nat_name": null, "noexit": null, "note": null, "old_ref": null, "oneway": null, "opening_hours": null, "operator": null, "overtaking": null, "payment:cash": null, "payment:contactless": null, "payment:credit_cards": null, "payment:debit_cards": null, "payment:grits": null, "payment:prepaid_ticket": null, "phone": null, "place": null, "placement": null, "ref": null, "reg_ref": null, "religion": null, "ruins": null, "service": null, "shop": null, "sidewalk": null, "smoothness": null, "source": null, "source:ref": null, "source:reg_ref": null, "surface": null, "toll": null, "tourism": null, "tracktype": null, "traffic_sign": null, "traffic_sign:backward": null, "traffic_sign:direction": null, "traffic_sign:forward": null, "tunnel": null, "waterway": null, "website": null, "width": null, "wikidata": null, "wikipedia": null, "label": "landuse:residential" }, "geometry": { "type": "Polygon", "coordinates": [ [ [ 22.7221603, 37.9938561 ], [ 22.7228041, 37.9946762 ], [ 22.7231276, 37.9955036 ], [ 22.7234816, 37.995791 ], [ 22.7242326, 37.9959009 ], [ 22.7258618, 37.9963588 ], [ 22.7264733, 37.9962996 ], [ 22.7273316, 37.9965786 ], [ 22.7282651, 37.9968322 ], [ 22.729413, 37.996976 ], [ 22.7303357, 37.9973649 ], [ 22.731496, 37.9976422 ], [ 22.732011, 37.996467 ], [ 22.7304983, 37.9960869 ], [ 22.7314193, 37.99378 ], [ 22.7321382, 37.9940506 ], [ 22.7324187, 37.9935673 ], [ 22.729295, 37.9926977 ], [ 22.7289946, 37.9932304 ], [ 22.7300139, 37.9935432 ], [ 22.7291448, 37.9954626 ], [ 22.7283616, 37.9952765 ], [ 22.7284474, 37.9950144 ], [ 22.7275677, 37.9948031 ], [ 22.727911, 37.9941097 ], [ 22.7269776, 37.9938223 ], [ 22.7274389, 37.9927146 ], [ 22.7284474, 37.993019 ], [ 22.729007, 37.9921469 ], [ 22.7278804, 37.9919355 ], [ 22.728544, 37.9907192 ], [ 22.7277072, 37.9905162 ], [ 22.7273853, 37.9912011 ], [ 22.726432, 37.9909124 ], [ 22.7278697, 37.9893227 ], [ 22.7271509, 37.9886209 ], [ 22.7255415, 37.9891621 ], [ 22.7242096, 37.9897891 ], [ 22.7230799, 37.9909671 ], [ 22.7227719, 37.9920298 ], [ 22.722096, 37.9930698 ], [ 22.7221603, 37.9938561 ] ] ] } },
{ "type": "Feature", "properties": { "@type": "way", "@id": 582436406, "access": null, "addr:city": null, "addr:postcode": null, "addr:street": null, "alt_name": null, "alt_name:el": null, "alt_name:en": null, "amenity": null, "area": null, "barrier": null, "brand": null, "brand:wikidata": null, "bridge": null, "bridge:structure": null, "building": null, "charge:conditional": null, "charge:motorcar:conditional": null, "charge:motorcycle": null, "check_date": null, "construction": null, "covered": null, "denomination": null, "description": null, "emergency": null, "fixme": null, "ford": null, "highway": null, "historic": null, "historic:civilization": null, "historic:period": null, "historic:sport": null, "int_name": null, "int_ref": null, "landuse": "residential", "lanes": null, "lanes:backward": null, "lanes:forward": null, "lanes:reversible": null, "layer": null, "level": null, "lift_gate:type": null, "lit": null, "man_made": null, "maxheight": null, "maxspeed": null, "maxspeed:backward": null, "maxspeed:forward": null, "name": null, "name:bg": null, "name:ca": null, "name:de": null, "name:el": null, "name:en": null, "name:es": null, "name:fr": null, "name:it": null, "name:mk": null, "name:nl": null, "name:pl": null, "name:pt": null, "name:ro": null, "name:ru": null, "name:sq": null, "name:sr": null, "name:tr": null, "name:uk": null, "nat_name": null, "noexit": null, "note": null, "old_ref": null, "oneway": null, "opening_hours": null, "operator": null, "overtaking": null, "payment:cash": null, "payment:contactless": null, "payment:credit_cards": null, "payment:debit_cards": null, "payment:grits": null, "payment:prepaid_ticket": null, "phone": null, "place": null, "placement": null, "ref": null, "reg_ref": null, "religion": null, "ruins": null, "service": null, "shop": null, "sidewalk": null, "smoothness": null, "source": null, "source:ref": null, "source:reg_ref": null, "surface": null, "toll": null, "tourism": null, "tracktype": null, "traffic_sign": null, "traffic_sign:backward": null, "traffic_sign:direction": null, "traffic_sign:forward": null, "tunnel": null, "waterway": null, "website": null, "width": null, "wikidata": null, "wikipedia": null, "label": "landuse:residential" }, "geometry": { "type": "Polygon", "coordinates": [ [ [ 22.7295418, 37.9986162 ], [ 22.7298223, 37.9981833 ], [ 22.7301748, 37.998464 ], [ 22.7303588, 37.9983101 ], [ 22.7305288, 37.9983879 ], [ 22.7307879, 37.9983439 ], [ 22.7298529, 37.9976016 ], [ 22.7293503, 37.998513 ], [ 22.7295418, 37.9986162 ] ] ] } },
{ "type": "Feature", "properties": { "@type": "way", "@id": 672633000, "access": null, "addr:city": null, "addr:postcode": null, "addr:street": null, "alt_name": null, "alt_name:el": null, "alt_name:en": null, "amenity": "place_of_worship", "area": null, "barrier": null, "brand": null, "brand:wikidata": null, "bridge": null, "bridge:structure": null, "building": "yes", "charge:conditional": null, "charge:motorcar:conditional": null, "charge:motorcycle": null, "check_date": null, "construction": null, "covered": null, "denomination": null, "description": null, "emergency": null, "fixme": null, "ford": null, "highway": null, "historic": null, "historic:civilization": null, "historic:period": null, "historic:sport": null, "int_name": null, "int_ref": null, "landuse": null, "lanes": null, "lanes:backward": null, "lanes:forward": null, "lanes:reversible": null, "layer": null, "level": null, "lift_gate:type": null, "lit": null, "man_made": null, "maxheight": null, "maxspeed": null, "maxspeed:backward": null, "maxspeed:forward": null, "name": null, "name:bg": null, "name:ca": null, "name:de": null, "name:el": null, "name:en": null, "name:es": null, "name:fr": null, "name:it": null, "name:mk": null, "name:nl": null, "name:pl": null, "name:pt": null, "name:ro": null, "name:ru": null, "name:sq": null, "name:sr": null, "name:tr": null, "name:uk": null, "nat_name": null, "noexit": null, "note": null, "old_ref": null, "oneway": null, "opening_hours": null, "operator": null, "overtaking": null, "payment:cash": null, "payment:contactless": null, "payment:credit_cards": null, "payment:debit_cards": null, "payment:grits": null, "payment:prepaid_ticket": null, "phone": null, "place": null, "placement": null, "ref": null, "reg_ref": null, "religion": "christian", "ruins": null, "service": null, "shop": null, "sidewalk": null, "smoothness": null, "source": null, "source:ref": null, "source:reg_ref": null, "surface": null, "toll": null, "tourism": null, "tracktype": null, "traffic_sign": null, "traffic_sign:backward": null, "traffic_sign:direction": null, "traffic_sign:forward": null, "tunnel": null, "waterway": null, "website": null, "width": null, "wikidata": null, "wikipedia": null, "label": "building:yes;amenity:place_of_worship" }, "geometry": { "type": "Polygon", "coordinates": [ [ [ 22.7255589, 37.9916242 ], [ 22.725712, 37.9914218 ], [ 22.7255797, 37.9913584 ], [ 22.725424, 37.9915527 ], [ 22.7255589, 37.9916242 ] ] ] } },
{ "type": "Feature", "properties": { "@type": "way", "@id": 672633002, "access": null, "addr:city": null, "addr:postcode": null, "addr:street": null, "alt_name": null, "alt_name:el": null, "alt_name:en": null, "amenity": "grave_yard", "area": null, "barrier": null, "brand": null, "brand:wikidata": null, "bridge": null, "bridge:structure": null, "building": null, "charge:conditional": null, "charge:motorcar:conditional": null, "charge:motorcycle": null, "check_date": null, "construction": null, "covered": null, "denomination": null, "description": null, "emergency": null, "fixme": null, "ford": null, "highway": null, "historic": null, "historic:civilization": null, "historic:period": null, "historic:sport": null, "int_name": null, "int_ref": null, "landuse": null, "lanes": null, "lanes:backward": null, "lanes:forward": null, "lanes:reversible": null, "layer": null, "level": null, "lift_gate:type": null, "lit": null, "man_made": null, "maxheight": null, "maxspeed": null, "maxspeed:backward": null, "maxspeed:forward": null, "name": null, "name:bg": null, "name:ca": null, "name:de": null, "name:el": null, "name:en": null, "name:es": null, "name:fr": null, "name:it": null, "name:mk": null, "name:nl": null, "name:pl": null, "name:pt": null, "name:ro": null, "name:ru": null, "name:sq": null, "name:sr": null, "name:tr": null, "name:uk": null, "nat_name": null, "noexit": null, "note": null, "old_ref": null, "oneway": null, "opening_hours": null, "operator": null, "overtaking": null, "payment:cash": null, "payment:contactless": null, "payment:credit_cards": null, "payment:debit_cards": null, "payment:grits": null, "payment:prepaid_ticket": null, "phone": null, "place": null, "placement": null, "ref": null, "reg_ref": null, "religion": null, "ruins": null, "service": null, "shop": null, "sidewalk": null, "smoothness": null, "source": null, "source:ref": null, "source:reg_ref": null, "surface": null, "toll": null, "tourism": null, "tracktype": null, "traffic_sign": null, "traffic_sign:backward": null, "traffic_sign:direction": null, "traffic_sign:forward": null, "tunnel": null, "waterway": null, "website": null, "width": null, "wikidata": null, "wikipedia": null, "label": "amenity:grave_yard" }, "geometry": { "type": "Polygon", "coordinates": [ [ [ 22.7374296, 38.0012362 ], [ 22.7376189, 38.0010636 ], [ 22.7377591, 38.0009357 ], [ 22.7374321, 38.0007598 ], [ 22.7371285, 38.0010522 ], [ 22.7374296, 38.0012362 ] ] ] } },
{ "type": "Feature", "properties": { "@type": "way", "@id": 672633003, "access": null, "addr:city": null, "addr:postcode": null, "addr:street": null, "alt_name": null, "alt_name:el": null, "alt_name:en": null, "amenity": "place_of_worship", "area": null, "barrier": null, "brand": null, "brand:wikidata": null, "bridge": null, "bridge:structure": null, "building": "yes", "charge:conditional": null, "charge:motorcar:conditional": null, "charge:motorcycle": null, "check_date": null, "construction": null, "covered": null, "denomination": null, "description": null, "emergency": null, "fixme": null, "ford": null, "highway": null, "historic": null, "historic:civilization": null, "historic:period": null, "historic:sport": null, "int_name": null, "int_ref": null, "landuse": null, "lanes": null, "lanes:backward": null, "lanes:forward": null, "lanes:reversible": null, "layer": null, "level": null, "lift_gate:type": null, "lit": null, "man_made": null, "maxheight": null, "maxspeed": null, "maxspeed:backward": null, "maxspeed:forward": null, "name": null, "name:bg": null, "name:ca": null, "name:de": null, "name:el": null, "name:en": null, "name:es": null, "name:fr": null, "name:it": null, "name:mk": null, "name:nl": null, "name:pl": null, "name:pt": null, "name:ro": null, "name:ru": null, "name:sq": null, "name:sr": null, "name:tr": null, "name:uk": null, "nat_name": null, "noexit": null, "note": null, "old_ref": null, "oneway": null, "opening_hours": null, "operator": null, "overtaking": null, "payment:cash": null, "payment:contactless": null, "payment:credit_cards": null, "payment:debit_cards": null, "payment:grits": null, "payment:prepaid_ticket": null, "phone": null, "place": null, "placement": null, "ref": null, "reg_ref": null, "religion": "christian", "ruins": null, "service": null, "shop": null, "sidewalk": null, "smoothness": null, "source": null, "source:ref": null, "source:reg_ref": null, "surface": null, "toll": null, "tourism": null, "tracktype": null, "traffic_sign": null, "traffic_sign:backward": null, "traffic_sign:direction": null, "traffic_sign:forward": null, "tunnel": null, "waterway": null, "website": null, "width": null, "wikidata": null, "wikipedia": null, "label": "building:yes;amenity:place_of_worship" }, "geometry": { "type": "Polygon", "coordinates": [ [ [ 22.7378318, 38.0012117 ], [ 22.7378577, 38.001087 ], [ 22.7376189, 38.0010636 ], [ 22.7375956, 38.0011892 ], [ 22.7378318, 38.0012117 ] ] ] } },
{ "type": "Feature", "properties": { "@type": "way", "@id": 1075836352, "access": null, "addr:city": null, "addr:postcode": null, "addr:street": null, "alt_name": null, "alt_name:el": null, "alt_name:en": null, "amenity": null, "area": null, "barrier": null, "brand": null, "brand:wikidata": null, "bridge": null, "bridge:structure": null, "building": "roof", "charge:conditional": null, "charge:motorcar:conditional": null, "charge:motorcycle": null, "check_date": null, "construction": null, "covered": null, "denomination": null, "description": null, "emergency": null, "fixme": null, "ford": null, "highway": null, "historic": null, "historic:civilization": null, "historic:period": null, "historic:sport": null, "int_name": null, "int_ref": null, "landuse": null, "lanes": null, "lanes:backward": null, "lanes:forward": null, "lanes:reversible": null, "layer": "1", "level": null, "lift_gate:type": null, "lit": null, "man_made": null, "maxheight": null, "maxspeed": null, "maxspeed:backward": null, "maxspeed:forward": null, "name": null, "name:bg": null, "name:ca": null, "name:de": null, "name:el": null, "name:en": null, "name:es": null, "name:fr": null, "name:it": null, "name:mk": null, "name:nl": null, "name:pl": null, "name:pt": null, "name:ro": null, "name:ru": null, "name:sq": null, "name:sr": null, "name:tr": null, "name:uk": null, "nat_name": null, "noexit": null, "note": null, "old_ref": null, "oneway": null, "opening_hours": null, "operator": null, "overtaking": null, "payment:cash": null, "payment:contactless": null, "payment:credit_cards": null, "payment:debit_cards": null, "payment:grits": null, "payment:prepaid_ticket": null, "phone": null, "place": null, "placement": null, "ref": null, "reg_ref": null, "religion": null, "ruins": null, "service": null, "shop": null, "sidewalk": null, "smoothness": null, "source": null, "source:ref": null, "source:reg_ref": null, "surface": null, "toll": null, "tourism": null, "tracktype": null, "traffic_sign": null, "traffic_sign:backward": null, "traffic_sign:direction": null, "traffic_sign:forward": null, "tunnel": null, "waterway": null, "website": null, "width": null, "wikidata": null, "wikipedia": null, "label": "building:roof" }, "geometry": { "type": "Polygon", "coordinates": [ [ [ 22.7367472, 37.9962078 ], [ 22.7368072, 37.9961712 ], [ 22.736744, 37.996107 ], [ 22.736684, 37.9961436 ], [ 22.7367472, 37.9962078 ] ] ] } }
]
}
