{
"type": "FeatureCollection",
"name": "patch_3952_linestring",
"crs": { "type": "name", "properties": { "name": "urn:ogc:def:crs:OGC:1.3:CRS84" } },
"features": [
{ "type": "Feature", "properties": { "@type": "way", "@id": 254067481, "access": null, "addr:city": null, "addr:postcode": null, "addr:street": null, "alt_name": null, "alt_name:el": null, "alt_name:en": null, "amenity": null, "area": null, "barrier": null, "brand": null, "brand:wikidata": null, "bridge": null, "bridge:structure": null, "building": null, "charge:conditional": null, "charge:motorcar:conditional": null, "charge:motorcycle": null, "check_date": null, "construction": null, "covered": null, "denomination": null, "description": null, "emergency": null, "fixme": null, "ford": null, "highway": null, "historic": null, "historic:civilization": null, "historic:period": null, "historic:sport": null, "int_name": null, "int_ref": null, "landuse": null, "lanes": null, "lanes:backward": null, "lanes:forward": null, "lanes:reversible": null, "layer": "-1", "level": null, "lift_gate:type": null, "lit": null, "man_made": null, "maxheight": null, "maxspeed": null, "maxspeed:backward": null, "maxspeed:forward": null, "name": "Ελισσώνας", "name:bg": null, "name:ca": null, "name:de": null, "name:el": "Ελισσώνας", "name:en": "Elissonas", "name:es": null, "name:fr": null, "name:it": null, "name:mk": null, "name:nl": null, "name:pl": null, "name:pt": null, "name:ro": null, "name:ru": null, "name:sq": null, "name:sr": null, "name:tr": null, "name:uk": null, "nat_name": null, "noexit": null, "note": null, "old_ref": null, "oneway": null, "opening_hours": null, "operator": null, "overtaking": null, "payment:cash": null, "payment:contactless": null, "payment:credit_cards": null, "payment:debit_cards": null, "payment:grits": null, "payment:prepaid_ticket": null, "phone": null, "place": null, "placement": null, "ref": null, "reg_ref": null, "religion": null, "ruins": null, "service": null, "shop": null, "sidewalk": null, "smoothness": null, "source": null, "source:ref": null, "source:reg_ref": null, "surface": null, "toll": null, "tourism": null, "tracktype": null, "traffic_sign": null, "traffic_sign:backward": null, "traffic_sign:direction": null, "traffic_sign:forward": null, "tunnel": "yes", "waterway": "river", "website": null, "width": null, "wikidata": "Q3723337", "wikipedia": "en:Elissonas (Corinthia)", "label": "waterway:river" }, "geometry": { "type": "LineString", "coordinates": [ [ 22.735302, 38.0013092 ], [ 22.7360852, 38.0016474 ] ] } },
{ "type": "Feature", "properties": { "@type": "way", "@id": 355386730, "access": null, "addr:city": null, "addr:postcode": null, "addr:street": null, "alt_name": null, "alt_name:el": null, "alt_name:en": null, "amenity": null, "area": null, "barrier": null, "brand": null, "brand:wikidata": null, "bridge": null, "bridge:structure": null, "building": null, "charge:conditional": null, "charge:motorcar:conditional": null, "charge:motorcycle": null, "check_date": null, "construction": null, "covered": null, "denomination": null, "description": null, "emergency": null, "fixme": null, "ford": null, "highway": null, "historic": null, "historic:civilization": null, "historic:period": null, "historic:sport": null, "int_name": null, "int_ref": null, "landuse": null, "lanes": null, "lanes:backward": null, "lanes:forward": null, "lanes:reversible": null, "layer": null, "level": null, "lift_gate:type": null, "lit": null, "man_made": null, "maxheight": null, "maxspeed": null, "maxspeed:backward": null, "maxspeed:forward": null, "name": "Ελισσώνας", "name:bg": null, "name:ca": null, "name:de": null, "name:el": "Ελισσώνας", "name:en": "Elissonas", "name:es": null, "name:fr": null, "name:it": null, "name:mk": null, "name:nl": null, "name:pl": null, "name:pt": null, "name:ro": null, "name:ru": null, "name:sq": null, "name:sr": null, "name:tr": null, "name:uk": null, "nat_name": null, "noexit": null, "note": null, "old_ref": null, "oneway": null, "opening_hours": null, "operator": null, "overtaking": null, "payment:cash": null, "payment:contactless": null, "payment:credit_cards": null, "payment:debit_cards": null, "payment:grits": null, "payment:prepaid_ticket": null, "phone": null, "place": null, "placement": null, "ref": null, "reg_ref": null, "religion": null, "ruins": null, "service": null, "shop": null, "sidewalk": null, "smoothness": null, "source": null, "source:ref": null, "source:reg_ref": null, "surface": null, "toll": null, "tourism": null, "tracktype": null, "traffic_sign": null, "traffic_sign:backward": null, "traffic_sign:direction": null, "traffic_sign:forward": null, "tunnel": null, "waterway": "river", "website": null, "width": null, "wikidata": "Q3723337", "wikipedia": "en:Elissonas (Corinthia)", "label": "waterway:river" }, "geometry": { "type": "LineString", "coordinates": [ [ 22.711645764003986, 37.990436111459857 ], [ 22.7119224, 37.9905948 ], [ 22.7122724, 37.990997 ], [ 22.7125707, 37.9913388 ], [ 22.7128935, 37.9915525 ], [ 22.7135591, 37.9918614 ], [ 22.7137587, 37.9919741 ], [ 22.7139584, 37.9922227 ], [ 22.7142073, 37.9923587 ], [ 22.7146115, 37.9924791 ], [ 22.7152006, 37.9925821 ], [ 22.7159475, 37.9928113 ], [ 22.7163788, 37.9930638 ], [ 22.7170468, 37.9932503 ], [ 22.7180549, 37.9933124 ], [ 22.7193588, 37.9935825 ], [ 22.7200114, 37.9937631 ], [ 22.7202736, 37.9939088 ], [ 22.7203533, 37.9939736 ], [ 22.7208968, 37.9943299 ], [ 22.7214105, 37.9945949 ], [ 22.7218533, 37.9951042 ], [ 22.7227443, 37.9958682 ], [ 22.7229516, 37.9962009 ], [ 22.723088, 37.996563 ], [ 22.7231964, 37.9972211 ], [ 22.7234373, 37.9974934 ], [ 22.7237343, 37.9976347 ], [ 22.7241114, 37.9976615 ], [ 22.7248787, 37.9975544 ], [ 22.725091, 37.9976303 ], [ 22.7252411, 37.9978244 ], [ 22.7254279, 37.9979985 ], [ 22.725847, 37.9981569 ], [ 22.7262264, 37.9981189 ], [ 22.7268323, 37.9978914 ], [ 22.7271834, 37.9977441 ], [ 22.7275401, 37.9977285 ], [ 22.7280215, 37.9978043 ], [ 22.7283329, 37.9980297 ], [ 22.7284858, 37.9983064 ], [ 22.7284632, 37.9987236 ], [ 22.7287774, 37.998998 ], [ 22.7291002, 37.9990962 ], [ 22.7294711, 37.9990895 ], [ 22.7300034, 37.9989199 ], [ 22.7305867, 37.998853 ], [ 22.7312174, 37.9988718 ], [ 22.7316327, 37.9990155 ], [ 22.7319868, 37.9991745 ], [ 22.7321627, 37.9993351 ], [ 22.7324524, 37.9996944 ], [ 22.7328816, 38.000096 ], [ 22.7331659, 38.0002271 ], [ 22.7334513, 38.0002947 ], [ 22.7338429, 38.0004596 ], [ 22.7341798, 38.000654 ], [ 22.7345456, 38.0008823 ], [ 22.7349791, 38.0011486 ], [ 22.735302, 38.0013092 ] ] } },
{ "type": "Feature", "properties": { "@type": "way", "@id": 355386731, "access": null, "addr:city": null, "addr:postcode": null, "addr:street": null, "alt_name": null, "alt_name:el": null, "alt_name:en": null, "amenity": null, "area": null, "barrier": null, "brand": null, "brand:wikidata": null, "bridge": null, "bridge:structure": null, "building": null, "charge:conditional": null, "charge:motorcar:conditional": null, "charge:motorcycle": null, "check_date": null, "construction": null, "covered": null, "denomination": null, "description": null, "emergency": null, "fixme": null, "ford": null, "highway": null, "historic": null, "historic:civilization": null, "historic:period": null, "historic:sport": null, "int_name": null, "int_ref": null, "landuse": null, "lanes": null, "lanes:backward": null, "lanes:forward": null, "lanes:reversible": null, "layer": null, "level": null, "lift_gate:type": null, "lit": null, "man_made": null, "maxheight": null, "maxspeed": null, "maxspeed:backward": null, "maxspeed:forward": null, "name": "Ελισσώνας", "name:bg": null, "name:ca": null, "name:de": null, "name:el": "Ελισσώνας", "name:en": "Elissonas", "name:es": null, "name:fr": null, "name:it": null, "name:mk": null, "name:nl": null, "name:pl": null, "name:pt": null, "name:ro": null, "name:ru": null, "name:sq": null, "name:sr": null, "name:tr": null, "name:uk": null, "nat_name": null, "noexit": null, "note": null, "old_ref": null, "oneway": null, "opening_hours": null, "operator": null, "overtaking": null, "payment:cash": null, "payment:contactless": null, "payment:credit_cards": null, "payment:debit_cards": null, "payment:grits": null, "payment:prepaid_ticket": null, "phone": null, "place": null, "placement": null, "ref": null, "reg_ref": null, "religion": null, "ruins": null, "service": null, "shop": null, "sidewalk": null, "smoothness": null, "source": null, "source:ref": null, "source:reg_ref": null, "surface": null, "toll": null, "tourism": null, "tracktype": null, "traffic_sign": null, "traffic_sign:backward": null, "traffic_sign:direction": null, "traffic_sign:forward": null, "tunnel": null, "waterway": "river", "website": null, "width": "12", "wikidata": "Q3723337", "wikipedia": "en:Elissonas (Corinthia)", "label": "waterway:river" }, "geometry": { "type": "LineString", "coordinates": [ [ 22.7360852, 38.0016474 ], [ 22.7363749, 38.0017911 ], [ 22.736922, 38.0019602 ], [ 22.7372643, 38.0021251 ], [ 22.737439091019233, 38.002246913122683 ] ] } }
]
}
