{
"type": "FeatureCollection",
"name": "patch_24283_point",
"crs": { "type": "name", "properties": { "name": "urn:ogc:def:crs:OGC:1.3:CRS84" } },
"features": [
{ "type": "Feature", "properties": { "element": "node", "id": 1782477091, "amenity": "restaurant", "name": "75 steps", "phone": "+30 26610750028", "internet_access": null, "internet_access:fee": null, "tourism": null, "website": null, "email": null, "fax": null, "addr:city": null, "addr:postcode": null, "addr:street": null, "brand": null, "description": null, "operator": null, "rooms": null, "smoking": null, "stars": null, "natural": null, "brewery": null, "opening_hours": null, "outdoor_seating": null, "shop": null, "information": null, "addr:housenumber": null, "wheelchair": null, "ele": null, "name:en": null, "air_conditioning": null, "reservation": null, "youtube": null, "denomination": null, "name:el": null, "religion": null, "access": null, "historic": null, "historic:civilization": null, "ruins": null, "building": null, "building:levels": null, "leisure": null, "landuse": null, "name:signed": null, "trees": null, "roof:shape": null, "cuisine": null, "mobile": null, "name:de": null, "intermittent": null, "waterway": null, "area": null, "height": null, "man_made": null, "tower:construction": null, "tower:type": null, "label": "amenity:restaurant" }, "geometry": { "type": "Point", "coordinates": [ 19.9391846, 39.4641411 ] } },
{ "type": "Feature", "properties": { "element": "node", "id": 2913409833, "amenity": null, "name": "Galini Beach Studios", "phone": null, "internet_access": "wlan", "internet_access:fee": "no", "tourism": "hotel", "website": "https://www.galinibeachstudios.com/", "email": null, "fax": null, "addr:city": null, "addr:postcode": null, "addr:street": null, "brand": null, "description": null, "operator": null, "rooms": null, "smoking": null, "stars": null, "natural": null, "brewery": null, "opening_hours": null, "outdoor_seating": null, "shop": null, "information": null, "addr:housenumber": null, "wheelchair": null, "ele": null, "name:en": null, "air_conditioning": null, "reservation": null, "youtube": null, "denomination": null, "name:el": null, "religion": null, "access": null, "historic": null, "historic:civilization": null, "ruins": null, "building": null, "building:levels": null, "leisure": null, "landuse": null, "name:signed": null, "trees": null, "roof:shape": null, "cuisine": null, "mobile": null, "name:de": null, "intermittent": null, "waterway": null, "area": null, "height": null, "man_made": null, "tower:construction": null, "tower:type": null, "label": "tourism:hotel" }, "geometry": { "type": "Point", "coordinates": [ 19.9364458, 39.4729693 ] } },
{ "type": "Feature", "properties": { "element": "node", "id": 2913509304, "amenity": null, "name": "Athina Apartments", "phone": "+30-69326-60460", "internet_access": null, "internet_access:fee": null, "tourism": "hotel", "website": "https://www.athina-apartments.com/", "email": "info@athina-apartments.com", "fax": "+30-26610-75284", "addr:city": null, "addr:postcode": null, "addr:street": null, "brand": null, "description": null, "operator": null, "rooms": null, "smoking": null, "stars": null, "natural": null, "brewery": null, "opening_hours": null, "outdoor_seating": null, "shop": null, "information": null, "addr:housenumber": null, "wheelchair": null, "ele": null, "name:en": null, "air_conditioning": null, "reservation": null, "youtube": null, "denomination": null, "name:el": null, "religion": null, "access": null, "historic": null, "historic:civilization": null, "ruins": null, "building": null, "building:levels": null, "leisure": null, "landuse": null, "name:signed": null, "trees": null, "roof:shape": null, "cuisine": null, "mobile": null, "name:de": null, "intermittent": null, "waterway": null, "area": null, "height": null, "man_made": null, "tower:construction": null, "tower:type": null, "label": "tourism:hotel" }, "geometry": { "type": "Point", "coordinates": [ 19.9367582, 39.471666 ] } },
{ "type": "Feature", "properties": { "element": "node", "id": 2913509305, "amenity": null, "name": "Ionian Eye Design Studios and Spa", "phone": "+302661075631", "internet_access": "yes", "internet_access:fee": "yes", "tourism": "hotel", "website": "https://ionianeye.com/", "email": "sales@ionianeye.com", "fax": "+302661076055", "addr:city": "Corfu", "addr:postcode": "49080", "addr:street": "Messonghi", "brand": "Ionian", "description": "Luxury Design Studios - ADULTS ONLY!", "operator": "NEXT Holidays", "rooms": "18", "smoking": "outside", "stars": "4", "natural": null, "brewery": null, "opening_hours": null, "outdoor_seating": null, "shop": null, "information": null, "addr:housenumber": null, "wheelchair": null, "ele": null, "name:en": null, "air_conditioning": null, "reservation": null, "youtube": null, "denomination": null, "name:el": null, "religion": null, "access": null, "historic": null, "historic:civilization": null, "ruins": null, "building": null, "building:levels": null, "leisure": null, "landuse": null, "name:signed": null, "trees": null, "roof:shape": null, "cuisine": null, "mobile": null, "name:de": null, "intermittent": null, "waterway": null, "area": null, "height": null, "man_made": null, "tower:construction": null, "tower:type": null, "label": "tourism:hotel" }, "geometry": { "type": "Point", "coordinates": [ 19.9370027, 39.4715111 ] } },
{ "type": "Feature", "properties": { "element": "node", "id": 2914113545, "amenity": null, "name": "Dinos Green Place", "phone": "+30-26610-80659", "internet_access": "wlan", "internet_access:fee": "no", "tourism": "hotel", "website": "https://dinosgreenplace.com/", "email": "spirospalik@gmail.com", "fax": null, "addr:city": null, "addr:postcode": null, "addr:street": null, "brand": null, "description": null, "operator": null, "rooms": null, "smoking": null, "stars": null, "natural": null, "brewery": null, "opening_hours": null, "outdoor_seating": null, "shop": null, "information": null, "addr:housenumber": null, "wheelchair": null, "ele": null, "name:en": null, "air_conditioning": null, "reservation": null, "youtube": null, "denomination": null, "name:el": null, "religion": null, "access": null, "historic": null, "historic:civilization": null, "ruins": null, "building": null, "building:levels": null, "leisure": null, "landuse": null, "name:signed": null, "trees": null, "roof:shape": null, "cuisine": null, "mobile": null, "name:de": null, "intermittent": null, "waterway": null, "area": null, "height": null, "man_made": null, "tower:construction": null, "tower:type": null, "label": "tourism:hotel" }, "geometry": { "type": "Point", "coordinates": [ 19.9364348, 39.472498 ] } },
{ "type": "Feature", "properties": { "element": "node", "id": 2914634493, "amenity": null, "name": "Evridiki Apartments", "phone": null, "internet_access": "wlan", "internet_access:fee": "no", "tourism": "hotel", "website": "http://www.seaside-apartments.net/", "email": null, "fax": null, "addr:city": null, "addr:postcode": null, "addr:street": null, "brand": null, "description": null, "operator": null, "rooms": null, "smoking": null, "stars": null, "natural": null, "brewery": null, "opening_hours": null, "outdoor_seating": null, "shop": null, "information": null, "addr:housenumber": null, "wheelchair": null, "ele": null, "name:en": null, "air_conditioning": null, "reservation": null, "youtube": null, "denomination": null, "name:el": null, "religion": null, "access": null, "historic": null, "historic:civilization": null, "ruins": null, "building": null, "building:levels": null, "leisure": null, "landuse": null, "name:signed": null, "trees": null, "roof:shape": null, "cuisine": null, "mobile": null, "name:de": null, "intermittent": null, "waterway": null, "area": null, "height": null, "man_made": null, "tower:construction": null, "tower:type": null, "label": "tourism:hotel" }, "geometry": { "type": "Point", "coordinates": [ 19.9354827, 39.4724047 ] } },
{ "type": "Feature", "properties": { "element": "node", "id": 2914653693, "amenity": "waste_disposal", "name": null, "phone": null, "internet_access": null, "internet_access:fee": null, "tourism": null, "website": null, "email": null, "fax": null, "addr:city": null, "addr:postcode": null, "addr:street": null, "brand": null, "description": null, "operator": null, "rooms": null, "smoking": null, "stars": null, "natural": null, "brewery": null, "opening_hours": null, "outdoor_seating": null, "shop": null, "information": null, "addr:housenumber": null, "wheelchair": null, "ele": null, "name:en": null, "air_conditioning": null, "reservation": null, "youtube": null, "denomination": null, "name:el": null, "religion": null, "access": null, "historic": null, "historic:civilization": null, "ruins": null, "building": null, "building:levels": null, "leisure": null, "landuse": null, "name:signed": null, "trees": null, "roof:shape": null, "cuisine": null, "mobile": null, "name:de": null, "intermittent": null, "waterway": null, "area": null, "height": null, "man_made": null, "tower:construction": null, "tower:type": null, "label": "amenity:waste_disposal" }, "geometry": { "type": "Point", "coordinates": [ 19.9347885, 39.4721808 ] } },
{ "type": "Feature", "properties": { "element": "node", "id": 3698170828, "amenity": "restaurant", "name": "The Fishermans Haunt", "phone": null, "internet_access": null, "internet_access:fee": null, "tourism": null, "website": null, "email": null, "fax": null, "addr:city": null, "addr:postcode": null, "addr:street": null, "brand": null, "description": null, "operator": null, "rooms": null, "smoking": null, "stars": null, "natural": null, "brewery": null, "opening_hours": null, "outdoor_seating": null, "shop": null, "information": null, "addr:housenumber": null, "wheelchair": null, "ele": null, "name:en": null, "air_conditioning": null, "reservation": null, "youtube": null, "denomination": null, "name:el": null, "religion": null, "access": null, "historic": null, "historic:civilization": null, "ruins": null, "building": null, "building:levels": null, "leisure": null, "landuse": null, "name:signed": null, "trees": null, "roof:shape": null, "cuisine": null, "mobile": null, "name:de": null, "intermittent": null, "waterway": null, "area": null, "height": null, "man_made": null, "tower:construction": null, "tower:type": null, "label": "amenity:restaurant" }, "geometry": { "type": "Point", "coordinates": [ 19.9421109, 39.470927 ] } },
{ "type": "Feature", "properties": { "element": "node", "id": 5112442521, "amenity": "restaurant", "name": "Merimaid bar and restaurant", "phone": null, "internet_access": null, "internet_access:fee": null, "tourism": null, "website": null, "email": null, "fax": null, "addr:city": null, "addr:postcode": null, "addr:street": null, "brand": null, "description": null, "operator": null, "rooms": null, "smoking": null, "stars": null, "natural": null, "brewery": null, "opening_hours": null, "outdoor_seating": null, "shop": null, "information": null, "addr:housenumber": null, "wheelchair": null, "ele": null, "name:en": null, "air_conditioning": null, "reservation": null, "youtube": null, "denomination": null, "name:el": null, "religion": null, "access": null, "historic": null, "historic:civilization": null, "ruins": null, "building": null, "building:levels": null, "leisure": null, "landuse": null, "name:signed": null, "trees": null, "roof:shape": null, "cuisine": null, "mobile": null, "name:de": null, "intermittent": null, "waterway": null, "area": null, "height": null, "man_made": null, "tower:construction": null, "tower:type": null, "label": "amenity:restaurant" }, "geometry": { "type": "Point", "coordinates": [ 19.9367253, 39.4728707 ] } },
{ "type": "Feature", "properties": { "element": "node", "id": 5112442522, "amenity": "waste_disposal", "name": null, "phone": null, "internet_access": null, "internet_access:fee": null, "tourism": null, "website": null, "email": null, "fax": null, "addr:city": null, "addr:postcode": null, "addr:street": null, "brand": null, "description": null, "operator": null, "rooms": null, "smoking": null, "stars": null, "natural": null, "brewery": null, "opening_hours": null, "outdoor_seating": null, "shop": null, "information": null, "addr:housenumber": null, "wheelchair": null, "ele": null, "name:en": null, "air_conditioning": null, "reservation": null, "youtube": null, "denomination": null, "name:el": null, "religion": null, "access": null, "historic": null, "historic:civilization": null, "ruins": null, "building": null, "building:levels": null, "leisure": null, "landuse": null, "name:signed": null, "trees": null, "roof:shape": null, "cuisine": null, "mobile": null, "name:de": null, "intermittent": null, "waterway": null, "area": null, "height": null, "man_made": null, "tower:construction": null, "tower:type": null, "label": "amenity:waste_disposal" }, "geometry": { "type": "Point", "coordinates": [ 19.9354962, 39.4739076 ] } },
{ "type": "Feature", "properties": { "element": "node", "id": 5667506365, "amenity": "bar", "name": "Serene Pool Bar", "phone": null, "internet_access": null, "internet_access:fee": null, "tourism": null, "website": null, "email": "sales@ionianeye.com", "fax": null, "addr:city": null, "addr:postcode": null, "addr:street": null, "brand": null, "description": null, "operator": "The Ionian Eye Luxury Design Studios", "rooms": null, "smoking": "outside", "stars": null, "natural": null, "brewery": "yes", "opening_hours": "Mo-Su 10:00-18:00", "outdoor_seating": "yes", "shop": null, "information": null, "addr:housenumber": null, "wheelchair": null, "ele": null, "name:en": null, "air_conditioning": null, "reservation": null, "youtube": null, "denomination": null, "name:el": null, "religion": null, "access": null, "historic": null, "historic:civilization": null, "ruins": null, "building": null, "building:levels": null, "leisure": null, "landuse": null, "name:signed": null, "trees": null, "roof:shape": null, "cuisine": null, "mobile": null, "name:de": null, "intermittent": null, "waterway": null, "area": null, "height": null, "man_made": null, "tower:construction": null, "tower:type": null, "label": "amenity:bar" }, "geometry": { "type": "Point", "coordinates": [ 19.9372043, 39.4712104 ] } },
{ "type": "Feature", "properties": { "element": "node", "id": 5667506371, "amenity": null, "name": "The Four Elements Spa", "phone": null, "internet_access": null, "internet_access:fee": null, "tourism": null, "website": null, "email": null, "fax": null, "addr:city": null, "addr:postcode": null, "addr:street": null, "brand": null, "description": null, "operator": "Ionian EYE", "rooms": null, "smoking": null, "stars": null, "natural": null, "brewery": null, "opening_hours": null, "outdoor_seating": null, "shop": "beauty", "information": null, "addr:housenumber": null, "wheelchair": null, "ele": null, "name:en": null, "air_conditioning": null, "reservation": null, "youtube": null, "denomination": null, "name:el": null, "religion": null, "access": null, "historic": null, "historic:civilization": null, "ruins": null, "building": null, "building:levels": null, "leisure": null, "landuse": null, "name:signed": null, "trees": null, "roof:shape": null, "cuisine": null, "mobile": null, "name:de": null, "intermittent": null, "waterway": null, "area": null, "height": null, "man_made": null, "tower:construction": null, "tower:type": null, "label": "shop:beauty" }, "geometry": { "type": "Point", "coordinates": [ 19.9371693, 39.4713409 ] } },
{ "type": "Feature", "properties": { "element": "node", "id": 5667558400, "amenity": null, "name": "NEXT Holidays", "phone": "+302661075631", "internet_access": null, "internet_access:fee": null, "tourism": "information", "website": null, "email": "info@corfunext.com", "fax": null, "addr:city": null, "addr:postcode": null, "addr:street": null, "brand": null, "description": null, "operator": null, "rooms": null, "smoking": null, "stars": null, "natural": null, "brewery": null, "opening_hours": null, "outdoor_seating": null, "shop": null, "information": "office", "addr:housenumber": null, "wheelchair": null, "ele": null, "name:en": null, "air_conditioning": null, "reservation": null, "youtube": null, "denomination": null, "name:el": null, "religion": null, "access": null, "historic": null, "historic:civilization": null, "ruins": null, "building": null, "building:levels": null, "leisure": null, "landuse": null, "name:signed": null, "trees": null, "roof:shape": null, "cuisine": null, "mobile": null, "name:de": null, "intermittent": null, "waterway": null, "area": null, "height": null, "man_made": null, "tower:construction": null, "tower:type": null, "label": "tourism:information" }, "geometry": { "type": "Point", "coordinates": [ 19.9371361, 39.471703 ] } },
{ "type": "Feature", "properties": { "element": "node", "id": 5667558402, "amenity": null, "name": "Corfu Trips", "phone": "+306945265048", "internet_access": null, "internet_access:fee": null, "tourism": null, "website": "https://corfutrips.com", "email": "info@corfutrips.com", "fax": "+302661076055", "addr:city": "Corfu", "addr:postcode": null, "addr:street": "Messonghi", "brand": null, "description": "Head Office of corfutrips.com an online excursion center for tours organized all around the island of Corfu. Many tours to choose from Shared or Private, by coach or by boat", "operator": "NEXT Holidays", "rooms": null, "smoking": null, "stars": null, "natural": null, "brewery": null, "opening_hours": "24/7", "outdoor_seating": null, "shop": "travel_agency", "information": null, "addr:housenumber": "0", "wheelchair": "yes", "ele": null, "name:en": null, "air_conditioning": null, "reservation": null, "youtube": null, "denomination": null, "name:el": null, "religion": null, "access": null, "historic": null, "historic:civilization": null, "ruins": null, "building": null, "building:levels": null, "leisure": null, "landuse": null, "name:signed": null, "trees": null, "roof:shape": null, "cuisine": null, "mobile": null, "name:de": null, "intermittent": null, "waterway": null, "area": null, "height": null, "man_made": null, "tower:construction": null, "tower:type": null, "label": "shop:travel_agency" }, "geometry": { "type": "Point", "coordinates": [ 19.9371489, 39.4717339 ] } },
{ "type": "Feature", "properties": { "element": "node", "id": 5962515285, "amenity": null, "name": "Courti Estate", "phone": null, "internet_access": null, "internet_access:fee": null, "tourism": "hotel", "website": null, "email": null, "fax": null, "addr:city": null, "addr:postcode": null, "addr:street": null, "brand": null, "description": null, "operator": null, "rooms": null, "smoking": null, "stars": null, "natural": null, "brewery": null, "opening_hours": null, "outdoor_seating": null, "shop": null, "information": null, "addr:housenumber": null, "wheelchair": null, "ele": null, "name:en": null, "air_conditioning": null, "reservation": null, "youtube": null, "denomination": null, "name:el": null, "religion": null, "access": null, "historic": null, "historic:civilization": null, "ruins": null, "building": null, "building:levels": null, "leisure": null, "landuse": null, "name:signed": null, "trees": null, "roof:shape": null, "cuisine": null, "mobile": null, "name:de": null, "intermittent": null, "waterway": null, "area": null, "height": null, "man_made": null, "tower:construction": null, "tower:type": null, "label": "tourism:hotel" }, "geometry": { "type": "Point", "coordinates": [ 19.9320626, 39.4741845 ] } },
{ "type": "Feature", "properties": { "element": "node", "id": 8493953674, "amenity": null, "name": null, "phone": null, "internet_access": null, "internet_access:fee": null, "tourism": null, "website": null, "email": null, "fax": null, "addr:city": null, "addr:postcode": null, "addr:street": null, "brand": null, "description": null, "operator": null, "rooms": null, "smoking": null, "stars": null, "natural": "peak", "brewery": null, "opening_hours": null, "outdoor_seating": null, "shop": null, "information": null, "addr:housenumber": null, "wheelchair": null, "ele": "310", "name:en": null, "air_conditioning": null, "reservation": null, "youtube": null, "denomination": null, "name:el": null, "religion": null, "access": null, "historic": null, "historic:civilization": null, "ruins": null, "building": null, "building:levels": null, "leisure": null, "landuse": null, "name:signed": null, "trees": null, "roof:shape": null, "cuisine": null, "mobile": null, "name:de": null, "intermittent": null, "waterway": null, "area": null, "height": null, "man_made": null, "tower:construction": null, "tower:type": null, "label": "natural:peak" }, "geometry": { "type": "Point", "coordinates": [ 19.9402234, 39.4592193 ] } },
{ "type": "Feature", "properties": { "element": "node", "id": 8493953675, "amenity": null, "name": null, "phone": null, "internet_access": null, "internet_access:fee": null, "tourism": null, "website": null, "email": null, "fax": null, "addr:city": null, "addr:postcode": null, "addr:street": null, "brand": null, "description": null, "operator": null, "rooms": null, "smoking": null, "stars": null, "natural": "peak", "brewery": null, "opening_hours": null, "outdoor_seating": null, "shop": null, "information": null, "addr:housenumber": null, "wheelchair": null, "ele": "320", "name:en": null, "air_conditioning": null, "reservation": null, "youtube": null, "denomination": null, "name:el": null, "religion": null, "access": null, "historic": null, "historic:civilization": null, "ruins": null, "building": null, "building:levels": null, "leisure": null, "landuse": null, "name:signed": null, "trees": null, "roof:shape": null, "cuisine": null, "mobile": null, "name:de": null, "intermittent": null, "waterway": null, "area": null, "height": null, "man_made": null, "tower:construction": null, "tower:type": null, "label": "natural:peak" }, "geometry": { "type": "Point", "coordinates": [ 19.9518778, 39.4583274 ] } },
{ "type": "Feature", "properties": { "element": "node", "id": 9672030519, "amenity": "waste_disposal", "name": null, "phone": null, "internet_access": null, "internet_access:fee": null, "tourism": null, "website": null, "email": null, "fax": null, "addr:city": null, "addr:postcode": null, "addr:street": null, "brand": null, "description": null, "operator": null, "rooms": null, "smoking": null, "stars": null, "natural": null, "brewery": null, "opening_hours": null, "outdoor_seating": null, "shop": null, "information": null, "addr:housenumber": null, "wheelchair": null, "ele": null, "name:en": null, "air_conditioning": null, "reservation": null, "youtube": null, "denomination": null, "name:el": null, "religion": null, "access": null, "historic": null, "historic:civilization": null, "ruins": null, "building": null, "building:levels": null, "leisure": null, "landuse": null, "name:signed": null, "trees": null, "roof:shape": null, "cuisine": null, "mobile": null, "name:de": null, "intermittent": null, "waterway": null, "area": null, "height": null, "man_made": null, "tower:construction": null, "tower:type": null, "label": "amenity:waste_disposal" }, "geometry": { "type": "Point", "coordinates": [ 19.952605, 39.456417 ] } },
{ "type": "Feature", "properties": { "element": "node", "id": 9672034817, "amenity": null, "name": null, "phone": null, "internet_access": null, "internet_access:fee": null, "tourism": "apartment", "website": null, "email": null, "fax": null, "addr:city": null, "addr:postcode": null, "addr:street": null, "brand": null, "description": null, "operator": null, "rooms": null, "smoking": null, "stars": null, "natural": null, "brewery": null, "opening_hours": null, "outdoor_seating": null, "shop": null, "information": null, "addr:housenumber": null, "wheelchair": null, "ele": null, "name:en": "Diamond Villa", "air_conditioning": null, "reservation": null, "youtube": null, "denomination": null, "name:el": null, "religion": null, "access": null, "historic": null, "historic:civilization": null, "ruins": null, "building": null, "building:levels": null, "leisure": null, "landuse": null, "name:signed": null, "trees": null, "roof:shape": null, "cuisine": null, "mobile": null, "name:de": null, "intermittent": null, "waterway": null, "area": null, "height": null, "man_made": null, "tower:construction": null, "tower:type": null, "label": "tourism:apartment" }, "geometry": { "type": "Point", "coordinates": [ 19.9391216, 39.4663 ] } },
{ "type": "Feature", "properties": { "element": "node", "id": 9672034917, "amenity": null, "name": null, "phone": null, "internet_access": null, "internet_access:fee": null, "tourism": "apartment", "website": null, "email": null, "fax": null, "addr:city": null, "addr:postcode": null, "addr:street": null, "brand": null, "description": null, "operator": null, "rooms": null, "smoking": null, "stars": null, "natural": null, "brewery": null, "opening_hours": null, "outdoor_seating": null, "shop": null, "information": null, "addr:housenumber": null, "wheelchair": null, "ele": null, "name:en": null, "air_conditioning": null, "reservation": null, "youtube": null, "denomination": null, "name:el": null, "religion": null, "access": null, "historic": null, "historic:civilization": null, "ruins": null, "building": null, "building:levels": null, "leisure": null, "landuse": null, "name:signed": null, "trees": null, "roof:shape": null, "cuisine": null, "mobile": null, "name:de": null, "intermittent": null, "waterway": null, "area": null, "height": null, "man_made": null, "tower:construction": null, "tower:type": null, "label": "tourism:apartment" }, "geometry": { "type": "Point", "coordinates": [ 19.9379537, 39.4678017 ] } },
{ "type": "Feature", "properties": { "element": "node", "id": 9672035017, "amenity": null, "name": null, "phone": null, "internet_access": null, "internet_access:fee": null, "tourism": "apartment", "website": null, "email": null, "fax": null, "addr:city": null, "addr:postcode": null, "addr:street": null, "brand": null, "description": null, "operator": null, "rooms": null, "smoking": null, "stars": null, "natural": null, "brewery": null, "opening_hours": null, "outdoor_seating": null, "shop": null, "information": null, "addr:housenumber": null, "wheelchair": null, "ele": null, "name:en": "Harvagi Villa's", "air_conditioning": null, "reservation": null, "youtube": null, "denomination": null, "name:el": null, "religion": null, "access": null, "historic": null, "historic:civilization": null, "ruins": null, "building": null, "building:levels": null, "leisure": null, "landuse": null, "name:signed": null, "trees": null, "roof:shape": null, "cuisine": null, "mobile": null, "name:de": null, "intermittent": null, "waterway": null, "area": null, "height": null, "man_made": null, "tower:construction": null, "tower:type": null, "label": "tourism:apartment" }, "geometry": { "type": "Point", "coordinates": [ 19.9385464, 39.4676942 ] } },
{ "type": "Feature", "properties": { "element": "node", "id": 10673980046, "amenity": null, "name": "maria corfu apartments", "phone": "+306938083969", "internet_access": "yes", "internet_access:fee": "no", "tourism": "hotel", "website": "https://sites.google.com/view/mariacorfuapartments", "email": "apartmentsmariacorfu@gmail.com", "fax": null, "addr:city": "Δημοτική Ενότητα Μελιτειέων", "addr:postcode": "49080", "addr:street": "psaras", "brand": null, "description": null, "operator": null, "rooms": "8", "smoking": "outside", "stars": "2", "natural": null, "brewery": null, "opening_hours": null, "outdoor_seating": null, "shop": null, "information": null, "addr:housenumber": "messonghi", "wheelchair": null, "ele": null, "name:en": null, "air_conditioning": "yes", "reservation": "yes", "youtube": "mariacorfuapartments", "denomination": null, "name:el": null, "religion": null, "access": null, "historic": null, "historic:civilization": null, "ruins": null, "building": null, "building:levels": null, "leisure": null, "landuse": null, "name:signed": null, "trees": null, "roof:shape": null, "cuisine": null, "mobile": null, "name:de": null, "intermittent": null, "waterway": null, "area": null, "height": null, "man_made": null, "tower:construction": null, "tower:type": null, "label": "tourism:hotel" }, "geometry": { "type": "Point", "coordinates": [ 19.9499853, 39.4683365 ] } },
{ "type": "Feature", "properties": { "element": "node", "id": 12476431579, "amenity": "place_of_worship", "name": "Ἱερὸν Ἐξωκκλήσιον Ἀγίου Ἀθανασίου", "phone": null, "internet_access": null, "internet_access:fee": null, "tourism": null, "website": null, "email": null, "fax": null, "addr:city": null, "addr:postcode": null, "addr:street": null, "brand": null, "description": null, "operator": null, "rooms": null, "smoking": null, "stars": null, "natural": null, "brewery": null, "opening_hours": null, "outdoor_seating": null, "shop": null, "information": null, "addr:housenumber": null, "wheelchair": null, "ele": null, "name:en": "Holy Chapel of Saint Athanasius", "air_conditioning": null, "reservation": null, "youtube": null, "denomination": "greek_orthodox", "name:el": "Ἱερὸς Ἐξωκκλήσιον Ἀγίου Ἀθανασίου", "religion": "christian", "access": null, "historic": null, "historic:civilization": null, "ruins": null, "building": null, "building:levels": null, "leisure": null, "landuse": null, "name:signed": null, "trees": null, "roof:shape": null, "cuisine": null, "mobile": null, "name:de": null, "intermittent": null, "waterway": null, "area": null, "height": null, "man_made": null, "tower:construction": null, "tower:type": null, "label": "amenity:place_of_worship" }, "geometry": { "type": "Point", "coordinates": [ 19.9435083, 39.4597247 ] } },
{ "type": "Feature", "properties": { "element": "node", "id": 12476431580, "amenity": null, "name": null, "phone": null, "internet_access": null, "internet_access:fee": null, "tourism": null, "website": null, "email": null, "fax": null, "addr:city": null, "addr:postcode": null, "addr:street": null, "brand": null, "description": null, "operator": null, "rooms": null, "smoking": null, "stars": null, "natural": null, "brewery": null, "opening_hours": null, "outdoor_seating": null, "shop": null, "information": null, "addr:housenumber": null, "wheelchair": null, "ele": null, "name:en": null, "air_conditioning": null, "reservation": null, "youtube": null, "denomination": null, "name:el": null, "religion": null, "access": "yes", "historic": "ruins", "historic:civilization": "modern", "ruins": "house", "building": null, "building:levels": null, "leisure": null, "landuse": null, "name:signed": null, "trees": null, "roof:shape": null, "cuisine": null, "mobile": null, "name:de": null, "intermittent": null, "waterway": null, "area": null, "height": null, "man_made": null, "tower:construction": null, "tower:type": null, "label": "historic:ruins" }, "geometry": { "type": "Point", "coordinates": [ 19.9424856, 39.4598397 ] } },
{ "type": "Feature", "properties": { "element": "node", "id": 12476431581, "amenity": null, "name": null, "phone": null, "internet_access": null, "internet_access:fee": null, "tourism": null, "website": null, "email": null, "fax": null, "addr:city": null, "addr:postcode": null, "addr:street": null, "brand": null, "description": null, "operator": null, "rooms": null, "smoking": null, "stars": null, "natural": null, "brewery": null, "opening_hours": null, "outdoor_seating": null, "shop": null, "information": null, "addr:housenumber": null, "wheelchair": null, "ele": null, "name:en": null, "air_conditioning": null, "reservation": null, "youtube": null, "denomination": null, "name:el": null, "religion": null, "access": "yes", "historic": "ruins", "historic:civilization": "modern", "ruins": "building", "building": null, "building:levels": null, "leisure": null, "landuse": null, "name:signed": null, "trees": null, "roof:shape": null, "cuisine": null, "mobile": null, "name:de": null, "intermittent": null, "waterway": null, "area": null, "height": null, "man_made": null, "tower:construction": null, "tower:type": null, "label": "historic:ruins" }, "geometry": { "type": "Point", "coordinates": [ 19.942892, 39.459713 ] } },
{ "type": "Feature", "properties": { "element": "node", "id": 12512984231, "amenity": "place_of_worship", "name": null, "phone": null, "internet_access": null, "internet_access:fee": null, "tourism": null, "website": null, "email": null, "fax": null, "addr:city": null, "addr:postcode": null, "addr:street": null, "brand": null, "description": null, "operator": null, "rooms": null, "smoking": null, "stars": null, "natural": null, "brewery": null, "opening_hours": null, "outdoor_seating": null, "shop": null, "information": null, "addr:housenumber": null, "wheelchair": null, "ele": null, "name:en": null, "air_conditioning": null, "reservation": null, "youtube": null, "denomination": "greek_orthodox", "name:el": null, "religion": "christian", "access": null, "historic": null, "historic:civilization": null, "ruins": null, "building": null, "building:levels": null, "leisure": null, "landuse": null, "name:signed": null, "trees": null, "roof:shape": null, "cuisine": null, "mobile": null, "name:de": null, "intermittent": null, "waterway": null, "area": null, "height": null, "man_made": null, "tower:construction": null, "tower:type": null, "label": "amenity:place_of_worship" }, "geometry": { "type": "Point", "coordinates": [ 19.9408937, 39.4620005 ] } },
{ "type": "Feature", "properties": { "element": "node", "id": 12537398932, "amenity": null, "name": null, "phone": null, "internet_access": null, "internet_access:fee": null, "tourism": null, "website": null, "email": null, "fax": null, "addr:city": null, "addr:postcode": null, "addr:street": null, "brand": null, "description": null, "operator": null, "rooms": null, "smoking": null, "stars": null, "natural": null, "brewery": null, "opening_hours": null, "outdoor_seating": null, "shop": null, "information": null, "addr:housenumber": null, "wheelchair": null, "ele": null, "name:en": null, "air_conditioning": null, "reservation": null, "youtube": null, "denomination": null, "name:el": null, "religion": null, "access": "yes", "historic": "ruins", "historic:civilization": "modern", "ruins": "house", "building": null, "building:levels": null, "leisure": null, "landuse": null, "name:signed": null, "trees": null, "roof:shape": null, "cuisine": null, "mobile": null, "name:de": null, "intermittent": null, "waterway": null, "area": null, "height": null, "man_made": null, "tower:construction": null, "tower:type": null, "label": "historic:ruins" }, "geometry": { "type": "Point", "coordinates": [ 19.9433002, 39.4599293 ] } }
]
}
