{
"type": "FeatureCollection",
"name": "patch_76802_point",
"crs": { "type": "name", "properties": { "name": "urn:ogc:def:crs:OGC:1.3:CRS84" } },
"features": [
{ "type": "Feature", "properties": { "osm_id": 5825524450, "name": null, "label": "natural:peak", "natural": "peak" }, "geometry": { "type": "Point", "coordinates": [ 27.7753257, 36.018385599737371 ] } },
{ "type": "Feature", "properties": { "osm_id": 5825524447, "name": null, "label": "natural:peak", "natural": "peak" }, "geometry": { "type": "Point", "coordinates": [ 27.7800679, 36.00594929973613 ] } },
{ "type": "Feature", "properties": { "osm_id": 5825524448, "name": null, "label": "natural:peak", "natural": "peak" }, "geometry": { "type": "Point", "coordinates": [ 27.7699506, 36.009364499736456 ] } },
{ "type": "Feature", "properties": { "osm_id": 5825524449, "name": null, "label": "natural:peak", "natural": "peak" }, "geometry": { "type": "Point", "coordinates": [ 27.7615768, 36.00934279973648 ] } }
]
}
