{
"type": "FeatureCollection",
"name": "patch_76802_linestring",
"crs": { "type": "name", "properties": { "name": "urn:ogc:def:crs:OGC:1.3:CRS84" } },
"features": [
{ "type": "Feature", "properties": { "osm_id": 238663204, "name": null, "label": "waterway:river", "waterway": "river", "natural": null }, "geometry": { "type": "LineString", "coordinates": [ [ 27.7725243, 36.000837899735622 ], [ 27.7724049, 36.000845199735622 ], [ 27.7722764, 36.000817399735624 ], [ 27.7721853, 36.000758199735614 ], [ 27.7721823, 36.000698999735597 ], [ 27.7723197, 36.000579399735592 ], [ 27.7723675, 36.000495999735584 ], [ 27.7723391, 36.000425899735582 ], [ 27.7721883, 36.000406599735577 ], [ 27.7721107, 36.000363099735573 ], [ 27.7720315, 36.00025799973556 ], [ 27.7719553, 36.000133599735548 ], [ 27.7718732, 36.000138399735555 ], [ 27.7717254, 36.000270099735566 ], [ 27.7716417, 36.000244699735575 ], [ 27.7713505, 36.000013899735535 ], [ 27.7712848, 35.999876199735546 ], [ 27.7713535, 35.999651499735499 ], [ 27.7713221, 35.999530699735494 ], [ 27.7711564, 35.99949929973549 ], [ 27.7710966, 35.999345799735465 ], [ 27.7709473, 35.999223799735468 ], [ 27.770792, 35.999018399735441 ], [ 27.7706068, 35.998961599735431 ], [ 27.7705202, 35.998776799735417 ], [ 27.7704814, 35.9986099997354 ], [ 27.7703888, 35.998524199735392 ], [ 27.7703888, 35.99840579973538 ], [ 27.7703335, 35.998378099735383 ], [ 27.7700318, 35.998373199735362 ], [ 27.7698661, 35.998329699735365 ], [ 27.7697571, 35.998240299735357 ], [ 27.7697436, 35.998188399735348 ], [ 27.7697944, 35.99814239973535 ], [ 27.7699064, 35.99811469973536 ], [ 27.770008, 35.998071199735342 ], [ 27.7700408, 35.997991399735326 ], [ 27.7700065, 35.99791169973534 ], [ 27.76989, 35.997912899735333 ], [ 27.769772, 35.997926199735332 ], [ 27.7696316, 35.997834399735332 ], [ 27.7695002, 35.997836799735325 ], [ 27.7693575, 35.997863699735326 ], [ 27.7693005, 35.997979899735327 ], [ 27.7690998, 35.998061899735347 ], [ 27.7686014, 35.998067099735344 ], [ 27.7683416, 35.998099499735353 ], [ 27.7678094, 35.998181599735354 ], [ 27.7675602, 35.998202099735366 ], [ 27.7673659, 35.99816789973535 ], [ 27.7672434, 35.998036299735332 ], [ 27.7671864, 35.997885999735324 ], [ 27.7671251, 35.997663799735292 ], [ 27.7670301, 35.997566399735284 ], [ 27.7667006, 35.997532299735298 ], [ 27.7663374, 35.997503199735284 ], [ 27.7660248, 35.997592099735293 ], [ 27.7656552, 35.997574999735292 ], [ 27.7655179, 35.997506599735296 ], [ 27.7653827, 35.997351099735276 ], [ 27.7652455, 35.997222999735264 ], [ 27.7650321, 35.997222999735264 ], [ 27.7647259, 35.997368199735277 ], [ 27.7642697, 35.997602299735284 ], [ 27.7639571, 35.99774579973532 ], [ 27.7637565, 35.997715099735309 ], [ 27.7634714, 35.997615999735288 ], [ 27.7633721, 35.997494699735284 ], [ 27.7632623, 35.997286199735257 ], [ 27.7631968, 35.997216099735269 ], [ 27.7630046, 35.997320399735266 ], [ 27.7627406, 35.99740919973528 ], [ 27.7625379, 35.997429699735278 ], [ 27.7623373, 35.997404099735277 ], [ 27.7620226, 35.997159799735243 ], [ 27.761745074472017, 35.996961852016469 ] ] } },
{ "type": "Feature", "properties": { "osm_id": 238663217, "name": null, "label": "waterway:stream", "waterway": "stream", "natural": null }, "geometry": { "type": "LineString", "coordinates": [ [ 27.7761215, 36.013332199736865 ], [ 27.7760151, 36.013389599736868 ], [ 27.7759324, 36.013466099736881 ], [ 27.7758762, 36.01347089973688 ], [ 27.7756575, 36.013387199736854 ], [ 27.7753531, 36.013449399736871 ], [ 27.7750132, 36.013461299736889 ], [ 27.7748004, 36.013482799736877 ], [ 27.7746615, 36.013399199736874 ], [ 27.7745906, 36.013231799736857 ], [ 27.7744753, 36.013152899736852 ], [ 27.7744073, 36.013188799736859 ], [ 27.7743926, 36.013305899736864 ], [ 27.7741916, 36.013411099736871 ], [ 27.7740172, 36.013411099736871 ], [ 27.7734734, 36.013463699736896 ], [ 27.7731808, 36.013375199736863 ], [ 27.7730478, 36.013406299736872 ], [ 27.7730596, 36.013494799736876 ], [ 27.7732665, 36.013626299736885 ], [ 27.7733552, 36.013707499736896 ], [ 27.7732517, 36.013774499736904 ], [ 27.7728911, 36.013795999736914 ], [ 27.7726961, 36.013800799736913 ], [ 27.7723798, 36.014003999736929 ], [ 27.7721729, 36.014058999736939 ], [ 27.7718153, 36.014042199736927 ], [ 27.7717119, 36.014111599736935 ], [ 27.7716262, 36.014142599736942 ], [ 27.7712035, 36.014037499736936 ], [ 27.7711326, 36.013977699736927 ], [ 27.7711651, 36.013855799736923 ], [ 27.7711474, 36.013800799736913 ], [ 27.7710735, 36.0137911997369 ], [ 27.7709996, 36.013836599736912 ], [ 27.7709168, 36.014061399736939 ], [ 27.7707809, 36.014147399736942 ], [ 27.7704587, 36.014221499736955 ], [ 27.7701425, 36.014228699736947 ], [ 27.7700656, 36.014180899736942 ], [ 27.7700686, 36.014101999736937 ], [ 27.7701986, 36.013951399736932 ], [ 27.7702489, 36.013848599736917 ], [ 27.7701927, 36.013784099736903 ], [ 27.7701159, 36.013762499736899 ], [ 27.7699652, 36.013807999736912 ], [ 27.7696755, 36.013965699736929 ], [ 27.769445, 36.014133099736938 ], [ 27.7693297, 36.014276499736958 ], [ 27.769241, 36.014539499736969 ], [ 27.769114, 36.01465189973699 ], [ 27.7689632, 36.014699699737001 ], [ 27.768579, 36.014675799736985 ], [ 27.7679229, 36.014773799737014 ], [ 27.7677012, 36.014857499737005 ], [ 27.7675741, 36.014976999737023 ], [ 27.7675387, 36.01513719973704 ], [ 27.7675623, 36.015256699737051 ], [ 27.7676391, 36.015414499737069 ], [ 27.7677574, 36.015694199737084 ], [ 27.7677396, 36.015753899737106 ], [ 27.7676717, 36.015811299737109 ], [ 27.767447, 36.015868699737119 ], [ 27.7671899, 36.015863899737113 ], [ 27.7665663, 36.015827999737112 ], [ 27.7664362, 36.015811299737109 ], [ 27.7663683, 36.015856699737114 ], [ 27.7663771, 36.015935599737119 ], [ 27.7663919, 36.016047999737125 ], [ 27.766318, 36.016418499737171 ], [ 27.7662294, 36.016521299737185 ], [ 27.7660047, 36.01660499973719 ], [ 27.7657801, 36.016588199737193 ], [ 27.765387, 36.016449599737179 ], [ 27.7652481, 36.016406599737174 ], [ 27.7651594, 36.01642089973717 ], [ 27.7650838, 36.016606899737191 ], [ 27.7648469, 36.016661399737188 ], [ 27.76451, 36.016626299737197 ], [ 27.7642579, 36.01650139973718 ], [ 27.7639319, 36.016327399737165 ], [ 27.7638362, 36.016202599737149 ], [ 27.763758, 36.015995099737118 ], [ 27.7637189, 36.01588789973713 ], [ 27.7636341, 36.015734899737112 ], [ 27.7635254, 36.015622399737097 ], [ 27.7633624, 36.015583799737101 ], [ 27.7632863, 36.015624199737083 ], [ 27.7632124, 36.01586329973712 ], [ 27.7630733, 36.016072499737149 ], [ 27.7629864, 36.016112899737145 ], [ 27.7628516, 36.016072499737149 ], [ 27.7624235, 36.01599339973712 ], [ 27.7621605, 36.015989899737122 ], [ 27.7619562, 36.016000399737131 ], [ 27.7619105, 36.016044399737133 ], [ 27.7618801, 36.016260599737159 ], [ 27.7617965, 36.016486099737193 ], [ 27.7617888, 36.016506699737185 ], [ 27.7616954, 36.016710599737216 ], [ 27.7615628, 36.016967299737225 ], [ 27.7613976, 36.017046399737239 ], [ 27.7612781, 36.01704289973722 ], [ 27.7612215, 36.016928599737227 ], [ 27.7610944, 36.016844499737218 ], [ 27.7609042, 36.016751099737206 ], [ 27.7607477, 36.016726499737203 ], [ 27.7606347, 36.016821399737204 ], [ 27.7604978, 36.017011299737234 ], [ 27.7602674, 36.017230999737265 ], [ 27.7600848, 36.017329499737251 ], [ 27.7598371, 36.017385699737275 ], [ 27.7596219, 36.017378699737272 ], [ 27.7595784, 36.017308399737267 ], [ 27.7596088, 36.01713609973725 ], [ 27.7595871, 36.017055199737236 ], [ 27.759498, 36.016972599737223 ], [ 27.7591763, 36.016817899737212 ], [ 27.7588134, 36.0166015997372 ], [ 27.7586612, 36.016527799737176 ], [ 27.758546, 36.016578799737189 ], [ 27.7584939, 36.016803799737211 ], [ 27.7585025, 36.016947999737226 ], [ 27.7584482, 36.017035899737238 ], [ 27.7582895, 36.017056999737235 ], [ 27.7578092, 36.017076299737234 ], [ 27.7572984, 36.017139599737241 ], [ 27.7570572, 36.017229199737258 ], [ 27.756905, 36.017334699737269 ], [ 27.7566594, 36.017382199737263 ], [ 27.7564591, 36.017377799737268 ], [ 27.7563356, 36.017406799737266 ], [ 27.7559292, 36.017498199737283 ], [ 27.7555145, 36.0175665997373 ] ] } },
{ "type": "Feature", "properties": { "osm_id": 487155995, "name": null, "label": "natural:cliff", "waterway": null, "natural": "cliff" }, "geometry": { "type": "LineString", "coordinates": [ [ 27.7571493, 36.018564899737385 ], [ 27.7569956, 36.01827759973736 ], [ 27.756982, 36.018193399737335 ], [ 27.7569871, 36.018109199737331 ], [ 27.7570554, 36.017991799737331 ], [ 27.7571578, 36.01791449973733 ], [ 27.7572347, 36.017903399737321 ] ] } },
{ "type": "Feature", "properties": { "osm_id": 360316364, "name": null, "label": "natural:cliff", "waterway": null, "natural": "cliff" }, "geometry": { "type": "LineString", "coordinates": [ [ 27.760815978180599, 36.019858371999554 ], [ 27.7608131, 36.019844399737508 ], [ 27.7606919, 36.019768599737496 ], [ 27.7606479, 36.019683999737495 ], [ 27.7605983, 36.0196126997375 ], [ 27.7606589, 36.019496899737483 ] ] } },
{ "type": "Feature", "properties": { "osm_id": 238663213, "name": null, "label": "waterway:stream", "waterway": "stream", "natural": null }, "geometry": { "type": "LineString", "coordinates": [ [ 27.7653605, 36.007632099736298 ], [ 27.7652332, 36.007571999736292 ], [ 27.7651589, 36.007387499736275 ], [ 27.7650581, 36.007305899736252 ], [ 27.7650952, 36.00712569973625 ], [ 27.7650209, 36.007039899736242 ], [ 27.7650316, 36.006889599736233 ], [ 27.7649732, 36.006640699736202 ], [ 27.7648353, 36.006524899736192 ], [ 27.7647451, 36.006237299736156 ], [ 27.7647132, 36.005988399736133 ], [ 27.7645859, 36.005838199736125 ], [ 27.7644108, 36.00574809973611 ], [ 27.7641774, 36.005687999736104 ], [ 27.7640236, 36.005589299736087 ], [ 27.7637795, 36.005486299736077 ], [ 27.7635514, 36.005314599736067 ], [ 27.7634612, 36.00518579973604 ], [ 27.7632437, 36.005074299736037 ], [ 27.7630315, 36.004911199736036 ], [ 27.7627344, 36.004855399736016 ], [ 27.762485, 36.004868199736023 ], [ 27.7620871, 36.004816699736018 ], [ 27.7618855, 36.004790999735995 ], [ 27.761806, 36.004632199736001 ], [ 27.7618219, 36.004447699735991 ], [ 27.761859, 36.004224499735955 ], [ 27.7617794, 36.004035599735936 ], [ 27.7616044, 36.003855399735919 ], [ 27.7613665, 36.003646099735896 ], [ 27.7611324, 36.003459299735873 ], [ 27.7605124, 36.003164999735851 ], [ 27.7597342, 36.003003799735829 ], [ 27.7593199, 36.002932199735824 ], [ 27.7590352, 36.002914199735834 ], [ 27.7587821, 36.002809299735816 ], [ 27.7585544, 36.002796499735815 ], [ 27.7583677, 36.002845099735815 ], [ 27.7581115, 36.002944999735817 ], [ 27.7579534, 36.002944999735817 ], [ 27.7577098, 36.002796499735815 ], [ 27.7574915, 36.002801599735818 ], [ 27.7572606, 36.002850299735812 ], [ 27.7569944, 36.002796499735815 ], [ 27.7566749, 36.002804199735813 ], [ 27.7566148, 36.002658299735799 ], [ 27.7565104, 36.002438299735786 ], [ 27.7563997, 36.00238709973577 ], [ 27.7561972, 36.002376799735771 ], [ 27.7559189, 36.002548299735793 ], [ 27.7556405, 36.002596899735799 ], [ 27.7555709, 36.002540599735781 ], [ 27.7556057, 36.002320599735761 ], [ 27.7555709, 36.002189999735741 ], [ 27.7554507, 36.002133699735758 ], [ 27.7551249, 36.002149099735746 ], [ 27.754992, 36.002056999735743 ], [ 27.754949193502668, 36.002041953365392 ] ] } },
{ "type": "Feature", "properties": { "osm_id": 4517858, "name": null, "label": "natural:coastline", "waterway": null, "natural": "coastline" }, "geometry": { "type": "LineString", "coordinates": [ [ 27.756210928234292, 36.019858371999554 ], [ 27.7561019, 36.019072999737439 ], [ 27.7559348, 36.018304199737365 ], [ 27.7556238, 36.017838299737313 ], [ 27.7555145, 36.0175665997373 ], [ 27.7554683, 36.017451699737279 ], [ 27.7553185, 36.01680399973722 ], [ 27.7553473, 36.016193699737151 ], [ 27.755634, 36.015820999737109 ], [ 27.755612, 36.015301999737062 ], [ 27.755491, 36.01472419973701 ], [ 27.755324, 36.014290899736963 ], [ 27.7551569, 36.013442899736873 ], [ 27.754949193502668, 36.012888923335041 ] ] } }
]
}
