{
"type": "FeatureCollection",
"name": "patch_76802_features",
"crs": { "type": "name", "properties": { "name": "urn:ogc:def:crs:OGC:1.3:CRS84" } },
"features": [
{ "type": "Feature", "properties": { "osm_id": 360312217, "name": null, "label": "landuse:farmland", "landuse": "farmland", "natural": null, "waterway": null }, "geometry": { "type": "Polygon", "coordinates": [ [ [ 27.7550636, 36.001366499735681 ], [ 27.7556666, 36.002118899735734 ], [ 27.7557586, 36.002412499735762 ], [ 27.7558199, 36.002437299735782 ], [ 27.7559119, 36.002412499735762 ], [ 27.7561879, 36.002255399735759 ], [ 27.7563361, 36.002247099735769 ], [ 27.7565456, 36.002333899735774 ], [ 27.7568318, 36.002652199735806 ], [ 27.756934, 36.002676999735797 ], [ 27.7570924, 36.002693599735807 ], [ 27.757583, 36.002643999735788 ], [ 27.7577261, 36.002656399735798 ], [ 27.7579305, 36.002780399735812 ], [ 27.7580327, 36.002817599735813 ], [ 27.7582269, 36.002772099735822 ], [ 27.7587635, 36.002453799735775 ], [ 27.7585029, 36.002309099735754 ], [ 27.758186, 36.00229669973578 ], [ 27.757956, 36.002172699735752 ], [ 27.7575779, 36.001804699735729 ], [ 27.7574552, 36.001817099735717 ], [ 27.757353, 36.001635199735702 ], [ 27.7569186, 36.001540099735692 ], [ 27.7563769, 36.001101899735652 ], [ 27.7571946, 36.000465199735586 ], [ 27.7568011, 36.00011789973555 ], [ 27.7572406, 35.999890499735521 ], [ 27.7578436, 35.999749999735506 ], [ 27.7572048, 35.999175299735448 ], [ 27.75698, 35.999208399735451 ], [ 27.7565711, 35.999427499735475 ], [ 27.7564894, 35.999373699735472 ], [ 27.7563412, 35.999369599735481 ], [ 27.7559221, 35.999745799735507 ], [ 27.7557126, 35.999704499735508 ], [ 27.7555695, 35.999778899735517 ], [ 27.7552731, 35.999762399735509 ], [ 27.7551658, 35.999787199735508 ], [ 27.7550585, 35.999733399735511 ], [ 27.754949193502668, 35.999732214762922 ], [ 27.754949193502668, 36.001318498751772 ], [ 27.7550636, 36.001366499735681 ] ] ] } },
{ "type": "Feature", "properties": { "osm_id": 136933479, "name": null, "label": "natural:wood", "landuse": null, "natural": "wood", "waterway": null }, "geometry": { "type": "Polygon", "coordinates": [ [ [ 27.783293, 36.003088999735851 ], [ 27.782106, 36.003308999735864 ], [ 27.78162, 36.00332499973586 ], [ 27.781163, 36.00315699973585 ], [ 27.780739, 36.002895999735827 ], [ 27.780216, 36.002912999735827 ], [ 27.779297, 36.003245999735846 ], [ 27.77862, 36.00396699973593 ], [ 27.778419, 36.004458999735981 ], [ 27.778619, 36.004726999736 ], [ 27.779069, 36.004742999736003 ], [ 27.779404, 36.004701999735993 ], [ 27.779618, 36.004481999735987 ], [ 27.780026, 36.004408999735979 ], [ 27.780517, 36.004514999735981 ], [ 27.781167, 36.004797999736013 ], [ 27.781663, 36.004994999736041 ], [ 27.781677, 36.005298999736063 ], [ 27.781458, 36.005396999736078 ], [ 27.780822, 36.005416999736063 ], [ 27.779842, 36.005265999736068 ], [ 27.77922, 36.005558999736088 ], [ 27.778709, 36.005817999736109 ], [ 27.778111, 36.005836999736125 ], [ 27.77751, 36.005794999736111 ], [ 27.77705, 36.005566999736089 ], [ 27.776308, 36.0056809997361 ], [ 27.776099, 36.006021999736127 ], [ 27.775464, 36.006041999736148 ], [ 27.774901, 36.005998999736136 ], [ 27.774517, 36.005797999736103 ], [ 27.774461, 36.005404999736072 ], [ 27.774294, 36.005044999736036 ], [ 27.773909, 36.004813999736008 ], [ 27.772881, 36.004450999735987 ], [ 27.771574, 36.00449299973598 ], [ 27.77087, 36.004635999735996 ], [ 27.770442, 36.00507599973605 ], [ 27.770531, 36.005376999736072 ], [ 27.770656, 36.005645999736103 ], [ 27.769839, 36.007343999736264 ], [ 27.769316, 36.007696999736311 ], [ 27.769636, 36.00827799973635 ], [ 27.770553, 36.008516999736379 ], [ 27.771761, 36.008377999736368 ], [ 27.771906, 36.008389999736366 ], [ 27.772166, 36.008666999736398 ], [ 27.771837, 36.009094999736448 ], [ 27.770015, 36.009319999736476 ], [ 27.769124, 36.009213999736453 ], [ 27.768573, 36.009314999736468 ], [ 27.767838, 36.009873999736527 ], [ 27.767315, 36.01012399973655 ], [ 27.765295, 36.010922999736621 ], [ 27.764614, 36.011811999736715 ], [ 27.764645, 36.012482999736783 ], [ 27.764865, 36.012755999736811 ], [ 27.764876, 36.012979999736814 ], [ 27.764675, 36.013097999736843 ], [ 27.764186, 36.012972999736832 ], [ 27.763422, 36.012828999736811 ], [ 27.763161, 36.013145999736849 ], [ 27.763569, 36.013748999736904 ], [ 27.763961, 36.014015999736934 ], [ 27.764507, 36.013914999736919 ], [ 27.765015, 36.0137309997369 ], [ 27.765494, 36.013659999736895 ], [ 27.766186, 36.013721999736909 ], [ 27.76656, 36.013625999736895 ], [ 27.766687, 36.013398999736879 ], [ 27.766634, 36.013007999736828 ], [ 27.766609, 36.012476999736776 ], [ 27.766912, 36.012327999736762 ], [ 27.767458, 36.012226999736761 ], [ 27.768428, 36.012335999736763 ], [ 27.769027, 36.012624999736794 ], [ 27.769316, 36.01289599973682 ], [ 27.769869, 36.012934999736828 ], [ 27.77045, 36.012831999736811 ], [ 27.771015, 36.01239499973677 ], [ 27.771546, 36.011985999736737 ], [ 27.772604, 36.011056999736638 ], [ 27.772948, 36.011045999736638 ], [ 27.773327, 36.011033999736632 ], [ 27.773698, 36.010882999736616 ], [ 27.773795, 36.0107399997366 ], [ 27.773611, 36.010493999736582 ], [ 27.773428, 36.010274999736552 ], [ 27.773452, 36.010050999736542 ], [ 27.773718, 36.00984599973652 ], [ 27.774129, 36.009805999736507 ], [ 27.774817, 36.00951999973649 ], [ 27.775662, 36.008619999736403 ], [ 27.776499, 36.007346999736271 ], [ 27.777186, 36.00683899973621 ], [ 27.777892, 36.006725999736211 ], [ 27.77832, 36.007076999736242 ], [ 27.778413, 36.009019999736424 ], [ 27.77857, 36.009956999736517 ], [ 27.779251, 36.010117999736543 ], [ 27.780483, 36.010048999736533 ], [ 27.781372, 36.009868999736526 ], [ 27.782588, 36.009465999736477 ], [ 27.783578029282513, 36.008849536755285 ], [ 27.783578029282513, 36.003080092571047 ], [ 27.783293, 36.003088999735851 ] ] ] } },
{ "type": "Feature", "properties": { "osm_id": 360316337, "name": null, "label": "landuse:farmland", "landuse": "farmland", "natural": null, "waterway": null }, "geometry": { "type": "Polygon", "coordinates": [ [ [ 27.7619704, 36.004009899735934 ], [ 27.7619545, 36.004237399735956 ], [ 27.7618802, 36.00437899973597 ], [ 27.7619015, 36.004516299735982 ], [ 27.7620871, 36.004610699735991 ], [ 27.7620924, 36.00472659973601 ], [ 27.7623471, 36.004782399736015 ], [ 27.7628299, 36.004778099736015 ], [ 27.7632225, 36.004932599736023 ], [ 27.7635408, 36.005134299736056 ], [ 27.7638538, 36.005426199736085 ], [ 27.7640713, 36.005082799736037 ], [ 27.763944, 36.004799599736018 ], [ 27.763806, 36.004705199736009 ], [ 27.7640289, 36.004477699735986 ], [ 27.7639917, 36.004331799735965 ], [ 27.7640076, 36.004245899735956 ], [ 27.7638644, 36.003923999735925 ], [ 27.7635938, 36.00376529973591 ], [ 27.7632119, 36.003507699735891 ], [ 27.7625381, 36.003520599735893 ], [ 27.7620341, 36.003477699735875 ], [ 27.7619227, 36.003473399735874 ], [ 27.7617954, 36.0035162997359 ], [ 27.7616892, 36.003679399735908 ], [ 27.7615566, 36.00377379973591 ], [ 27.7619704, 36.004009899735934 ] ] ] } },
{ "type": "Feature", "properties": { "osm_id": 360316338, "name": null, "label": "landuse:farmland", "landuse": "farmland", "natural": null, "waterway": null }, "geometry": { "type": "Polygon", "coordinates": [ [ [ 27.7619068, 36.005722299736114 ], [ 27.762554, 36.005825299736117 ], [ 27.7627079, 36.006087099736142 ], [ 27.7628405, 36.006129999736146 ], [ 27.7630368, 36.005975499736124 ], [ 27.7632012, 36.005717999736099 ], [ 27.7632808, 36.005335999736062 ], [ 27.7631694, 36.005112899736048 ], [ 27.7629784, 36.004992699736029 ], [ 27.7627874, 36.004923999736036 ], [ 27.761981, 36.004906899736021 ], [ 27.761997, 36.005194399736055 ], [ 27.7618431, 36.005275999736064 ], [ 27.7617635, 36.005520599736087 ], [ 27.7619068, 36.005722299736114 ] ] ] } },
{ "type": "Feature", "properties": { "osm_id": 360316346, "name": null, "label": "landuse:farmland", "landuse": "farmland", "natural": null, "waterway": null }, "geometry": { "type": "Polygon", "coordinates": [ [ [ 27.7624022, 36.01699149973723 ], [ 27.7626334, 36.017406199737273 ], [ 27.7630807, 36.017450899737277 ], [ 27.7631963, 36.017271999737261 ], [ 27.7631159, 36.017052499737233 ], [ 27.7633621, 36.016914299737223 ], [ 27.763724, 36.01645489973717 ], [ 27.7635984, 36.01631669973716 ], [ 27.7633068, 36.016462999737186 ], [ 27.7631008, 36.016263799737139 ], [ 27.7623268, 36.0167353997372 ], [ 27.7622715, 36.01690209973723 ], [ 27.7624022, 36.01699149973723 ] ] ] } },
{ "type": "Feature", "properties": { "osm_id": 360316351, "name": null, "label": "landuse:farmland", "landuse": "farmland", "natural": null, "waterway": null }, "geometry": { "type": "Polygon", "coordinates": [ [ [ 27.7623913, 36.018577699737392 ], [ 27.7624163, 36.018904299737414 ], [ 27.7626022, 36.018886899737417 ], [ 27.7627273, 36.018427299737368 ], [ 27.7628416, 36.018337699737359 ], [ 27.7629024, 36.01761799973729 ], [ 27.7624271, 36.017615099737291 ], [ 27.7623341, 36.017967799737342 ], [ 27.7623306, 36.018563199737393 ], [ 27.7623913, 36.018577699737392 ] ] ] } },
{ "type": "Feature", "properties": { "osm_id": 360316357, "name": null, "label": "landuse:farmland", "landuse": "farmland", "natural": null, "waterway": null }, "geometry": { "type": "Polygon", "coordinates": [ [ [ 27.761504, 36.019605199737491 ], [ 27.7618474, 36.019654699737501 ], [ 27.7622349, 36.019563899737484 ], [ 27.7624661, 36.019789399737512 ], [ 27.7629795, 36.019739899737502 ], [ 27.7630713, 36.019382499737461 ], [ 27.7630441, 36.018994699737434 ], [ 27.7622281, 36.01921199973745 ], [ 27.7620819, 36.019286199737458 ], [ 27.7614428, 36.019470399737472 ], [ 27.761504, 36.019605199737491 ] ] ] } },
{ "type": "Feature", "properties": { "osm_id": 487155985, "name": null, "label": "landuse:farmland", "landuse": "farmland", "natural": null, "waterway": null }, "geometry": { "type": "Polygon", "coordinates": [ [ [ 27.7664717, 36.017912599737322 ], [ 27.7668205, 36.018017799737343 ], [ 27.7675357, 36.018001099737333 ], [ 27.7677189, 36.01812779973735 ], [ 27.7684608, 36.017955599737334 ], [ 27.7681859, 36.016884699737211 ], [ 27.7680588, 36.016762799737208 ], [ 27.767781, 36.0166909997372 ], [ 27.7676332, 36.016437599737174 ], [ 27.7674707, 36.016275099737157 ], [ 27.7667968, 36.01635159973717 ], [ 27.7666343, 36.016497399737183 ], [ 27.7666047, 36.01685359973721 ], [ 27.7668234, 36.016839299737214 ], [ 27.7675505, 36.016992299737225 ], [ 27.7676421, 36.017589899737288 ], [ 27.7674795, 36.017793099737304 ], [ 27.7672874, 36.017840899737315 ], [ 27.7668884, 36.017785899737312 ], [ 27.7664215, 36.01768549973729 ], [ 27.7664717, 36.017912599737322 ] ] ] } },
{ "type": "Feature", "properties": { "osm_id": 280195845, "name": null, "label": "natural:beach", "landuse": null, "natural": "beach", "waterway": null }, "geometry": { "type": "Polygon", "coordinates": [ [ [ 27.7564748, 36.019738299737512 ], [ 27.7564212, 36.019213299737451 ], [ 27.7562603, 36.018453999737375 ], [ 27.7559708, 36.017943099737323 ], [ 27.7559342, 36.017551599737274 ], [ 27.7559292, 36.017498199737283 ], [ 27.7555145, 36.0175665997373 ], [ 27.7556238, 36.017838299737313 ], [ 27.7559348, 36.018304199737365 ], [ 27.7561019, 36.019072999737439 ], [ 27.756210928234292, 36.019858371999554 ], [ 27.756510700379231, 36.019858371999554 ], [ 27.7564748, 36.019738299737512 ] ] ] } },
{ "type": "Feature", "properties": { "osm_id": 280195877, "name": null, "label": "landuse:farmland", "landuse": "farmland", "natural": null, "waterway": null }, "geometry": { "type": "Polygon", "coordinates": [ [ [ 27.7578001, 36.017621999737301 ], [ 27.7586745, 36.017487499737292 ], [ 27.7587711, 36.017604699737291 ], [ 27.7590393, 36.017383399737263 ], [ 27.7586638, 36.016958199737232 ], [ 27.7584492, 36.017205499737244 ], [ 27.7577036, 36.017335699737252 ], [ 27.7578001, 36.017621999737301 ] ] ] } },
{ "type": "Feature", "properties": { "osm_id": 360316339, "name": null, "label": "landuse:farmland", "landuse": "farmland", "natural": null, "waterway": null }, "geometry": { "type": "Polygon", "coordinates": [ [ [ 27.7579642, 36.016495499737175 ], [ 27.7581602, 36.016580899737193 ], [ 27.7583562, 36.016593099737186 ], [ 27.7587231, 36.016345099737165 ], [ 27.7594318, 36.016462999737186 ], [ 27.7598942, 36.01690609973722 ], [ 27.7604018, 36.016853299737214 ], [ 27.7597333, 36.016158099737147 ], [ 27.759854, 36.015930499737131 ], [ 27.7598238, 36.01587359973712 ], [ 27.7594468, 36.015788199737123 ], [ 27.7593111, 36.01581259973711 ], [ 27.7592609, 36.015743499737106 ], [ 27.7590699, 36.015653999737097 ], [ 27.7589694, 36.015527999737088 ], [ 27.758311, 36.015694699737097 ], [ 27.758125, 36.015930499737131 ], [ 27.7581652, 36.016019899737138 ], [ 27.7578888, 36.016312599737162 ], [ 27.7579642, 36.016495499737175 ] ] ] } },
{ "type": "Feature", "properties": { "osm_id": 280195813, "name": null, "label": "landuse:farmland", "landuse": "farmland", "natural": null, "waterway": null }, "geometry": { "type": "Polygon", "coordinates": [ [ [ 27.7589159, 36.017912699737323 ], [ 27.7594843, 36.018085199737342 ], [ 27.7598279, 36.017934399737328 ], [ 27.7599405, 36.017786899737317 ], [ 27.7590607, 36.017517899737285 ], [ 27.7588784, 36.017778199737307 ], [ 27.7589159, 36.017912699737323 ] ] ] } },
{ "type": "Feature", "properties": { "osm_id": 280195872, "name": null, "label": "landuse:farmland", "landuse": "farmland", "natural": null, "waterway": null }, "geometry": { "type": "Polygon", "coordinates": [ [ [ 27.7594145, 36.019496599737472 ], [ 27.7594253, 36.019192899737462 ], [ 27.7588137, 36.01860279973738 ], [ 27.7586099, 36.018194999737347 ], [ 27.7585991, 36.017917299737327 ], [ 27.7576765, 36.017891299737315 ], [ 27.7578052, 36.018186299737351 ], [ 27.7592321, 36.019777399737499 ], [ 27.759331047214701, 36.019858371999554 ], [ 27.759807535225615, 36.019858371999554 ], [ 27.7594145, 36.019496599737472 ] ] ] } },
{ "type": "Feature", "properties": { "osm_id": 360316353, "name": null, "label": "landuse:farmland", "landuse": "farmland", "natural": null, "waterway": null }, "geometry": { "type": "Polygon", "coordinates": [ [ [ 27.761262, 36.019109499737439 ], [ 27.7615193, 36.019063299737425 ], [ 27.7613835, 36.018751099737401 ], [ 27.7611655, 36.018777099737399 ], [ 27.761262, 36.019109499737439 ] ] ] } },
{ "type": "Feature", "properties": { "osm_id": 360316355, "name": null, "label": "landuse:farmland", "landuse": "farmland", "natural": null, "waterway": null }, "geometry": { "type": "Polygon", "coordinates": [ [ [ 27.7606259, 36.01816429973735 ], [ 27.7608475, 36.018502499737373 ], [ 27.7611906, 36.0186932997374 ], [ 27.7612978, 36.018652799737389 ], [ 27.7611763, 36.018355099737377 ], [ 27.7607653, 36.018077599737332 ], [ 27.7605401, 36.017823199737308 ], [ 27.7604008, 36.017837699737306 ], [ 27.7606259, 36.01816429973735 ] ] ] } },
{ "type": "Feature", "properties": { "osm_id": 360316348, "name": null, "label": "landuse:farmland", "landuse": "farmland", "natural": null, "waterway": null }, "geometry": { "type": "Polygon", "coordinates": [ [ [ 27.7598719, 36.017580399737284 ], [ 27.760483, 36.017716299737302 ], [ 27.7605652, 36.017632499737289 ], [ 27.7610262, 36.01759489973729 ], [ 27.7615229, 36.017453199737275 ], [ 27.7617659, 36.017375199737273 ], [ 27.7618946, 36.017302899737253 ], [ 27.7621483, 36.017317399737273 ], [ 27.7620768, 36.017161299737246 ], [ 27.7616373, 36.017135299737248 ], [ 27.7609797, 36.017008099737232 ], [ 27.760533, 36.017285599737264 ], [ 27.7602006, 36.017412799737272 ], [ 27.759804, 36.017510999737276 ], [ 27.7598719, 36.017580399737284 ] ] ] } },
{ "type": "Feature", "properties": { "osm_id": 360316343, "name": null, "label": "landuse:farmland", "landuse": "farmland", "natural": null, "waterway": null }, "geometry": { "type": "Polygon", "coordinates": [ [ [ 27.7610753, 36.016641899737202 ], [ 27.7620001, 36.015832899737106 ], [ 27.7621408, 36.015865399737116 ], [ 27.762186, 36.015840999737115 ], [ 27.762568, 36.015881699737129 ], [ 27.7627741, 36.015755699737099 ], [ 27.7620302, 36.015584899737078 ], [ 27.7611306, 36.016271999737157 ], [ 27.7608843, 36.01646709973717 ], [ 27.7608391, 36.016568699737192 ], [ 27.7610753, 36.016641899737202 ] ] ] } },
{ "type": "Feature", "properties": { "osm_id": 360316345, "name": null, "label": "landuse:farmland", "landuse": "farmland", "natural": null, "waterway": null }, "geometry": { "type": "Polygon", "coordinates": [ [ [ 27.7607486, 36.016312599737162 ], [ 27.7610703, 36.016186599737146 ], [ 27.7613668, 36.015946699737121 ], [ 27.7613567, 36.015840999737115 ], [ 27.761794, 36.015556499737087 ], [ 27.7618543, 36.01532879973707 ], [ 27.7616985, 36.01532879973707 ], [ 27.7606179, 36.016194699737156 ], [ 27.7607486, 36.016312599737162 ] ] ] } },
{ "type": "Feature", "properties": { "osm_id": 360316341, "name": null, "label": "landuse:farmland", "landuse": "farmland", "natural": null, "waterway": null }, "geometry": { "type": "Polygon", "coordinates": [ [ [ 27.758713, 36.013759499736899 ], [ 27.7587884, 36.01384489973691 ], [ 27.758698, 36.014048199736933 ], [ 27.758894, 36.014129499736946 ], [ 27.7591302, 36.013885599736923 ], [ 27.7594921, 36.013787999736905 ], [ 27.7597233, 36.013564399736893 ], [ 27.7599243, 36.013661999736897 ], [ 27.7599595, 36.01376769973691 ], [ 27.7600701, 36.013840899736913 ], [ 27.7603163, 36.013621299736897 ], [ 27.7603013, 36.01347089973688 ], [ 27.7603716, 36.01336929973688 ], [ 27.7604671, 36.013104999736846 ], [ 27.7606531, 36.01280819973681 ], [ 27.76103, 36.012629299736794 ], [ 27.7611909, 36.01246269973678 ], [ 27.7612411, 36.012352899736776 ], [ 27.7611105, 36.012352899736776 ], [ 27.7609798, 36.012499299736781 ], [ 27.7607436, 36.012629299736794 ], [ 27.7604973, 36.01257239973679 ], [ 27.7601354, 36.012901699736823 ], [ 27.7600399, 36.013068399736838 ], [ 27.7598338, 36.013235099736853 ], [ 27.7596328, 36.013178199736856 ], [ 27.759472, 36.013296099736863 ], [ 27.759281, 36.013283899736841 ], [ 27.7591604, 36.013491199736883 ], [ 27.7586678, 36.013637599736896 ], [ 27.758713, 36.013759499736899 ] ] ] } },
{ "type": "Feature", "properties": { "osm_id": 360316342, "name": null, "label": "landuse:farmland", "landuse": "farmland", "natural": null, "waterway": null }, "geometry": { "type": "Polygon", "coordinates": [ [ [ 27.7589744, 36.013418099736882 ], [ 27.7591805, 36.013157899736846 ], [ 27.7593916, 36.013060299736836 ], [ 27.7596981, 36.013015599736832 ], [ 27.7598891, 36.012909899736819 ], [ 27.7599846, 36.012747199736808 ], [ 27.7604772, 36.012344799736759 ], [ 27.7603817, 36.012287799736761 ], [ 27.7599595, 36.012621199736785 ], [ 27.7598188, 36.012804199736806 ], [ 27.7596931, 36.012922099736805 ], [ 27.7592709, 36.012958699736828 ], [ 27.7591453, 36.013023699736834 ], [ 27.7589292, 36.013218799736848 ], [ 27.758894, 36.013385499736877 ], [ 27.7589744, 36.013418099736882 ] ] ] } },
{ "type": "Feature", "properties": { "osm_id": 360316340, "name": null, "label": "landuse:farmland", "landuse": "farmland", "natural": null, "waterway": null }, "geometry": { "type": "Polygon", "coordinates": [ [ [ 27.757939, 36.01550359973708 ], [ 27.7580295, 36.015629599737103 ], [ 27.7589292, 36.01542639973708 ], [ 27.7589292, 36.014954799737019 ], [ 27.7590046, 36.014816599737017 ], [ 27.7590448, 36.014560399736986 ], [ 27.759276, 36.014141699736939 ], [ 27.7592307, 36.014044099736928 ], [ 27.7589241, 36.014312399736966 ], [ 27.7588387, 36.014523799736978 ], [ 27.7585824, 36.014540099736983 ], [ 27.7586628, 36.014178299736948 ], [ 27.7585623, 36.014080699736937 ], [ 27.7584617, 36.014235199736952 ], [ 27.7584165, 36.014483199736986 ], [ 27.7583411, 36.014580799736983 ], [ 27.7583411, 36.014694599736991 ], [ 27.7582305, 36.014812499737012 ], [ 27.7583059, 36.015027999737036 ], [ 27.7580245, 36.015174299737048 ], [ 27.7578586, 36.015288099737063 ], [ 27.7577983, 36.01542639973708 ], [ 27.757939, 36.01550359973708 ] ] ] } },
{ "type": "Feature", "properties": { "osm_id": 360312229, "name": null, "label": "landuse:farmland", "landuse": "farmland", "natural": null, "waterway": null }, "geometry": { "type": "Polygon", "coordinates": [ [ [ 27.7592011, 36.003400399735867 ], [ 27.7594717, 36.003451899735879 ], [ 27.7596149, 36.003537799735881 ], [ 27.7603258, 36.003743799735908 ], [ 27.7606812, 36.00381679973593 ], [ 27.761042, 36.004061399735939 ], [ 27.7612489, 36.004331799735965 ], [ 27.7612595, 36.004494899735981 ], [ 27.7611959, 36.004700899736001 ], [ 27.7612277, 36.004885399736018 ], [ 27.761668, 36.004812499736026 ], [ 27.7617211, 36.004529199735984 ], [ 27.7617211, 36.004185899735951 ], [ 27.7616309, 36.004009899735934 ], [ 27.7614081, 36.003808199735914 ], [ 27.7613232, 36.003786699735905 ], [ 27.7610632, 36.003580699735892 ], [ 27.7606017, 36.003323199735867 ], [ 27.7600924, 36.003198699735854 ], [ 27.7596733, 36.00311719973584 ], [ 27.7591746, 36.003112899735832 ], [ 27.7592011, 36.003400399735867 ] ] ] } },
{ "type": "Feature", "properties": { "osm_id": 360312228, "name": null, "label": "landuse:farmland", "landuse": "farmland", "natural": null, "waterway": null }, "geometry": { "type": "Polygon", "coordinates": [ [ [ 27.7592647, 36.004361799735968 ], [ 27.7598483, 36.005374699736073 ], [ 27.7600075, 36.005357499736078 ], [ 27.7600446, 36.00506139973605 ], [ 27.7598324, 36.004499199735982 ], [ 27.7599916, 36.004344599735973 ], [ 27.7601083, 36.00403989973595 ], [ 27.7601242, 36.003778099735911 ], [ 27.7597953, 36.003717999735898 ], [ 27.759721, 36.003911199735924 ], [ 27.7595618, 36.004168699735956 ], [ 27.7592276, 36.003971299735937 ], [ 27.7590738, 36.004112899735958 ], [ 27.7592647, 36.004361799735968 ] ] ] } },
{ "type": "Feature", "properties": { "osm_id": 360312227, "name": null, "label": "landuse:farmland", "landuse": "farmland", "natural": null, "waterway": null }, "geometry": { "type": "Polygon", "coordinates": [ [ [ 27.7566174, 36.005310299736053 ], [ 27.7569145, 36.005473399736083 ], [ 27.7569357, 36.005567799736092 ], [ 27.7575511, 36.006078499736141 ], [ 27.7582249, 36.00605709973614 ], [ 27.7585698, 36.005765199736111 ], [ 27.7590844, 36.005645099736093 ], [ 27.758973, 36.005387499736067 ], [ 27.7594823, 36.005378999736074 ], [ 27.7591268, 36.00475239973602 ], [ 27.758904, 36.004078599735934 ], [ 27.7587873, 36.003580699735892 ], [ 27.7586706, 36.003297399735864 ], [ 27.7586865, 36.00312149973584 ], [ 27.7587448, 36.003031299735845 ], [ 27.7587448, 36.002966999735825 ], [ 27.758644, 36.002885399735824 ], [ 27.7582249, 36.002975599735834 ], [ 27.7578801, 36.003057099735834 ], [ 27.7577421, 36.002872499735822 ], [ 27.7576201, 36.002855399735829 ], [ 27.7574185, 36.002962699735825 ], [ 27.7575777, 36.003245899735859 ], [ 27.7575936, 36.003477699735875 ], [ 27.7576944, 36.003554999735876 ], [ 27.7579331, 36.003589299735886 ], [ 27.757445, 36.003675099735901 ], [ 27.7573018, 36.003962699735936 ], [ 27.7570312, 36.004014199735927 ], [ 27.7569251, 36.004336099735966 ], [ 27.7570949, 36.004537799735985 ], [ 27.7569782, 36.004717999736002 ], [ 27.7569676, 36.004923999736036 ], [ 27.7571586, 36.005108599736047 ], [ 27.7570418, 36.005134299736056 ], [ 27.7568562, 36.005108599736047 ], [ 27.7565644, 36.005190099736048 ], [ 27.7566174, 36.005310299736053 ] ] ] } },
{ "type": "Feature", "properties": { "osm_id": 280195871, "name": null, "label": "landuse:farmland", "landuse": "farmland", "natural": null, "waterway": null }, "geometry": { "type": "Polygon", "coordinates": [ [ [ 27.7549835, 36.007095299736243 ], [ 27.7551445, 36.007121299736248 ], [ 27.7552732, 36.007477199736272 ], [ 27.7557238, 36.007399099736283 ], [ 27.7558847, 36.0077288997363 ], [ 27.7562066, 36.007610399736286 ], [ 27.7563461, 36.007297899736265 ], [ 27.756507, 36.007211199736261 ], [ 27.7572795, 36.006392299736177 ], [ 27.7571507, 36.006166599736147 ], [ 27.7563032, 36.006360599736169 ], [ 27.7555951, 36.006027799736138 ], [ 27.7552303, 36.005457999736088 ], [ 27.754949193502668, 36.005290800736724 ], [ 27.754949193502668, 36.005704340420706 ], [ 27.7555414, 36.006343199736172 ], [ 27.7552196, 36.006487799736185 ], [ 27.7553483, 36.006696099736203 ], [ 27.7555307, 36.0066903997362 ], [ 27.7554019, 36.006895699736219 ], [ 27.7552303, 36.006904299736227 ], [ 27.7550157, 36.006479099736183 ], [ 27.754949193502668, 36.006488061972433 ], [ 27.754949193502668, 36.007006754836851 ], [ 27.7549835, 36.007095299736243 ] ] ] } },
{ "type": "Feature", "properties": { "osm_id": 280195863, "name": "Sousounia", "label": "natural:beach", "landuse": null, "natural": "beach", "waterway": null }, "geometry": { "type": "Polygon", "coordinates": [ [ [ 27.7551569, 36.013442899736873 ], [ 27.755324, 36.014290899736963 ], [ 27.755491, 36.01472419973701 ], [ 27.755612, 36.015301999737062 ], [ 27.755634, 36.015820999737109 ], [ 27.7553473, 36.016193699737151 ], [ 27.7553185, 36.01680399973722 ], [ 27.7554683, 36.017451699737279 ], [ 27.7555145, 36.0175665997373 ], [ 27.7559292, 36.017498199737283 ], [ 27.7556863, 36.017286799737256 ], [ 27.7554988, 36.01667609973719 ], [ 27.755472, 36.016211899737151 ], [ 27.7556222, 36.016020899737136 ], [ 27.755885, 36.015639099737093 ], [ 27.7558687, 36.015104299737033 ], [ 27.7557828, 36.014531599736983 ], [ 27.7556273, 36.013598699736889 ], [ 27.7555363, 36.013304699736864 ], [ 27.7553, 36.01276989973681 ], [ 27.7551713, 36.012361999736768 ], [ 27.7549731, 36.011950799736724 ], [ 27.7549674, 36.011776199736708 ], [ 27.754949193502668, 36.0117309623285 ], [ 27.754949193502668, 36.012888923335041 ], [ 27.7551569, 36.013442899736873 ] ] ] } },
{ "type": "Feature", "properties": { "osm_id": 280195862, "name": null, "label": "landuse:farmland", "landuse": "farmland", "natural": null, "waterway": null }, "geometry": { "type": "Polygon", "coordinates": [ [ [ 27.7551662, 36.009603299736497 ], [ 27.7554127, 36.009671599736492 ], [ 27.7555471, 36.010184699736556 ], [ 27.7558099, 36.010158699736529 ], [ 27.7556329, 36.009351599736476 ], [ 27.755531, 36.009251799736461 ], [ 27.755252, 36.008244999736363 ], [ 27.7550482, 36.007659199736295 ], [ 27.754949193502668, 36.007693881821723 ], [ 27.754949193502668, 36.008788070309343 ], [ 27.7551662, 36.009603299736497 ] ] ] } },
{ "type": "Feature", "properties": { "osm_id": 280195809, "name": null, "label": "landuse:farmland", "landuse": "farmland", "natural": null, "waterway": null }, "geometry": { "type": "Polygon", "coordinates": [ [ [ 27.7559333, 36.010067599736537 ], [ 27.7560674, 36.01015439973655 ], [ 27.7560996, 36.010236799736553 ], [ 27.7568667, 36.010306199736561 ], [ 27.756915, 36.009512099736483 ], [ 27.7567648, 36.009225699736454 ], [ 27.7561371, 36.008926299736423 ], [ 27.7558045, 36.008401299736363 ], [ 27.7555149, 36.008353499736366 ], [ 27.7559333, 36.010067599736537 ] ] ] } },
{ "type": "Feature", "properties": { "osm_id": 280195851, "name": null, "label": "landuse:farmland", "landuse": "farmland", "natural": null, "waterway": null }, "geometry": { "type": "Polygon", "coordinates": [ [ [ 27.7554341, 36.011368299736674 ], [ 27.7555307, 36.011606999736699 ], [ 27.7555414, 36.011823899736711 ], [ 27.7556273, 36.012027899736736 ], [ 27.7556326, 36.01215369973675 ], [ 27.7558796, 36.012762299736806 ], [ 27.7560406, 36.013170199736848 ], [ 27.7565073, 36.013113699736834 ], [ 27.7559118, 36.010492799736582 ], [ 27.7558901, 36.010348599736567 ], [ 27.755488, 36.010410399736578 ], [ 27.7554022, 36.010566599736578 ], [ 27.7554341, 36.011368299736674 ] ] ] } },
{ "type": "Feature", "properties": { "osm_id": 280195860, "name": null, "label": "landuse:farmland", "landuse": "farmland", "natural": null, "waterway": null }, "geometry": { "type": "Polygon", "coordinates": [ [ [ 27.7567323, 36.013524899736879 ], [ 27.7567591, 36.014262499736958 ], [ 27.7568721, 36.016810599737212 ], [ 27.757092, 36.016689199737201 ], [ 27.7570062, 36.015864699737115 ], [ 27.7570276, 36.015374399737063 ], [ 27.7569043, 36.014228899736956 ], [ 27.7570437, 36.013716899736906 ], [ 27.7569633, 36.013525999736885 ], [ 27.756786, 36.0126656997368 ], [ 27.7565341, 36.012610399736786 ], [ 27.7567323, 36.013524899736879 ] ] ] } },
{ "type": "Feature", "properties": { "osm_id": 280195886, "name": null, "label": "landuse:farmland", "landuse": "farmland", "natural": null, "waterway": null }, "geometry": { "type": "Polygon", "coordinates": [ [ [ 27.7556058, 36.016650299737201 ], [ 27.7558526, 36.017231699737259 ], [ 27.7564319, 36.017275099737262 ], [ 27.756625, 36.016913699737216 ], [ 27.7565821, 36.015765199737103 ], [ 27.7565714, 36.013717099736901 ], [ 27.7560886, 36.013630299736903 ], [ 27.7561208, 36.014246499736949 ], [ 27.7558955, 36.014284199736963 ], [ 27.7560242, 36.015053599737044 ], [ 27.7563461, 36.015122999737045 ], [ 27.7562924, 36.015747799737113 ], [ 27.7558955, 36.015808599737106 ], [ 27.7556058, 36.016381299737176 ], [ 27.7556058, 36.016650299737201 ] ] ] } },
{ "type": "Feature", "properties": { "osm_id": 238663204, "name": null, "label": "waterway:river", "landuse": null, "natural": null, "waterway": "river" }, "geometry": { "type": "LineString", "coordinates": [ [ 27.7725243, 36.000837899735622 ], [ 27.7724049, 36.000845199735622 ], [ 27.7722764, 36.000817399735624 ], [ 27.7721853, 36.000758199735614 ], [ 27.7721823, 36.000698999735597 ], [ 27.7723197, 36.000579399735592 ], [ 27.7723675, 36.000495999735584 ], [ 27.7723391, 36.000425899735582 ], [ 27.7721883, 36.000406599735577 ], [ 27.7721107, 36.000363099735573 ], [ 27.7720315, 36.00025799973556 ], [ 27.7719553, 36.000133599735548 ], [ 27.7718732, 36.000138399735555 ], [ 27.7717254, 36.000270099735566 ], [ 27.7716417, 36.000244699735575 ], [ 27.7713505, 36.000013899735535 ], [ 27.7712848, 35.999876199735546 ], [ 27.7713535, 35.999651499735499 ], [ 27.7713221, 35.999530699735494 ], [ 27.7711564, 35.99949929973549 ], [ 27.7710966, 35.999345799735465 ], [ 27.7709473, 35.999223799735468 ], [ 27.770792, 35.999018399735441 ], [ 27.7706068, 35.998961599735431 ], [ 27.7705202, 35.998776799735417 ], [ 27.7704814, 35.9986099997354 ], [ 27.7703888, 35.998524199735392 ], [ 27.7703888, 35.99840579973538 ], [ 27.7703335, 35.998378099735383 ], [ 27.7700318, 35.998373199735362 ], [ 27.7698661, 35.998329699735365 ], [ 27.7697571, 35.998240299735357 ], [ 27.7697436, 35.998188399735348 ], [ 27.7697944, 35.99814239973535 ], [ 27.7699064, 35.99811469973536 ], [ 27.770008, 35.998071199735342 ], [ 27.7700408, 35.997991399735326 ], [ 27.7700065, 35.99791169973534 ], [ 27.76989, 35.997912899735333 ], [ 27.769772, 35.997926199735332 ], [ 27.7696316, 35.997834399735332 ], [ 27.7695002, 35.997836799735325 ], [ 27.7693575, 35.997863699735326 ], [ 27.7693005, 35.997979899735327 ], [ 27.7690998, 35.998061899735347 ], [ 27.7686014, 35.998067099735344 ], [ 27.7683416, 35.998099499735353 ], [ 27.7678094, 35.998181599735354 ], [ 27.7675602, 35.998202099735366 ], [ 27.7673659, 35.99816789973535 ], [ 27.7672434, 35.998036299735332 ], [ 27.7671864, 35.997885999735324 ], [ 27.7671251, 35.997663799735292 ], [ 27.7670301, 35.997566399735284 ], [ 27.7667006, 35.997532299735298 ], [ 27.7663374, 35.997503199735284 ], [ 27.7660248, 35.997592099735293 ], [ 27.7656552, 35.997574999735292 ], [ 27.7655179, 35.997506599735296 ], [ 27.7653827, 35.997351099735276 ], [ 27.7652455, 35.997222999735264 ], [ 27.7650321, 35.997222999735264 ], [ 27.7647259, 35.997368199735277 ], [ 27.7642697, 35.997602299735284 ], [ 27.7639571, 35.99774579973532 ], [ 27.7637565, 35.997715099735309 ], [ 27.7634714, 35.997615999735288 ], [ 27.7633721, 35.997494699735284 ], [ 27.7632623, 35.997286199735257 ], [ 27.7631968, 35.997216099735269 ], [ 27.7630046, 35.997320399735266 ], [ 27.7627406, 35.99740919973528 ], [ 27.7625379, 35.997429699735278 ], [ 27.7623373, 35.997404099735277 ], [ 27.7620226, 35.997159799735243 ], [ 27.761745074472017, 35.996961852016469 ] ] } },
{ "type": "Feature", "properties": { "osm_id": 238663217, "name": null, "label": "waterway:stream", "landuse": null, "natural": null, "waterway": "stream" }, "geometry": { "type": "LineString", "coordinates": [ [ 27.7761215, 36.013332199736865 ], [ 27.7760151, 36.013389599736868 ], [ 27.7759324, 36.013466099736881 ], [ 27.7758762, 36.01347089973688 ], [ 27.7756575, 36.013387199736854 ], [ 27.7753531, 36.013449399736871 ], [ 27.7750132, 36.013461299736889 ], [ 27.7748004, 36.013482799736877 ], [ 27.7746615, 36.013399199736874 ], [ 27.7745906, 36.013231799736857 ], [ 27.7744753, 36.013152899736852 ], [ 27.7744073, 36.013188799736859 ], [ 27.7743926, 36.013305899736864 ], [ 27.7741916, 36.013411099736871 ], [ 27.7740172, 36.013411099736871 ], [ 27.7734734, 36.013463699736896 ], [ 27.7731808, 36.013375199736863 ], [ 27.7730478, 36.013406299736872 ], [ 27.7730596, 36.013494799736876 ], [ 27.7732665, 36.013626299736885 ], [ 27.7733552, 36.013707499736896 ], [ 27.7732517, 36.013774499736904 ], [ 27.7728911, 36.013795999736914 ], [ 27.7726961, 36.013800799736913 ], [ 27.7723798, 36.014003999736929 ], [ 27.7721729, 36.014058999736939 ], [ 27.7718153, 36.014042199736927 ], [ 27.7717119, 36.014111599736935 ], [ 27.7716262, 36.014142599736942 ], [ 27.7712035, 36.014037499736936 ], [ 27.7711326, 36.013977699736927 ], [ 27.7711651, 36.013855799736923 ], [ 27.7711474, 36.013800799736913 ], [ 27.7710735, 36.0137911997369 ], [ 27.7709996, 36.013836599736912 ], [ 27.7709168, 36.014061399736939 ], [ 27.7707809, 36.014147399736942 ], [ 27.7704587, 36.014221499736955 ], [ 27.7701425, 36.014228699736947 ], [ 27.7700656, 36.014180899736942 ], [ 27.7700686, 36.014101999736937 ], [ 27.7701986, 36.013951399736932 ], [ 27.7702489, 36.013848599736917 ], [ 27.7701927, 36.013784099736903 ], [ 27.7701159, 36.013762499736899 ], [ 27.7699652, 36.013807999736912 ], [ 27.7696755, 36.013965699736929 ], [ 27.769445, 36.014133099736938 ], [ 27.7693297, 36.014276499736958 ], [ 27.769241, 36.014539499736969 ], [ 27.769114, 36.01465189973699 ], [ 27.7689632, 36.014699699737001 ], [ 27.768579, 36.014675799736985 ], [ 27.7679229, 36.014773799737014 ], [ 27.7677012, 36.014857499737005 ], [ 27.7675741, 36.014976999737023 ], [ 27.7675387, 36.01513719973704 ], [ 27.7675623, 36.015256699737051 ], [ 27.7676391, 36.015414499737069 ], [ 27.7677574, 36.015694199737084 ], [ 27.7677396, 36.015753899737106 ], [ 27.7676717, 36.015811299737109 ], [ 27.767447, 36.015868699737119 ], [ 27.7671899, 36.015863899737113 ], [ 27.7665663, 36.015827999737112 ], [ 27.7664362, 36.015811299737109 ], [ 27.7663683, 36.015856699737114 ], [ 27.7663771, 36.015935599737119 ], [ 27.7663919, 36.016047999737125 ], [ 27.766318, 36.016418499737171 ], [ 27.7662294, 36.016521299737185 ], [ 27.7660047, 36.01660499973719 ], [ 27.7657801, 36.016588199737193 ], [ 27.765387, 36.016449599737179 ], [ 27.7652481, 36.016406599737174 ], [ 27.7651594, 36.01642089973717 ], [ 27.7650838, 36.016606899737191 ], [ 27.7648469, 36.016661399737188 ], [ 27.76451, 36.016626299737197 ], [ 27.7642579, 36.01650139973718 ], [ 27.7639319, 36.016327399737165 ], [ 27.7638362, 36.016202599737149 ], [ 27.763758, 36.015995099737118 ], [ 27.7637189, 36.01588789973713 ], [ 27.7636341, 36.015734899737112 ], [ 27.7635254, 36.015622399737097 ], [ 27.7633624, 36.015583799737101 ], [ 27.7632863, 36.015624199737083 ], [ 27.7632124, 36.01586329973712 ], [ 27.7630733, 36.016072499737149 ], [ 27.7629864, 36.016112899737145 ], [ 27.7628516, 36.016072499737149 ], [ 27.7624235, 36.01599339973712 ], [ 27.7621605, 36.015989899737122 ], [ 27.7619562, 36.016000399737131 ], [ 27.7619105, 36.016044399737133 ], [ 27.7618801, 36.016260599737159 ], [ 27.7617965, 36.016486099737193 ], [ 27.7617888, 36.016506699737185 ], [ 27.7616954, 36.016710599737216 ], [ 27.7615628, 36.016967299737225 ], [ 27.7613976, 36.017046399737239 ], [ 27.7612781, 36.01704289973722 ], [ 27.7612215, 36.016928599737227 ], [ 27.7610944, 36.016844499737218 ], [ 27.7609042, 36.016751099737206 ], [ 27.7607477, 36.016726499737203 ], [ 27.7606347, 36.016821399737204 ], [ 27.7604978, 36.017011299737234 ], [ 27.7602674, 36.017230999737265 ], [ 27.7600848, 36.017329499737251 ], [ 27.7598371, 36.017385699737275 ], [ 27.7596219, 36.017378699737272 ], [ 27.7595784, 36.017308399737267 ], [ 27.7596088, 36.01713609973725 ], [ 27.7595871, 36.017055199737236 ], [ 27.759498, 36.016972599737223 ], [ 27.7591763, 36.016817899737212 ], [ 27.7588134, 36.0166015997372 ], [ 27.7586612, 36.016527799737176 ], [ 27.758546, 36.016578799737189 ], [ 27.7584939, 36.016803799737211 ], [ 27.7585025, 36.016947999737226 ], [ 27.7584482, 36.017035899737238 ], [ 27.7582895, 36.017056999737235 ], [ 27.7578092, 36.017076299737234 ], [ 27.7572984, 36.017139599737241 ], [ 27.7570572, 36.017229199737258 ], [ 27.756905, 36.017334699737269 ], [ 27.7566594, 36.017382199737263 ], [ 27.7564591, 36.017377799737268 ], [ 27.7563356, 36.017406799737266 ], [ 27.7559292, 36.017498199737283 ], [ 27.7555145, 36.0175665997373 ] ] } },
{ "type": "Feature", "properties": { "osm_id": 487155995, "name": null, "label": "natural:cliff", "landuse": null, "natural": "cliff", "waterway": null }, "geometry": { "type": "LineString", "coordinates": [ [ 27.7571493, 36.018564899737385 ], [ 27.7569956, 36.01827759973736 ], [ 27.756982, 36.018193399737335 ], [ 27.7569871, 36.018109199737331 ], [ 27.7570554, 36.017991799737331 ], [ 27.7571578, 36.01791449973733 ], [ 27.7572347, 36.017903399737321 ] ] } },
{ "type": "Feature", "properties": { "osm_id": 360316364, "name": null, "label": "natural:cliff", "landuse": null, "natural": "cliff", "waterway": null }, "geometry": { "type": "LineString", "coordinates": [ [ 27.760815978180599, 36.019858371999554 ], [ 27.7608131, 36.019844399737508 ], [ 27.7606919, 36.019768599737496 ], [ 27.7606479, 36.019683999737495 ], [ 27.7605983, 36.0196126997375 ], [ 27.7606589, 36.019496899737483 ] ] } },
{ "type": "Feature", "properties": { "osm_id": 238663213, "name": null, "label": "waterway:stream", "landuse": null, "natural": null, "waterway": "stream" }, "geometry": { "type": "LineString", "coordinates": [ [ 27.7653605, 36.007632099736298 ], [ 27.7652332, 36.007571999736292 ], [ 27.7651589, 36.007387499736275 ], [ 27.7650581, 36.007305899736252 ], [ 27.7650952, 36.00712569973625 ], [ 27.7650209, 36.007039899736242 ], [ 27.7650316, 36.006889599736233 ], [ 27.7649732, 36.006640699736202 ], [ 27.7648353, 36.006524899736192 ], [ 27.7647451, 36.006237299736156 ], [ 27.7647132, 36.005988399736133 ], [ 27.7645859, 36.005838199736125 ], [ 27.7644108, 36.00574809973611 ], [ 27.7641774, 36.005687999736104 ], [ 27.7640236, 36.005589299736087 ], [ 27.7637795, 36.005486299736077 ], [ 27.7635514, 36.005314599736067 ], [ 27.7634612, 36.00518579973604 ], [ 27.7632437, 36.005074299736037 ], [ 27.7630315, 36.004911199736036 ], [ 27.7627344, 36.004855399736016 ], [ 27.762485, 36.004868199736023 ], [ 27.7620871, 36.004816699736018 ], [ 27.7618855, 36.004790999735995 ], [ 27.761806, 36.004632199736001 ], [ 27.7618219, 36.004447699735991 ], [ 27.761859, 36.004224499735955 ], [ 27.7617794, 36.004035599735936 ], [ 27.7616044, 36.003855399735919 ], [ 27.7613665, 36.003646099735896 ], [ 27.7611324, 36.003459299735873 ], [ 27.7605124, 36.003164999735851 ], [ 27.7597342, 36.003003799735829 ], [ 27.7593199, 36.002932199735824 ], [ 27.7590352, 36.002914199735834 ], [ 27.7587821, 36.002809299735816 ], [ 27.7585544, 36.002796499735815 ], [ 27.7583677, 36.002845099735815 ], [ 27.7581115, 36.002944999735817 ], [ 27.7579534, 36.002944999735817 ], [ 27.7577098, 36.002796499735815 ], [ 27.7574915, 36.002801599735818 ], [ 27.7572606, 36.002850299735812 ], [ 27.7569944, 36.002796499735815 ], [ 27.7566749, 36.002804199735813 ], [ 27.7566148, 36.002658299735799 ], [ 27.7565104, 36.002438299735786 ], [ 27.7563997, 36.00238709973577 ], [ 27.7561972, 36.002376799735771 ], [ 27.7559189, 36.002548299735793 ], [ 27.7556405, 36.002596899735799 ], [ 27.7555709, 36.002540599735781 ], [ 27.7556057, 36.002320599735761 ], [ 27.7555709, 36.002189999735741 ], [ 27.7554507, 36.002133699735758 ], [ 27.7551249, 36.002149099735746 ], [ 27.754992, 36.002056999735743 ], [ 27.754949193502668, 36.002041953365392 ] ] } },
{ "type": "Feature", "properties": { "osm_id": 4517858, "name": null, "label": "natural:coastline", "landuse": null, "natural": "coastline", "waterway": null }, "geometry": { "type": "LineString", "coordinates": [ [ 27.756210928234292, 36.019858371999554 ], [ 27.7561019, 36.019072999737439 ], [ 27.7559348, 36.018304199737365 ], [ 27.7556238, 36.017838299737313 ], [ 27.7555145, 36.0175665997373 ], [ 27.7554683, 36.017451699737279 ], [ 27.7553185, 36.01680399973722 ], [ 27.7553473, 36.016193699737151 ], [ 27.755634, 36.015820999737109 ], [ 27.755612, 36.015301999737062 ], [ 27.755491, 36.01472419973701 ], [ 27.755324, 36.014290899736963 ], [ 27.7551569, 36.013442899736873 ], [ 27.754949193502668, 36.012888923335041 ] ] } },
{ "type": "Feature", "properties": { "osm_id": 5825524450, "name": null, "label": "natural:peak", "landuse": null, "natural": "peak", "waterway": null }, "geometry": { "type": "Point", "coordinates": [ 27.7753257, 36.018385599737371 ] } },
{ "type": "Feature", "properties": { "osm_id": 5825524447, "name": null, "label": "natural:peak", "landuse": null, "natural": "peak", "waterway": null }, "geometry": { "type": "Point", "coordinates": [ 27.7800679, 36.00594929973613 ] } },
{ "type": "Feature", "properties": { "osm_id": 5825524448, "name": null, "label": "natural:peak", "landuse": null, "natural": "peak", "waterway": null }, "geometry": { "type": "Point", "coordinates": [ 27.7699506, 36.009364499736456 ] } },
{ "type": "Feature", "properties": { "osm_id": 5825524449, "name": null, "label": "natural:peak", "landuse": null, "natural": "peak", "waterway": null }, "geometry": { "type": "Point", "coordinates": [ 27.7615768, 36.00934279973648 ] } }
]
}
