{
"type": "FeatureCollection",
"name": "patch_99417_linestring",
"crs": { "type": "name", "properties": { "name": "urn:ogc:def:crs:OGC:1.3:CRS84" } },
"features": [
{ "type": "Feature", "properties": { "@type": "way", "@id": 10135227, "alt_name:el": null, "alt_name:en": null, "area": null, "ele": null, "int_name": null, "man_made": null, "name": null, "name:de": null, "name:el": null, "name:en": null, "name:fr": null, "name:it": null, "natural": "coastline", "place": null, "source": "PGS", "wikidata": null, "label": "natural:coastline" }, "geometry": { "type": "LineString", "coordinates": [ [ 20.2127038, 39.4460202 ], [ 20.212358, 39.4465728 ], [ 20.2123607, 39.446638 ], [ 20.2123614, 39.4466562 ], [ 20.2123824, 39.4471655 ], [ 20.2123082, 39.4473632 ], [ 20.2122108, 39.4476719 ], [ 20.2117731, 39.4482277 ], [ 20.2106135, 39.4487047 ], [ 20.2076054, 39.4495153 ], [ 20.2075518, 39.4496394 ], [ 20.2065256, 39.4501023 ], [ 20.206256, 39.4501945 ], [ 20.2060892, 39.4501659 ], [ 20.2061847, 39.4500893 ], [ 20.2059543, 39.4501031 ], [ 20.2059331, 39.4499824 ], [ 20.2065535, 39.4494826 ], [ 20.20708, 39.4492386 ], [ 20.2076607, 39.4489021 ], [ 20.2080027, 39.4486212 ], [ 20.2081287, 39.4481312 ], [ 20.2096233, 39.4473613 ], [ 20.2112071, 39.4465409 ], [ 20.2116247, 39.4463215 ], [ 20.2119031, 39.4462722 ], [ 20.2119927, 39.4461554 ], [ 20.2122915, 39.4460854 ], [ 20.2123012, 39.4459727 ], [ 20.2125088, 39.4458253 ], [ 20.2125648, 39.445945 ], [ 20.2127038, 39.4460202 ] ] } },
{ "type": "Feature", "properties": { "@type": "way", "@id": 474538395, "alt_name:el": null, "alt_name:en": null, "area": null, "ele": null, "int_name": null, "man_made": null, "name": null, "name:de": null, "name:el": null, "name:en": null, "name:fr": null, "name:it": null, "natural": "coastline", "place": null, "source": "PGS", "wikidata": null, "label": "natural:coastline" }, "geometry": { "type": "LineString", "coordinates": [ [ 20.218385955975158, 39.444792810122038 ], [ 20.2181471, 39.4449835 ], [ 20.2170645, 39.4453016 ], [ 20.2164878, 39.4455413 ], [ 20.2151585, 39.4459899 ] ] } },
{ "type": "Feature", "properties": { "@type": "way", "@id": 879287242, "alt_name:el": null, "alt_name:en": null, "area": null, "ele": null, "int_name": null, "man_made": null, "name": null, "name:de": null, "name:el": null, "name:en": null, "name:fr": null, "name:it": null, "natural": "coastline", "place": null, "source": "PGS", "wikidata": null, "label": "natural:coastline" }, "geometry": { "type": "LineString", "coordinates": [ [ 20.2151585, 39.4459899 ], [ 20.2142317, 39.4460391 ], [ 20.2133515, 39.4456985 ], [ 20.2132745, 39.4453714 ], [ 20.2134041, 39.4451912 ], [ 20.2143364, 39.4439132 ], [ 20.214904482220827, 39.44329238067742 ] ] } }
]
}
