{
"type": "FeatureCollection",
"name": "patch_52396_linestring",
"crs": { "type": "name", "properties": { "name": "urn:ogc:def:crs:OGC:1.3:CRS84" } },
"features": [
{ "type": "Feature", "properties": { "@type": "way", "@id": 340543272, "admin_level": null, "boundary": null, "cables": null, "ele": null, "highway": null, "int_ref": null, "landuse": null, "lanes": null, "layer": null, "leisure": null, "line_attachment": null, "lit": null, "maxspeed": null, "name": null, "natural": "cliff", "oneway": null, "power": null, "ref:esye": null, "reg_ref": null, "source": null, "source:ref:esye": null, "tunnel": null, "voltage": null, "label": "natural:cliff" }, "geometry": { "type": "LineString", "coordinates": [ [ 21.8160906, 40.7124188 ], [ 21.8155005, 40.7118251 ] ] } },
{ "type": "Feature", "properties": { "@type": "way", "@id": 340543273, "admin_level": null, "boundary": null, "cables": null, "ele": null, "highway": null, "int_ref": null, "landuse": null, "lanes": null, "layer": null, "leisure": null, "line_attachment": null, "lit": null, "maxspeed": null, "name": null, "natural": "cliff", "oneway": null, "power": null, "ref:esye": null, "reg_ref": null, "source": null, "source:ref:esye": null, "tunnel": null, "voltage": null, "label": "natural:cliff" }, "geometry": { "type": "LineString", "coordinates": [ [ 21.8146806, 40.7108661 ], [ 21.8146001, 40.7107075 ], [ 21.8145135, 40.7105849 ], [ 21.8144223, 40.7104792 ], [ 21.8143104, 40.7103456 ], [ 21.8140897, 40.7100766 ], [ 21.8135747, 40.7095196 ] ] } },
{ "type": "Feature", "properties": { "@type": "way", "@id": 340543275, "admin_level": null, "boundary": null, "cables": null, "ele": null, "highway": null, "int_ref": null, "landuse": null, "lanes": null, "layer": null, "leisure": null, "line_attachment": null, "lit": null, "maxspeed": null, "name": null, "natural": "cliff", "oneway": null, "power": null, "ref:esye": null, "reg_ref": null, "source": null, "source:ref:esye": null, "tunnel": null, "voltage": null, "label": "natural:cliff" }, "geometry": { "type": "LineString", "coordinates": [ [ 21.8159887, 40.7156758 ], [ 21.8159887, 40.7157245 ], [ 21.8160485, 40.7157902 ], [ 21.8161021, 40.7158431 ], [ 21.8161236, 40.7158919 ], [ 21.816129, 40.7159488 ], [ 21.8161719, 40.7159894 ], [ 21.8162202, 40.7160057 ], [ 21.8162255, 40.7160382 ], [ 21.8162408, 40.7160905 ], [ 21.8163106, 40.7161271 ], [ 21.8163865, 40.7161399 ], [ 21.8164562, 40.7161805 ], [ 21.8165581, 40.7162131 ], [ 21.8166914, 40.7162287 ], [ 21.8168263, 40.7161968 ], [ 21.8169658, 40.716144 ], [ 21.8170508, 40.716062 ], [ 21.8171375, 40.7159732 ], [ 21.8172287, 40.7159488 ], [ 21.8173083, 40.7159766 ], [ 21.8174915, 40.7160952 ], [ 21.8175935, 40.7161805 ], [ 21.8177383, 40.7162537 ], [ 21.8178885, 40.7163554 ], [ 21.8180602, 40.7164611 ], [ 21.8182265, 40.7164977 ], [ 21.8184357, 40.7165546 ], [ 21.8185966, 40.7166156 ], [ 21.8187307, 40.716701 ], [ 21.8188058, 40.7167904 ], [ 21.8189238, 40.7168962 ], [ 21.8189989, 40.7169571 ], [ 21.8190687, 40.7169775 ], [ 21.8191483, 40.7169728 ], [ 21.8192181, 40.7169443 ], [ 21.8193039, 40.7169443 ], [ 21.8193905, 40.7170019 ], [ 21.8195185, 40.7170866 ], [ 21.8195989, 40.7170744 ], [ 21.8196748, 40.7171157 ], [ 21.8197768, 40.7172133 ] ] } },
{ "type": "Feature", "properties": { "@type": "way", "@id": 340543448, "admin_level": null, "boundary": null, "cables": null, "ele": null, "highway": null, "int_ref": null, "landuse": null, "lanes": null, "layer": null, "leisure": null, "line_attachment": null, "lit": null, "maxspeed": null, "name": null, "natural": "cliff", "oneway": null, "power": null, "ref:esye": null, "reg_ref": null, "source": null, "source:ref:esye": null, "tunnel": null, "voltage": null, "label": "natural:cliff" }, "geometry": { "type": "LineString", "coordinates": [ [ 21.815184, 40.711752 ], [ 21.8152599, 40.7118786 ], [ 21.8153726, 40.7120047 ], [ 21.8154852, 40.7121267 ], [ 21.8155917, 40.712244 ], [ 21.8156998, 40.712334 ], [ 21.8158178, 40.7124357 ], [ 21.8160431, 40.7126553 ] ] } }
]
}
