{
"type": "FeatureCollection",
"name": "patch_52396_polygon",
"crs": { "type": "name", "properties": { "name": "urn:ogc:def:crs:OGC:1.3:CRS84" } },
"features": [
{ "type": "Feature", "properties": { "@type": "way", "@id": 28844204, "admin_level": null, "boundary": null, "cables": null, "ele": null, "highway": null, "int_ref": null, "landuse": "farmland", "lanes": null, "layer": null, "leisure": null, "line_attachment": null, "lit": null, "maxspeed": null, "name": null, "natural": null, "oneway": null, "power": null, "ref:esye": null, "reg_ref": null, "source": null, "source:ref:esye": null, "tunnel": null, "voltage": null, "label": "landuse:farmland" }, "geometry": { "type": "Polygon", "coordinates": [ [ [ 21.8048597, 40.7263554 ], [ 21.8064557, 40.7253186 ], [ 21.8078209, 40.7244317 ], [ 21.8074776, 40.7232608 ], [ 21.8071343, 40.7223501 ], [ 21.8061043, 40.7213093 ], [ 21.8040444, 40.7203986 ], [ 21.8014695, 40.7200083 ], [ 21.8002354, 40.7188808 ], [ 21.7998921, 40.7182303 ], [ 21.798970932596273, 40.717997533815911 ], [ 21.798970932596273, 40.726361267272083 ], [ 21.801064, 40.7262522 ], [ 21.803594102987304, 40.726566412836505 ], [ 21.804245234365894, 40.726566412836505 ], [ 21.8048597, 40.7263554 ] ] ] } },
{ "type": "Feature", "properties": { "@type": "way", "@id": 28844298, "admin_level": null, "boundary": null, "cables": null, "ele": null, "highway": null, "int_ref": null, "landuse": "farmland", "lanes": null, "layer": null, "leisure": null, "line_attachment": null, "lit": null, "maxspeed": null, "name": null, "natural": null, "oneway": null, "power": null, "ref:esye": null, "reg_ref": null, "source": null, "source:ref:esye": null, "tunnel": null, "voltage": null, "label": "landuse:farmland" }, "geometry": { "type": "Polygon", "coordinates": [ [ [ 21.8076493, 40.7257326 ], [ 21.8078209, 40.7244317 ], [ 21.8064557, 40.7253186 ], [ 21.8048597, 40.7263554 ], [ 21.804245234365894, 40.726566412836505 ], [ 21.807465937020837, 40.726566412836505 ], [ 21.8076493, 40.7257326 ] ] ] } },
{ "type": "Feature", "properties": { "@type": "way", "@id": 49733913, "admin_level": null, "boundary": null, "cables": null, "ele": null, "highway": null, "int_ref": null, "landuse": "farmland", "lanes": null, "layer": null, "leisure": null, "line_attachment": null, "lit": null, "maxspeed": null, "name": null, "natural": null, "oneway": null, "power": null, "ref:esye": null, "reg_ref": null, "source": null, "source:ref:esye": null, "tunnel": null, "voltage": null, "label": "landuse:farmland" }, "geometry": { "type": "Polygon", "coordinates": [ [ [ 21.826403, 40.7256271 ], [ 21.826071, 40.7250776 ], [ 21.8258117, 40.7245302 ], [ 21.8257114, 40.7246822 ], [ 21.8253739, 40.7255776 ], [ 21.8252022, 40.7264882 ], [ 21.82517270792799, 40.726566412836505 ], [ 21.827178384140698, 40.726566412836505 ], [ 21.826403, 40.7256271 ] ] ] } }
]
}
