{
"type": "FeatureCollection",
"name": "patch_76107_point",
"crs": { "type": "name", "properties": { "name": "urn:ogc:def:crs:OGC:1.3:CRS84" } },
"features": [
{ "type": "Feature", "properties": { "@type": "node", "@id": 345210490, "board_type": null, "boat": null, "boundary": null, "bridge": null, "ele": "870", "emergency": null, "ford": null, "highway": null, "information": null, "lanes": null, "leaf_type": null, "leisure": null, "lit": null, "maxspeed": null, "name": null, "name:el": null, "name:mk": null, "natural": "peak", "oneway": null, "peak": null, "source": null, "tourism": null, "tracktype": null, "waterway": null, "label": "natural:peak" }, "geometry": { "type": "Point", "coordinates": [ 21.8793829, 40.9480156 ] } }
]
}
