{
"type": "FeatureCollection",
"name": "patch_76107_point",
"crs": { "type": "name", "properties": { "name": "urn:ogc:def:crs:OGC:1.3:CRS84" } },
"features": [
{ "type": "Feature", "properties": { "element": "node", "id": 345210490, "ele": "870", "name:el": null, "natural": "peak", "source": null, "boat": null, "waterway": null, "leaf_type": null, "board_type": null, "boundary": null, "information": null, "leisure": null, "name": null, "name:mk": null, "tourism": null, "type": null, "label": "natural:peak" }, "geometry": { "type": "Point", "coordinates": [ 21.8793829, 40.9480156 ] } }
]
}
