{
"type": "FeatureCollection",
"name": "patch_9060_features",
"crs": { "type": "name", "properties": { "name": "urn:ogc:def:crs:OGC:1.3:CRS84" } },
"features": [
{ "type": "Feature", "properties": { "@type": "way", "@id": 402169629, "addr:postcode": null, "amenity": null, "bicycle": null, "brand": null, "brand:wikidata": null, "bridge": null, "building": null, "bus": null, "denomination": null, "foot": null, "generator:method": null, "generator:output:electricity": null, "generator:source": null, "generator:type": null, "highway": null, "horse": null, "intermittent": null, "landuse": null, "lanes": null, "layer": null, "motor_vehicle": null, "name": "Φράγμα Καλαμωτής", "name:de": null, "name:el": null, "name:en": null, "name:ru": null, "natural": null, "oneway": null, "operator": null, "place": null, "power": null, "public_transport": null, "reg_ref": null, "religion": null, "service": null, "surface": null, "water": null, "waterway": "dam", "wikidata": null, "wikipedia": null, "label": "waterway:dam" }, "geometry": { "type": "LineString", "coordinates": [ [ 26.048998, 38.2485511 ], [ 26.0526458, 38.2473125 ] ] } },
{ "type": "Feature", "properties": { "@type": "way", "@id": 405528652, "addr:postcode": null, "amenity": null, "bicycle": null, "brand": null, "brand:wikidata": null, "bridge": null, "building": null, "bus": null, "denomination": null, "foot": null, "generator:method": null, "generator:output:electricity": null, "generator:source": null, "generator:type": null, "highway": null, "horse": null, "intermittent": "yes", "landuse": null, "lanes": null, "layer": null, "motor_vehicle": null, "name": "Κατράρης", "name:de": null, "name:el": null, "name:en": null, "name:ru": null, "natural": null, "oneway": null, "operator": null, "place": null, "power": null, "public_transport": null, "reg_ref": null, "religion": null, "service": null, "surface": null, "water": null, "waterway": "stream", "wikidata": null, "wikipedia": null, "label": "waterway:stream" }, "geometry": { "type": "LineString", "coordinates": [ [ 26.053331799820029, 38.264266272715844 ], [ 26.0533348, 38.2641864 ], [ 26.0533348, 38.2640621 ], [ 26.0533482, 38.2638663 ], [ 26.0533643, 38.2634619 ], [ 26.0533402, 38.2630744 ], [ 26.0533321, 38.2628386 ], [ 26.0532919, 38.26247 ], [ 26.053249, 38.2620888 ], [ 26.0532168, 38.261695 ], [ 26.0532088, 38.2613959 ], [ 26.0532275, 38.261318 ], [ 26.0532785, 38.2612064 ], [ 26.0533482, 38.26104 ], [ 26.0533643, 38.2609347 ], [ 26.0533482, 38.2608231 ], [ 26.0533134, 38.2607157 ], [ 26.0532463, 38.2605851 ], [ 26.0531712, 38.2604103 ], [ 26.0531229, 38.2602144 ], [ 26.0531095, 38.2601323 ], [ 26.0531337, 38.2598122 ], [ 26.0531658, 38.2596374 ], [ 26.0532195, 38.2595131 ], [ 26.0533563, 38.2593572 ], [ 26.0534716, 38.2592393 ], [ 26.0535709, 38.2590813 ], [ 26.0536084, 38.2589781 ], [ 26.0535869, 38.2588707 ], [ 26.0535494, 38.2587928 ], [ 26.0534609, 38.2587338 ], [ 26.0532919, 38.2586875 ], [ 26.05308, 38.2586201 ], [ 26.0529003, 38.2585696 ], [ 26.0528145, 38.2585295 ], [ 26.0527608, 38.2584832 ], [ 26.0526187, 38.2583189 ], [ 26.0525033, 38.2581315 ], [ 26.052439, 38.2579503 ], [ 26.0524255, 38.257805 ], [ 26.0523531, 38.257546 ], [ 26.0522646, 38.2573838 ], [ 26.0520903, 38.2571542 ], [ 26.0519803, 38.2570615 ], [ 26.0518435, 38.2569478 ], [ 26.0517657, 38.2568257 ], [ 26.0516739, 38.2566455 ] ] } },
{ "type": "Feature", "properties": { "@type": "node", "@id": 1338824344, "addr:postcode": null, "amenity": "fuel", "bicycle": null, "brand": "Revoil", "brand:wikidata": "Q62530755", "bridge": null, "building": null, "bus": null, "denomination": null, "foot": null, "generator:method": null, "generator:output:electricity": null, "generator:source": null, "generator:type": null, "highway": null, "horse": null, "intermittent": null, "landuse": null, "lanes": null, "layer": null, "motor_vehicle": null, "name": "REVOIL", "name:de": null, "name:el": null, "name:en": null, "name:ru": null, "natural": null, "oneway": null, "operator": "ΚΑΛΠΑΚΤΣΟΓΛΟΥ ΦΡΑΓΚΟΥΛΗΣ", "place": null, "power": null, "public_transport": null, "reg_ref": null, "religion": null, "service": null, "surface": null, "water": null, "waterway": null, "wikidata": null, "wikipedia": null, "label": "amenity:fuel" }, "geometry": { "type": "Point", "coordinates": [ 26.0677331, 38.2520896 ] } },
{ "type": "Feature", "properties": { "@type": "way", "@id": 180437823, "addr:postcode": null, "amenity": null, "bicycle": null, "brand": null, "brand:wikidata": null, "bridge": null, "building": null, "bus": null, "denomination": null, "foot": null, "generator:method": null, "generator:output:electricity": null, "generator:source": null, "generator:type": null, "highway": null, "horse": null, "intermittent": null, "landuse": "residential", "lanes": null, "layer": null, "motor_vehicle": null, "name": "Kini", "name:de": "Kini", "name:el": null, "name:en": null, "name:ru": null, "natural": null, "oneway": null, "operator": null, "place": null, "power": null, "public_transport": null, "reg_ref": null, "religion": null, "service": null, "surface": null, "water": null, "waterway": null, "wikidata": null, "wikipedia": null, "label": "landuse:residential" }, "geometry": { "type": "Polygon", "coordinates": [ [ [ 26.0705735, 38.2491003 ], [ 26.0692383, 38.2513555 ], [ 26.0682565, 38.2520416 ], [ 26.0680832, 38.2521627 ], [ 26.0692912, 38.2532778 ], [ 26.070611288167541, 38.252438410525784 ], [ 26.070611288167541, 38.249089270298519 ], [ 26.0705735, 38.2491003 ] ] ] } },
{ "type": "Feature", "properties": { "@type": "way", "@id": 180437829, "addr:postcode": null, "amenity": null, "bicycle": null, "brand": null, "brand:wikidata": null, "bridge": null, "building": null, "bus": null, "denomination": null, "foot": null, "generator:method": null, "generator:output:electricity": null, "generator:source": null, "generator:type": null, "highway": null, "horse": null, "intermittent": null, "landuse": null, "lanes": null, "layer": null, "motor_vehicle": null, "name": "Φράγμα Καλαμωτής - Κατράρη", "name:de": null, "name:el": null, "name:en": null, "name:ru": null, "natural": "water", "oneway": null, "operator": null, "place": null, "power": null, "public_transport": null, "reg_ref": null, "religion": null, "service": null, "surface": null, "water": "reservoir", "waterway": null, "wikidata": null, "wikipedia": null, "label": "natural:water;water:reservoir" }, "geometry": { "type": "Polygon", "coordinates": [ [ [ 26.0498232, 38.2487638 ], [ 26.0498768, 38.2488986 ], [ 26.0498983, 38.2490671 ], [ 26.0499519, 38.2492103 ], [ 26.0500753, 38.2493872 ], [ 26.0501826, 38.2495136 ], [ 26.0502201, 38.2497243 ], [ 26.0502899, 38.2499307 ], [ 26.0503596, 38.2501455 ], [ 26.0504079, 38.2502972 ], [ 26.0504669, 38.2504868 ], [ 26.0506707, 38.2507185 ], [ 26.0507351, 38.2508954 ], [ 26.0507727, 38.2510766 ], [ 26.0507137, 38.2512661 ], [ 26.0506868, 38.2514726 ], [ 26.0507351, 38.2516916 ], [ 26.0508102, 38.2519823 ], [ 26.0508156, 38.2522435 ], [ 26.0508049, 38.2526858 ], [ 26.050778, 38.2531281 ], [ 26.050778, 38.2533514 ], [ 26.0508049, 38.2535494 ], [ 26.0508639, 38.25368 ], [ 26.0509712, 38.2538569 ], [ 26.0510838, 38.2540675 ], [ 26.051175, 38.2542992 ], [ 26.0512608, 38.254632 ], [ 26.0513091, 38.2549016 ], [ 26.0513198, 38.2550532 ], [ 26.0512877, 38.2552344 ], [ 26.0512877, 38.2554071 ], [ 26.0513306, 38.255643 ], [ 26.0513413, 38.2558031 ], [ 26.0513145, 38.2559716 ], [ 26.0513359, 38.2561401 ], [ 26.0514325, 38.2563549 ], [ 26.0515827, 38.2565992 ], [ 26.0516739, 38.2566455 ], [ 26.0517168, 38.256456 ], [ 26.0517114, 38.2562285 ], [ 26.0517007, 38.2560516 ], [ 26.0518563, 38.2559294 ], [ 26.0518134, 38.2557778 ], [ 26.0518616, 38.255049 ], [ 26.0519207, 38.2548763 ], [ 26.0520655, 38.2546826 ], [ 26.0521299, 38.2544129 ], [ 26.0521513, 38.2542866 ], [ 26.0521352, 38.2540507 ], [ 26.0519689, 38.2537895 ], [ 26.0517812, 38.2534272 ], [ 26.0517329, 38.2532292 ], [ 26.0516954, 38.2529554 ], [ 26.0517329, 38.2527026 ], [ 26.0518026, 38.2525131 ], [ 26.0518724, 38.2523993 ], [ 26.0520065, 38.2522856 ], [ 26.0522024, 38.2521143 ], [ 26.0523176, 38.2520118 ], [ 26.052382, 38.2518138 ], [ 26.0524142, 38.2515273 ], [ 26.0523444, 38.2514515 ], [ 26.052441, 38.2513167 ], [ 26.0525621, 38.2513023 ], [ 26.0527569, 38.2511964 ], [ 26.0528433, 38.2511061 ], [ 26.0528433, 38.2510092 ], [ 26.0527521, 38.2509038 ], [ 26.0526502, 38.2507859 ], [ 26.0526288, 38.2506974 ], [ 26.0526449, 38.2506174 ], [ 26.05272, 38.250432 ], [ 26.0527414, 38.2501034 ], [ 26.0528004, 38.2499307 ], [ 26.0528755, 38.2497664 ], [ 26.0528648, 38.2496779 ], [ 26.0528541, 38.249581 ], [ 26.0528487, 38.249501 ], [ 26.0529184, 38.2493872 ], [ 26.053015, 38.2492946 ], [ 26.0530901, 38.2492356 ], [ 26.0532671, 38.249185 ], [ 26.053369, 38.2490924 ], [ 26.0534173, 38.2489618 ], [ 26.0534066, 38.2488312 ], [ 26.053369, 38.24873 ], [ 26.0531765, 38.2487014 ], [ 26.0530901, 38.2485868 ], [ 26.0529721, 38.2485657 ], [ 26.0528272, 38.2485657 ], [ 26.0526234, 38.2485447 ], [ 26.0525107, 38.2484646 ], [ 26.0524839, 38.2484014 ], [ 26.0525376, 38.2483509 ], [ 26.0526609, 38.2483256 ], [ 26.0528004, 38.2483846 ], [ 26.0529345, 38.2484057 ], [ 26.053192, 38.2483509 ], [ 26.0532242, 38.2483003 ], [ 26.0531652, 38.2482161 ], [ 26.0530794, 38.2481487 ], [ 26.0530257, 38.2480602 ], [ 26.0529131, 38.2479254 ], [ 26.0528165, 38.2478032 ], [ 26.0527843, 38.2476853 ], [ 26.0527253, 38.247601 ], [ 26.0497266, 38.2486458 ], [ 26.0498232, 38.2487638 ] ] ] } },
{ "type": "Feature", "properties": { "@type": "way", "@id": 402225984, "addr:postcode": null, "amenity": "place_of_worship", "bicycle": null, "brand": null, "brand:wikidata": null, "bridge": null, "building": "yes", "bus": null, "denomination": "greek_orthodox", "foot": null, "generator:method": null, "generator:output:electricity": null, "generator:source": null, "generator:type": null, "highway": null, "horse": null, "intermittent": null, "landuse": null, "lanes": null, "layer": null, "motor_vehicle": null, "name": null, "name:de": null, "name:el": null, "name:en": null, "name:ru": null, "natural": null, "oneway": null, "operator": null, "place": null, "power": null, "public_transport": null, "reg_ref": null, "religion": "christian", "service": null, "surface": null, "water": null, "waterway": null, "wikidata": null, "wikipedia": null, "label": "building:yes;amenity:place_of_worship" }, "geometry": { "type": "Polygon", "coordinates": [ [ [ 26.0701953, 38.2507675 ], [ 26.0701846, 38.250796 ], [ 26.0704354, 38.2508507 ], [ 26.070477, 38.2507423 ], [ 26.0702329, 38.2506928 ], [ 26.0702195, 38.2507244 ], [ 26.0702007, 38.2507307 ], [ 26.0701846, 38.2507412 ], [ 26.0701792, 38.2507538 ], [ 26.0701953, 38.2507675 ] ] ] } },
{ "type": "Feature", "properties": { "@type": "way", "@id": 408248030, "addr:postcode": null, "amenity": null, "bicycle": null, "brand": null, "brand:wikidata": null, "bridge": null, "building": "yes", "bus": null, "denomination": null, "foot": null, "generator:method": null, "generator:output:electricity": null, "generator:source": null, "generator:type": null, "highway": null, "horse": null, "intermittent": null, "landuse": null, "lanes": null, "layer": null, "motor_vehicle": null, "name": null, "name:de": null, "name:el": null, "name:en": null, "name:ru": null, "natural": null, "oneway": null, "operator": null, "place": null, "power": null, "public_transport": null, "reg_ref": null, "religion": null, "service": null, "surface": null, "water": null, "waterway": null, "wikidata": null, "wikipedia": null, "label": "building:yes" }, "geometry": { "type": "Polygon", "coordinates": [ [ [ 26.0689672, 38.2518567 ], [ 26.0690729, 38.2518373 ], [ 26.0690817, 38.2518669 ], [ 26.069151, 38.2518542 ], [ 26.0691186, 38.2517452 ], [ 26.0689436, 38.2517773 ], [ 26.0689672, 38.2518567 ] ] ] } },
{ "type": "Feature", "properties": { "@type": "way", "@id": 416578065, "addr:postcode": null, "amenity": null, "bicycle": null, "brand": null, "brand:wikidata": null, "bridge": null, "building": "yes", "bus": null, "denomination": null, "foot": null, "generator:method": null, "generator:output:electricity": null, "generator:source": null, "generator:type": null, "highway": null, "horse": null, "intermittent": null, "landuse": null, "lanes": null, "layer": null, "motor_vehicle": null, "name": null, "name:de": null, "name:el": null, "name:en": null, "name:ru": null, "natural": null, "oneway": null, "operator": null, "place": null, "power": null, "public_transport": null, "reg_ref": null, "religion": null, "service": null, "surface": null, "water": null, "waterway": null, "wikidata": null, "wikipedia": null, "label": "building:yes" }, "geometry": { "type": "Polygon", "coordinates": [ [ [ 26.0447835, 38.261651 ], [ 26.044922, 38.2615905 ], [ 26.0448476, 38.2614855 ], [ 26.0447091, 38.261546 ], [ 26.0447835, 38.261651 ] ] ] } },
{ "type": "Feature", "properties": { "@type": "way", "@id": 1065322431, "addr:postcode": null, "amenity": null, "bicycle": null, "brand": null, "brand:wikidata": null, "bridge": null, "building": "roof", "bus": null, "denomination": null, "foot": null, "generator:method": null, "generator:output:electricity": null, "generator:source": null, "generator:type": null, "highway": null, "horse": null, "intermittent": null, "landuse": null, "lanes": null, "layer": "2", "motor_vehicle": null, "name": null, "name:de": null, "name:el": null, "name:en": null, "name:ru": null, "natural": null, "oneway": null, "operator": null, "place": null, "power": null, "public_transport": null, "reg_ref": null, "religion": null, "service": null, "surface": null, "water": null, "waterway": null, "wikidata": null, "wikipedia": null, "label": "building:roof" }, "geometry": { "type": "Polygon", "coordinates": [ [ [ 26.0677315, 38.2521486 ], [ 26.0677867, 38.2520968 ], [ 26.0677326, 38.2520612 ], [ 26.067704, 38.2520911 ], [ 26.0676773, 38.252113 ], [ 26.0677315, 38.2521486 ] ] ] } },
{ "type": "Feature", "properties": { "@type": "way", "@id": 1065322432, "addr:postcode": null, "amenity": null, "bicycle": null, "brand": null, "brand:wikidata": null, "bridge": null, "building": "yes", "bus": null, "denomination": null, "foot": null, "generator:method": null, "generator:output:electricity": null, "generator:source": null, "generator:type": null, "highway": null, "horse": null, "intermittent": null, "landuse": null, "lanes": null, "layer": null, "motor_vehicle": null, "name": null, "name:de": null, "name:el": null, "name:en": null, "name:ru": null, "natural": null, "oneway": null, "operator": null, "place": null, "power": null, "public_transport": null, "reg_ref": null, "religion": null, "service": null, "surface": null, "water": null, "waterway": null, "wikidata": null, "wikipedia": null, "label": "building:yes" }, "geometry": { "type": "Polygon", "coordinates": [ [ [ 26.067704, 38.2520911 ], [ 26.0677326, 38.2520612 ], [ 26.0677822, 38.2520095 ], [ 26.0676959, 38.2519586 ], [ 26.0676178, 38.2520402 ], [ 26.067704, 38.2520911 ] ] ] } }
]
}
