{
"type": "FeatureCollection",
"name": "patch_9060_point",
"crs": { "type": "name", "properties": { "name": "urn:ogc:def:crs:OGC:1.3:CRS84" } },
"features": [
{ "type": "Feature", "properties": { "@type": "node", "@id": 1338824344, "addr:postcode": null, "amenity": "fuel", "bicycle": null, "brand": "Revoil", "brand:wikidata": "Q62530755", "bridge": null, "building": null, "bus": null, "denomination": null, "foot": null, "generator:method": null, "generator:output:electricity": null, "generator:source": null, "generator:type": null, "highway": null, "horse": null, "intermittent": null, "landuse": null, "lanes": null, "layer": null, "motor_vehicle": null, "name": "REVOIL", "name:de": null, "name:el": null, "name:en": null, "name:ru": null, "natural": null, "oneway": null, "operator": "ΚΑΛΠΑΚΤΣΟΓΛΟΥ ΦΡΑΓΚΟΥΛΗΣ", "place": null, "power": null, "public_transport": null, "reg_ref": null, "religion": null, "service": null, "surface": null, "water": null, "waterway": null, "wikidata": null, "wikipedia": null, "label": "amenity:fuel" }, "geometry": { "type": "Point", "coordinates": [ 26.0677331, 38.2520896 ] } }
]
}
