{
"type": "FeatureCollection",
"name": "patch_43221_features",
"crs": { "type": "name", "properties": { "name": "urn:ogc:def:crs:OGC:1.3:CRS84" } },
"features": [
{ "type": "Feature", "properties": { "@type": "way", "@id": 9502546, "created_by": null, "int_name": null, "name": null, "name:el": null, "name:en": null, "natural": "coastline", "place": null, "seamark:light:character": null, "seamark:light:colour": null, "seamark:light:height": null, "seamark:light:period": null, "seamark:light:range": null, "seamark:light:reference": null, "seamark:light:sequence": null, "seamark:name": null, "seamark:type": null, "source": "PGS", "wikidata": null, "wikipedia": null, "label": "natural:coastline" }, "geometry": { "type": "LineString", "coordinates": [ [ 21.033605969287922, 38.363735932099104 ], [ 21.0332872, 38.3641039 ], [ 21.0332531, 38.3643933 ], [ 21.0331405, 38.3645635 ], [ 21.0330325, 38.3648398 ], [ 21.0330214, 38.3649677 ], [ 21.0329617, 38.3652165 ], [ 21.0328452, 38.3655095 ], [ 21.0327749, 38.3658699 ], [ 21.0326341, 38.3662742 ], [ 21.0323441, 38.3673164 ], [ 21.0317973, 38.368062 ], [ 21.0310775, 38.3688884 ], [ 21.030767, 38.3691944 ], [ 21.0305511, 38.3693715 ], [ 21.0302805, 38.3694456 ], [ 21.0302102, 38.3694509 ], [ 21.0301399, 38.3694512 ], [ 21.0300749, 38.3694431 ], [ 21.03001, 38.3694215 ], [ 21.0298028, 38.3692861 ], [ 21.0294557, 38.3691253 ], [ 21.0290284, 38.3690132 ], [ 21.0286504, 38.3690197 ], [ 21.0282522, 38.369036 ], [ 21.0278628, 38.3691938 ], [ 21.0276254, 38.3695103 ], [ 21.0273304, 38.3700711 ], [ 21.0268635, 38.3704327 ], [ 21.026799, 38.3706567 ], [ 21.0267179, 38.3711213 ], [ 21.0268096, 38.3713373 ], [ 21.0268206, 38.3715707 ], [ 21.0267875, 38.3716264 ], [ 21.026733, 38.3716619 ], [ 21.0266369, 38.3716841 ], [ 21.0256668, 38.3718293 ], [ 21.0251118, 38.3722922 ], [ 21.0250577, 38.3723984 ], [ 21.0250259, 38.3725647 ], [ 21.0250157, 38.3725932 ], [ 21.024997, 38.3726167 ], [ 21.0247773, 38.3728328 ], [ 21.0245621, 38.372903 ], [ 21.0244635, 38.3728228 ], [ 21.0243724, 38.3725754 ], [ 21.0245426, 38.3722173 ], [ 21.0248227, 38.3720679 ], [ 21.0249769, 38.371728 ], [ 21.0253264, 38.3702042 ], [ 21.0258458, 38.368717 ], [ 21.0260333, 38.3682919 ], [ 21.026339, 38.3668033 ], [ 21.0264291, 38.3651475 ], [ 21.0266413, 38.3646963 ], [ 21.0273595, 38.3638534 ], [ 21.0277811, 38.3633202 ], [ 21.0279385, 38.362896 ], [ 21.0283823, 38.3625487 ], [ 21.028446057138247, 38.362487056086529 ] ] } }
]
}
