{
"type": "FeatureCollection",
"name": "patch_63550_linestring",
"crs": { "type": "name", "properties": { "name": "urn:ogc:def:crs:OGC:1.3:CRS84" } },
"features": [
{ "type": "Feature", "properties": { "element": "way", "id": 85105840, "waterway": "river", "boat": "no", "name": "Αλιάκμονας", "name:el": "Αλιάκμονας", "name:en": "Aliakmonas", "est_width": "350", "int_name": "Aliakmonas", "name:de": "Aliakmonas", "name:fr": "Aliakmonas", "old_name": "Ἁλιάκμων", "old_name:en": "Aliakmon", "wikipedia": "el:Αλιάκμονας", "natural": null, "source": null, "water": null, "name:mk": "Bistrica", "boundary": null, "name:bg": "Bistrica", "landuse": null, "layer": null, "tunnel": null, "leisure": null, "protect_class": null, "protection_title": null, "wetland": null, "type": null, "label": "waterway:river" }, "geometry": { "type": "LineString", "coordinates": [ [ 22.604771110968031, 40.530465133772388 ], [ 22.6048663, 40.530197 ], [ 22.6049414, 40.5300268 ], [ 22.6050326, 40.529882 ], [ 22.6051345, 40.5297301 ], [ 22.6052405, 40.5296068 ], [ 22.6055422, 40.5292949 ], [ 22.6059848, 40.5286568 ], [ 22.6062074, 40.5283714 ], [ 22.6063496, 40.5281858 ], [ 22.6064113, 40.5280676 ], [ 22.6064676, 40.5279269 ], [ 22.6064837, 40.5277761 ], [ 22.6065534, 40.5274213 ], [ 22.6066098, 40.5271706 ], [ 22.6067331, 40.5268627 ], [ 22.6069504, 40.5265222 ], [ 22.6072347, 40.526088 ], [ 22.6073018, 40.5259575 ], [ 22.6073393, 40.5258209 ], [ 22.60735, 40.5257312 ], [ 22.60735, 40.5254845 ], [ 22.6073205, 40.5252378 ], [ 22.6072991, 40.5251053 ], [ 22.6070604, 40.5246465 ], [ 22.6068565, 40.5243958 ], [ 22.6066406, 40.5241623 ], [ 22.606599, 40.524093 ], [ 22.6065595, 40.5240196 ], [ 22.6065461, 40.5239411 ], [ 22.6065642, 40.5237556 ], [ 22.6065937, 40.5235843 ], [ 22.6067653, 40.5230032 ], [ 22.6068753, 40.5225058 ], [ 22.6069987, 40.5220817 ], [ 22.6072025, 40.5214557 ], [ 22.6073098, 40.5211886 ], [ 22.6074949, 40.5209032 ], [ 22.6077229, 40.5206249 ], [ 22.6078556, 40.5204954 ], [ 22.6079991, 40.5203996 ], [ 22.6081534, 40.5202986 ], [ 22.6087582, 40.5199714 ], [ 22.6090533, 40.5198164 ], [ 22.60919, 40.5197226 ], [ 22.6093134, 40.5195942 ], [ 22.6094797, 40.5193556 ], [ 22.6096943, 40.5190029 ], [ 22.609764, 40.5188479 ], [ 22.6097962, 40.5187215 ], [ 22.6097962, 40.5185869 ], [ 22.6096782, 40.5181995 ], [ 22.6094341, 40.5175327 ], [ 22.6092893, 40.5170372 ], [ 22.6092973, 40.5168333 ], [ 22.6093617, 40.5166213 ], [ 22.6094636, 40.5163827 ], [ 22.6096594, 40.5161421 ], [ 22.6097855, 40.515979 ], [ 22.6098633, 40.5158709 ], [ 22.6099759, 40.5156915 ], [ 22.6100188, 40.5156017 ], [ 22.6101154, 40.5154284 ], [ 22.6102294, 40.5152082 ], [ 22.6103997, 40.5149615 ], [ 22.610731, 40.5146276 ], [ 22.6109858, 40.5143976 ], [ 22.611258, 40.5141805 ], [ 22.611549, 40.5139898 ], [ 22.6118682, 40.5138491 ], [ 22.6122048, 40.513737 ], [ 22.6128593, 40.5135259 ], [ 22.6132536, 40.5133852 ], [ 22.6136586, 40.5131935 ], [ 22.6139617, 40.5130365 ], [ 22.614007213132055, 40.513001889448731 ] ] } },
{ "type": "Feature", "properties": { "element": "way", "id": 161791073, "waterway": "river", "boat": "no", "name": null, "name:el": null, "name:en": null, "est_width": null, "int_name": null, "name:de": null, "name:fr": null, "old_name": null, "old_name:en": null, "wikipedia": null, "natural": null, "source": null, "water": null, "name:mk": null, "boundary": null, "name:bg": null, "landuse": null, "layer": null, "tunnel": null, "leisure": null, "protect_class": null, "protection_title": null, "wetland": null, "type": null, "label": "waterway:river" }, "geometry": { "type": "LineString", "coordinates": [ [ 22.621457090349633, 40.535631954133294 ], [ 22.6227581, 40.5345483 ], [ 22.6255691, 40.5321673 ], [ 22.6302683, 40.5282368 ], [ 22.635537396534854, 40.52376958116416 ] ] } },
{ "type": "Feature", "properties": { "element": "way", "id": 807924190, "waterway": "drain", "boat": null, "name": null, "name:el": null, "name:en": null, "est_width": null, "int_name": null, "name:de": null, "name:fr": null, "old_name": null, "old_name:en": null, "wikipedia": null, "natural": null, "source": null, "water": null, "name:mk": null, "boundary": null, "name:bg": null, "landuse": null, "layer": null, "tunnel": null, "leisure": null, "protect_class": null, "protection_title": null, "wetland": null, "type": null, "label": "waterway:drain" }, "geometry": { "type": "LineString", "coordinates": [ [ 22.6332876, 40.5267281 ], [ 22.6352382, 40.5278505 ], [ 22.635537396534854, 40.52801993706899 ] ] } },
{ "type": "Feature", "properties": { "element": "way", "id": 807924199, "waterway": "drain", "boat": null, "name": null, "name:el": null, "name:en": null, "est_width": null, "int_name": null, "name:de": null, "name:fr": null, "old_name": null, "old_name:en": null, "wikipedia": null, "natural": null, "source": null, "water": null, "name:mk": null, "boundary": null, "name:bg": null, "landuse": null, "layer": null, "tunnel": null, "leisure": null, "protect_class": null, "protection_title": null, "wetland": null, "type": null, "label": "waterway:drain" }, "geometry": { "type": "LineString", "coordinates": [ [ 22.6348292, 40.5254303 ], [ 22.635537396534854, 40.525832953686148 ] ] } },
{ "type": "Feature", "properties": { "element": "way", "id": 807924202, "waterway": "drain", "boat": null, "name": null, "name:el": null, "name:en": null, "est_width": null, "int_name": null, "name:de": null, "name:fr": null, "old_name": null, "old_name:en": null, "wikipedia": null, "natural": null, "source": null, "water": null, "name:mk": null, "boundary": null, "name:bg": null, "landuse": null, "layer": null, "tunnel": null, "leisure": null, "protect_class": null, "protection_title": null, "wetland": null, "type": null, "label": "waterway:drain" }, "geometry": { "type": "LineString", "coordinates": [ [ 22.6349092, 40.5252132 ], [ 22.6350641, 40.5250847 ], [ 22.6355054, 40.5247458 ], [ 22.635537396534854, 40.524724328641085 ] ] } },
{ "type": "Feature", "properties": { "element": "way", "id": 807924216, "waterway": "canal", "boat": null, "name": null, "name:el": null, "name:en": null, "est_width": null, "int_name": null, "name:de": null, "name:fr": null, "old_name": null, "old_name:en": null, "wikipedia": null, "natural": null, "source": null, "water": null, "name:mk": null, "boundary": null, "name:bg": null, "landuse": null, "layer": null, "tunnel": null, "leisure": null, "protect_class": null, "protection_title": null, "wetland": null, "type": null, "label": "waterway:canal" }, "geometry": { "type": "LineString", "coordinates": [ [ 22.62221586010169, 40.535631954133294 ], [ 22.6225039, 40.5353979 ] ] } },
{ "type": "Feature", "properties": { "element": "way", "id": 807924218, "waterway": "canal", "boat": null, "name": null, "name:el": null, "name:en": null, "est_width": null, "int_name": null, "name:de": null, "name:fr": null, "old_name": null, "old_name:en": null, "wikipedia": null, "natural": null, "source": null, "water": null, "name:mk": null, "boundary": null, "name:bg": null, "landuse": null, "layer": "-1", "tunnel": "culvert", "leisure": null, "protect_class": null, "protection_title": null, "wetland": null, "type": null, "label": "waterway:canal" }, "geometry": { "type": "LineString", "coordinates": [ [ 22.6225039, 40.5353979 ], [ 22.6226091, 40.5353157 ] ] } },
{ "type": "Feature", "properties": { "element": "way", "id": 807924219, "waterway": "canal", "boat": null, "name": null, "name:el": null, "name:en": null, "est_width": null, "int_name": null, "name:de": null, "name:fr": null, "old_name": null, "old_name:en": null, "wikipedia": null, "natural": null, "source": null, "water": null, "name:mk": null, "boundary": null, "name:bg": null, "landuse": null, "layer": null, "tunnel": null, "leisure": null, "protect_class": null, "protection_title": null, "wetland": null, "type": null, "label": "waterway:canal" }, "geometry": { "type": "LineString", "coordinates": [ [ 22.6226091, 40.5353157 ], [ 22.6240715, 40.5340231 ], [ 22.6259536, 40.5325033 ], [ 22.6280647, 40.530752 ], [ 22.6285306, 40.5303624 ], [ 22.6297845, 40.5293289 ], [ 22.6311333, 40.5281955 ], [ 22.6321034, 40.5273938 ], [ 22.6339249, 40.5258869 ], [ 22.6350112, 40.5250179 ], [ 22.6354941, 40.5246508 ], [ 22.635537396534854, 40.524624877825701 ] ] } }
]
}
