{
"type": "FeatureCollection",
"name": "patch_51495_linestring",
"crs": { "type": "name", "properties": { "name": "urn:ogc:def:crs:OGC:1.3:CRS84" } },
"features": [
{ "type": "Feature", "properties": { "element": "way", "id": 10214760, "ferry": null, "int_name": null, "name": null, "natural": "coastline", "source": "PGS", "duration": null, "foot": null, "hgv": null, "motor_vehicle": null, "motorcar": null, "name:el": null, "name:en": null, "route": null, "waterway": null, "label": "natural:coastline" }, "geometry": { "type": "LineString", "coordinates": [ [ 24.4183809, 37.1207915 ], [ 24.418430629402081, 37.121069258674993 ] ] } }
]
}
