{
"type": "FeatureCollection",
"name": "patch_52496_polygon",
"crs": { "type": "name", "properties": { "name": "urn:ogc:def:crs:OGC:1.3:CRS84" } },
"features": [
{ "type": "Feature", "properties": { "osm_id": 128475744, "name": null, "label": "building:yes", "building": "yes" }, "geometry": { "type": "Polygon", "coordinates": [ [ [ 24.2764864, 37.522407299916146 ], [ 24.2765395, 37.522402399916153 ], [ 24.2765435, 37.522429599916151 ], [ 24.276669, 37.522417899916157 ], [ 24.2766606, 37.522361199916148 ], [ 24.2766197, 37.522364999916142 ], [ 24.2766112, 37.522307299916136 ], [ 24.2764735, 37.522319999916149 ], [ 24.2764864, 37.522407299916146 ] ] ] } }
]
}
