{
"type": "FeatureCollection",
"name": "patch_52496_linestring",
"crs": { "type": "name", "properties": { "name": "urn:ogc:def:crs:OGC:1.3:CRS84" } },
"features": [
{ "type": "Feature", "properties": { "osm_id": 8892001, "name": null, "label": "natural:coastline", "natural": "coastline" }, "geometry": { "type": "MultiLineString", "coordinates": [ [ [ 24.275862120904215, 37.524184711668951 ], [ 24.2767339, 37.52401089991637 ], [ 24.2760373, 37.523594499916314 ], [ 24.2756359, 37.522964699916237 ], [ 24.2754788, 37.522140999916111 ], [ 24.2757302, 37.521866999916064 ], [ 24.2759161, 37.521815299916064 ], [ 24.2764453, 37.521822799916087 ], [ 24.2767145, 37.521915499916084 ], [ 24.2769659, 37.521802499916078 ], [ 24.2771986, 37.521771099916066 ], [ 24.2776126, 37.521808199916059 ], [ 24.2779332, 37.521734199916068 ], [ 24.2781993, 37.521764799916063 ], [ 24.2781478, 37.521817599916062 ], [ 24.2780449, 37.521886199916075 ], [ 24.2779325, 37.521964099916097 ], [ 24.2780719, 37.521934699916088 ], [ 24.2783414, 37.521927699916084 ], [ 24.2783573, 37.521847199916067 ], [ 24.2784452, 37.521789799916071 ], [ 24.2787425, 37.52179359991608 ], [ 24.2798936, 37.52220439991612 ], [ 24.2805424, 37.522354999916146 ], [ 24.2812074, 37.522634499916194 ], [ 24.2820415, 37.522694799916188 ], [ 24.2822073, 37.522459399916166 ], [ 24.2831337, 37.522241499916134 ], [ 24.2834436, 37.522342499916142 ], [ 24.2836559, 37.522507899916164 ], [ 24.2839162, 37.522558999916164 ], [ 24.2841766, 37.522500499916163 ], [ 24.2844937, 37.522577099916177 ], [ 24.2855563, 37.52237599991615 ], [ 24.2862407, 37.522626999916177 ], [ 24.2864054, 37.522708099916187 ], [ 24.2865047, 37.522922499916213 ], [ 24.2864311, 37.523788299916326 ], [ 24.286275990948443, 37.524184711668951 ] ], [ [ 24.286874895938098, 37.524184711668951 ], [ 24.2870007, 37.524088199916378 ], [ 24.2872575, 37.524015299916364 ], [ 24.287645, 37.523979499916358 ], [ 24.2880822, 37.524090999916375 ], [ 24.28815868058058, 37.524184711668951 ] ], [ [ 24.289062466217299, 37.524184711668951 ], [ 24.2892165, 37.523871899916351 ], [ 24.2893084, 37.523331299916279 ], [ 24.2893666, 37.523056099916239 ], [ 24.2892416, 37.522800299916206 ], [ 24.2892838, 37.522722199916196 ], [ 24.2894514, 37.522692899916194 ], [ 24.2894619, 37.522779899916209 ], [ 24.2895466, 37.522857299916218 ], [ 24.2897354, 37.522803999916214 ], [ 24.2900097, 37.522760399916194 ], [ 24.2903391, 37.522997299916234 ], [ 24.2906441, 37.523079399916234 ], [ 24.2907721, 37.52320499991626 ], [ 24.2910986, 37.523195099916265 ], [ 24.2913884, 37.523253099916261 ], [ 24.2916569, 37.523334599916275 ], [ 24.2920109, 37.52334839991628 ], [ 24.2923281, 37.523434099916287 ], [ 24.2927305, 37.5234503999163 ], [ 24.2937306, 37.523744599916341 ], [ 24.293959863042836, 37.523888546795654 ] ] ] } }
]
}
