{
"type": "FeatureCollection",
"name": "patch_53466_polygon",
"crs": { "type": "name", "properties": { "name": "urn:ogc:def:crs:OGC:1.3:CRS84" } },
"features": [
{ "type": "Feature", "properties": { "@type": "way", "@id": 100875747, "addr:postcode": null, "admin_level": null, "alt_name": null, "amenity": null, "barrier": null, "boundary": null, "brand": null, "bridge": null, "building": null, "city_limit": null, "communication:television": null, "denomination": null, "direction": null, "ele": null, "ford": null, "highway": null, "historic": null, "int_name": null, "intermittent": null, "landuse": "residential", "lane_markings": null, "lanes": null, "layer": null, "leisure": null, "lit": null, "man_made": null, "maxspeed": null, "name": null, "name:de": null, "name:el": null, "name:en": null, "name:ru": null, "natural": null, "noexit": null, "oneway": null, "operator": null, "place": null, "reg_ref": null, "religion": null, "service": null, "sidewalk": null, "source": "Bing", "source:maxspeed": null, "source:reg_ref": null, "sport": null, "surface": null, "traffic_sign": null, "waterway": null, "wikidata": null, "wikipedia": null, "zone:traffic": null, "label": "landuse:residential" }, "geometry": { "type": "Polygon", "coordinates": [ [ [ 25.019613, 35.3670753 ], [ 25.0200602, 35.3675583 ], [ 25.0204349, 35.3672527 ], [ 25.0207371, 35.3663262 ], [ 25.0215228, 35.3663656 ], [ 25.0215712, 35.3661093 ], [ 25.0215591, 35.3655179 ], [ 25.0215107, 35.3649757 ], [ 25.0214019, 35.3643547 ], [ 25.0214745, 35.3636154 ], [ 25.0222239, 35.3632803 ], [ 25.0227799, 35.3636746 ], [ 25.023336, 35.3635267 ], [ 25.023614, 35.363162 ], [ 25.0236382, 35.3627874 ], [ 25.0230459, 35.3623635 ], [ 25.0223085, 35.3623044 ], [ 25.0217887, 35.3621466 ], [ 25.0204591, 35.3625705 ], [ 25.0205316, 35.3629747 ], [ 25.0200239, 35.3630437 ], [ 25.0200844, 35.3633 ], [ 25.0201206, 35.3636253 ], [ 25.0202536, 35.3644139 ], [ 25.0200481, 35.3647096 ], [ 25.0195646, 35.3647687 ], [ 25.019202, 35.3660896 ], [ 25.0188273, 35.366543 ], [ 25.018791, 35.3669964 ], [ 25.019613, 35.3670753 ] ] ] } },
{ "type": "Feature", "properties": { "@type": "way", "@id": 217317595, "addr:postcode": null, "admin_level": null, "alt_name": null, "amenity": null, "barrier": null, "boundary": null, "brand": null, "bridge": null, "building": "yes", "city_limit": null, "communication:television": null, "denomination": null, "direction": null, "ele": null, "ford": null, "highway": null, "historic": null, "int_name": null, "intermittent": null, "landuse": null, "lane_markings": null, "lanes": null, "layer": null, "leisure": null, "lit": null, "man_made": null, "maxspeed": null, "name": null, "name:de": null, "name:el": null, "name:en": null, "name:ru": null, "natural": null, "noexit": null, "oneway": null, "operator": null, "place": null, "reg_ref": null, "religion": null, "service": null, "sidewalk": null, "source": null, "source:maxspeed": null, "source:reg_ref": null, "sport": null, "surface": null, "traffic_sign": null, "waterway": null, "wikidata": null, "wikipedia": null, "zone:traffic": null, "label": "building:yes" }, "geometry": { "type": "Polygon", "coordinates": [ [ [ 25.005585, 35.3736711 ], [ 25.0056712, 35.3736038 ], [ 25.0054556, 35.3734204 ], [ 25.0053695, 35.3734877 ], [ 25.005585, 35.3736711 ] ] ] } },
{ "type": "Feature", "properties": { "@type": "way", "@id": 217317596, "addr:postcode": null, "admin_level": null, "alt_name": null, "amenity": null, "barrier": null, "boundary": null, "brand": null, "bridge": null, "building": "yes", "city_limit": null, "communication:television": null, "denomination": null, "direction": null, "ele": null, "ford": null, "highway": null, "historic": null, "int_name": null, "intermittent": null, "landuse": null, "lane_markings": null, "lanes": null, "layer": null, "leisure": null, "lit": null, "man_made": null, "maxspeed": null, "name": null, "name:de": null, "name:el": null, "name:en": null, "name:ru": null, "natural": null, "noexit": null, "oneway": null, "operator": null, "place": null, "reg_ref": null, "religion": null, "service": null, "sidewalk": null, "source": null, "source:maxspeed": null, "source:reg_ref": null, "sport": null, "surface": null, "traffic_sign": null, "waterway": null, "wikidata": null, "wikipedia": null, "zone:traffic": null, "label": "building:yes" }, "geometry": { "type": "Polygon", "coordinates": [ [ [ 25.0045068, 35.3740209 ], [ 25.0045864, 35.3739693 ], [ 25.0044477, 35.3738272 ], [ 25.0043681, 35.3738788 ], [ 25.0045068, 35.3740209 ] ] ] } },
{ "type": "Feature", "properties": { "@type": "way", "@id": 217317597, "addr:postcode": null, "admin_level": null, "alt_name": null, "amenity": null, "barrier": null, "boundary": null, "brand": null, "bridge": null, "building": "yes", "city_limit": null, "communication:television": null, "denomination": null, "direction": null, "ele": null, "ford": null, "highway": null, "historic": null, "int_name": null, "intermittent": null, "landuse": null, "lane_markings": null, "lanes": null, "layer": null, "leisure": null, "lit": null, "man_made": null, "maxspeed": null, "name": null, "name:de": null, "name:el": null, "name:en": null, "name:ru": null, "natural": null, "noexit": null, "oneway": null, "operator": null, "place": null, "reg_ref": null, "religion": null, "service": null, "sidewalk": null, "source": null, "source:maxspeed": null, "source:reg_ref": null, "sport": null, "surface": null, "traffic_sign": null, "waterway": null, "wikidata": null, "wikipedia": null, "zone:traffic": null, "label": "building:yes" }, "geometry": { "type": "Polygon", "coordinates": [ [ [ 25.0047128, 35.3739217 ], [ 25.0047144, 35.3739151 ], [ 25.0047241, 35.3738748 ], [ 25.0045801, 35.3738519 ], [ 25.0045689, 35.3738988 ], [ 25.0047128, 35.3739217 ] ] ] } },
{ "type": "Feature", "properties": { "@type": "way", "@id": 217317598, "addr:postcode": null, "admin_level": null, "alt_name": null, "amenity": null, "barrier": null, "boundary": null, "brand": null, "bridge": null, "building": "church", "city_limit": null, "communication:television": null, "denomination": null, "direction": null, "ele": null, "ford": null, "highway": null, "historic": null, "int_name": null, "intermittent": null, "landuse": null, "lane_markings": null, "lanes": null, "layer": null, "leisure": null, "lit": null, "man_made": null, "maxspeed": null, "name": null, "name:de": null, "name:el": null, "name:en": null, "name:ru": null, "natural": null, "noexit": null, "oneway": null, "operator": null, "place": null, "reg_ref": null, "religion": null, "service": null, "sidewalk": null, "source": null, "source:maxspeed": null, "source:reg_ref": null, "sport": null, "surface": null, "traffic_sign": null, "waterway": null, "wikidata": null, "wikipedia": null, "zone:traffic": null, "label": "building:church" }, "geometry": { "type": "Polygon", "coordinates": [ [ [ 25.0049931, 35.3735795 ], [ 25.0052106, 35.3735429 ], [ 25.0051803, 35.3734233 ], [ 25.0049628, 35.37346 ], [ 25.0049931, 35.3735795 ] ] ] } },
{ "type": "Feature", "properties": { "@type": "way", "@id": 217317599, "addr:postcode": null, "admin_level": null, "alt_name": null, "amenity": null, "barrier": null, "boundary": null, "brand": null, "bridge": null, "building": "yes", "city_limit": null, "communication:television": null, "denomination": null, "direction": null, "ele": null, "ford": null, "highway": null, "historic": null, "int_name": null, "intermittent": null, "landuse": null, "lane_markings": null, "lanes": null, "layer": null, "leisure": null, "lit": null, "man_made": null, "maxspeed": null, "name": null, "name:de": null, "name:el": null, "name:en": null, "name:ru": null, "natural": null, "noexit": null, "oneway": null, "operator": null, "place": null, "reg_ref": null, "religion": null, "service": null, "sidewalk": null, "source": null, "source:maxspeed": null, "source:reg_ref": null, "sport": null, "surface": null, "traffic_sign": null, "waterway": null, "wikidata": null, "wikipedia": null, "zone:traffic": null, "label": "building:yes" }, "geometry": { "type": "Polygon", "coordinates": [ [ [ 25.0046226, 35.3740933 ], [ 25.0046611, 35.3741891 ], [ 25.004761, 35.3741623 ], [ 25.00475, 35.374135 ], [ 25.0048844, 35.374099 ], [ 25.0048507, 35.3740152 ], [ 25.0046355, 35.3740727 ], [ 25.0046164, 35.3740778 ], [ 25.0046226, 35.3740933 ] ] ] } },
{ "type": "Feature", "properties": { "@type": "way", "@id": 217317600, "addr:postcode": null, "admin_level": null, "alt_name": null, "amenity": null, "barrier": null, "boundary": null, "brand": null, "bridge": null, "building": "yes", "city_limit": null, "communication:television": null, "denomination": null, "direction": null, "ele": null, "ford": null, "highway": null, "historic": null, "int_name": null, "intermittent": null, "landuse": null, "lane_markings": null, "lanes": null, "layer": null, "leisure": null, "lit": null, "man_made": null, "maxspeed": null, "name": null, "name:de": null, "name:el": null, "name:en": null, "name:ru": null, "natural": null, "noexit": null, "oneway": null, "operator": null, "place": null, "reg_ref": null, "religion": null, "service": null, "sidewalk": null, "source": null, "source:maxspeed": null, "source:reg_ref": null, "sport": null, "surface": null, "traffic_sign": null, "waterway": null, "wikidata": null, "wikipedia": null, "zone:traffic": null, "label": "building:yes" }, "geometry": { "type": "Polygon", "coordinates": [ [ [ 25.0044349, 35.3736187 ], [ 25.004501, 35.3735463 ], [ 25.0044131, 35.3734929 ], [ 25.0044386, 35.373465 ], [ 25.004391, 35.373436 ], [ 25.0042993, 35.3735363 ], [ 25.0044349, 35.3736187 ] ] ] } },
{ "type": "Feature", "properties": { "@type": "way", "@id": 217317601, "addr:postcode": null, "admin_level": null, "alt_name": null, "amenity": null, "barrier": null, "boundary": null, "brand": null, "bridge": null, "building": "yes", "city_limit": null, "communication:television": null, "denomination": null, "direction": null, "ele": null, "ford": null, "highway": null, "historic": null, "int_name": null, "intermittent": null, "landuse": null, "lane_markings": null, "lanes": null, "layer": null, "leisure": null, "lit": null, "man_made": null, "maxspeed": null, "name": null, "name:de": null, "name:el": null, "name:en": null, "name:ru": null, "natural": null, "noexit": null, "oneway": null, "operator": null, "place": null, "reg_ref": null, "religion": null, "service": null, "sidewalk": null, "source": null, "source:maxspeed": null, "source:reg_ref": null, "sport": null, "surface": null, "traffic_sign": null, "waterway": null, "wikidata": null, "wikipedia": null, "zone:traffic": null, "label": "building:yes" }, "geometry": { "type": "Polygon", "coordinates": [ [ [ 25.0046368, 35.3737917 ], [ 25.0047696, 35.3736564 ], [ 25.0047221, 35.3736254 ], [ 25.0048025, 35.3735436 ], [ 25.0047259, 35.3734936 ], [ 25.0046466, 35.3735743 ], [ 25.0045742, 35.373527 ], [ 25.0044402, 35.3736635 ], [ 25.0046368, 35.3737917 ] ] ] } },
{ "type": "Feature", "properties": { "@type": "way", "@id": 217317602, "addr:postcode": null, "admin_level": null, "alt_name": null, "amenity": null, "barrier": null, "boundary": null, "brand": null, "bridge": null, "building": "yes", "city_limit": null, "communication:television": null, "denomination": null, "direction": null, "ele": null, "ford": null, "highway": null, "historic": null, "int_name": null, "intermittent": null, "landuse": null, "lane_markings": null, "lanes": null, "layer": null, "leisure": null, "lit": null, "man_made": null, "maxspeed": null, "name": null, "name:de": null, "name:el": null, "name:en": null, "name:ru": null, "natural": null, "noexit": null, "oneway": null, "operator": null, "place": null, "reg_ref": null, "religion": null, "service": null, "sidewalk": null, "source": null, "source:maxspeed": null, "source:reg_ref": null, "sport": null, "surface": null, "traffic_sign": null, "waterway": null, "wikidata": null, "wikipedia": null, "zone:traffic": null, "label": "building:yes" }, "geometry": { "type": "Polygon", "coordinates": [ [ [ 25.004587, 35.3741083 ], [ 25.0046226, 35.3740933 ], [ 25.0046164, 35.3740778 ], [ 25.0046355, 35.3740727 ], [ 25.0046182, 35.3740488 ], [ 25.0046951, 35.3740197 ], [ 25.0046932, 35.3739662 ], [ 25.0045864, 35.3739693 ], [ 25.0045068, 35.3740209 ], [ 25.004587, 35.3741083 ] ] ] } },
{ "type": "Feature", "properties": { "@type": "way", "@id": 217317603, "addr:postcode": "71500", "admin_level": null, "alt_name": null, "amenity": "place_of_worship", "barrier": null, "boundary": null, "brand": null, "bridge": null, "building": null, "city_limit": null, "communication:television": null, "denomination": null, "direction": null, "ele": null, "ford": null, "highway": null, "historic": null, "int_name": null, "intermittent": null, "landuse": null, "lane_markings": null, "lanes": null, "layer": null, "leisure": null, "lit": null, "man_made": null, "maxspeed": null, "name": "Μονή Σαββαθιανών", "name:de": null, "name:el": "Μονή Σαββαθιανών", "name:en": "Moni Savathianon", "name:ru": null, "natural": null, "noexit": null, "oneway": null, "operator": null, "place": null, "reg_ref": null, "religion": "christian", "service": null, "sidewalk": null, "source": null, "source:maxspeed": null, "source:reg_ref": null, "sport": null, "surface": null, "traffic_sign": null, "waterway": null, "wikidata": "Q16329603", "wikipedia": "el:Μονή Σαββαθιανών", "zone:traffic": null, "label": "amenity:place_of_worship" }, "geometry": { "type": "Polygon", "coordinates": [ [ [ 25.0045714, 35.374208 ], [ 25.0048203, 35.3742886 ], [ 25.0050081, 35.374195 ], [ 25.0047657, 35.3737538 ], [ 25.0050547, 35.3736609 ], [ 25.0054285, 35.3738143 ], [ 25.0056883, 35.3736025 ], [ 25.0052085, 35.3731961 ], [ 25.0043018, 35.3733907 ], [ 25.004294, 35.3738968 ], [ 25.0045714, 35.374208 ] ] ] } },
{ "type": "Feature", "properties": { "@type": "way", "@id": 277822996, "addr:postcode": null, "admin_level": null, "alt_name": null, "amenity": null, "barrier": null, "boundary": null, "brand": null, "bridge": null, "building": null, "city_limit": null, "communication:television": null, "denomination": null, "direction": null, "ele": null, "ford": null, "highway": null, "historic": null, "int_name": null, "intermittent": null, "landuse": null, "lane_markings": null, "lanes": null, "layer": null, "leisure": "pitch", "lit": null, "man_made": null, "maxspeed": null, "name": null, "name:de": null, "name:el": null, "name:en": null, "name:ru": null, "natural": null, "noexit": null, "oneway": null, "operator": null, "place": null, "reg_ref": null, "religion": null, "service": null, "sidewalk": null, "source": null, "source:maxspeed": null, "source:reg_ref": null, "sport": "soccer", "surface": null, "traffic_sign": null, "waterway": null, "wikidata": null, "wikipedia": null, "zone:traffic": null, "label": "sport:soccer;leisure:pitch" }, "geometry": { "type": "Polygon", "coordinates": [ [ [ 25.0218579, 35.3644865 ], [ 25.0219684, 35.3645186 ], [ 25.0221714, 35.3640539 ], [ 25.021901, 35.3639753 ], [ 25.021698, 35.36444 ], [ 25.0218579, 35.3644865 ] ] ] } },
{ "type": "Feature", "properties": { "@type": "way", "@id": 292095782, "addr:postcode": null, "admin_level": null, "alt_name": null, "amenity": null, "barrier": null, "boundary": null, "brand": null, "bridge": null, "building": "yes", "city_limit": null, "communication:television": null, "denomination": null, "direction": null, "ele": null, "ford": null, "highway": null, "historic": null, "int_name": null, "intermittent": null, "landuse": null, "lane_markings": null, "lanes": null, "layer": null, "leisure": null, "lit": null, "man_made": null, "maxspeed": null, "name": null, "name:de": null, "name:el": null, "name:en": null, "name:ru": null, "natural": null, "noexit": null, "oneway": null, "operator": null, "place": null, "reg_ref": null, "religion": null, "service": null, "sidewalk": null, "source": null, "source:maxspeed": null, "source:reg_ref": null, "sport": null, "surface": null, "traffic_sign": null, "waterway": null, "wikidata": null, "wikipedia": null, "zone:traffic": null, "label": "building:yes" }, "geometry": { "type": "Polygon", "coordinates": [ [ [ 25.0047147, 35.3739621 ], [ 25.0047233, 35.3739262 ], [ 25.004615, 35.373909 ], [ 25.0046064, 35.3739449 ], [ 25.0047147, 35.3739621 ] ] ] } },
{ "type": "Feature", "properties": { "@type": "way", "@id": 292095783, "addr:postcode": null, "admin_level": null, "alt_name": null, "amenity": null, "barrier": null, "boundary": null, "brand": null, "bridge": null, "building": "yes", "city_limit": null, "communication:television": null, "denomination": null, "direction": null, "ele": null, "ford": null, "highway": null, "historic": null, "int_name": null, "intermittent": null, "landuse": null, "lane_markings": null, "lanes": null, "layer": null, "leisure": null, "lit": null, "man_made": null, "maxspeed": null, "name": null, "name:de": null, "name:el": null, "name:en": null, "name:ru": null, "natural": null, "noexit": null, "oneway": null, "operator": null, "place": null, "reg_ref": null, "religion": null, "service": null, "sidewalk": null, "source": null, "source:maxspeed": null, "source:reg_ref": null, "sport": null, "surface": null, "traffic_sign": null, "waterway": null, "wikidata": null, "wikipedia": null, "zone:traffic": null, "label": "building:yes" }, "geometry": { "type": "Polygon", "coordinates": [ [ [ 25.0048025, 35.3735436 ], [ 25.0048776, 35.3734671 ], [ 25.004801, 35.3734171 ], [ 25.0047259, 35.3734936 ], [ 25.0048025, 35.3735436 ] ] ] } },
{ "type": "Feature", "properties": { "@type": "way", "@id": 547734264, "addr:postcode": null, "admin_level": null, "alt_name": null, "amenity": null, "barrier": null, "boundary": null, "brand": null, "bridge": null, "building": null, "city_limit": null, "communication:television": null, "denomination": null, "direction": null, "ele": null, "ford": null, "highway": null, "historic": null, "int_name": null, "intermittent": null, "landuse": "cemetery", "lane_markings": null, "lanes": null, "layer": null, "leisure": null, "lit": null, "man_made": null, "maxspeed": null, "name": null, "name:de": null, "name:el": null, "name:en": null, "name:ru": null, "natural": null, "noexit": null, "oneway": null, "operator": null, "place": null, "reg_ref": null, "religion": null, "service": null, "sidewalk": null, "source": "Bing Sat", "source:maxspeed": null, "source:reg_ref": null, "sport": null, "surface": null, "traffic_sign": null, "waterway": null, "wikidata": null, "wikipedia": null, "zone:traffic": null, "label": "landuse:cemetery" }, "geometry": { "type": "Polygon", "coordinates": [ [ [ 25.0182325, 35.3684927 ], [ 25.0185222, 35.3683965 ], [ 25.0186644, 35.3684993 ], [ 25.0191686, 35.3683877 ], [ 25.0192062, 35.3682893 ], [ 25.0186268, 35.3680815 ], [ 25.0185383, 35.3680072 ], [ 25.0183666, 35.3677075 ], [ 25.0182674, 35.3677491 ], [ 25.018254, 35.3678125 ], [ 25.0181601, 35.3679612 ], [ 25.0183827, 35.3681209 ], [ 25.0184927, 35.3681975 ], [ 25.018423, 35.3682609 ], [ 25.0182969, 35.3682521 ], [ 25.0181226, 35.3683024 ], [ 25.0182325, 35.3684927 ] ] ] } },
{ "type": "Feature", "properties": { "@type": "way", "@id": 547734268, "addr:postcode": null, "admin_level": null, "alt_name": null, "amenity": "place_of_worship", "barrier": null, "boundary": null, "brand": null, "bridge": null, "building": "church", "city_limit": null, "communication:television": null, "denomination": "greek_orthodox", "direction": null, "ele": null, "ford": null, "highway": null, "historic": null, "int_name": null, "intermittent": null, "landuse": null, "lane_markings": null, "lanes": null, "layer": null, "leisure": null, "lit": null, "man_made": null, "maxspeed": null, "name": null, "name:de": null, "name:el": null, "name:en": null, "name:ru": null, "natural": null, "noexit": null, "oneway": null, "operator": null, "place": null, "reg_ref": null, "religion": "christian", "service": null, "sidewalk": null, "source": "Bing Sat", "source:maxspeed": null, "source:reg_ref": null, "sport": null, "surface": null, "traffic_sign": null, "waterway": null, "wikidata": null, "wikipedia": null, "zone:traffic": null, "label": "building:church;amenity:place_of_worship" }, "geometry": { "type": "Polygon", "coordinates": [ [ [ 25.0197999, 35.3655653 ], [ 25.0198128, 35.3654642 ], [ 25.0196015, 35.3654463 ], [ 25.0195886, 35.3655473 ], [ 25.0197999, 35.3655653 ] ] ] } },
{ "type": "Feature", "properties": { "@type": "way", "@id": 750026252, "addr:postcode": null, "admin_level": null, "alt_name": null, "amenity": "school", "barrier": null, "boundary": null, "brand": null, "bridge": null, "building": "yes", "city_limit": null, "communication:television": null, "denomination": null, "direction": null, "ele": null, "ford": null, "highway": null, "historic": null, "int_name": null, "intermittent": null, "landuse": null, "lane_markings": null, "lanes": null, "layer": null, "leisure": null, "lit": null, "man_made": null, "maxspeed": null, "name": null, "name:de": null, "name:el": null, "name:en": null, "name:ru": null, "natural": null, "noexit": null, "oneway": null, "operator": null, "place": null, "reg_ref": null, "religion": null, "service": null, "sidewalk": null, "source": null, "source:maxspeed": null, "source:reg_ref": null, "sport": null, "surface": null, "traffic_sign": null, "waterway": null, "wikidata": null, "wikipedia": null, "zone:traffic": null, "label": "building:yes;amenity:school" }, "geometry": { "type": "Polygon", "coordinates": [ [ [ 25.0219384, 35.362587 ], [ 25.0221584, 35.3624514 ], [ 25.0220329, 35.3623161 ], [ 25.0218129, 35.3624517 ], [ 25.0219384, 35.362587 ] ] ] } }
]
}
