{
"type": "FeatureCollection",
"name": "patch_71204_point",
"crs": { "type": "name", "properties": { "name": "urn:ogc:def:crs:OGC:1.3:CRS84" } },
"features": [
{ "type": "Feature", "properties": { "element": "node", "id": 5389096793, "amenity": "parking", "name": null, "name:ar": null, "source": null, "wikidata": null, "wikipedia": null, "natural": null, "name:de": null, "name:en": null, "alt_name:cs": null, "name:bg": null, "name:cs": null, "name:es": null, "name:fr": null, "name:hu": null, "name:it": null, "name:nn": null, "name:pl": null, "name:pt": null, "name:ru": null, "name:zh": null, "name:sr": null, "name:sr-Latn": null, "name:cnr": null, "name:cnr-Cyrl": null, "alt_name": null, "name:sl": null, "leisure": null, "name:el": null, "fee": null, "name:cnr-Latn": null, "name:mk": null, "surface": null, "name:hr": null, "waterway": null, "name:tr": null, "name:uk": null, "name:sq": null, "name:ro": null, "alt_name:en": null, "access": null, "alt_name:sl": null, "parking": null, "alt_name:it": null, "bath:open_air": null, "bath:type": null, "nudism": null, "shower": null, "boundary": null, "name:br": null, "name:eu": null, "name:nl": null, "name:sk": null, "name:ku": null, "name:fur": null, "name:bs": null, "name:fa": null, "name:ml": null, "alt_name:sr": null, "alt_name:sr-Latn": null, "alt_name:el": null, "name:be": null, "name:gl": null, "name:he": null, "name:hsb": null, "name:hy": null, "name:ja": null, "name:ka": null, "name:ko": null, "name:la": null, "name:mn": null, "name:mr": null, "name:pnb": null, "name:ta": null, "name:th": null, "name:ur": null, "name:zh-Hans": null, "name:zh-Hant": null, "leaf_type": null, "name:sv": null, "name:szl": null, "name:an": null, "name:ca": null, "name:lmo": null, "name:lt": null, "name:sh": null, "name:vec": null, "building": null, "type": null, "alt_name:af": null, "alt_name:an": null, "alt_name:ast": null, "alt_name:az": null, "alt_name:be": null, "alt_name:bg": null, "alt_name:bn": null, "alt_name:ce": null, "alt_name:cnr": null, "alt_name:crh": null, "alt_name:cv": null, "alt_name:da": null, "alt_name:de": null, "alt_name:dsb": null, "alt_name:eo": null, "alt_name:es": null, "alt_name:et": null, "alt_name:eu": null, "alt_name:fo": null, "alt_name:fur": null, "alt_name:fy": null, "alt_name:ga": null, "alt_name:gag": null, "alt_name:gl": null, "alt_name:gsw": null, "alt_name:gv": null, "alt_name:he": null, "alt_name:hi": null, "alt_name:hr": null, "alt_name:hsb": null, "alt_name:hu": null, "alt_name:hy": null, "alt_name:kk": null, "alt_name:ku": null, "alt_name:lad": null, "alt_name:lb": null, "alt_name:li": null, "alt_name:lt": null, "alt_name:lv": null, "alt_name:mk": null, "alt_name:mn": null, "alt_name:nap": null, "alt_name:nl": null, "alt_name:os": null, "alt_name:pl": null, "alt_name:pnt": null, "alt_name:pt": null, "alt_name:ro": null, "alt_name:ru": null, "alt_name:scn": null, "alt_name:sco": null, "alt_name:sk": null, "alt_name:sq": null, "alt_name:sw": null, "alt_name:szl": null, "alt_name:ta": null, "alt_name:th": null, "alt_name:tk": null, "alt_name:tr": null, "alt_name:tt": null, "alt_name:uk": null, "alt_name:vec": null, "alt_name:yi": null, "alt_name:za": null, "name:af": null, "name:arz": null, "name:ast": null, "name:az": null, "name:ckb": null, "name:crh": null, "name:cy": null, "name:da": null, "name:dsb": null, "name:et": null, "name:fi": null, "name:fo": null, "name:frp": null, "name:fy": null, "name:ga": null, "name:gag": null, "name:gd": null, "name:gsw": null, "name:gv": null, "name:hi": null, "name:id": null, "name:is": null, "name:jv": null, "name:kk": null, "name:lad": null, "name:lb": null, "name:li": null, "name:lv": null, "name:mg": null, "name:ms": null, "name:nap": null, "name:new": null, "name:no": null, "name:nrm": null, "name:oc": null, "name:os": null, "name:pa": null, "name:pnt": null, "name:ps": null, "name:sah": null, "name:sc": null, "name:scn": null, "name:sco": null, "name:se": null, "name:sw": null, "name:tk": null, "name:tl": null, "name:tt": null, "name:ug": null, "name:vi": null, "name:war": null, "name_with_accent:ru": null, "label": "amenity:parking" }, "geometry": { "type": "Point", "coordinates": [ 24.0891189, 40.722493 ] } },
{ "type": "Feature", "properties": { "element": "node", "id": 5389096815, "amenity": "parking", "name": null, "name:ar": null, "source": null, "wikidata": null, "wikipedia": null, "natural": null, "name:de": null, "name:en": null, "alt_name:cs": null, "name:bg": null, "name:cs": null, "name:es": null, "name:fr": null, "name:hu": null, "name:it": null, "name:nn": null, "name:pl": null, "name:pt": null, "name:ru": null, "name:zh": null, "name:sr": null, "name:sr-Latn": null, "name:cnr": null, "name:cnr-Cyrl": null, "alt_name": null, "name:sl": null, "leisure": null, "name:el": null, "fee": "no", "name:cnr-Latn": null, "name:mk": null, "surface": null, "name:hr": null, "waterway": null, "name:tr": null, "name:uk": null, "name:sq": null, "name:ro": null, "alt_name:en": null, "access": "yes", "alt_name:sl": null, "parking": "surface", "alt_name:it": null, "bath:open_air": null, "bath:type": null, "nudism": null, "shower": null, "boundary": null, "name:br": null, "name:eu": null, "name:nl": null, "name:sk": null, "name:ku": null, "name:fur": null, "name:bs": null, "name:fa": null, "name:ml": null, "alt_name:sr": null, "alt_name:sr-Latn": null, "alt_name:el": null, "name:be": null, "name:gl": null, "name:he": null, "name:hsb": null, "name:hy": null, "name:ja": null, "name:ka": null, "name:ko": null, "name:la": null, "name:mn": null, "name:mr": null, "name:pnb": null, "name:ta": null, "name:th": null, "name:ur": null, "name:zh-Hans": null, "name:zh-Hant": null, "leaf_type": null, "name:sv": null, "name:szl": null, "name:an": null, "name:ca": null, "name:lmo": null, "name:lt": null, "name:sh": null, "name:vec": null, "building": null, "type": null, "alt_name:af": null, "alt_name:an": null, "alt_name:ast": null, "alt_name:az": null, "alt_name:be": null, "alt_name:bg": null, "alt_name:bn": null, "alt_name:ce": null, "alt_name:cnr": null, "alt_name:crh": null, "alt_name:cv": null, "alt_name:da": null, "alt_name:de": null, "alt_name:dsb": null, "alt_name:eo": null, "alt_name:es": null, "alt_name:et": null, "alt_name:eu": null, "alt_name:fo": null, "alt_name:fur": null, "alt_name:fy": null, "alt_name:ga": null, "alt_name:gag": null, "alt_name:gl": null, "alt_name:gsw": null, "alt_name:gv": null, "alt_name:he": null, "alt_name:hi": null, "alt_name:hr": null, "alt_name:hsb": null, "alt_name:hu": null, "alt_name:hy": null, "alt_name:kk": null, "alt_name:ku": null, "alt_name:lad": null, "alt_name:lb": null, "alt_name:li": null, "alt_name:lt": null, "alt_name:lv": null, "alt_name:mk": null, "alt_name:mn": null, "alt_name:nap": null, "alt_name:nl": null, "alt_name:os": null, "alt_name:pl": null, "alt_name:pnt": null, "alt_name:pt": null, "alt_name:ro": null, "alt_name:ru": null, "alt_name:scn": null, "alt_name:sco": null, "alt_name:sk": null, "alt_name:sq": null, "alt_name:sw": null, "alt_name:szl": null, "alt_name:ta": null, "alt_name:th": null, "alt_name:tk": null, "alt_name:tr": null, "alt_name:tt": null, "alt_name:uk": null, "alt_name:vec": null, "alt_name:yi": null, "alt_name:za": null, "name:af": null, "name:arz": null, "name:ast": null, "name:az": null, "name:ckb": null, "name:crh": null, "name:cy": null, "name:da": null, "name:dsb": null, "name:et": null, "name:fi": null, "name:fo": null, "name:frp": null, "name:fy": null, "name:ga": null, "name:gag": null, "name:gd": null, "name:gsw": null, "name:gv": null, "name:hi": null, "name:id": null, "name:is": null, "name:jv": null, "name:kk": null, "name:lad": null, "name:lb": null, "name:li": null, "name:lv": null, "name:mg": null, "name:ms": null, "name:nap": null, "name:new": null, "name:no": null, "name:nrm": null, "name:oc": null, "name:os": null, "name:pa": null, "name:pnt": null, "name:ps": null, "name:sah": null, "name:sc": null, "name:scn": null, "name:sco": null, "name:se": null, "name:sw": null, "name:tk": null, "name:tl": null, "name:tt": null, "name:ug": null, "name:vi": null, "name:war": null, "name_with_accent:ru": null, "label": "amenity:parking" }, "geometry": { "type": "Point", "coordinates": [ 24.103099, 40.7288538 ] } },
{ "type": "Feature", "properties": { "element": "node", "id": 5389097045, "amenity": "parking", "name": null, "name:ar": null, "source": null, "wikidata": null, "wikipedia": null, "natural": null, "name:de": null, "name:en": null, "alt_name:cs": null, "name:bg": null, "name:cs": null, "name:es": null, "name:fr": null, "name:hu": null, "name:it": null, "name:nn": null, "name:pl": null, "name:pt": null, "name:ru": null, "name:zh": null, "name:sr": null, "name:sr-Latn": null, "name:cnr": null, "name:cnr-Cyrl": null, "alt_name": null, "name:sl": null, "leisure": null, "name:el": null, "fee": null, "name:cnr-Latn": null, "name:mk": null, "surface": null, "name:hr": null, "waterway": null, "name:tr": null, "name:uk": null, "name:sq": null, "name:ro": null, "alt_name:en": null, "access": null, "alt_name:sl": null, "parking": null, "alt_name:it": null, "bath:open_air": null, "bath:type": null, "nudism": null, "shower": null, "boundary": null, "name:br": null, "name:eu": null, "name:nl": null, "name:sk": null, "name:ku": null, "name:fur": null, "name:bs": null, "name:fa": null, "name:ml": null, "alt_name:sr": null, "alt_name:sr-Latn": null, "alt_name:el": null, "name:be": null, "name:gl": null, "name:he": null, "name:hsb": null, "name:hy": null, "name:ja": null, "name:ka": null, "name:ko": null, "name:la": null, "name:mn": null, "name:mr": null, "name:pnb": null, "name:ta": null, "name:th": null, "name:ur": null, "name:zh-Hans": null, "name:zh-Hant": null, "leaf_type": null, "name:sv": null, "name:szl": null, "name:an": null, "name:ca": null, "name:lmo": null, "name:lt": null, "name:sh": null, "name:vec": null, "building": null, "type": null, "alt_name:af": null, "alt_name:an": null, "alt_name:ast": null, "alt_name:az": null, "alt_name:be": null, "alt_name:bg": null, "alt_name:bn": null, "alt_name:ce": null, "alt_name:cnr": null, "alt_name:crh": null, "alt_name:cv": null, "alt_name:da": null, "alt_name:de": null, "alt_name:dsb": null, "alt_name:eo": null, "alt_name:es": null, "alt_name:et": null, "alt_name:eu": null, "alt_name:fo": null, "alt_name:fur": null, "alt_name:fy": null, "alt_name:ga": null, "alt_name:gag": null, "alt_name:gl": null, "alt_name:gsw": null, "alt_name:gv": null, "alt_name:he": null, "alt_name:hi": null, "alt_name:hr": null, "alt_name:hsb": null, "alt_name:hu": null, "alt_name:hy": null, "alt_name:kk": null, "alt_name:ku": null, "alt_name:lad": null, "alt_name:lb": null, "alt_name:li": null, "alt_name:lt": null, "alt_name:lv": null, "alt_name:mk": null, "alt_name:mn": null, "alt_name:nap": null, "alt_name:nl": null, "alt_name:os": null, "alt_name:pl": null, "alt_name:pnt": null, "alt_name:pt": null, "alt_name:ro": null, "alt_name:ru": null, "alt_name:scn": null, "alt_name:sco": null, "alt_name:sk": null, "alt_name:sq": null, "alt_name:sw": null, "alt_name:szl": null, "alt_name:ta": null, "alt_name:th": null, "alt_name:tk": null, "alt_name:tr": null, "alt_name:tt": null, "alt_name:uk": null, "alt_name:vec": null, "alt_name:yi": null, "alt_name:za": null, "name:af": null, "name:arz": null, "name:ast": null, "name:az": null, "name:ckb": null, "name:crh": null, "name:cy": null, "name:da": null, "name:dsb": null, "name:et": null, "name:fi": null, "name:fo": null, "name:frp": null, "name:fy": null, "name:ga": null, "name:gag": null, "name:gd": null, "name:gsw": null, "name:gv": null, "name:hi": null, "name:id": null, "name:is": null, "name:jv": null, "name:kk": null, "name:lad": null, "name:lb": null, "name:li": null, "name:lv": null, "name:mg": null, "name:ms": null, "name:nap": null, "name:new": null, "name:no": null, "name:nrm": null, "name:oc": null, "name:os": null, "name:pa": null, "name:pnt": null, "name:ps": null, "name:sah": null, "name:sc": null, "name:scn": null, "name:sco": null, "name:se": null, "name:sw": null, "name:tk": null, "name:tl": null, "name:tt": null, "name:ug": null, "name:vi": null, "name:war": null, "name_with_accent:ru": null, "label": "amenity:parking" }, "geometry": { "type": "Point", "coordinates": [ 24.1117527, 40.7322515 ] } },
{ "type": "Feature", "properties": { "element": "node", "id": 5395056573, "amenity": "parking", "name": null, "name:ar": null, "source": null, "wikidata": null, "wikipedia": null, "natural": null, "name:de": null, "name:en": null, "alt_name:cs": null, "name:bg": null, "name:cs": null, "name:es": null, "name:fr": null, "name:hu": null, "name:it": null, "name:nn": null, "name:pl": null, "name:pt": null, "name:ru": null, "name:zh": null, "name:sr": null, "name:sr-Latn": null, "name:cnr": null, "name:cnr-Cyrl": null, "alt_name": null, "name:sl": null, "leisure": null, "name:el": null, "fee": null, "name:cnr-Latn": null, "name:mk": null, "surface": null, "name:hr": null, "waterway": null, "name:tr": null, "name:uk": null, "name:sq": null, "name:ro": null, "alt_name:en": null, "access": null, "alt_name:sl": null, "parking": null, "alt_name:it": null, "bath:open_air": null, "bath:type": null, "nudism": null, "shower": null, "boundary": null, "name:br": null, "name:eu": null, "name:nl": null, "name:sk": null, "name:ku": null, "name:fur": null, "name:bs": null, "name:fa": null, "name:ml": null, "alt_name:sr": null, "alt_name:sr-Latn": null, "alt_name:el": null, "name:be": null, "name:gl": null, "name:he": null, "name:hsb": null, "name:hy": null, "name:ja": null, "name:ka": null, "name:ko": null, "name:la": null, "name:mn": null, "name:mr": null, "name:pnb": null, "name:ta": null, "name:th": null, "name:ur": null, "name:zh-Hans": null, "name:zh-Hant": null, "leaf_type": null, "name:sv": null, "name:szl": null, "name:an": null, "name:ca": null, "name:lmo": null, "name:lt": null, "name:sh": null, "name:vec": null, "building": null, "type": null, "alt_name:af": null, "alt_name:an": null, "alt_name:ast": null, "alt_name:az": null, "alt_name:be": null, "alt_name:bg": null, "alt_name:bn": null, "alt_name:ce": null, "alt_name:cnr": null, "alt_name:crh": null, "alt_name:cv": null, "alt_name:da": null, "alt_name:de": null, "alt_name:dsb": null, "alt_name:eo": null, "alt_name:es": null, "alt_name:et": null, "alt_name:eu": null, "alt_name:fo": null, "alt_name:fur": null, "alt_name:fy": null, "alt_name:ga": null, "alt_name:gag": null, "alt_name:gl": null, "alt_name:gsw": null, "alt_name:gv": null, "alt_name:he": null, "alt_name:hi": null, "alt_name:hr": null, "alt_name:hsb": null, "alt_name:hu": null, "alt_name:hy": null, "alt_name:kk": null, "alt_name:ku": null, "alt_name:lad": null, "alt_name:lb": null, "alt_name:li": null, "alt_name:lt": null, "alt_name:lv": null, "alt_name:mk": null, "alt_name:mn": null, "alt_name:nap": null, "alt_name:nl": null, "alt_name:os": null, "alt_name:pl": null, "alt_name:pnt": null, "alt_name:pt": null, "alt_name:ro": null, "alt_name:ru": null, "alt_name:scn": null, "alt_name:sco": null, "alt_name:sk": null, "alt_name:sq": null, "alt_name:sw": null, "alt_name:szl": null, "alt_name:ta": null, "alt_name:th": null, "alt_name:tk": null, "alt_name:tr": null, "alt_name:tt": null, "alt_name:uk": null, "alt_name:vec": null, "alt_name:yi": null, "alt_name:za": null, "name:af": null, "name:arz": null, "name:ast": null, "name:az": null, "name:ckb": null, "name:crh": null, "name:cy": null, "name:da": null, "name:dsb": null, "name:et": null, "name:fi": null, "name:fo": null, "name:frp": null, "name:fy": null, "name:ga": null, "name:gag": null, "name:gd": null, "name:gsw": null, "name:gv": null, "name:hi": null, "name:id": null, "name:is": null, "name:jv": null, "name:kk": null, "name:lad": null, "name:lb": null, "name:li": null, "name:lv": null, "name:mg": null, "name:ms": null, "name:nap": null, "name:new": null, "name:no": null, "name:nrm": null, "name:oc": null, "name:os": null, "name:pa": null, "name:pnt": null, "name:ps": null, "name:sah": null, "name:sc": null, "name:scn": null, "name:sco": null, "name:se": null, "name:sw": null, "name:tk": null, "name:tl": null, "name:tt": null, "name:ug": null, "name:vi": null, "name:war": null, "name_with_accent:ru": null, "label": "amenity:parking" }, "geometry": { "type": "Point", "coordinates": [ 24.1113463, 40.7324417 ] } },
{ "type": "Feature", "properties": { "element": "node", "id": 12772000002, "amenity": "public_bath", "name": null, "name:ar": null, "source": null, "wikidata": null, "wikipedia": null, "natural": null, "name:de": null, "name:en": null, "alt_name:cs": null, "name:bg": null, "name:cs": null, "name:es": null, "name:fr": null, "name:hu": null, "name:it": null, "name:nn": null, "name:pl": null, "name:pt": null, "name:ru": null, "name:zh": null, "name:sr": null, "name:sr-Latn": null, "name:cnr": null, "name:cnr-Cyrl": null, "alt_name": null, "name:sl": null, "leisure": null, "name:el": null, "fee": "no", "name:cnr-Latn": null, "name:mk": null, "surface": null, "name:hr": null, "waterway": null, "name:tr": null, "name:uk": null, "name:sq": null, "name:ro": null, "alt_name:en": null, "access": null, "alt_name:sl": null, "parking": null, "alt_name:it": null, "bath:open_air": "no", "bath:type": "hot_spring", "nudism": "yes", "shower": "no", "boundary": null, "name:br": null, "name:eu": null, "name:nl": null, "name:sk": null, "name:ku": null, "name:fur": null, "name:bs": null, "name:fa": null, "name:ml": null, "alt_name:sr": null, "alt_name:sr-Latn": null, "alt_name:el": null, "name:be": null, "name:gl": null, "name:he": null, "name:hsb": null, "name:hy": null, "name:ja": null, "name:ka": null, "name:ko": null, "name:la": null, "name:mn": null, "name:mr": null, "name:pnb": null, "name:ta": null, "name:th": null, "name:ur": null, "name:zh-Hans": null, "name:zh-Hant": null, "leaf_type": null, "name:sv": null, "name:szl": null, "name:an": null, "name:ca": null, "name:lmo": null, "name:lt": null, "name:sh": null, "name:vec": null, "building": null, "type": null, "alt_name:af": null, "alt_name:an": null, "alt_name:ast": null, "alt_name:az": null, "alt_name:be": null, "alt_name:bg": null, "alt_name:bn": null, "alt_name:ce": null, "alt_name:cnr": null, "alt_name:crh": null, "alt_name:cv": null, "alt_name:da": null, "alt_name:de": null, "alt_name:dsb": null, "alt_name:eo": null, "alt_name:es": null, "alt_name:et": null, "alt_name:eu": null, "alt_name:fo": null, "alt_name:fur": null, "alt_name:fy": null, "alt_name:ga": null, "alt_name:gag": null, "alt_name:gl": null, "alt_name:gsw": null, "alt_name:gv": null, "alt_name:he": null, "alt_name:hi": null, "alt_name:hr": null, "alt_name:hsb": null, "alt_name:hu": null, "alt_name:hy": null, "alt_name:kk": null, "alt_name:ku": null, "alt_name:lad": null, "alt_name:lb": null, "alt_name:li": null, "alt_name:lt": null, "alt_name:lv": null, "alt_name:mk": null, "alt_name:mn": null, "alt_name:nap": null, "alt_name:nl": null, "alt_name:os": null, "alt_name:pl": null, "alt_name:pnt": null, "alt_name:pt": null, "alt_name:ro": null, "alt_name:ru": null, "alt_name:scn": null, "alt_name:sco": null, "alt_name:sk": null, "alt_name:sq": null, "alt_name:sw": null, "alt_name:szl": null, "alt_name:ta": null, "alt_name:th": null, "alt_name:tk": null, "alt_name:tr": null, "alt_name:tt": null, "alt_name:uk": null, "alt_name:vec": null, "alt_name:yi": null, "alt_name:za": null, "name:af": null, "name:arz": null, "name:ast": null, "name:az": null, "name:ckb": null, "name:crh": null, "name:cy": null, "name:da": null, "name:dsb": null, "name:et": null, "name:fi": null, "name:fo": null, "name:frp": null, "name:fy": null, "name:ga": null, "name:gag": null, "name:gd": null, "name:gsw": null, "name:gv": null, "name:hi": null, "name:id": null, "name:is": null, "name:jv": null, "name:kk": null, "name:lad": null, "name:lb": null, "name:li": null, "name:lv": null, "name:mg": null, "name:ms": null, "name:nap": null, "name:new": null, "name:no": null, "name:nrm": null, "name:oc": null, "name:os": null, "name:pa": null, "name:pnt": null, "name:ps": null, "name:sah": null, "name:sc": null, "name:scn": null, "name:sco": null, "name:se": null, "name:sw": null, "name:tk": null, "name:tl": null, "name:tt": null, "name:ug": null, "name:vi": null, "name:war": null, "name_with_accent:ru": null, "label": "amenity:public_bath" }, "geometry": { "type": "Point", "coordinates": [ 24.0913791, 40.7364323 ] } },
{ "type": "Feature", "properties": { "element": "node", "id": 12772000003, "amenity": "public_bath", "name": null, "name:ar": null, "source": null, "wikidata": null, "wikipedia": null, "natural": null, "name:de": null, "name:en": null, "alt_name:cs": null, "name:bg": null, "name:cs": null, "name:es": null, "name:fr": null, "name:hu": null, "name:it": null, "name:nn": null, "name:pl": null, "name:pt": null, "name:ru": null, "name:zh": null, "name:sr": null, "name:sr-Latn": null, "name:cnr": null, "name:cnr-Cyrl": null, "alt_name": null, "name:sl": null, "leisure": null, "name:el": null, "fee": "no", "name:cnr-Latn": null, "name:mk": null, "surface": null, "name:hr": null, "waterway": null, "name:tr": null, "name:uk": null, "name:sq": null, "name:ro": null, "alt_name:en": null, "access": null, "alt_name:sl": null, "parking": null, "alt_name:it": null, "bath:open_air": "yes", "bath:type": "hot_spring", "nudism": "yes", "shower": "no", "boundary": null, "name:br": null, "name:eu": null, "name:nl": null, "name:sk": null, "name:ku": null, "name:fur": null, "name:bs": null, "name:fa": null, "name:ml": null, "alt_name:sr": null, "alt_name:sr-Latn": null, "alt_name:el": null, "name:be": null, "name:gl": null, "name:he": null, "name:hsb": null, "name:hy": null, "name:ja": null, "name:ka": null, "name:ko": null, "name:la": null, "name:mn": null, "name:mr": null, "name:pnb": null, "name:ta": null, "name:th": null, "name:ur": null, "name:zh-Hans": null, "name:zh-Hant": null, "leaf_type": null, "name:sv": null, "name:szl": null, "name:an": null, "name:ca": null, "name:lmo": null, "name:lt": null, "name:sh": null, "name:vec": null, "building": null, "type": null, "alt_name:af": null, "alt_name:an": null, "alt_name:ast": null, "alt_name:az": null, "alt_name:be": null, "alt_name:bg": null, "alt_name:bn": null, "alt_name:ce": null, "alt_name:cnr": null, "alt_name:crh": null, "alt_name:cv": null, "alt_name:da": null, "alt_name:de": null, "alt_name:dsb": null, "alt_name:eo": null, "alt_name:es": null, "alt_name:et": null, "alt_name:eu": null, "alt_name:fo": null, "alt_name:fur": null, "alt_name:fy": null, "alt_name:ga": null, "alt_name:gag": null, "alt_name:gl": null, "alt_name:gsw": null, "alt_name:gv": null, "alt_name:he": null, "alt_name:hi": null, "alt_name:hr": null, "alt_name:hsb": null, "alt_name:hu": null, "alt_name:hy": null, "alt_name:kk": null, "alt_name:ku": null, "alt_name:lad": null, "alt_name:lb": null, "alt_name:li": null, "alt_name:lt": null, "alt_name:lv": null, "alt_name:mk": null, "alt_name:mn": null, "alt_name:nap": null, "alt_name:nl": null, "alt_name:os": null, "alt_name:pl": null, "alt_name:pnt": null, "alt_name:pt": null, "alt_name:ro": null, "alt_name:ru": null, "alt_name:scn": null, "alt_name:sco": null, "alt_name:sk": null, "alt_name:sq": null, "alt_name:sw": null, "alt_name:szl": null, "alt_name:ta": null, "alt_name:th": null, "alt_name:tk": null, "alt_name:tr": null, "alt_name:tt": null, "alt_name:uk": null, "alt_name:vec": null, "alt_name:yi": null, "alt_name:za": null, "name:af": null, "name:arz": null, "name:ast": null, "name:az": null, "name:ckb": null, "name:crh": null, "name:cy": null, "name:da": null, "name:dsb": null, "name:et": null, "name:fi": null, "name:fo": null, "name:frp": null, "name:fy": null, "name:ga": null, "name:gag": null, "name:gd": null, "name:gsw": null, "name:gv": null, "name:hi": null, "name:id": null, "name:is": null, "name:jv": null, "name:kk": null, "name:lad": null, "name:lb": null, "name:li": null, "name:lv": null, "name:mg": null, "name:ms": null, "name:nap": null, "name:new": null, "name:no": null, "name:nrm": null, "name:oc": null, "name:os": null, "name:pa": null, "name:pnt": null, "name:ps": null, "name:sah": null, "name:sc": null, "name:scn": null, "name:sco": null, "name:se": null, "name:sw": null, "name:tk": null, "name:tl": null, "name:tt": null, "name:ug": null, "name:vi": null, "name:war": null, "name_with_accent:ru": null, "label": "amenity:public_bath" }, "geometry": { "type": "Point", "coordinates": [ 24.0918426, 40.7365882 ] } }
]
}
