{
"type": "FeatureCollection",
"name": "patch_42693_linestring",
"crs": { "type": "name", "properties": { "name": "urn:ogc:def:crs:OGC:1.3:CRS84" } },
"features": [
{ "type": "Feature", "properties": { "osm_id": 434989671, "name": null, "label": "natural:coastline", "natural": "coastline", "waterway": null }, "geometry": { "type": "LineString", "coordinates": [ [ 24.8126011, 35.408764999682063 ], [ 24.8123787, 35.408881299682079 ], [ 24.8123704, 35.409141099682088 ], [ 24.8122846, 35.409436199682133 ], [ 24.8121049, 35.409698499682136 ], [ 24.8119439, 35.409774999682149 ], [ 24.8111661, 35.409895299682155 ], [ 24.8101576, 35.410317199682197 ], [ 24.8090805, 35.410468899682201 ], [ 24.8085218, 35.410686899682226 ], [ 24.8081331, 35.410953099682239 ], [ 24.8075782, 35.411019299682245 ], [ 24.8070172, 35.411062999682251 ], [ 24.8068611, 35.410964199682255 ], [ 24.8068459, 35.410777899682223 ], [ 24.8069148, 35.410697499682215 ], [ 24.8068585, 35.410542299682213 ], [ 24.8065554, 35.410378399682202 ], [ 24.806314, 35.410089799682169 ], [ 24.8058634, 35.409921499682156 ], [ 24.8057668, 35.409814399682155 ], [ 24.8055393, 35.409602999682129 ], [ 24.8053919, 35.409489199682135 ], [ 24.8053854, 35.409217599682094 ], [ 24.8043202, 35.409360799682119 ], [ 24.8037283, 35.409501799682133 ], [ 24.8030015, 35.409786899682146 ], [ 24.8027406, 35.409675899682135 ], [ 24.8025064, 35.409698299682141 ], [ 24.8024018, 35.409782799682155 ], [ 24.8021529, 35.409828699682151 ], [ 24.8017812, 35.409742699682148 ], [ 24.8015185, 35.409701399682142 ], [ 24.8012838, 35.409744799682144 ], [ 24.8009152, 35.409727899682146 ], [ 24.800738468560624, 35.409636752051696 ] ] } },
{ "type": "Feature", "properties": { "osm_id": 505833710, "name": null, "label": "natural:coastline", "natural": "coastline", "waterway": null }, "geometry": { "type": "LineString", "coordinates": [ [ 24.8023378, 35.410138299682181 ], [ 24.8022771, 35.410077399682166 ], [ 24.8023051, 35.409997499682156 ], [ 24.8023425, 35.409928999682165 ], [ 24.8024359, 35.409966999682169 ], [ 24.8025199, 35.410001299682158 ], [ 24.8025573, 35.410084999682176 ], [ 24.8025479, 35.410157399682177 ], [ 24.8024639, 35.410077399682166 ], [ 24.8024125, 35.410128799682184 ], [ 24.8023378, 35.410138299682181 ] ] } },
{ "type": "Feature", "properties": { "osm_id": 487540793, "name": null, "label": "natural:cliff", "natural": "cliff", "waterway": null }, "geometry": { "type": "LineString", "coordinates": [ [ 24.8070228, 35.410781699682239 ], [ 24.8070013, 35.410359799682197 ], [ 24.8065212, 35.409795799682144 ], [ 24.8064139, 35.409618699682134 ], [ 24.8061242, 35.409417599682115 ], [ 24.8056682, 35.409253599682103 ], [ 24.8054045, 35.409154899682093 ], [ 24.8049279, 35.409203299682112 ], [ 24.8045078, 35.409302599682107 ], [ 24.8041793, 35.409318699682103 ], [ 24.8036698, 35.409457499682134 ], [ 24.8028308, 35.409526999682122 ] ] } },
{ "type": "Feature", "properties": { "osm_id": 487540796, "name": null, "label": "natural:cliff", "natural": "cliff", "waterway": null }, "geometry": { "type": "LineString", "coordinates": [ [ 24.8149436, 35.405420799681806 ], [ 24.8144769, 35.405582599681807 ], [ 24.8141551, 35.40575089968182 ], [ 24.8138332, 35.405965099681836 ], [ 24.8135409, 35.406247199681864 ], [ 24.8127684, 35.407088799681929 ], [ 24.8125109, 35.407370799681949 ], [ 24.8122252, 35.407686699681975 ] ] } },
{ "type": "Feature", "properties": { "osm_id": 1389438770, "name": null, "label": "waterway:stream", "natural": null, "waterway": "stream" }, "geometry": { "type": "LineString", "coordinates": [ [ 24.8160904, 35.405704099681827 ], [ 24.8160746, 35.405843399681828 ], [ 24.8160252, 35.406021199681838 ], [ 24.8159824, 35.406200899681856 ], [ 24.8159149, 35.406364099681866 ], [ 24.8158407, 35.406505199681881 ], [ 24.8158182, 35.406618899681888 ], [ 24.8157687, 35.406774699681911 ], [ 24.8156855, 35.406939699681914 ], [ 24.8155978, 35.407110199681924 ], [ 24.8154718, 35.407341199681944 ], [ 24.8153684, 35.407500699681961 ], [ 24.8153009, 35.407647299681976 ], [ 24.8151674, 35.407874899682 ] ] } },
{ "type": "Feature", "properties": { "osm_id": 505833438, "name": null, "label": "natural:coastline", "natural": "coastline", "waterway": null }, "geometry": { "type": "LineString", "coordinates": [ [ 24.815746, 35.408388099682035 ], [ 24.815718, 35.408364299682042 ], [ 24.8156958, 35.408331999682034 ], [ 24.8157028, 35.408311999682027 ], [ 24.8157343, 35.408312899682024 ], [ 24.8157647, 35.408312899682024 ], [ 24.8157869, 35.408320499682034 ], [ 24.8158067, 35.40833859968204 ], [ 24.8158032, 35.408363399682031 ], [ 24.8157799, 35.408386199682042 ], [ 24.815746, 35.408388099682035 ] ] } },
{ "type": "Feature", "properties": { "osm_id": 505833171, "name": null, "label": "natural:coastline", "natural": "coastline", "waterway": null }, "geometry": { "type": "LineString", "coordinates": [ [ 24.8157962, 35.408608899682051 ], [ 24.8157624, 35.408587899682061 ], [ 24.8157343, 35.408558399682043 ], [ 24.8157425, 35.408538399682044 ], [ 24.8157682, 35.408524199682049 ], [ 24.8157939, 35.408529899682044 ], [ 24.8158289, 35.408522299682048 ], [ 24.8158429, 35.408505099682046 ], [ 24.8158394, 35.408481399682046 ], [ 24.8158207, 35.408461399682039 ], [ 24.8157986, 35.408437599682024 ], [ 24.8158149, 35.408419499682033 ], [ 24.8158417, 35.408408099682042 ], [ 24.8158674, 35.408402399682032 ], [ 24.8158814, 35.40841279968204 ], [ 24.8158663, 35.408430899682038 ], [ 24.8158896, 35.408445199682035 ], [ 24.8158931, 35.408466099682045 ], [ 24.8159013, 35.408483299682047 ], [ 24.8159223, 35.408488999682042 ], [ 24.8159316, 35.408519399682056 ], [ 24.8159468, 35.408526099682049 ], [ 24.8159748, 35.408525099682052 ], [ 24.8159807, 35.408506999682054 ], [ 24.8159959, 35.408478499682047 ], [ 24.8160239, 35.408463299682033 ], [ 24.8160426, 35.408467999682024 ], [ 24.8160659, 35.408453799682029 ], [ 24.8160858, 35.408468999682036 ], [ 24.8161173, 35.408474699682046 ], [ 24.8161161, 35.408504199682056 ], [ 24.8161138, 35.408534599682056 ], [ 24.8160916, 35.408553699682045 ], [ 24.8160764, 35.408573699682044 ], [ 24.8160391, 35.40856599968204 ], [ 24.8159947, 35.408562199682045 ], [ 24.8159433, 35.408556499682049 ], [ 24.8159013, 35.408552699682048 ], [ 24.8158791, 35.40856599968204 ], [ 24.8158523, 35.408580299682043 ], [ 24.8158231, 35.408584099682045 ], [ 24.8158184, 35.408601199682053 ], [ 24.8157962, 35.408608899682051 ] ] } },
{ "type": "Feature", "properties": { "osm_id": 487850695, "name": null, "label": "natural:coastline", "natural": "coastline", "waterway": null }, "geometry": { "type": "LineString", "coordinates": [ [ 24.8165681, 35.410369599682205 ], [ 24.816552, 35.410435199682212 ], [ 24.8164661, 35.410533599682211 ], [ 24.8163186, 35.410610099682216 ], [ 24.8160692, 35.410682199682221 ], [ 24.8158734, 35.410808999682232 ], [ 24.8157661, 35.410854899682228 ], [ 24.8156266, 35.410784999682235 ], [ 24.8155649, 35.410607899682219 ], [ 24.8155971, 35.410481099682208 ], [ 24.8155515, 35.410406799682193 ], [ 24.8155917, 35.410347799682192 ], [ 24.8157285, 35.410304099682186 ], [ 24.8158278, 35.410244999682192 ], [ 24.8157875, 35.410131399682179 ], [ 24.8159243, 35.410129199682167 ], [ 24.8161148, 35.410223199682179 ], [ 24.8164179, 35.41028439968219 ], [ 24.8165681, 35.410369599682205 ] ] } },
{ "type": "Feature", "properties": { "osm_id": 487540780, "name": null, "label": "natural:cliff", "natural": "cliff", "waterway": null }, "geometry": { "type": "LineString", "coordinates": [ [ 24.8193287, 35.407823899681986 ], [ 24.819259, 35.407840299681986 ], [ 24.8191946, 35.40791359968199 ], [ 24.8191276, 35.407937599682 ], [ 24.8188392, 35.407903699681995 ], [ 24.8186461, 35.407867599681992 ], [ 24.8185174, 35.407822799681988 ], [ 24.8183524, 35.407720099681974 ], [ 24.8181807, 35.407669799681969 ], [ 24.8181177, 35.407582399681964 ], [ 24.8180372, 35.407515699681959 ], [ 24.8179675, 35.407420599681963 ], [ 24.8178857, 35.407375799681944 ], [ 24.8176363, 35.407366999681948 ], [ 24.8175196, 35.407393299681956 ], [ 24.8174378, 35.40749489968195 ], [ 24.8174217, 35.407558299681966 ], [ 24.8173238, 35.407631499681976 ], [ 24.8171052, 35.407757199681988 ], [ 24.8169429, 35.407824999681992 ], [ 24.8167873, 35.407921199682001 ] ] } },
{ "type": "Feature", "properties": { "osm_id": 1389438772, "name": null, "label": "waterway:stream", "natural": null, "waterway": "stream" }, "geometry": { "type": "LineString", "coordinates": [ [ 24.8161061, 35.405342899681784 ], [ 24.8160904, 35.405704099681827 ] ] } },
{ "type": "Feature", "properties": { "osm_id": 1389438771, "name": null, "label": "waterway:stream", "natural": null, "waterway": "stream" }, "geometry": { "type": "LineString", "coordinates": [ [ 24.8157462, 35.402426099681563 ], [ 24.8158115, 35.402563599681571 ], [ 24.8158834, 35.402721299681581 ], [ 24.8159847, 35.40288629968159 ], [ 24.8160409, 35.403025599681598 ], [ 24.8160656, 35.403181499681608 ], [ 24.8160589, 35.403370299681626 ], [ 24.8160589, 35.403551799681644 ], [ 24.8160634, 35.403713099681653 ], [ 24.8160994, 35.403843299681675 ], [ 24.8161916, 35.404019299681686 ], [ 24.8162591, 35.404171499681674 ], [ 24.8162861, 35.40431629968171 ], [ 24.8162861, 35.404512499681722 ], [ 24.8162568, 35.40465729968173 ], [ 24.8161871, 35.404846099681748 ], [ 24.8161241, 35.405003799681772 ], [ 24.8161039, 35.405159599681774 ], [ 24.8161061, 35.405342899681784 ] ] } },
{ "type": "Feature", "properties": { "osm_id": 434989636, "name": null, "label": "natural:coastline", "natural": "coastline", "waterway": null }, "geometry": { "type": "LineString", "coordinates": [ [ 24.826258, 35.415568299682612 ], [ 24.8261836, 35.415649599682624 ], [ 24.8261122, 35.415638999682628 ], [ 24.8261053, 35.415604999682614 ], [ 24.8261018, 35.415522999682615 ], [ 24.8259839, 35.415531499682622 ], [ 24.8258555, 35.415562599682616 ], [ 24.8256855, 35.41557389968262 ], [ 24.825564, 35.415517399682614 ], [ 24.8255571, 35.415421199682598 ], [ 24.8254911, 35.415274199682592 ], [ 24.8254391, 35.415211899682596 ], [ 24.8253836, 35.415197799682588 ], [ 24.8252968, 35.415214799682587 ], [ 24.8250956, 35.415076199682581 ], [ 24.8248145, 35.414985699682575 ], [ 24.8247326, 35.414920199682562 ], [ 24.8248503, 35.414824199682556 ], [ 24.8248771, 35.414779599682554 ], [ 24.8249361, 35.414589099682537 ], [ 24.8249723, 35.414533099682529 ], [ 24.8250334, 35.414474499682534 ], [ 24.8252843, 35.414323399682516 ], [ 24.8251988, 35.414232399682511 ], [ 24.8252675, 35.414128399682504 ], [ 24.8254098, 35.4140483996825 ], [ 24.8255128, 35.414040399682492 ], [ 24.8257876, 35.414068399682492 ], [ 24.8261017, 35.413980399682487 ], [ 24.8270762, 35.413708399682463 ], [ 24.8272073, 35.413400199682442 ], [ 24.8271975, 35.412978199682406 ], [ 24.8270453, 35.412960299682403 ], [ 24.8269766, 35.412900299682391 ], [ 24.8269668, 35.412852299682385 ], [ 24.8270134, 35.412806299682387 ], [ 24.8270944, 35.412772299682388 ], [ 24.8270748, 35.412648299682381 ], [ 24.8269717, 35.412350399682346 ], [ 24.8267534, 35.412166399682334 ], [ 24.8266552, 35.411956399682325 ], [ 24.8264884, 35.411718499682308 ], [ 24.8264344, 35.411684499682288 ], [ 24.8263019, 35.4116544996823 ], [ 24.8261277, 35.411666499682298 ], [ 24.8259535, 35.411774499682309 ], [ 24.8256493, 35.411924399682327 ], [ 24.8254653, 35.411920399682316 ], [ 24.8252273, 35.411930399682326 ], [ 24.8249672, 35.412038399682331 ], [ 24.8248175, 35.412126399682336 ], [ 24.8247248, 35.412273599682351 ], [ 24.8245501, 35.412316299682352 ], [ 24.8244514, 35.412394299682362 ], [ 24.8244068, 35.412371599682352 ], [ 24.824316, 35.412309299682349 ], [ 24.8241599, 35.412262199682345 ], [ 24.8241532, 35.412212599682334 ], [ 24.8241858, 35.412192799682352 ], [ 24.8243438, 35.412203299682353 ], [ 24.8244604, 35.412172899682339 ], [ 24.8244782, 35.412076399682334 ], [ 24.8244357, 35.412009199682331 ], [ 24.8242717, 35.411906299682329 ], [ 24.8241746, 35.411879099682324 ], [ 24.8240899, 35.41178329968232 ], [ 24.8239892, 35.411771999682308 ], [ 24.823946, 35.411872399682316 ], [ 24.8240088, 35.411911799682322 ], [ 24.8240482, 35.411919799682323 ], [ 24.8240771, 35.41197389968233 ], [ 24.8240476, 35.412033899682328 ], [ 24.8240853, 35.412087699682331 ], [ 24.8241233, 35.412106599682346 ], [ 24.8241368, 35.412151999682337 ], [ 24.8240643, 35.412179399682344 ], [ 24.8240189, 35.412160399682342 ], [ 24.8239893, 35.41209389968234 ], [ 24.8238709, 35.411937999682323 ], [ 24.8235417, 35.411612499682292 ], [ 24.8235073, 35.411428499682287 ], [ 24.8233258, 35.411324499682273 ], [ 24.8232914, 35.41120059968226 ], [ 24.8233454, 35.411092599682256 ], [ 24.8232178, 35.411012599682252 ], [ 24.8230804, 35.410848599682232 ], [ 24.8230264, 35.410572699682206 ], [ 24.8228301, 35.410508699682211 ], [ 24.8227222, 35.410360699682194 ], [ 24.8228301, 35.41028069968219 ], [ 24.8228498, 35.410148699682168 ], [ 24.8228449, 35.410080699682176 ], [ 24.8227909, 35.410024699682168 ], [ 24.8227516, 35.410020699682164 ], [ 24.8226093, 35.410024699682168 ], [ 24.8223542, 35.409824799682156 ], [ 24.8222609, 35.40959279968213 ], [ 24.8220695, 35.409544799682131 ], [ 24.8220843, 35.409392799682117 ], [ 24.8219469, 35.409384799682115 ], [ 24.8216181, 35.409176899682116 ], [ 24.8209753, 35.408888899682069 ], [ 24.8209605, 35.408764899682069 ], [ 24.8208722, 35.40867289968206 ], [ 24.8206514, 35.408688899682069 ], [ 24.8205091, 35.408668899682056 ], [ 24.8204698, 35.408452999682041 ], [ 24.8202785, 35.408392999682029 ], [ 24.8200724, 35.408264999682032 ], [ 24.8197387, 35.407944999681995 ], [ 24.819459, 35.407820999681995 ], [ 24.8193019, 35.407864999681998 ], [ 24.8191989, 35.408044999682005 ], [ 24.8189143, 35.408072999682005 ], [ 24.8184972, 35.408024999682006 ], [ 24.8185953, 35.407904999681989 ], [ 24.8185463, 35.407864999681998 ], [ 24.8181782, 35.407748999681978 ], [ 24.8180654, 35.40760909968197 ], [ 24.8177498, 35.407520399681971 ], [ 24.8174841, 35.407605199681974 ], [ 24.8172715, 35.407723399681991 ], [ 24.8170488, 35.407830499681992 ], [ 24.8168484, 35.407920999682005 ], [ 24.8168582, 35.408096999682009 ], [ 24.8167748, 35.408144999682015 ], [ 24.8165196, 35.408084999682011 ], [ 24.8163626, 35.408080999682007 ], [ 24.8162595, 35.408088999682001 ], [ 24.8162546, 35.408088999682001 ], [ 24.816235, 35.408216999682018 ], [ 24.8160976, 35.408156999682014 ], [ 24.8159259, 35.408256999682024 ], [ 24.8157786, 35.408188999682025 ], [ 24.8155434, 35.407992699682005 ], [ 24.8151674, 35.407874899682 ], [ 24.8150569, 35.407766399681989 ], [ 24.8148316, 35.407748999681978 ], [ 24.814439, 35.407844999681998 ], [ 24.8140991, 35.408203099682027 ], [ 24.8138305, 35.408284999682024 ], [ 24.8137732, 35.40831469968203 ], [ 24.8136525, 35.408262199682035 ], [ 24.8135627, 35.408130099682012 ], [ 24.8133199, 35.408100499682014 ], [ 24.8131429, 35.408131099682009 ], [ 24.8128639, 35.408227299682032 ], [ 24.8127513, 35.408432799682039 ], [ 24.8126035, 35.408530299682049 ], [ 24.8126011, 35.408764999682063 ] ] } },
{ "type": "Feature", "properties": { "osm_id": 505832389, "name": null, "label": "natural:coastline", "natural": "coastline", "waterway": null }, "geometry": { "type": "LineString", "coordinates": [ [ 24.8267223, 35.415413999682613 ], [ 24.8267135, 35.415383699682607 ], [ 24.826756, 35.415356299682607 ], [ 24.8267878, 35.415359199682598 ], [ 24.8268179, 35.415324599682592 ], [ 24.8268462, 35.415294299682593 ], [ 24.8268798, 35.415287099682601 ], [ 24.8269311, 35.415291399682602 ], [ 24.8269559, 35.415304399682597 ], [ 24.8269648, 35.415328899682592 ], [ 24.8269506, 35.415356299682607 ], [ 24.8269276, 35.415357799682603 ], [ 24.8268745, 35.415373599682617 ], [ 24.8268267, 35.415382299682605 ], [ 24.8267984, 35.415398099682598 ], [ 24.8267648, 35.415421199682598 ], [ 24.8267418, 35.415428399682618 ], [ 24.8267223, 35.415413999682613 ] ] } },
{ "type": "Feature", "properties": { "osm_id": 505832437, "name": null, "label": "natural:coastline", "natural": "coastline", "waterway": null }, "geometry": { "type": "LineString", "coordinates": [ [ 24.827101, 35.415405299682604 ], [ 24.827055, 35.415403899682609 ], [ 24.827032, 35.415379399682607 ], [ 24.8270639, 35.415356299682607 ], [ 24.8271028, 35.415347699682592 ], [ 24.8271329, 35.415354899682605 ], [ 24.8271435, 35.415377899682611 ], [ 24.827101, 35.415405299682604 ] ] } },
{ "type": "Feature", "properties": { "osm_id": 505832787, "name": null, "label": "natural:coastline", "natural": "coastline", "waterway": null }, "geometry": { "type": "LineString", "coordinates": [ [ 24.8268207, 35.412845799682408 ], [ 24.8267952, 35.412851299682394 ], [ 24.8267751, 35.412844699682395 ], [ 24.8267831, 35.412824999682393 ], [ 24.8268086, 35.412816299682397 ], [ 24.8268368, 35.412816299682397 ], [ 24.8268381, 35.412829399682394 ], [ 24.8268207, 35.412845799682408 ] ] } },
{ "type": "Feature", "properties": { "osm_id": 434989660, "name": null, "label": "natural:coastline", "natural": "coastline", "waterway": null }, "geometry": { "type": "MultiLineString", "coordinates": [ [ [ 24.828290588033834, 35.409832498052189 ], [ 24.8281785, 35.409950599682169 ], [ 24.8280467, 35.410106099682174 ], [ 24.8280085, 35.410190999682186 ], [ 24.8279981, 35.41033239968219 ], [ 24.8280606, 35.410442699682207 ], [ 24.8282375, 35.410595399682222 ], [ 24.828290588033834, 35.410635001775304 ] ], [ [ 24.828290588033834, 35.413249882160279 ], [ 24.8282427, 35.41330029968244 ], [ 24.828290588033834, 35.413360983405887 ] ], [ [ 24.828290588033834, 35.413427123877788 ], [ 24.8282809, 35.413458699682444 ], [ 24.8281976, 35.413529399682446 ], [ 24.828156, 35.41358589968246 ], [ 24.8282289, 35.413619899682452 ], [ 24.828290588033834, 35.41365548893549 ] ], [ [ 24.828290588033834, 35.413708540671564 ], [ 24.8282462, 35.413792399682471 ], [ 24.8281153, 35.413815299682483 ], [ 24.8279443, 35.413713199682469 ], [ 24.827927, 35.413631199682456 ], [ 24.8278263, 35.413574599682455 ], [ 24.8276563, 35.413551999682454 ], [ 24.8275453, 35.413475599682442 ], [ 24.8274794, 35.41345579968246 ], [ 24.8274098, 35.413512299682445 ], [ 24.8273579, 35.413687699682463 ], [ 24.8274516, 35.413738599682475 ], [ 24.8275071, 35.413829099682488 ], [ 24.8275175, 35.413894199682481 ], [ 24.8275384, 35.414055399682496 ], [ 24.8275071, 35.414205199682513 ], [ 24.827403, 35.414323999682516 ], [ 24.8274655, 35.414372099682517 ], [ 24.8276123, 35.414431699682524 ], [ 24.827698, 35.414513499682528 ], [ 24.8276529, 35.414601099682542 ], [ 24.8275939, 35.414640699682536 ], [ 24.8274794, 35.414663299682545 ], [ 24.8274828, 35.414742499682554 ], [ 24.8274655, 35.414943299682577 ], [ 24.8273787, 35.415090399682576 ], [ 24.8272989, 35.415194999682583 ], [ 24.8271463, 35.415240199682593 ], [ 24.8270665, 35.415217599682592 ], [ 24.8269173, 35.415152599682578 ], [ 24.8267646, 35.415189299682581 ], [ 24.8266084, 35.41525149968259 ], [ 24.8264731, 35.415339199682599 ], [ 24.8263517, 35.415339199682599 ], [ 24.8262823, 35.415449499682616 ], [ 24.826258, 35.415568299682612 ] ] ] } },
{ "type": "Feature", "properties": { "osm_id": 505832458, "name": null, "label": "natural:coastline", "natural": "coastline", "waterway": null }, "geometry": { "type": "LineString", "coordinates": [ [ 24.8276779, 35.415338999682596 ], [ 24.8276496, 35.415317399682593 ], [ 24.8276372, 35.415288499682603 ], [ 24.8276744, 35.415281299682597 ], [ 24.827708, 35.415282799682593 ], [ 24.827731, 35.415295699682602 ], [ 24.8277416, 35.415318799682588 ], [ 24.8277222, 35.41534329968259 ], [ 24.8276779, 35.415338999682596 ] ] } },
{ "type": "Feature", "properties": { "osm_id": 487540795, "name": null, "label": "natural:cliff", "natural": "cliff", "waterway": null }, "geometry": { "type": "LineString", "coordinates": [ [ 24.8094119, 35.409118099682097 ], [ 24.8090445, 35.409209899682111 ], [ 24.8087736, 35.409257999682097 ], [ 24.8085724, 35.409271099682108 ], [ 24.8083417, 35.4092776996821 ], [ 24.8078992, 35.409233999682094 ], [ 24.8073386, 35.409133399682091 ], [ 24.8063596, 35.408949799682077 ], [ 24.8059331, 35.408908199682074 ], [ 24.8055147, 35.40888199968208 ], [ 24.8048361, 35.40888199968208 ], [ 24.8039644, 35.408930099682081 ], [ 24.8027091, 35.408997899682078 ], [ 24.8019715, 35.408984699682094 ], [ 24.8014189, 35.408927899682084 ], [ 24.8007564, 35.40880329968207 ], [ 24.800738468560624, 35.408798734723952 ] ] } }
]
}
