{
"type": "FeatureCollection",
"name": "patch_42693_polygon",
"crs": { "type": "name", "properties": { "name": "urn:ogc:def:crs:OGC:1.3:CRS84" } },
"features": [
{ "type": "Feature", "properties": { "osm_id": 136906964, "name": null, "label": "natural:wood", "natural": "wood", "building": null, "amenity": null }, "geometry": { "type": "Polygon", "coordinates": [ [ [ 24.808162, 35.398393999681232 ], [ 24.807915, 35.398737999681252 ], [ 24.80793, 35.399191999681285 ], [ 24.807843, 35.399559999681316 ], [ 24.809669, 35.399495999681321 ], [ 24.810704, 35.399428999681319 ], [ 24.811301, 35.399969999681353 ], [ 24.811451, 35.400210999681384 ], [ 24.811824, 35.400570999681406 ], [ 24.812683, 35.401443999681462 ], [ 24.814327, 35.401216999681459 ], [ 24.814385, 35.400463999681406 ], [ 24.814182, 35.399820999681353 ], [ 24.81385, 35.399446999681317 ], [ 24.8135854, 35.399053799681283 ], [ 24.813645, 35.398588999681238 ], [ 24.813663629066927, 35.398385343490027 ], [ 24.80816014509908, 35.398385343490027 ], [ 24.808162, 35.398393999681232 ] ] ] } },
{ "type": "Feature", "properties": { "osm_id": 487540800, "name": null, "label": "building:yes", "natural": null, "building": "yes", "amenity": null }, "geometry": { "type": "Polygon", "coordinates": [ [ [ 24.8162081, 35.400746599681419 ], [ 24.8162659, 35.400737899681417 ], [ 24.8163119, 35.400940099681435 ], [ 24.8163662, 35.400931799681437 ], [ 24.8163742, 35.400966899681428 ], [ 24.8164518, 35.400955099681433 ], [ 24.8164365, 35.400887899681436 ], [ 24.8165689, 35.40086789968143 ], [ 24.8165099, 35.400608599681398 ], [ 24.8161878, 35.400657299681399 ], [ 24.8162081, 35.400746599681419 ] ] ] } },
{ "type": "Feature", "properties": { "osm_id": 136907106, "name": null, "label": "natural:wood", "natural": "wood", "building": null, "amenity": null }, "geometry": { "type": "Polygon", "coordinates": [ [ [ 24.821557, 35.398498999681237 ], [ 24.820853, 35.398977999681271 ], [ 24.819635, 35.399619999681335 ], [ 24.818731, 35.399520999681314 ], [ 24.81785, 35.399204999681295 ], [ 24.817258, 35.398993999681274 ], [ 24.816015, 35.399431999681298 ], [ 24.8153, 35.400081999681362 ], [ 24.815306, 35.400672999681397 ], [ 24.815379, 35.401370999681468 ], [ 24.815644, 35.401690999681492 ], [ 24.815649, 35.402120999681522 ], [ 24.815125, 35.402231999681533 ], [ 24.813651, 35.40204299968152 ], [ 24.81262, 35.402533999681566 ], [ 24.812111, 35.403384999681641 ], [ 24.811442, 35.404622999681727 ], [ 24.811839, 35.404910999681753 ], [ 24.812293, 35.405171999681777 ], [ 24.812809, 35.405220999681774 ], [ 24.813579, 35.40479399968175 ], [ 24.813897, 35.40436999968172 ], [ 24.814473, 35.403942999681682 ], [ 24.815455, 35.403817999681657 ], [ 24.816166, 35.404076999681692 ], [ 24.817037, 35.404070999681686 ], [ 24.817032, 35.403648999681657 ], [ 24.817472, 35.402537999681556 ], [ 24.817981, 35.401847999681507 ], [ 24.818365, 35.401581999681483 ], [ 24.819132, 35.400942999681433 ], [ 24.819837, 35.40051599968141 ], [ 24.820286, 35.400248999681388 ], [ 24.820926, 35.399874999681352 ], [ 24.822016, 35.399286999681301 ], [ 24.822849, 35.398805999681251 ], [ 24.823426, 35.398432999681233 ], [ 24.823432759759172, 35.398385343490027 ], [ 24.82178741589787, 35.398385343490027 ], [ 24.821557, 35.398498999681237 ] ] ] } },
{ "type": "Feature", "properties": { "osm_id": 487540801, "name": null, "label": "building:yes", "natural": null, "building": "yes", "amenity": null }, "geometry": { "type": "Polygon", "coordinates": [ [ [ 24.8162901, 35.403719499681657 ], [ 24.8165047, 35.403701499681652 ], [ 24.8164526, 35.403288799681619 ], [ 24.8162851, 35.403302799681626 ], [ 24.816327, 35.403635499681648 ], [ 24.81628, 35.403639399681651 ], [ 24.8162901, 35.403719499681657 ] ] ] } },
{ "type": "Feature", "properties": { "osm_id": 487540799, "name": null, "label": "building:yes", "natural": null, "building": "yes", "amenity": null }, "geometry": { "type": "Polygon", "coordinates": [ [ [ 24.8121602, 35.399297299681294 ], [ 24.8121578, 35.399363299681305 ], [ 24.8122339, 35.399365199681299 ], [ 24.8122356, 35.399317499681302 ], [ 24.8122935, 35.399318899681305 ], [ 24.8123109, 35.398845499681258 ], [ 24.8122038, 35.398842899681263 ], [ 24.8122017, 35.398900299681273 ], [ 24.812152, 35.398899099681266 ], [ 24.8121373, 35.399296699681301 ], [ 24.8121602, 35.399297299681294 ] ] ] } },
{ "type": "Feature", "properties": { "osm_id": 1150294228, "name": null, "label": "natural:scree", "natural": "scree", "building": null, "amenity": null }, "geometry": { "type": "Polygon", "coordinates": [ [ [ 24.8029158, 35.407205299681941 ], [ 24.8029158, 35.40736539968195 ], [ 24.8029565, 35.407531099681961 ], [ 24.803031, 35.407630499681979 ], [ 24.803031, 35.407426199681957 ], [ 24.803031, 35.407310199681945 ], [ 24.8030378, 35.407161099681936 ], [ 24.8031191, 35.407061699681933 ], [ 24.8032139, 35.407056199681939 ], [ 24.8032207, 35.40687939968192 ], [ 24.8032207, 35.406752399681906 ], [ 24.803302, 35.406570199681887 ], [ 24.8033156, 35.406376899681867 ], [ 24.8033223, 35.406200199681855 ], [ 24.8032817, 35.406028999681837 ], [ 24.8031936, 35.405863299681826 ], [ 24.8031801, 35.405675499681813 ], [ 24.8031868, 35.405537499681806 ], [ 24.8031055, 35.405371799681781 ], [ 24.8030649, 35.405211599681778 ], [ 24.8029903, 35.4054104996818 ], [ 24.8029565, 35.405559599681801 ], [ 24.8029361, 35.405758399681829 ], [ 24.8029497, 35.405885399681843 ], [ 24.8029903, 35.406001399681848 ], [ 24.8029361, 35.406166999681858 ], [ 24.8029429, 35.406354799681878 ], [ 24.8029632, 35.40650389968188 ], [ 24.8029294, 35.406597799681897 ], [ 24.8029497, 35.406730299681904 ], [ 24.80297, 35.406835299681909 ], [ 24.8028887, 35.406929099681918 ], [ 24.8028819, 35.407067199681933 ], [ 24.8029158, 35.407205299681941 ] ] ] } },
{ "type": "Feature", "properties": { "osm_id": 1327094208, "name": null, "label": "natural:scrub", "natural": "scrub", "building": null, "amenity": null }, "geometry": { "type": "Polygon", "coordinates": [ [ [ 24.8098084, 35.409233099682105 ], [ 24.8102118, 35.409102199682088 ], [ 24.8105233, 35.40898719968208 ], [ 24.8106775, 35.408917699682085 ], [ 24.8110021, 35.408768099682078 ], [ 24.8112546, 35.408653099682063 ], [ 24.8114448, 35.408559599682043 ], [ 24.811658, 35.408439299682037 ], [ 24.8118253, 35.408348399682033 ], [ 24.8119761, 35.408254899682021 ], [ 24.8120974, 35.408137299682018 ], [ 24.8121958, 35.408083799682011 ], [ 24.8122581, 35.408043699682004 ], [ 24.8122712, 35.407998299682006 ], [ 24.8122483, 35.407966199682008 ], [ 24.8119728, 35.408171999682018 ], [ 24.8117957, 35.408289599682021 ], [ 24.8113333, 35.408548899682046 ], [ 24.8105004, 35.408923099682077 ], [ 24.809792, 35.409198399682104 ], [ 24.8098084, 35.409233099682105 ] ] ] } },
{ "type": "Feature", "properties": { "osm_id": 1327094207, "name": null, "label": "natural:scrub", "natural": "scrub", "building": null, "amenity": null }, "geometry": { "type": "Polygon", "coordinates": [ [ [ 24.8124024, 35.407877999681986 ], [ 24.8124778, 35.407843299681986 ], [ 24.8126025, 35.407730999681988 ], [ 24.8127238, 35.407661499681986 ], [ 24.8128779, 35.407583999681961 ], [ 24.8130321, 35.40748239968196 ], [ 24.8131436, 35.407348799681962 ], [ 24.8132026, 35.407175099681943 ], [ 24.8133075, 35.406998599681927 ], [ 24.813419, 35.406862299681904 ], [ 24.8135436, 35.406758099681902 ], [ 24.8136945, 35.406661899681907 ], [ 24.8138224, 35.406597699681889 ], [ 24.8138519, 35.406415999681876 ], [ 24.8139011, 35.406311699681872 ], [ 24.814006, 35.406178099681853 ], [ 24.8141208, 35.406084499681846 ], [ 24.814229, 35.40599099968184 ], [ 24.8143274, 35.405894699681838 ], [ 24.814452, 35.405830599681842 ], [ 24.8145504, 35.405830599681842 ], [ 24.8146258, 35.405790499681828 ], [ 24.8146619, 35.405691599681816 ], [ 24.8144815, 35.405755699681826 ], [ 24.8142553, 35.405865299681835 ], [ 24.8140323, 35.406020399681836 ], [ 24.8137142, 35.406308999681862 ], [ 24.8129665, 35.407140299681934 ], [ 24.8123204, 35.407875299681997 ], [ 24.8124024, 35.407877999681986 ] ] ] } },
{ "type": "Feature", "properties": { "osm_id": 468293722, "name": "Παναγία Χαρακιανή", "label": "amenity:place_of_worship", "natural": null, "building": null, "amenity": "place_of_worship" }, "geometry": { "type": "Polygon", "coordinates": [ [ [ 24.8170284, 35.406414399681871 ], [ 24.8173851, 35.406390399681875 ], [ 24.8172416, 35.406171699681856 ], [ 24.8169976, 35.406200199681855 ], [ 24.8170284, 35.406414399681871 ] ] ] } },
{ "type": "Feature", "properties": { "osm_id": 487540798, "name": null, "label": "building:yes", "natural": null, "building": "yes", "amenity": null }, "geometry": { "type": "Polygon", "coordinates": [ [ [ 24.8159983, 35.404544899681731 ], [ 24.816, 35.404523599681717 ], [ 24.8160665, 35.404527099681715 ], [ 24.8161023, 35.404075099681684 ], [ 24.8159797, 35.404068599681693 ], [ 24.8159421, 35.404541899681711 ], [ 24.8159983, 35.404544899681731 ] ] ] } },
{ "type": "Feature", "properties": { "osm_id": 487540764, "name": null, "label": "amenity:parking", "natural": null, "building": null, "amenity": "parking" }, "geometry": { "type": "Polygon", "coordinates": [ [ [ 24.8274192, 35.408026899682007 ], [ 24.8277716, 35.407901499681998 ], [ 24.8282384, 35.407645799681966 ], [ 24.8282088, 35.407604199681984 ], [ 24.8276192, 35.407841199681975 ], [ 24.8273676, 35.407937999682005 ], [ 24.8274192, 35.408026899682007 ] ] ] } },
{ "type": "Feature", "properties": { "osm_id": 487540794, "name": null, "label": "amenity:parking", "natural": null, "building": null, "amenity": "parking" }, "geometry": { "type": "Polygon", "coordinates": [ [ [ 24.8069631, 35.409572799682131 ], [ 24.8074083, 35.40964929968213 ], [ 24.807993, 35.409592499682141 ], [ 24.8079957, 35.40950499968212 ], [ 24.8077758, 35.409474399682118 ], [ 24.8073895, 35.409417599682115 ], [ 24.8067458, 35.4092776996821 ], [ 24.8067217, 35.409410999682109 ], [ 24.8069631, 35.409572799682131 ] ] ] } },
{ "type": "Feature", "properties": { "osm_id": 712372803, "name": null, "label": "natural:bare_rock", "natural": "bare_rock", "building": null, "amenity": null }, "geometry": { "type": "Polygon", "coordinates": [ [ [ 24.8245949, 35.414918699682566 ], [ 24.8246448, 35.414915999682563 ], [ 24.8247247, 35.414891599682562 ], [ 24.8247346, 35.414864499682565 ], [ 24.8246897, 35.414860399682567 ], [ 24.8246448, 35.414868599682556 ], [ 24.8245916, 35.414871299682559 ], [ 24.8245716, 35.414898399682563 ], [ 24.8245949, 35.414918699682566 ] ] ] } },
{ "type": "Feature", "properties": { "osm_id": 487540784, "name": null, "label": "building:yes", "natural": null, "building": "yes", "amenity": null }, "geometry": { "type": "Polygon", "coordinates": [ [ [ 24.8248911, 35.410813399682233 ], [ 24.824957, 35.410783599682233 ], [ 24.8249135, 35.410719699682218 ], [ 24.8248476, 35.410749399682231 ], [ 24.8248911, 35.410813399682233 ] ] ] } },
{ "type": "Feature", "properties": { "osm_id": 487540768, "name": null, "label": "building:yes", "natural": null, "building": "yes", "amenity": null }, "geometry": { "type": "Polygon", "coordinates": [ [ [ 24.8278528, 35.410076199682166 ], [ 24.8279137, 35.410064499682171 ], [ 24.8279047, 35.410033499682172 ], [ 24.8278439, 35.410045199682166 ], [ 24.8278528, 35.410076199682166 ] ] ] } },
{ "type": "Feature", "properties": { "osm_id": 487540783, "name": null, "label": "building:yes", "natural": null, "building": "yes", "amenity": null }, "geometry": { "type": "Polygon", "coordinates": [ [ [ 24.8278313, 35.410261999682191 ], [ 24.827836, 35.410180499682184 ], [ 24.8277742, 35.410178199682186 ], [ 24.8277736, 35.410188199682175 ], [ 24.8277628, 35.41018769968219 ], [ 24.8277587, 35.41025919968218 ], [ 24.8278313, 35.410261999682191 ] ] ] } },
{ "type": "Feature", "properties": { "osm_id": 487540767, "name": null, "label": "building:yes", "natural": null, "building": "yes", "amenity": null }, "geometry": { "type": "Polygon", "coordinates": [ [ [ 24.8278085, 35.410106799682175 ], [ 24.8278476, 35.410100799682176 ], [ 24.8278368, 35.410054299682173 ], [ 24.8277978, 35.410060299682165 ], [ 24.8278085, 35.410106799682175 ] ] ] } },
{ "type": "Feature", "properties": { "osm_id": 487540765, "name": null, "label": "building:yes", "natural": null, "building": "yes", "amenity": null }, "geometry": { "type": "Polygon", "coordinates": [ [ [ 24.8278286, 35.410596399682213 ], [ 24.827883, 35.410579999682213 ], [ 24.8278719, 35.410555799682207 ], [ 24.8278176, 35.410572199682207 ], [ 24.8278286, 35.410596399682213 ] ] ] } },
{ "type": "Feature", "properties": { "osm_id": 487540766, "name": null, "label": "building:yes", "natural": null, "building": "yes", "amenity": null }, "geometry": { "type": "Polygon", "coordinates": [ [ [ 24.8277978, 35.410563599682213 ], [ 24.8278541, 35.410549999682218 ], [ 24.8278376, 35.410504799682201 ], [ 24.8277813, 35.410518499682212 ], [ 24.8277978, 35.410563599682213 ] ] ] } },
{ "type": "Feature", "properties": { "osm_id": 487540782, "name": null, "label": "building:yes", "natural": null, "building": "yes", "amenity": null }, "geometry": { "type": "Polygon", "coordinates": [ [ [ 24.8277468, 35.410310199682193 ], [ 24.8277737, 35.41030989968219 ], [ 24.8277739, 35.410323099682188 ], [ 24.8278034, 35.410322799682191 ], [ 24.8278032, 35.410309599682186 ], [ 24.8278226, 35.410309399682198 ], [ 24.8278218, 35.410265199682186 ], [ 24.8277461, 35.410266099682183 ], [ 24.8277468, 35.410310199682193 ] ] ] } },
{ "type": "Feature", "properties": { "osm_id": 487540769, "name": null, "label": "building:yes", "natural": null, "building": "yes", "amenity": null }, "geometry": { "type": "Polygon", "coordinates": [ [ [ 24.8281103, 35.409842199682153 ], [ 24.8281533, 35.409807799682156 ], [ 24.8281164, 35.409777199682154 ], [ 24.8280734, 35.409811599682143 ], [ 24.8281103, 35.409842199682153 ] ] ] } }
]
}
