{
"type": "FeatureCollection",
"name": "patch_31838_linestring",
"crs": { "type": "name", "properties": { "name": "urn:ogc:def:crs:OGC:1.3:CRS84" } },
"features": [
{ "type": "Feature", "properties": { "element": "way", "id": 31974420, "waterway": "stream", "boat": "no", "natural": null, "water": null, "historic": null, "historic:civilization": null, "name": null, "name:el": null, "name:en": null, "wikidata": null, "landuse": null, "wetland": null, "amenity": null, "layer": null, "tunnel": null, "type": null, "wikipedia": null, "label": "waterway:stream" }, "geometry": { "type": "LineString", "coordinates": [ [ 22.7866863, 39.5342211 ], [ 22.7866946, 39.5335212 ], [ 22.7867379, 39.5328929 ], [ 22.7868268, 39.5324268 ], [ 22.7869708, 39.5320206 ], [ 22.7871195, 39.5316704 ], [ 22.7872731, 39.5313435 ], [ 22.7876555, 39.5309717 ], [ 22.788255848823653, 39.530268229272359 ] ] } },
{ "type": "Feature", "properties": { "element": "way", "id": 544652944, "waterway": "stream", "boat": null, "natural": null, "water": null, "historic": null, "historic:civilization": null, "name": null, "name:el": null, "name:en": null, "wikidata": null, "landuse": null, "wetland": null, "amenity": null, "layer": null, "tunnel": null, "type": null, "wikipedia": null, "label": "waterway:stream" }, "geometry": { "type": "LineString", "coordinates": [ [ 22.790394296551518, 39.530268229272359 ], [ 22.7900421, 39.5305699 ], [ 22.7886271, 39.5320897 ], [ 22.7883053, 39.5332109 ], [ 22.7881713, 39.5341562 ], [ 22.7881663, 39.5345135 ], [ 22.7880216, 39.5347872 ], [ 22.787746, 39.5350321 ], [ 22.7873538, 39.5352338 ], [ 22.7863731, 39.5356984 ], [ 22.7859995, 39.5359433 ], [ 22.7857053, 39.5362603 ], [ 22.785341, 39.5367969 ], [ 22.7851402, 39.5372795 ], [ 22.7850421, 39.5377009 ], [ 22.7848647, 39.5389542 ], [ 22.7847386, 39.5400959 ], [ 22.7846031, 39.5407513 ], [ 22.784379, 39.5411439 ], [ 22.783968, 39.5416156 ], [ 22.783515, 39.5419794 ], [ 22.7824643, 39.5426492 ], [ 22.7817218, 39.5430598 ], [ 22.7813576, 39.5432266 ], [ 22.7811006, 39.5433443 ], [ 22.7804842, 39.5435639 ], [ 22.7797837, 39.5437152 ], [ 22.779116137430989, 39.543745634581782 ] ] } },
{ "type": "Feature", "properties": { "element": "way", "id": 1341009438, "waterway": "stream", "boat": null, "natural": null, "water": null, "historic": null, "historic:civilization": null, "name": null, "name:el": null, "name:en": null, "wikidata": null, "landuse": null, "wetland": null, "amenity": null, "layer": null, "tunnel": null, "type": null, "wikipedia": null, "label": "waterway:stream" }, "geometry": { "type": "LineString", "coordinates": [ [ 22.798290452012935, 39.552863998473811 ], [ 22.7982364, 39.5528033 ], [ 22.7979453, 39.5524873 ], [ 22.797877, 39.5523519 ], [ 22.7978348, 39.5521989 ], [ 22.7977697, 39.552056 ], [ 22.797638, 39.551898 ], [ 22.7974705, 39.5517814 ], [ 22.7972802, 39.5516811 ], [ 22.7971111, 39.5515645 ], [ 22.7970005, 39.5514541 ], [ 22.7969095, 39.5512823 ], [ 22.7968298, 39.5511394 ], [ 22.7967517, 39.5510341 ], [ 22.7965891, 39.5509074 ], [ 22.7965175, 39.5508021 ], [ 22.7964948, 39.5507056 ], [ 22.7964606, 39.5506027 ], [ 22.796472, 39.5505363 ], [ 22.7964948, 39.5504748 ], [ 22.7965143, 39.5504021 ], [ 22.7964915, 39.5503457 ], [ 22.7960297, 39.5501413 ], [ 22.7958638, 39.5500184 ], [ 22.7956053, 39.5498065 ], [ 22.7955142, 39.5497049 ], [ 22.7954231, 39.5495783 ], [ 22.7953678, 39.5494755 ], [ 22.7952654, 39.5493915 ], [ 22.7950182, 39.549246 ], [ 22.794758, 39.5491532 ], [ 22.7945743, 39.5490604 ], [ 22.7944328, 39.5489413 ], [ 22.794358, 39.5488084 ], [ 22.7942702, 39.548683 ], [ 22.794114, 39.548525 ], [ 22.7938343, 39.5483808 ], [ 22.7936538, 39.5483118 ], [ 22.7932814, 39.5482767 ], [ 22.7931318, 39.5483081 ], [ 22.7927318, 39.5484736 ], [ 22.7926293, 39.5484861 ], [ 22.7925464, 39.5484535 ], [ 22.7923252, 39.5483645 ], [ 22.7920813, 39.5481889 ], [ 22.7918927, 39.5480623 ], [ 22.7917675, 39.5479958 ], [ 22.7916162, 39.5479946 ], [ 22.7913349, 39.5480473 ], [ 22.7911723, 39.548041 ], [ 22.7910048, 39.5479896 ], [ 22.790917, 39.5478893 ], [ 22.790808, 39.5477889 ], [ 22.7905803, 39.54774 ], [ 22.7903771, 39.547656 ], [ 22.7901136, 39.5475231 ], [ 22.789964, 39.547419 ], [ 22.789751, 39.5473726 ], [ 22.7895705, 39.5473363 ], [ 22.7894355, 39.5472673 ], [ 22.7892339, 39.5471181 ], [ 22.7891216, 39.5470566 ], [ 22.7889184, 39.5470027 ], [ 22.7886631, 39.5469977 ], [ 22.7883785, 39.5469839 ], [ 22.7881443, 39.5469551 ], [ 22.7880012, 39.5468761 ], [ 22.787889, 39.5467594 ], [ 22.7877589, 39.5466679 ], [ 22.7876597, 39.5466315 ], [ 22.7874418, 39.5466403 ], [ 22.7872076, 39.5466265 ], [ 22.7869523, 39.54654 ], [ 22.7868238, 39.5464723 ], [ 22.7864856, 39.546382 ], [ 22.786214, 39.5463218 ], [ 22.7859896, 39.5462817 ], [ 22.7857766, 39.5462165 ], [ 22.785557, 39.54613 ], [ 22.78537, 39.5459318 ], [ 22.7852058, 39.545735 ], [ 22.7850611, 39.545671 ], [ 22.7848545, 39.5456409 ], [ 22.7846756, 39.5455895 ], [ 22.7845423, 39.5454967 ], [ 22.7845098, 39.5454189 ], [ 22.7843602, 39.5451895 ], [ 22.7843033, 39.5450841 ], [ 22.7839601, 39.5449462 ], [ 22.7837975, 39.5448835 ], [ 22.783682, 39.5447869 ], [ 22.7835666, 39.5446352 ], [ 22.7835064, 39.5445136 ], [ 22.783243, 39.5443869 ], [ 22.7828543, 39.5441512 ], [ 22.7825632, 39.5439831 ], [ 22.7825474, 39.5439744 ] ] } },
{ "type": "Feature", "properties": { "element": "way", "id": 1341009439, "waterway": "stream", "boat": null, "natural": null, "water": null, "historic": null, "historic:civilization": null, "name": null, "name:el": null, "name:en": null, "wikidata": null, "landuse": null, "wetland": null, "amenity": null, "layer": null, "tunnel": null, "type": null, "wikipedia": null, "label": "waterway:stream" }, "geometry": { "type": "LineString", "coordinates": [ [ 22.7824467, 39.5439192 ], [ 22.7823323, 39.5438565 ], [ 22.7820705, 39.5436922 ] ] } },
{ "type": "Feature", "properties": { "element": "way", "id": 1341009440, "waterway": "stream", "boat": null, "natural": null, "water": null, "historic": null, "historic:civilization": null, "name": null, "name:el": null, "name:en": null, "wikidata": null, "landuse": null, "wetland": null, "amenity": null, "layer": "-1", "tunnel": "culvert", "type": null, "wikipedia": null, "label": "waterway:stream" }, "geometry": { "type": "LineString", "coordinates": [ [ 22.7825474, 39.5439744 ], [ 22.7824467, 39.5439192 ] ] } },
{ "type": "Feature", "properties": { "element": "way", "id": 1341009441, "waterway": "stream", "boat": null, "natural": null, "water": null, "historic": null, "historic:civilization": null, "name": null, "name:el": null, "name:en": null, "wikidata": null, "landuse": null, "wetland": null, "amenity": null, "layer": "-1", "tunnel": "culvert", "type": null, "wikipedia": null, "label": "waterway:stream" }, "geometry": { "type": "LineString", "coordinates": [ [ 22.7820705, 39.5436922 ], [ 22.7816369, 39.543424 ] ] } },
{ "type": "Feature", "properties": { "element": "way", "id": 1341009442, "waterway": "stream", "boat": null, "natural": null, "water": null, "historic": null, "historic:civilization": null, "name": null, "name:el": null, "name:en": null, "wikidata": null, "landuse": null, "wetland": null, "amenity": null, "layer": null, "tunnel": null, "type": null, "wikipedia": null, "label": "waterway:stream" }, "geometry": { "type": "LineString", "coordinates": [ [ 22.7816369, 39.543424 ], [ 22.7815136, 39.5433289 ], [ 22.7813576, 39.5432266 ] ] } }
]
}
