{
"type": "FeatureCollection",
"name": "patch_99417_polygon",
"crs": { "type": "name", "properties": { "name": "urn:ogc:def:crs:OGC:1.3:CRS84" } },
"features": [
{ "type": "Feature", "properties": { "osm_id": 535355533, "name": null, "label": "natural:heath", "natural": "heath" }, "geometry": { "type": "Polygon", "coordinates": [ [ [ 20.2059543, 39.450103100190688 ], [ 20.2061847, 39.450089300190697 ], [ 20.2060892, 39.450165900190697 ], [ 20.206256, 39.450194500190698 ], [ 20.2065256, 39.450102300190679 ], [ 20.2075518, 39.44963940019062 ], [ 20.2076054, 39.449515300190612 ], [ 20.2106135, 39.448704700190476 ], [ 20.2117731, 39.448227700190415 ], [ 20.2122108, 39.44767190019035 ], [ 20.2123824, 39.447165500190266 ], [ 20.2123614, 39.446656200190198 ], [ 20.2123607, 39.446638000190198 ], [ 20.212358, 39.446572800190175 ], [ 20.2127038, 39.446020200190105 ], [ 20.2125648, 39.445945000190086 ], [ 20.2125088, 39.44582530019008 ], [ 20.2123012, 39.445972700190111 ], [ 20.2122915, 39.446085400190121 ], [ 20.2119927, 39.446155400190122 ], [ 20.2119031, 39.446272200190144 ], [ 20.2116247, 39.446321500190152 ], [ 20.2081287, 39.44813120019041 ], [ 20.2080027, 39.44862120019048 ], [ 20.2076607, 39.448902100190523 ], [ 20.20708, 39.449238600190561 ], [ 20.2065535, 39.449482600190599 ], [ 20.2059331, 39.449982400190663 ], [ 20.2059543, 39.450103100190688 ] ] ] } },
{ "type": "Feature", "properties": { "osm_id": -11963403, "name": "Όρμος Πλαταριάς", "label": "natural:bay", "natural": "bay" }, "geometry": { "type": "Polygon", "coordinates": [ [ [ 20.2181471, 39.444983500189963 ], [ 20.2170645, 39.445301600189993 ], [ 20.2164878, 39.445541300190044 ], [ 20.2151585, 39.445989900190099 ], [ 20.216110589483595, 39.466561149168534 ], [ 20.218385955975158, 39.466561149168534 ], [ 20.218385955975158, 39.444792810923545 ], [ 20.2181471, 39.444983500189963 ] ] ] } }
]
}
