{
"type": "FeatureCollection",
"name": "patch_40767_linestring",
"crs": { "type": "name", "properties": { "name": "urn:ogc:def:crs:OGC:1.3:CRS84" } },
"features": [
{ "type": "Feature", "properties": { "osm_id": 1441688758, "name": "Κερασλίκ", "label": "waterway:stream", "waterway": "stream" }, "geometry": { "type": "LineString", "coordinates": [ [ 24.1245411, 41.494386200443365 ], [ 24.1236969, 41.494426400443373 ], [ 24.1228553, 41.494376800443355 ], [ 24.121897, 41.494043200443336 ], [ 24.1205283, 41.493754100443304 ], [ 24.1189873, 41.493572800443282 ], [ 24.1182425, 41.493187700443251 ], [ 24.1170059, 41.493094700443244 ], [ 24.1159071, 41.493365000443255 ], [ 24.1156621, 41.493489400443288 ], [ 24.1151005, 41.493354100443263 ], [ 24.1146417, 41.493230500443261 ], [ 24.1141138, 41.493381300443282 ], [ 24.1135729, 41.49342450044329 ], [ 24.1132996, 41.49338660044328 ], [ 24.1128713, 41.493465000443287 ], [ 24.1112236, 41.493900900443315 ], [ 24.109935706264544, 41.494175691648657 ] ] } }
]
}
