{
"type": "FeatureCollection",
"name": "patch_79678_point",
"crs": { "type": "name", "properties": { "name": "urn:ogc:def:crs:OGC:1.3:CRS84" } },
"features": [
{ "type": "Feature", "properties": { "element": "node", "id": 1293746595, "amenity": "fuel", "brand": "Shell", "brand:wikidata": "Q110716465", "name": "SHELL", "operator": "ΕΡΜΗΣ ΑΕΜΕΕ ΥΠ/ΜΑ ΑΡΜΕΝΟΙ ΡΕΘΥΜΝΟΥ", "historic": null, "shop": null, "landuse": null, "source": null, "intermittent": null, "name:en": null, "waterway": null, "leaf_type": null, "natural": null, "board_type": null, "boundary": null, "information": null, "leisure": null, "tourism": null, "sport": null, "building": null, "layer": null, "label": "amenity:fuel" }, "geometry": { "type": "Point", "coordinates": [ 24.4700662, 35.2871046 ] } },
{ "type": "Feature", "properties": { "element": "node", "id": 2967935880, "amenity": null, "brand": null, "brand:wikidata": null, "name": null, "operator": null, "historic": "wayside_shrine", "shop": null, "landuse": null, "source": null, "intermittent": null, "name:en": null, "waterway": null, "leaf_type": null, "natural": null, "board_type": null, "boundary": null, "information": null, "leisure": null, "tourism": null, "sport": null, "building": null, "layer": null, "label": "historic:wayside_shrine" }, "geometry": { "type": "Point", "coordinates": [ 24.4640828, 35.2995966 ] } },
{ "type": "Feature", "properties": { "element": "node", "id": 2967935881, "amenity": null, "brand": null, "brand:wikidata": null, "name": null, "operator": null, "historic": "wayside_shrine", "shop": null, "landuse": null, "source": null, "intermittent": null, "name:en": null, "waterway": null, "leaf_type": null, "natural": null, "board_type": null, "boundary": null, "information": null, "leisure": null, "tourism": null, "sport": null, "building": null, "layer": null, "label": "historic:wayside_shrine" }, "geometry": { "type": "Point", "coordinates": [ 24.4698908, 35.2863277 ] } },
{ "type": "Feature", "properties": { "element": "node", "id": 6871564986, "amenity": null, "brand": null, "brand:wikidata": null, "name": "Brink’s Brewery", "operator": null, "historic": null, "shop": "beverages", "landuse": null, "source": null, "intermittent": null, "name:en": null, "waterway": null, "leaf_type": null, "natural": null, "board_type": null, "boundary": null, "information": null, "leisure": null, "tourism": null, "sport": null, "building": null, "layer": null, "label": "shop:beverages" }, "geometry": { "type": "Point", "coordinates": [ 24.4690281, 35.2902491 ] } }
]
}
