{
"type": "FeatureCollection",
"name": "patch_22738_multipolygon",
"crs": { "type": "name", "properties": { "name": "urn:ogc:def:crs:OGC:1.3:CRS84" } },
"features": [
{ "type": "Feature", "properties": { "element": "way", "id": 136823572, "military": null, "name": null, "leaf_type": "broadleaved", "natural": "wood", "source": "http://geodata.gov.gr/", "boundary": null, "leisure": null, "opening_hours": null, "protect_class": null, "protection_title": null, "landuse": null, "water": null, "intermittent": null, "waterway": null, "building": null, "label": "natural:wood" }, "geometry": { "type": "MultiPolygon", "coordinates": [ [ [ [ 25.83635, 41.224613 ], [ 25.836776, 41.224552 ], [ 25.836997991874771, 41.224516214424561 ], [ 25.836174519610889, 41.224516214424561 ], [ 25.83635, 41.224613 ] ] ], [ [ [ 25.837474, 41.224519 ], [ 25.837489724182856, 41.224516214424561 ], [ 25.837438430344385, 41.224516214424561 ], [ 25.837474, 41.224519 ] ] ], [ [ [ 25.841381, 41.224662 ], [ 25.841647, 41.224873 ], [ 25.84191, 41.225151 ], [ 25.842174, 41.225407 ], [ 25.842468, 41.22569 ], [ 25.84291, 41.226042 ], [ 25.843413, 41.226393 ], [ 25.843979, 41.226698 ], [ 25.844309, 41.226773 ], [ 25.84467, 41.226871 ], [ 25.845394, 41.226976 ], [ 25.84633, 41.227088 ], [ 25.847236, 41.227195 ], [ 25.848052, 41.227281 ], [ 25.848689, 41.227271 ], [ 25.849056, 41.227208 ], [ 25.849573, 41.22715 ], [ 25.85009, 41.227093 ], [ 25.850816, 41.227149 ], [ 25.851513, 41.227188 ], [ 25.85215, 41.227151 ], [ 25.852849, 41.227123 ], [ 25.853672, 41.226998 ], [ 25.854491, 41.226972 ], [ 25.855369, 41.227031 ], [ 25.856097, 41.227046 ], [ 25.856642, 41.227056 ], [ 25.857066, 41.227063 ], [ 25.857521, 41.227051 ], [ 25.857945, 41.227081 ], [ 25.858518, 41.227184 ], [ 25.859091, 41.227265 ], [ 25.859573, 41.227343 ], [ 25.859993, 41.227457 ], [ 25.860024, 41.227466 ], [ 25.860385, 41.227541 ], [ 25.860777, 41.227616 ], [ 25.861167, 41.227713 ], [ 25.86155, 41.228065 ], [ 25.861693, 41.228319 ], [ 25.861918, 41.228826 ], [ 25.862115, 41.229262 ], [ 25.862255, 41.229583 ], [ 25.862488, 41.229862 ], [ 25.862785, 41.23005 ], [ 25.863207, 41.230102 ], [ 25.863547, 41.229926 ], [ 25.863886, 41.229773 ], [ 25.864165, 41.229598 ], [ 25.864474, 41.229419 ], [ 25.864754, 41.229244 ], [ 25.865187, 41.228978 ], [ 25.865388534531437, 41.228818451829277 ], [ 25.865388534531437, 41.224516214424561 ], [ 25.841092079495947, 41.224516214424561 ], [ 25.841381, 41.224662 ] ] ] ] } },
{ "type": "Feature", "properties": { "element": "way", "id": 140502726, "military": null, "name": "Πόας - Διχάλας Δήμου Σώστη", "leaf_type": null, "natural": null, "source": "http://geodata.gov.gr/", "boundary": "protected_area", "leisure": "nature_reserve", "opening_hours": "24/7", "protect_class": "4", "protection_title": "Wildlife Refugee", "landuse": null, "water": null, "intermittent": null, "waterway": null, "building": null, "label": "leisure:nature_reserve" }, "geometry": { "type": "MultiPolygon", "coordinates": [ [ [ [ 25.8649776, 41.2312516 ], [ 25.8644675, 41.2320049 ], [ 25.8624316, 41.2324964 ], [ 25.8614678, 41.2333144 ], [ 25.8601777, 41.2333353 ], [ 25.8582046, 41.2333671 ], [ 25.8573847, 41.23659 ], [ 25.8608893, 41.2377743 ], [ 25.8620509, 41.2396385 ], [ 25.863644, 41.2396127 ], [ 25.865388534531437, 41.240282251944087 ], [ 25.865388534531437, 41.231041271037327 ], [ 25.8649776, 41.2312516 ] ] ], [ [ [ 25.8650388, 41.2423624 ], [ 25.8653548, 41.2428772 ], [ 25.865388534531437, 41.242932152098696 ], [ 25.865388534531437, 41.24165906278251 ], [ 25.8650388, 41.2423624 ] ] ], [ [ [ 25.8630543, 41.2456898 ], [ 25.8622305, 41.2459647 ], [ 25.8622429, 41.2464023 ], [ 25.8622721, 41.2474286 ], [ 25.862694726720857, 41.247876692868346 ], [ 25.865388534531437, 41.247876692868346 ], [ 25.865388534531437, 41.243350416146434 ], [ 25.8630543, 41.2456898 ] ] ] ] } }
]
}
