{
"type": "FeatureCollection",
"name": "patch_22738_polygon",
"crs": { "type": "name", "properties": { "name": "urn:ogc:def:crs:OGC:1.3:CRS84" } },
"features": [
{ "type": "Feature", "properties": { "element": "way", "id": 136823575, "military": null, "name": null, "leaf_type": "broadleaved", "natural": "wood", "source": "http://geodata.gov.gr/", "boundary": null, "leisure": null, "opening_hours": null, "protect_class": null, "protection_title": null, "landuse": null, "water": null, "intermittent": null, "waterway": null, "building": null, "label": "natural:wood" }, "geometry": { "type": "Polygon", "coordinates": [ [ [ 25.858507, 41.247542 ], [ 25.858639, 41.247226 ], [ 25.85871, 41.246929 ], [ 25.858691, 41.246611 ], [ 25.858641, 41.246289 ], [ 25.858535, 41.245829 ], [ 25.858361, 41.245621 ], [ 25.857971, 41.245502 ], [ 25.857833, 41.245109 ], [ 25.857597, 41.244902 ], [ 25.8573, 41.244714 ], [ 25.856675, 41.244379 ], [ 25.856109, 41.244096 ], [ 25.855723, 41.243837 ], [ 25.855247, 41.243576 ], [ 25.85474, 41.243337 ], [ 25.854199, 41.243193 ], [ 25.85369, 41.242999 ], [ 25.853179, 41.242877 ], [ 25.852847, 41.242801 ], [ 25.852212, 41.242766 ], [ 25.851847, 41.24278 ], [ 25.851451, 41.242818 ], [ 25.851088, 41.242814 ], [ 25.850418, 41.24287 ], [ 25.850085, 41.242884 ], [ 25.849717, 41.24297 ], [ 25.848856, 41.243319 ], [ 25.848552, 41.243333 ], [ 25.848036, 41.243323 ], [ 25.847555, 41.243222 ], [ 25.847165, 41.243103 ], [ 25.846746, 41.242934 ], [ 25.846358, 41.242743 ], [ 25.846002, 41.242511 ], [ 25.845621, 41.242136 ], [ 25.845297, 41.241881 ], [ 25.844794, 41.24153 ], [ 25.844319, 41.241223 ], [ 25.843935, 41.24092 ], [ 25.843491, 41.240613 ], [ 25.843225, 41.240424 ], [ 25.842781, 41.240122 ], [ 25.842336, 41.239837 ], [ 25.842039, 41.239627 ], [ 25.841687, 41.239278 ], [ 25.841422, 41.239067 ], [ 25.841007, 41.238786 ], [ 25.840412, 41.238455 ], [ 25.839934, 41.238238 ], [ 25.839735, 41.238136 ], [ 25.838429, 41.236815 ], [ 25.837458, 41.235972 ], [ 25.835734, 41.235285 ], [ 25.835273, 41.235398 ], [ 25.835250012843446, 41.235421705505196 ], [ 25.835250012843446, 41.247876692868346 ], [ 25.858214852835257, 41.247876692868346 ], [ 25.858507, 41.247542 ] ] ] } },
{ "type": "Feature", "properties": { "element": "way", "id": 211154313, "military": null, "name": null, "leaf_type": null, "natural": null, "source": null, "boundary": null, "leisure": null, "opening_hours": null, "protect_class": null, "protection_title": null, "landuse": "residential", "water": null, "intermittent": null, "waterway": null, "building": null, "label": "landuse:residential" }, "geometry": { "type": "Polygon", "coordinates": [ [ [ 25.853573, 41.2338707 ], [ 25.8538286, 41.2333651 ], [ 25.854624, 41.2329236 ], [ 25.8553057, 41.2326459 ], [ 25.855391, 41.2319196 ], [ 25.8551164, 41.2315493 ], [ 25.8543589, 41.2316917 ], [ 25.8540085, 41.2325391 ], [ 25.8535446, 41.2330803 ], [ 25.8530333, 41.2334078 ], [ 25.8525882, 41.2333651 ], [ 25.8527965, 41.2328168 ], [ 25.8523894, 41.2323112 ], [ 25.8528912, 41.2318341 ], [ 25.8532416, 41.2312217 ], [ 25.8527965, 41.2310223 ], [ 25.8522947, 41.2308016 ], [ 25.8525875, 41.2303995 ], [ 25.8516792, 41.2301749 ], [ 25.851353, 41.2305803 ], [ 25.8502305, 41.2299684 ], [ 25.849047, 41.2304598 ], [ 25.8487142, 41.2307396 ], [ 25.848564, 41.2311007 ], [ 25.8489996, 41.2313428 ], [ 25.8503631, 41.2315279 ], [ 25.8513573, 41.2311434 ], [ 25.8522848, 41.2318553 ], [ 25.8516508, 41.2326459 ], [ 25.8518402, 41.233536 ], [ 25.8516035, 41.2344759 ], [ 25.8520296, 41.2349672 ], [ 25.8516698, 41.2355369 ], [ 25.8525569, 41.2357609 ], [ 25.8529007, 41.2356081 ], [ 25.8530522, 41.23501 ], [ 25.8534025, 41.2348889 ], [ 25.854018, 41.2350598 ], [ 25.8546903, 41.235074 ], [ 25.854942, 41.235328 ], [ 25.8550785, 41.2354657 ], [ 25.8554856, 41.2358146 ], [ 25.855907, 41.2355964 ], [ 25.8566408, 41.2352165 ], [ 25.8569722, 41.234775 ], [ 25.8565461, 41.2341056 ], [ 25.8570385, 41.2334861 ], [ 25.8564325, 41.2330375 ], [ 25.8557318, 41.2331159 ], [ 25.855391, 41.2337069 ], [ 25.8552395, 41.2342053 ], [ 25.8549365, 41.2338778 ], [ 25.8545198, 41.2337425 ], [ 25.854179, 41.2340344 ], [ 25.853573, 41.2338707 ] ] ] } },
{ "type": "Feature", "properties": { "element": "way", "id": 424088962, "military": null, "name": null, "leaf_type": "broadleaved", "natural": "wood", "source": "http://geodata.gov.gr/", "boundary": null, "leisure": null, "opening_hours": null, "protect_class": null, "protection_title": null, "landuse": null, "water": null, "intermittent": null, "waterway": null, "building": null, "label": "natural:wood" }, "geometry": { "type": "Polygon", "coordinates": [ [ [ 25.865193, 41.231443 ], [ 25.864752, 41.231889 ], [ 25.864502, 41.232139 ], [ 25.864278, 41.232452 ], [ 25.863966, 41.232721 ], [ 25.863287, 41.23305 ], [ 25.863158, 41.233276 ], [ 25.862963, 41.23366 ], [ 25.862793, 41.23416 ], [ 25.862722, 41.234475 ], [ 25.862622, 41.234727 ], [ 25.862491, 41.23502 ], [ 25.86233, 41.235269 ], [ 25.86217, 41.235492 ], [ 25.86201, 41.235763 ], [ 25.861787, 41.236058 ], [ 25.861597, 41.236303 ], [ 25.861438, 41.236529 ], [ 25.861248, 41.236729 ], [ 25.860994, 41.237069 ], [ 25.860674, 41.237563 ], [ 25.860662, 41.237573 ], [ 25.860267, 41.237901 ], [ 25.859864, 41.238167 ], [ 25.859374, 41.238313 ], [ 25.858541, 41.238689 ], [ 25.858264, 41.238819 ], [ 25.857959, 41.238882 ], [ 25.857345, 41.239075 ], [ 25.85701, 41.239116 ], [ 25.856675, 41.239152 ], [ 25.856278, 41.239239 ], [ 25.855319, 41.239456 ], [ 25.855438, 41.239839 ], [ 25.855486, 41.240201 ], [ 25.855622, 41.240639 ], [ 25.85588, 41.241078 ], [ 25.855988, 41.241467 ], [ 25.856159, 41.241791 ], [ 25.856482, 41.242096 ], [ 25.857018, 41.242356 ], [ 25.857626, 41.242343 ], [ 25.858052, 41.242309 ], [ 25.858878, 41.242095 ], [ 25.859552, 41.241901 ], [ 25.860133, 41.241753 ], [ 25.86066, 41.241444 ], [ 25.861002, 41.241202 ], [ 25.861474, 41.240706 ], [ 25.861819, 41.240369 ], [ 25.862038, 41.240168 ], [ 25.862384, 41.239831 ], [ 25.862822, 41.239453 ], [ 25.863318, 41.239122 ], [ 25.863754, 41.238811 ], [ 25.864034, 41.238609 ], [ 25.864376, 41.238366 ], [ 25.864685, 41.238187 ], [ 25.865245, 41.237811 ], [ 25.865388534531437, 41.237699781722718 ], [ 25.865388534531437, 41.23123918010706 ], [ 25.865193, 41.231443 ] ] ] } },
{ "type": "Feature", "properties": { "element": "way", "id": 561795913, "military": null, "name": null, "leaf_type": null, "natural": "water", "source": null, "boundary": null, "leisure": null, "opening_hours": null, "protect_class": null, "protection_title": null, "landuse": null, "water": "pond", "intermittent": null, "waterway": null, "building": null, "label": "water:pond;natural:water" }, "geometry": { "type": "Polygon", "coordinates": [ [ [ 25.8423519, 41.2341266 ], [ 25.842308, 41.2341836 ], [ 25.8422961, 41.2342497 ], [ 25.842312, 41.2343097 ], [ 25.8423639, 41.2343967 ], [ 25.8423759, 41.2344627 ], [ 25.8424038, 41.2345378 ], [ 25.8424038, 41.2345768 ], [ 25.8424238, 41.2346068 ], [ 25.8424956, 41.2345978 ], [ 25.8425714, 41.2345708 ], [ 25.8426553, 41.2345618 ], [ 25.8427351, 41.2346218 ], [ 25.842775, 41.2346578 ], [ 25.8428349, 41.2346818 ], [ 25.8429785, 41.2346938 ], [ 25.8430903, 41.2347149 ], [ 25.8431541, 41.2346968 ], [ 25.84323, 41.2346548 ], [ 25.8432539, 41.2346068 ], [ 25.843222, 41.2345438 ], [ 25.8431741, 41.2344507 ], [ 25.8430504, 41.2343097 ], [ 25.8429227, 41.2341566 ], [ 25.842775, 41.2340005 ], [ 25.8427111, 41.2339345 ], [ 25.8426433, 41.2338895 ], [ 25.8426074, 41.2338895 ], [ 25.8425874, 41.2339345 ], [ 25.8425395, 41.2339945 ], [ 25.8424677, 41.2340396 ], [ 25.8423519, 41.2341266 ] ] ] } },
{ "type": "Feature", "properties": { "element": "way", "id": 806503019, "military": null, "name": null, "leaf_type": null, "natural": "water", "source": null, "boundary": null, "leisure": null, "opening_hours": null, "protect_class": null, "protection_title": null, "landuse": null, "water": null, "intermittent": null, "waterway": null, "building": null, "label": "natural:water" }, "geometry": { "type": "Polygon", "coordinates": [ [ [ 25.8452257, 41.2387623 ], [ 25.8452945, 41.2387778 ], [ 25.8453564, 41.2388037 ], [ 25.8453839, 41.2388502 ], [ 25.8454733, 41.238814 ], [ 25.8455009, 41.2387261 ], [ 25.8455146, 41.2386382 ], [ 25.8456315, 41.2385606 ], [ 25.8455421, 41.2384468 ], [ 25.8455009, 41.2384054 ], [ 25.8454046, 41.2384106 ], [ 25.8453702, 41.2385037 ], [ 25.8453151, 41.2385865 ], [ 25.8452051, 41.2386589 ], [ 25.8450813, 41.2387365 ], [ 25.8452257, 41.2387623 ] ] ] } },
{ "type": "Feature", "properties": { "element": "way", "id": 1360178560, "military": null, "name": "Ε.Φ. ΛΟΦΟΥ (Λαμψάκι)", "leaf_type": null, "natural": null, "source": null, "boundary": null, "leisure": null, "opening_hours": null, "protect_class": null, "protection_title": null, "landuse": null, "water": null, "intermittent": null, "waterway": null, "building": "yes", "label": "building:yes" }, "geometry": { "type": "Polygon", "coordinates": [ [ [ 25.8586126, 41.2425446 ], [ 25.8586757, 41.2424838 ], [ 25.8584192, 41.2423334 ], [ 25.8583561, 41.2423941 ], [ 25.8586126, 41.2425446 ] ] ] } }
]
}
