{
"type": "FeatureCollection",
"name": "patch_88893_linestring",
"crs": { "type": "name", "properties": { "name": "urn:ogc:def:crs:OGC:1.3:CRS84" } },
"features": [
{ "type": "Feature", "properties": { "osm_id": 809391407, "name": null, "label": "waterway:stream", "waterway": "stream" }, "geometry": { "type": "LineString", "coordinates": [ [ 23.2388246, 38.189090700008776 ], [ 23.23845263741914, 38.189255168272091 ] ] } },
{ "type": "Feature", "properties": { "osm_id": 809391396, "name": null, "label": "waterway:stream", "waterway": "stream" }, "geometry": { "type": "LineString", "coordinates": [ [ 23.2446545, 38.170986800006204 ], [ 23.2447808, 38.170583500006146 ], [ 23.2450898, 38.169969900006059 ], [ 23.2453175, 38.169215600005948 ], [ 23.2451386, 38.168665800005876 ], [ 23.2449272, 38.16829500000582 ], [ 23.244496360597914, 38.167206215455153 ] ] } },
{ "type": "Feature", "properties": { "osm_id": 809391395, "name": null, "label": "waterway:stream", "waterway": "stream" }, "geometry": { "type": "LineString", "coordinates": [ [ 23.2474011, 38.173820800006602 ], [ 23.2466286, 38.172926700006471 ], [ 23.2461565, 38.172235100006368 ], [ 23.2454913, 38.171779600006317 ], [ 23.2446545, 38.170986800006204 ], [ 23.244118, 38.170767500006164 ], [ 23.2436245, 38.170042100006079 ], [ 23.2425945, 38.168928700005907 ], [ 23.2418221, 38.16810210000579 ], [ 23.2403844, 38.167933300005771 ], [ 23.2395261, 38.16729230000567 ], [ 23.239241413257162, 38.167206215455153 ] ] } },
{ "type": "Feature", "properties": { "osm_id": 809391393, "name": null, "label": "waterway:stream", "waterway": "stream" }, "geometry": { "type": "LineString", "coordinates": [ [ 23.2610822, 38.183056200007925 ], [ 23.2610448, 38.182131100007787 ], [ 23.2609701, 38.181661300007725 ], [ 23.2606338, 38.181441000007688 ], [ 23.260335, 38.181029900007637 ], [ 23.2601668, 38.180648100007581 ], [ 23.2601108, 38.18009010000749 ], [ 23.2598119, 38.179576200007432 ], [ 23.2595878, 38.179223800007378 ], [ 23.2594196, 38.178842000007329 ], [ 23.2590087, 38.178621700007291 ], [ 23.2579066, 38.17812250000722 ], [ 23.2574769, 38.177564500007129 ], [ 23.2571407, 38.177329500007097 ], [ 23.2571033, 38.177021100007074 ], [ 23.2570099, 38.176301600006958 ], [ 23.2571033, 38.175714200006873 ], [ 23.2574396, 38.175523300006851 ], [ 23.2574956, 38.175288400006821 ], [ 23.2573275, 38.17495060000676 ], [ 23.2571594, 38.174539400006715 ], [ 23.2574209, 38.173937300006621 ], [ 23.2574582, 38.173364600006529 ], [ 23.2577758, 38.172527600006418 ], [ 23.2582428, 38.171808000006315 ], [ 23.258934, 38.171176500006233 ], [ 23.2591394, 38.170780000006161 ], [ 23.2592461, 38.170480400006134 ], [ 23.2585487, 38.169645400006011 ], [ 23.25842, 38.169139300005931 ], [ 23.258302, 38.168793500005897 ], [ 23.2580016, 38.16854040000586 ], [ 23.2578192, 38.168194600005812 ], [ 23.2578943, 38.167654700005727 ], [ 23.2577548, 38.167359500005688 ], [ 23.25772694179949, 38.167206215455153 ] ] } },
{ "type": "Feature", "properties": { "osm_id": 809391392, "name": null, "label": "waterway:stream", "waterway": "stream" }, "geometry": { "type": "LineString", "coordinates": [ [ 23.2647607, 38.173187900006511 ], [ 23.2645891, 38.173137300006502 ], [ 23.2639883, 38.173044600006492 ], [ 23.2631621, 38.173044600006492 ], [ 23.2623897, 38.173137300006502 ], [ 23.2621, 38.173053000006504 ], [ 23.2619176, 38.17269870000645 ], [ 23.261585, 38.172530000006411 ], [ 23.2607911, 38.172142100006361 ], [ 23.2605979, 38.171644400006294 ], [ 23.2602224, 38.171357600006246 ] ] } },
{ "type": "Feature", "properties": { "osm_id": 809391411, "name": null, "label": "waterway:stream", "waterway": "stream" }, "geometry": { "type": "LineString", "coordinates": [ [ 23.2675656, 38.18936990000882 ], [ 23.268245713076343, 38.189699903936464 ] ] } },
{ "type": "Feature", "properties": { "osm_id": 809391409, "name": null, "label": "waterway:stream", "waterway": "stream" }, "geometry": { "type": "LineString", "coordinates": [ [ 23.2617233, 38.184858500008183 ], [ 23.2622463, 38.185651300008296 ], [ 23.2633858, 38.18615050000836 ], [ 23.2637407, 38.186649700008431 ], [ 23.2638341, 38.187574700008568 ], [ 23.2640956, 38.188206100008657 ], [ 23.2642077, 38.18899890000877 ], [ 23.263879102097917, 38.189699903936464 ] ] } },
{ "type": "Feature", "properties": { "osm_id": 809391394, "name": null, "label": "waterway:stream", "waterway": "stream" }, "geometry": { "type": "LineString", "coordinates": [ [ 23.2666061, 38.182170100007795 ], [ 23.2667348, 38.181874900007742 ], [ 23.2666812, 38.181444800007689 ], [ 23.266295, 38.181082100007636 ], [ 23.2662199, 38.180727900007589 ], [ 23.2661877, 38.180247200007521 ], [ 23.266252, 38.179648400007444 ], [ 23.2660804, 38.179361700007391 ], [ 23.2658122, 38.17915080000737 ], [ 23.2654796, 38.17886410000731 ], [ 23.2651041, 38.178358100007252 ], [ 23.265029, 38.17763270000713 ], [ 23.2649217, 38.177447200007123 ], [ 23.2646427, 38.177421900007118 ], [ 23.2641063, 38.177472500007127 ], [ 23.2638273, 38.177371300007117 ], [ 23.263248, 38.177067700007065 ], [ 23.262733, 38.176780900007024 ], [ 23.2625828, 38.176578500006997 ], [ 23.2621858, 38.176544800006994 ], [ 23.2618961, 38.176401400006974 ], [ 23.2616923, 38.176173700006942 ], [ 23.2612417, 38.175895300006886 ], [ 23.2610378, 38.175380900006822 ], [ 23.2606838, 38.175111000006787 ], [ 23.2605336, 38.17457120000671 ], [ 23.2605979, 38.17292650000649 ], [ 23.2605014, 38.172454100006412 ], [ 23.2603726, 38.171872200006334 ], [ 23.2602224, 38.171357600006246 ], [ 23.259922, 38.171011800006198 ], [ 23.2595143, 38.170784100006159 ], [ 23.2592461, 38.170480400006134 ] ] } }
]
}
