{
"type": "FeatureCollection",
"name": "patch_45131_point",
"crs": { "type": "name", "properties": { "name": "urn:ogc:def:crs:OGC:1.3:CRS84" } },
"features": [
{ "type": "Feature", "properties": { "element": "node", "id": 429698748, "ele": "1480", "natural": "peak", "boat": null, "waterway": null, "leaf_type": null, "source": null, "boundary": null, "information": null, "leisure": null, "name": null, "tourism": null, "type": null, "label": "natural:peak" }, "geometry": { "type": "Point", "coordinates": [ 21.2555111, 40.6024327 ] } }
]
}
