{
"type": "FeatureCollection",
"name": "patch_82948_polygon",
"crs": { "type": "name", "properties": { "name": "urn:ogc:def:crs:OGC:1.3:CRS84" } },
"features": [
{ "type": "Feature", "properties": { "element": "relation", "id": 1842401, "waterway": null, "historic": null, "name": null, "ele": null, "natural": "wood", "boat": null, "name:el": null, "name:en": null, "est_width": null, "int_name": null, "name:de": null, "name:fr": null, "old_name": null, "old_name:en": null, "wikipedia": null, "boundary": null, "board_type": null, "information": null, "leisure": null, "source": "http://geodata.gov.gr", "tourism": null, "abandoned": null, "building": null, "description": null, "description:en": null, "type": "multipolygon", "leaf_type": "broadleaved", "water": null, "label": "natural:wood" }, "geometry": { "type": "Polygon", "coordinates": [ [ [ 21.566399357523078, 40.001696655903238 ], [ 21.583157073149856, 40.001696655903238 ], [ 21.583397, 40.001242 ], [ 21.584216, 39.99993 ], [ 21.58488, 39.999175 ], [ 21.585545, 39.99835 ], [ 21.586107, 39.997872 ], [ 21.58666, 39.997674 ], [ 21.586978, 39.99768 ], [ 21.587389, 39.997619 ], [ 21.587645, 39.997553 ], [ 21.587934, 39.997361 ], [ 21.588231, 39.997108 ], [ 21.588528, 39.996882 ], [ 21.588854, 39.996674 ], [ 21.589121, 39.99656 ], [ 21.589596, 39.996216 ], [ 21.589952, 39.995852 ], [ 21.590129, 39.995646 ], [ 21.590337, 39.995462 ], [ 21.590633, 39.995119 ], [ 21.59081, 39.994867 ], [ 21.590959, 39.994638 ], [ 21.591165, 39.994319 ], [ 21.591372, 39.994024 ], [ 21.591491, 39.993793 ], [ 21.591609, 39.993567 ], [ 21.591786, 39.993199 ], [ 21.591932, 39.992789 ], [ 21.59205, 39.992563 ], [ 21.592139, 39.992265 ], [ 21.592376, 39.991943 ], [ 21.592582, 39.991535 ], [ 21.592759, 39.991211 ], [ 21.592936, 39.990937 ], [ 21.593084, 39.990667 ], [ 21.593261, 39.990366 ], [ 21.593527, 39.98991 ], [ 21.593675, 39.989635 ], [ 21.593852, 39.989361 ], [ 21.594059, 39.988953 ], [ 21.594206, 39.988723 ], [ 21.594383, 39.98831 ], [ 21.59462, 39.988038 ], [ 21.594797, 39.987808 ], [ 21.594848583917013, 39.987735260881067 ], [ 21.594848583917013, 39.978782691679747 ], [ 21.589490751381476, 39.978782691679747 ], [ 21.589515, 39.979033 ], [ 21.589547, 39.979464 ], [ 21.589578, 39.979739 ], [ 21.58955, 39.980151 ], [ 21.589313, 39.98054 ], [ 21.588987, 39.980838 ], [ 21.588689, 39.981019 ], [ 21.588422, 39.981156 ], [ 21.588065, 39.981341 ], [ 21.587768, 39.981522 ], [ 21.587233, 39.981684 ], [ 21.586935, 39.981727 ], [ 21.586549, 39.981798 ], [ 21.586072, 39.98189 ], [ 21.585597, 39.981982 ], [ 21.585032, 39.982166 ], [ 21.584615, 39.982326 ], [ 21.584289, 39.982552 ], [ 21.584021, 39.982738 ], [ 21.583874, 39.98308 ], [ 21.583994, 39.983397 ], [ 21.584293, 39.983602 ], [ 21.58471, 39.983715 ], [ 21.585395, 39.983853 ], [ 21.585753, 39.98401 ], [ 21.585903, 39.98431 ], [ 21.585492, 39.984691 ], [ 21.585488, 39.984695 ], [ 21.585485, 39.984696 ], [ 21.585131, 39.984812 ], [ 21.584625, 39.984903 ], [ 21.584268, 39.984948 ], [ 21.583881, 39.98497 ], [ 21.583554, 39.985043 ], [ 21.583226, 39.985156 ], [ 21.5829, 39.985337 ], [ 21.582484, 39.985614 ], [ 21.582157, 39.985773 ], [ 21.581741, 39.985933 ], [ 21.581235, 39.986208 ], [ 21.580819, 39.986436 ], [ 21.580493, 39.986594 ], [ 21.579987, 39.98678 ], [ 21.57969, 39.986916 ], [ 21.579363, 39.987056 ], [ 21.579095, 39.987194 ], [ 21.578709, 39.98735 ], [ 21.578322, 39.987489 ], [ 21.577965, 39.987557 ], [ 21.57743, 39.987696 ], [ 21.577132, 39.987743 ], [ 21.576745, 39.987788 ], [ 21.576268, 39.987673 ], [ 21.576, 39.987536 ], [ 21.575522, 39.987354 ], [ 21.575105, 39.987263 ], [ 21.57436, 39.986967 ], [ 21.574001, 39.986604 ], [ 21.573584, 39.986468 ], [ 21.573286, 39.986403 ], [ 21.572868, 39.986357 ], [ 21.572481, 39.986334 ], [ 21.572362, 39.986084 ], [ 21.57239, 39.985739 ], [ 21.572419, 39.985511 ], [ 21.572448, 39.985193 ], [ 21.572506, 39.984943 ], [ 21.572565, 39.984689 ], [ 21.572624, 39.984439 ], [ 21.572682, 39.984189 ], [ 21.572771, 39.983962 ], [ 21.573186, 39.983505 ], [ 21.573602, 39.983345 ], [ 21.573989, 39.983318 ], [ 21.574495, 39.983294 ], [ 21.574912, 39.983295 ], [ 21.575359, 39.983297 ], [ 21.575865, 39.983251 ], [ 21.576489, 39.983158 ], [ 21.577234, 39.983019 ], [ 21.577829, 39.982881 ], [ 21.578245, 39.982765 ], [ 21.578631, 39.982582 ], [ 21.579167, 39.982379 ], [ 21.579851, 39.982081 ], [ 21.580237, 39.981943 ], [ 21.580683, 39.98176 ], [ 21.581397, 39.981508 ], [ 21.581812, 39.981303 ], [ 21.582318, 39.981095 ], [ 21.582912, 39.980844 ], [ 21.583328, 39.980617 ], [ 21.583744, 39.980389 ], [ 21.584279, 39.980042 ], [ 21.584903, 39.979703 ], [ 21.585201, 39.979584 ], [ 21.585557, 39.979449 ], [ 21.586092, 39.979242 ], [ 21.586538, 39.979037 ], [ 21.587043, 39.97883 ], [ 21.587131665908402, 39.978782691679747 ], [ 21.578768115303955, 39.978782691679747 ], [ 21.578552, 39.979379 ], [ 21.578283, 39.980034 ], [ 21.577637, 39.980963 ], [ 21.577021, 39.981045 ], [ 21.5768, 39.98038 ], [ 21.576449, 39.979901 ], [ 21.575214, 39.980158 ], [ 21.573727, 39.980599 ], [ 21.573213, 39.981248 ], [ 21.572591, 39.981518 ], [ 21.57161, 39.981498 ], [ 21.570868, 39.981671 ], [ 21.569855, 39.982593 ], [ 21.56908, 39.983708 ], [ 21.56844, 39.98445 ], [ 21.568066, 39.98463 ], [ 21.566705, 39.984979 ], [ 21.565612, 39.984673 ], [ 21.56491, 39.983715 ], [ 21.564668663207733, 39.983210627274055 ], [ 21.564668663207733, 40.000600058290267 ], [ 21.566399357523078, 40.001696655903238 ] ] ] } },
{ "type": "Feature", "properties": { "element": "relation", "id": 1842402, "waterway": null, "historic": null, "name": null, "ele": null, "natural": "wood", "boat": null, "name:el": null, "name:en": null, "est_width": null, "int_name": null, "name:de": null, "name:fr": null, "old_name": null, "old_name:en": null, "wikipedia": null, "boundary": null, "board_type": null, "information": null, "leisure": null, "source": "http://geodata.gov.gr", "tourism": null, "abandoned": null, "building": null, "description": null, "description:en": null, "type": "multipolygon", "leaf_type": "broadleaved", "water": null, "label": "natural:wood" }, "geometry": { "type": "Polygon", "coordinates": [ [ [ 21.564668663207733, 40.000600058290267 ], [ 21.564668663207733, 40.001696655903238 ], [ 21.566399357523078, 40.001696655903238 ], [ 21.564668663207733, 40.000600058290267 ] ] ] } },
{ "type": "Feature", "properties": { "element": "relation", "id": 13012697, "waterway": null, "historic": null, "name": null, "ele": null, "natural": "water", "boat": null, "name:el": null, "name:en": null, "est_width": null, "int_name": null, "name:de": null, "name:fr": null, "old_name": null, "old_name:en": null, "wikipedia": null, "boundary": null, "board_type": null, "information": null, "leisure": null, "source": null, "tourism": null, "abandoned": null, "building": null, "description": null, "description:en": null, "type": "multipolygon", "leaf_type": null, "water": "river", "label": "water:river;natural:water" }, "geometry": { "type": "Polygon", "coordinates": [ [ [ 21.594843, 39.9897051 ], [ 21.5947276, 39.9898715 ], [ 21.5946163, 39.9900256 ], [ 21.5945372, 39.9901592 ], [ 21.5944205, 39.9903575 ], [ 21.5943521, 39.9905199 ], [ 21.5943079, 39.990675 ], [ 21.5942354, 39.9909802 ], [ 21.5942033, 39.991199 ], [ 21.5941805, 39.9913593 ], [ 21.5941255, 39.9915679 ], [ 21.5940477, 39.9917611 ], [ 21.5939659, 39.9920292 ], [ 21.5938398, 39.992319 ], [ 21.5937339, 39.9925183 ], [ 21.5936333, 39.9927197 ], [ 21.5934938, 39.9929591 ], [ 21.593345, 39.9931831 ], [ 21.5932792, 39.9933248 ], [ 21.5932001, 39.9934214 ], [ 21.593129, 39.9934862 ], [ 21.5930191, 39.9935396 ], [ 21.5929359, 39.9935776 ], [ 21.5928461, 39.9936721 ], [ 21.5927683, 39.9937636 ], [ 21.5927079, 39.9938756 ], [ 21.5926087, 39.9941088 ], [ 21.5925094, 39.994265 ], [ 21.5923834, 39.994454 ], [ 21.5923136, 39.9945783 ], [ 21.5922627, 39.99468 ], [ 21.5922157, 39.9948701 ], [ 21.5921541, 39.9949883 ], [ 21.5920293, 39.9951927 ], [ 21.591918, 39.9953735 ], [ 21.5917826, 39.9955338 ], [ 21.591635, 39.9956427 ], [ 21.5915117, 39.9957496 ], [ 21.5913226, 39.9958862 ], [ 21.5911241, 39.9960311 ], [ 21.590876, 39.9962232 ], [ 21.590652, 39.9964225 ], [ 21.5903744, 39.9966403 ], [ 21.5901746, 39.9967708 ], [ 21.589893, 39.9969403 ], [ 21.589677, 39.9970729 ], [ 21.5895201, 39.9971602 ], [ 21.5893927, 39.9972434 ], [ 21.5892117, 39.9973749 ], [ 21.589103, 39.9974879 ], [ 21.5889649, 39.9976492 ], [ 21.5887624, 39.9978516 ], [ 21.5886578, 39.997979 ], [ 21.5885626, 39.9980468 ], [ 21.5884566, 39.9980581 ], [ 21.5882649, 39.9980735 ], [ 21.5880007, 39.9980807 ], [ 21.5877995, 39.9980879 ], [ 21.5876184, 39.998128 ], [ 21.5873985, 39.9981876 ], [ 21.5870766, 39.9982975 ], [ 21.5868983, 39.998391 ], [ 21.5867347, 39.9985153 ], [ 21.5866435, 39.9986232 ], [ 21.586504, 39.9987989 ], [ 21.5863538, 39.998992 ], [ 21.5862036, 39.9991667 ], [ 21.5860561, 39.999366 ], [ 21.5859501, 39.9994995 ], [ 21.5858562, 39.9996711 ], [ 21.5857342, 39.9999125 ], [ 21.5856189, 40.0001036 ], [ 21.5855183, 40.0001755 ], [ 21.5853761, 40.0002587 ], [ 21.585183, 40.0004056 ], [ 21.5850502, 40.0005176 ], [ 21.5848812, 40.0006779 ], [ 21.5847109, 40.0008474 ], [ 21.5845017, 40.0010909 ], [ 21.5843891, 40.0012419 ], [ 21.5843287, 40.0013333 ], [ 21.5842751, 40.0014309 ], [ 21.5842228, 40.0016097 ], [ 21.584202486530799, 40.001696655903238 ], [ 21.584535730827596, 40.001696655903238 ], [ 21.5845674, 40.001623 ], [ 21.5846358, 40.0015419 ], [ 21.5847243, 40.0014617 ], [ 21.5848276, 40.0013569 ], [ 21.5849282, 40.0012357 ], [ 21.5850717, 40.0010518 ], [ 21.5851843, 40.0008946 ], [ 21.5852889, 40.0007899 ], [ 21.5854754, 40.000644 ], [ 21.5856551, 40.0005012 ], [ 21.5858173, 40.0003512 ], [ 21.5859166, 40.0002392 ], [ 21.5860279, 40.0000851 ], [ 21.5861459, 39.9999033 ], [ 21.5863189, 39.9996279 ], [ 21.5864852, 39.9994286 ], [ 21.5865764, 39.9993156 ], [ 21.5866756, 39.9991718 ], [ 21.5867883, 39.9989376 ], [ 21.5868567, 39.9987845 ], [ 21.5869278, 39.9986858 ], [ 21.5870713, 39.9985862 ], [ 21.587259, 39.9985071 ], [ 21.5874535, 39.9984454 ], [ 21.5876077, 39.9984126 ], [ 21.5877311, 39.9984126 ], [ 21.5878786, 39.9984516 ], [ 21.5880208, 39.9984958 ], [ 21.5880945, 39.9984968 ], [ 21.5882032, 39.9984814 ], [ 21.5883547, 39.9984383 ], [ 21.5885009, 39.9983972 ], [ 21.5886953, 39.998315 ], [ 21.5889113, 39.9981547 ], [ 21.5891634, 39.997902 ], [ 21.5895389, 39.997602 ], [ 21.5898152, 39.9973698 ], [ 21.5900955, 39.9971777 ], [ 21.5904468, 39.9969599 ], [ 21.5906131, 39.9968222 ], [ 21.5909229, 39.9966116 ], [ 21.5911643, 39.9964225 ], [ 21.5914513, 39.9962047 ], [ 21.5916552, 39.9960414 ], [ 21.5918523, 39.9958636 ], [ 21.5921138, 39.9955842 ], [ 21.5923659, 39.9952451 ], [ 21.5926516, 39.994865 ], [ 21.592901, 39.9945557 ], [ 21.593121, 39.9942485 ], [ 21.5933208, 39.9939393 ], [ 21.5935139, 39.9936773 ], [ 21.5937205, 39.993331 ], [ 21.5938586, 39.9930711 ], [ 21.5939806, 39.9928666 ], [ 21.5940879, 39.9926457 ], [ 21.5941912, 39.9924125 ], [ 21.5943092, 39.9921289 ], [ 21.594387, 39.9919429 ], [ 21.5944943, 39.9916696 ], [ 21.5945587, 39.9914559 ], [ 21.5946297, 39.9912936 ], [ 21.5946767, 39.9911405 ], [ 21.5946995, 39.9910089 ], [ 21.5947089, 39.9908374 ], [ 21.5947102, 39.9906925 ], [ 21.5947223, 39.9905753 ], [ 21.5947665, 39.9904356 ], [ 21.594848583917013, 39.990299422271839 ], [ 21.594848583917013, 39.989698024196763 ], [ 21.594843, 39.9897051 ] ] ] } },
{ "type": "Feature", "properties": { "element": "way", "id": 139150506, "waterway": null, "historic": null, "name": "Σμιξιώματα-Αχυρώνες (Καπερού-Φελλίου)", "ele": null, "natural": null, "boat": null, "name:el": null, "name:en": null, "est_width": null, "int_name": null, "name:de": null, "name:fr": null, "old_name": null, "old_name:en": null, "wikipedia": null, "boundary": "protected_area", "board_type": "wildlife", "information": "board", "leisure": "nature_reserve", "source": "http://geodata.gov.gr/", "tourism": "information", "abandoned": null, "building": null, "description": null, "description:en": null, "type": null, "leaf_type": null, "water": null, "label": "tourism:information;leisure:nature_reserve" }, "geometry": { "type": "Polygon", "coordinates": [ [ [ 21.5648326, 39.9791057 ], [ 21.564668663207733, 39.97882638767728 ], [ 21.564668663207733, 39.979551810834757 ], [ 21.5648326, 39.9791057 ] ] ] } },
{ "type": "Feature", "properties": { "element": "way", "id": 1021568369, "waterway": null, "historic": null, "name": "Μικρό - Βοηθητικό κτήριο", "ele": null, "natural": null, "boat": null, "name:el": "Μικρό - Βοηθητικό κτήριο", "name:en": "Mikro - Support building", "est_width": null, "int_name": null, "name:de": null, "name:fr": null, "old_name": null, "old_name:en": null, "wikipedia": null, "boundary": null, "board_type": null, "information": null, "leisure": null, "source": null, "tourism": null, "abandoned": "yes", "building": "train_station", "description": "Σιδηροδρομική γραμμή Καλαμπάκας - Κοζάνης - Βέροιας - Εγκαταλελειμμένη ημιτελής σιδηροδρομική γραμμή", "description:en": "Kalabaka - Kozani - Veria Railway - Abandoned unfinished railway line", "type": null, "leaf_type": null, "water": null, "label": "building:train_station" }, "geometry": { "type": "Polygon", "coordinates": [ [ [ 21.5910795, 39.9927164 ], [ 21.5911532, 39.9927575 ], [ 21.5913051, 39.9925915 ], [ 21.5912284, 39.9925503 ], [ 21.5910795, 39.9927164 ] ] ] } },
{ "type": "Feature", "properties": { "element": "way", "id": 1021568370, "waterway": null, "historic": null, "name": "Μικρό", "ele": null, "natural": null, "boat": null, "name:el": "Μικρό", "name:en": "Mikro", "est_width": null, "int_name": null, "name:de": null, "name:fr": null, "old_name": null, "old_name:en": null, "wikipedia": null, "boundary": null, "board_type": null, "information": null, "leisure": null, "source": null, "tourism": null, "abandoned": "yes", "building": "train_station", "description": "Σιδηροδρομική γραμμή Καλαμπάκας - Κοζάνης - Βέροιας - Εγκαταλελειμμένη ημιτελής σιδηροδρομική γραμμή", "description:en": "Kalabaka - Kozani - Veria Railway - Abandoned unfinished railway line", "type": null, "leaf_type": null, "water": null, "label": "building:train_station" }, "geometry": { "type": "Polygon", "coordinates": [ [ [ 21.5899537, 39.9941654 ], [ 21.5900155, 39.9942042 ], [ 21.5901147, 39.9940799 ], [ 21.5900468, 39.9940397 ], [ 21.5899537, 39.9941654 ] ] ] } }
]
}
