{
"type": "FeatureCollection",
"name": "patch_6593_polygon",
"crs": { "type": "name", "properties": { "name": "urn:ogc:def:crs:OGC:1.3:CRS84" } },
"features": [
{ "type": "Feature", "properties": { "osm_id": 139150421, "name": "Κρανέα-Λουτρό-Βαλανίδα", "label": "leisure:nature_reserve", "leisure": "nature_reserve", "natural": null }, "geometry": { "type": "Polygon", "coordinates": [ [ [ 21.995815, 39.920345800256463 ], [ 21.9952839, 39.920354700256475 ], [ 21.9946331, 39.920352400256455 ], [ 21.9938363, 39.920356600256476 ], [ 21.9933035, 39.920131200256435 ], [ 21.9927428, 39.920139500256433 ], [ 21.9924775, 39.920134900256436 ], [ 21.9922408, 39.920139800256429 ], [ 21.9920048, 39.920370000256469 ], [ 21.9918587, 39.920601700256512 ], [ 21.9915047, 39.920829800256534 ], [ 21.9908573, 39.921287000256598 ], [ 21.9902958, 39.921520500256619 ], [ 21.9896754, 39.921518800256635 ], [ 21.9892622, 39.921520600256621 ], [ 21.9888785, 39.92152300025662 ], [ 21.9884947, 39.921759500256648 ], [ 21.9882893, 39.921981200256688 ], [ 21.9882309, 39.922214400256728 ], [ 21.988201, 39.922273200256726 ], [ 21.9879075, 39.922668300256795 ], [ 21.9874947, 39.92290430025681 ], [ 21.986935, 39.923363100256879 ], [ 21.9865817, 39.923591200256908 ], [ 21.9861096, 39.923817200256941 ], [ 21.985638, 39.924052200256966 ], [ 21.9854019, 39.924048100256968 ], [ 21.9849014, 39.92428270025701 ], [ 21.9844289, 39.924508700257022 ], [ 21.9838086, 39.924515900257035 ], [ 21.9833081, 39.924750500257083 ], [ 21.9826011, 39.925666100257196 ], [ 21.9823956, 39.925887700257228 ], [ 21.9821611, 39.926352100257283 ], [ 21.9817189, 39.926803800257339 ], [ 21.9812465, 39.927038900257379 ], [ 21.9807459, 39.927264400257414 ], [ 21.979949, 39.927268500257412 ], [ 21.9792106, 39.927507900257446 ], [ 21.978296, 39.927735200257473 ], [ 21.9776174, 39.92796660025752 ], [ 21.976408, 39.928431900257557 ], [ 21.975927420452269, 39.928848765705574 ], [ 21.995974248365329, 39.928848765705574 ], [ 21.995974248365329, 39.920288263938126 ], [ 21.995815, 39.920345800256463 ] ] ] } },
{ "type": "Feature", "properties": { "osm_id": 1446723832, "name": null, "label": "natural:grassland", "leisure": null, "natural": "grassland" }, "geometry": { "type": "Polygon", "coordinates": [ [ [ 21.9938877, 39.917421500256062 ], [ 21.9940372, 39.917522500256077 ], [ 21.9942151, 39.917552500256072 ], [ 21.9943717, 39.917489800256064 ], [ 21.9944251, 39.917435200256051 ], [ 21.9942827, 39.917336900256039 ], [ 21.9942507, 39.917230400256038 ], [ 21.9942792, 39.917118500256016 ], [ 21.9940478, 39.917118500256016 ], [ 21.9938948, 39.917164900256033 ], [ 21.9938201, 39.917255000256041 ], [ 21.9938877, 39.917421500256062 ] ] ] } }
]
}
