{
"type": "FeatureCollection",
"name": "patch_88130_features",
"crs": { "type": "name", "properties": { "name": "urn:ogc:def:crs:OGC:1.3:CRS84" } },
"features": [
{ "type": "Feature", "properties": { "osm_id": -5913779, "name": "Πελοπόννησος", "label": "natural:peninsula", "natural": "peninsula", "amenity": null, "landuse": null, "building": null, "shop": null, "waterway": null }, "geometry": { "type": "Polygon", "coordinates": [ [ [ 21.301230202217901, 37.805935884286683 ], [ 21.330405066516953, 37.805935884286683 ], [ 21.330405066516953, 37.782940345679854 ], [ 21.301230202217901, 37.782940345679854 ], [ 21.301230202217901, 37.805935884286683 ] ] ] } },
{ "type": "Feature", "properties": { "osm_id": 1445848042, "name": "SHELL", "label": "amenity:fuel", "natural": null, "amenity": "fuel", "landuse": null, "building": null, "shop": null, "waterway": null }, "geometry": { "type": "Polygon", "coordinates": [ [ [ 21.3220749, 37.783023799951721 ], [ 21.3222784, 37.783018399951715 ], [ 21.322313781760268, 37.782940345679854 ], [ 21.322058772513827, 37.782940345679854 ], [ 21.3220749, 37.783023799951721 ] ] ] } },
{ "type": "Feature", "properties": { "osm_id": 1221385947, "name": null, "label": "landuse:cemetery", "natural": null, "amenity": null, "landuse": "cemetery", "building": null, "shop": null, "waterway": null }, "geometry": { "type": "Polygon", "coordinates": [ [ [ 21.3110256, 37.795585499953454 ], [ 21.3110595, 37.795331099953401 ], [ 21.3105019, 37.795243499953393 ], [ 21.3104868, 37.795355999953415 ], [ 21.3104803, 37.795495499953432 ], [ 21.3110256, 37.795585499953454 ] ] ] } },
{ "type": "Feature", "properties": { "osm_id": 1432094879, "name": "Κοίμησις Θεοτόκου", "label": "amenity:place_of_worship;building:yes", "natural": null, "amenity": "place_of_worship", "landuse": null, "building": "yes", "shop": null, "waterway": null }, "geometry": { "type": "Polygon", "coordinates": [ [ [ 21.3104738, 37.795449699953423 ], [ 21.3104868, 37.795355999953415 ], [ 21.3103255, 37.795342099953409 ], [ 21.3103126, 37.795435799953431 ], [ 21.3104738, 37.795449699953423 ] ] ] } },
{ "type": "Feature", "properties": { "osm_id": 838400394, "name": "China Bo Bo", "label": "shop:supermarket;landuse:retail", "natural": null, "amenity": null, "landuse": "retail", "building": null, "shop": "supermarket", "waterway": null }, "geometry": { "type": "Polygon", "coordinates": [ [ [ 21.3245165, 37.784379399951895 ], [ 21.324937, 37.783547499951773 ], [ 21.3242035, 37.783122999951729 ], [ 21.3236971, 37.784056799951863 ], [ 21.3245165, 37.784379399951895 ] ] ] } },
{ "type": "Feature", "properties": { "osm_id": 838400395, "name": null, "label": "building:retail", "natural": null, "amenity": null, "landuse": null, "building": "retail", "shop": null, "waterway": null }, "geometry": { "type": "Polygon", "coordinates": [ [ [ 21.3244187, 37.784189499951871 ], [ 21.3245897, 37.783861999951824 ], [ 21.3240746, 37.7836938999518 ], [ 21.3239035, 37.784021599951849 ], [ 21.3244187, 37.784189499951871 ] ] ] } },
{ "type": "Feature", "properties": { "osm_id": 411574139, "name": null, "label": "landuse:farmland", "natural": null, "amenity": null, "landuse": "farmland", "building": null, "shop": null, "waterway": null }, "geometry": { "type": "Polygon", "coordinates": [ [ [ 21.3139662, 37.788566099952462 ], [ 21.3096464, 37.796479199953566 ], [ 21.3111484, 37.7968097999536 ], [ 21.3108388, 37.797483699953709 ], [ 21.3120926, 37.797581299953706 ], [ 21.3130796, 37.797547399953707 ], [ 21.3141632, 37.797428699953699 ], [ 21.3183153, 37.796864899953626 ], [ 21.3203109, 37.796619099953581 ], [ 21.3210994, 37.796627599953595 ], [ 21.3221884, 37.796534299953592 ], [ 21.3241303, 37.796224899953529 ], [ 21.3254446, 37.795851799953489 ], [ 21.3263995, 37.795627199953437 ], [ 21.3269896, 37.795610199953444 ], [ 21.328615, 37.79581369995347 ], [ 21.3293016, 37.795936599953492 ], [ 21.3301009, 37.796224899953529 ], [ 21.3301331, 37.796152799953518 ], [ 21.3302779, 37.796152799953518 ], [ 21.3303531, 37.796385899953556 ], [ 21.330405066516953, 37.796377411533108 ], [ 21.330405066516953, 37.786853899297782 ], [ 21.3283012, 37.785465599952047 ], [ 21.324937, 37.783547499951773 ], [ 21.3245165, 37.784379399951895 ], [ 21.3236971, 37.784056799951863 ], [ 21.3242035, 37.783122999951729 ], [ 21.323913513752821, 37.782940345679854 ], [ 21.317043929155613, 37.782940345679854 ], [ 21.3139662, 37.788566099952462 ] ] ] } },
{ "type": "Feature", "properties": { "osm_id": 120745979, "name": null, "label": "landuse:industrial", "natural": null, "amenity": null, "landuse": "industrial", "building": null, "shop": null, "waterway": null }, "geometry": { "type": "Polygon", "coordinates": [ [ [ 21.3284351, 37.785257899952001 ], [ 21.3287217, 37.78472189995194 ], [ 21.3281535, 37.784441799951907 ], [ 21.3277803, 37.784866099951962 ], [ 21.3284351, 37.785257899952001 ] ] ] } },
{ "type": "Feature", "properties": { "osm_id": 411574140, "name": null, "label": "landuse:farmland", "natural": null, "amenity": null, "landuse": "farmland", "building": null, "shop": null, "waterway": null }, "geometry": { "type": "Polygon", "coordinates": [ [ [ 21.3253963, 37.783447599951778 ], [ 21.3277803, 37.784866099951962 ], [ 21.3281535, 37.784441799951907 ], [ 21.3282019, 37.784394099951896 ], [ 21.328859, 37.784711999951931 ], [ 21.3285452, 37.785314099952025 ], [ 21.3297066, 37.786041099952115 ], [ 21.330405066516953, 37.786548697618066 ], [ 21.330405066516953, 37.782940345679854 ], [ 21.32453850611326, 37.782940345679854 ], [ 21.3253963, 37.783447599951778 ] ] ] } },
{ "type": "Feature", "properties": { "osm_id": 411577140, "name": null, "label": "landuse:farmland", "natural": null, "amenity": null, "landuse": "farmland", "building": null, "shop": null, "waterway": null }, "geometry": { "type": "Polygon", "coordinates": [ [ [ 21.3079941, 37.799028799953916 ], [ 21.3076723, 37.798698199953868 ], [ 21.3076347, 37.797672399953726 ], [ 21.3078118, 37.797011099953643 ], [ 21.3077581, 37.79638379995356 ], [ 21.3083267, 37.795629199953439 ], [ 21.3088954, 37.795781799953467 ], [ 21.3095606, 37.795735199953455 ], [ 21.316770015732239, 37.782940345679854 ], [ 21.301230202217901, 37.782940345679854 ], [ 21.301230202217901, 37.805935884286683 ], [ 21.304243514922462, 37.805935884286683 ], [ 21.3079941, 37.799028799953916 ] ] ] } },
{ "type": "Feature", "properties": { "osm_id": 411591781, "name": null, "label": "landuse:farmland", "natural": null, "amenity": null, "landuse": "farmland", "building": null, "shop": null, "waterway": null }, "geometry": { "type": "Polygon", "coordinates": [ [ [ 21.3302404, 37.796504599953579 ], [ 21.3299909, 37.796326599953538 ], [ 21.3290388, 37.796082799953517 ], [ 21.3280919, 37.795951499953496 ], [ 21.3272296, 37.795816899953479 ], [ 21.3265551, 37.795801999953476 ], [ 21.3259019, 37.795904799953483 ], [ 21.3251549, 37.796174999953521 ], [ 21.3242282, 37.796444199953569 ], [ 21.322473, 37.796715499953613 ], [ 21.3211598, 37.796830999953613 ], [ 21.3202907, 37.796793899953606 ], [ 21.3133854, 37.797684099953734 ], [ 21.31224, 37.797754999953739 ], [ 21.3107702, 37.797746599953747 ], [ 21.3104832, 37.797755099953761 ], [ 21.3095927, 37.799289499953964 ], [ 21.3084984, 37.79933189995397 ], [ 21.3081782, 37.799135699953943 ], [ 21.304500548296559, 37.805935884286683 ], [ 21.330405066516953, 37.805935884286683 ], [ 21.330405066516953, 37.79653391579771 ], [ 21.3302404, 37.796504599953579 ] ] ] } },
{ "type": "Feature", "properties": { "osm_id": 1075167694, "name": null, "label": "building:roof", "natural": null, "amenity": null, "landuse": null, "building": "roof", "shop": null, "waterway": null }, "geometry": { "type": "Polygon", "coordinates": [ [ [ 21.3081494, 37.798665099953887 ], [ 21.3081895, 37.798582799953849 ], [ 21.307932, 37.798507799953846 ], [ 21.3078961, 37.798591699953867 ], [ 21.3081494, 37.798665099953887 ] ] ] } },
{ "type": "Feature", "properties": { "osm_id": 411577142, "name": null, "label": "landuse:residential", "natural": null, "amenity": null, "landuse": "residential", "building": null, "shop": null, "waterway": null }, "geometry": { "type": "Polygon", "coordinates": [ [ [ 21.3076723, 37.798698199953868 ], [ 21.3079941, 37.799028799953916 ], [ 21.3081782, 37.799135699953943 ], [ 21.3084984, 37.79933189995397 ], [ 21.3095927, 37.799289499953964 ], [ 21.3104832, 37.797755099953761 ], [ 21.3109499, 37.796907299953624 ], [ 21.3109285, 37.796856399953626 ], [ 21.3093031, 37.79653849995357 ], [ 21.3095606, 37.795735199953455 ], [ 21.3088954, 37.795781799953467 ], [ 21.3083267, 37.795629199953439 ], [ 21.3077581, 37.79638379995356 ], [ 21.3078118, 37.797011099953643 ], [ 21.3076347, 37.797672399953726 ], [ 21.3076723, 37.798698199953868 ] ] ] } },
{ "type": "Feature", "properties": { "osm_id": 1218539157, "name": null, "label": "building:greenhouse", "natural": null, "amenity": null, "landuse": null, "building": "greenhouse", "shop": null, "waterway": null }, "geometry": { "type": "Polygon", "coordinates": [ [ [ 21.3158122, 37.801658899954276 ], [ 21.3159764, 37.801368599954252 ], [ 21.3151181, 37.801065499954206 ], [ 21.3149539, 37.80135579995423 ], [ 21.3158122, 37.801658899954276 ] ] ] } },
{ "type": "Feature", "properties": { "osm_id": 119962393, "name": null, "label": "waterway:canal", "natural": null, "amenity": null, "landuse": null, "building": null, "shop": null, "waterway": "canal" }, "geometry": { "type": "LineString", "coordinates": [ [ 21.330405066516953, 37.79636910690764 ], [ 21.3303692, 37.796273599953544 ], [ 21.3303404, 37.796169199953532 ], [ 21.3303263, 37.796055299953508 ], [ 21.330327, 37.795936099953494 ], [ 21.3303511, 37.79583439995347 ], [ 21.330396, 37.795699199953461 ] ] } },
{ "type": "Feature", "properties": { "osm_id": 1056465740, "name": null, "label": "waterway:stream", "natural": null, "amenity": null, "landuse": null, "building": null, "shop": null, "waterway": "stream" }, "geometry": { "type": "LineString", "coordinates": [ [ 21.330405066516953, 37.802808353567244 ], [ 21.3303103, 37.802828199954455 ], [ 21.3300717, 37.802879999954456 ], [ 21.3298986, 37.802946499954459 ], [ 21.3296601, 37.803053699954475 ], [ 21.3294168, 37.803138699954488 ], [ 21.3291969, 37.803197799954503 ], [ 21.328963, 37.803245899954497 ], [ 21.3285653, 37.803295599954517 ], [ 21.3283454, 37.803328899954515 ], [ 21.3281442, 37.803373299954515 ], [ 21.3279712, 37.803439799954532 ], [ 21.327756, 37.803543299954548 ], [ 21.3275501, 37.803617199954552 ], [ 21.3272975, 37.803661599954566 ], [ 21.3270449, 37.803731799954576 ], [ 21.326783, 37.803779799954583 ], [ 21.3265163, 37.803813099954574 ], [ 21.3263285, 37.803825099954587 ], [ 21.3261799, 37.803823199954579 ], [ 21.3260696, 37.803806199954579 ], [ 21.3259473, 37.803806199954579 ] ] } },
{ "type": "Feature", "properties": { "osm_id": 1056465741, "name": null, "label": "waterway:stream", "natural": null, "amenity": null, "landuse": null, "building": null, "shop": null, "waterway": "stream" }, "geometry": { "type": "LineString", "coordinates": [ [ 21.3259473, 37.803806199954579 ], [ 21.3258035, 37.803819399954584 ] ] } },
{ "type": "Feature", "properties": { "osm_id": 1056465738, "name": null, "label": "waterway:stream", "natural": null, "amenity": null, "landuse": null, "building": null, "shop": null, "waterway": "stream" }, "geometry": { "type": "LineString", "coordinates": [ [ 21.3258035, 37.803819399954584 ], [ 21.3256645, 37.803811799954588 ], [ 21.3255566, 37.803807999954579 ], [ 21.3254679, 37.803811799954588 ], [ 21.3253481, 37.803832699954583 ], [ 21.3251923, 37.803849699954583 ], [ 21.3250221, 37.803849699954583 ], [ 21.3248759, 37.803831099954593 ], [ 21.3247225, 37.803831099954593 ], [ 21.3245619, 37.803804599954574 ], [ 21.3243797, 37.803745899954585 ], [ 21.3241808, 37.803700399954572 ], [ 21.3240417, 37.803668199954565 ], [ 21.323901, 37.80364259995455 ], [ 21.3237452, 37.80364259995455 ], [ 21.3236085, 37.803661499954565 ], [ 21.3234719, 37.803705099954577 ], [ 21.3233233, 37.803761899954573 ], [ 21.3231627, 37.803828199954587 ], [ 21.3230716, 37.803845199954594 ], [ 21.3229541, 37.803835799954577 ], [ 21.3228606, 37.803828199954587 ], [ 21.3227648, 37.803833899954583 ], [ 21.3226257, 37.803856599954599 ], [ 21.3224915, 37.803883099954589 ], [ 21.3223322, 37.803925499954595 ], [ 21.3221931, 37.803980399954611 ], [ 21.3220805, 37.804020199954614 ], [ 21.3218935, 37.804065599954626 ], [ 21.3217449, 37.80411679995462 ], [ 21.3216059, 37.804154699954637 ], [ 21.3212459, 37.804194399954625 ], [ 21.3210181, 37.804230399954633 ], [ 21.3207593, 37.804273899954651 ], [ 21.3205124, 37.804309899954646 ], [ 21.3203038, 37.804347799954662 ], [ 21.3199188, 37.804448999954673 ], [ 21.3197175, 37.804498199954672 ], [ 21.3195017, 37.804575899954706 ], [ 21.3193579, 37.804632699954688 ], [ 21.3191973, 37.804710299954706 ], [ 21.3190319, 37.804767199954718 ], [ 21.3188617, 37.804822099954727 ], [ 21.3186316, 37.804873199954741 ], [ 21.318237, 37.804951299954745 ], [ 21.3180309, 37.805000499954737 ], [ 21.3178367, 37.805047899954758 ], [ 21.3176474, 37.80510279995476 ], [ 21.3175131, 37.805151999954766 ], [ 21.3173837, 37.805184199954766 ], [ 21.3171799, 37.805216399954773 ], [ 21.3170121, 37.805261899954786 ], [ 21.3168659, 37.805295999954787 ], [ 21.3166859, 37.805316599954793 ], [ 21.3164462, 37.805316599954793 ], [ 21.3162808, 37.805316599954793 ], [ 21.3161633, 37.805312899954806 ], [ 21.3160411, 37.805282599954779 ], [ 21.315938, 37.805252299954795 ], [ 21.3157798, 37.805231399954785 ], [ 21.3156648, 37.805220099954781 ], [ 21.3155042, 37.805216299954779 ], [ 21.3153196, 37.805210599954769 ], [ 21.3150878, 37.805181399954783 ], [ 21.3149248, 37.80515669995475 ], [ 21.3147666, 37.805128299954767 ], [ 21.3145676, 37.805107499954751 ], [ 21.3143399, 37.805071499954742 ], [ 21.3141793, 37.805046899954746 ], [ 21.3140259, 37.805035499954755 ], [ 21.3138198, 37.805035499954755 ], [ 21.3136568, 37.805029899954746 ], [ 21.3133888, 37.804983399954743 ], [ 21.3132306, 37.804970199954731 ], [ 21.3130412, 37.804928499954741 ], [ 21.3128543, 37.804900099954729 ], [ 21.3126769, 37.804898199954721 ], [ 21.3125355, 37.804898199954721 ], [ 21.3123845, 37.804886899954731 ], [ 21.3122095, 37.804886899954731 ], [ 21.3120489, 37.804886899954731 ], [ 21.3118127, 37.80486189995473 ], [ 21.3116353, 37.804848599954724 ], [ 21.3114795, 37.804814599954724 ], [ 21.3113356, 37.804784199954717 ], [ 21.3111966, 37.804765299954724 ], [ 21.3110816, 37.804763399954709 ], [ 21.3109425, 37.804786099954718 ], [ 21.3108299, 37.804808899954729 ], [ 21.3107076, 37.804814599954724 ], [ 21.3106121, 37.804782899954716 ], [ 21.3104754, 37.804718499954703 ], [ 21.310358, 37.804673099954691 ], [ 21.3101878, 37.804633299954702 ], [ 21.3100128, 37.8046105999547 ], [ 21.3098546, 37.80460489995469 ], [ 21.3097276, 37.804608699954699 ], [ 21.3095909, 37.804633299954702 ], [ 21.3094218, 37.804662699954704 ], [ 21.3093474, 37.804708199954703 ], [ 21.3092995, 37.804793399954733 ], [ 21.3092995, 37.804882399954728 ], [ 21.3093235, 37.804995999954748 ], [ 21.3093235, 37.805128599954756 ], [ 21.3092659, 37.805223299954768 ], [ 21.3092012, 37.80527259995479 ], [ 21.3091006, 37.805335099954796 ], [ 21.3089639, 37.805391899954799 ], [ 21.3088321, 37.805431599954801 ], [ 21.3086495, 37.805469799954807 ], [ 21.3085272, 37.805483099954806 ], [ 21.3083786, 37.805483099954806 ], [ 21.3082348, 37.805486899954815 ], [ 21.3081173, 37.805509599954831 ], [ 21.3080095, 37.805541799954817 ], [ 21.3079064, 37.805570199954822 ], [ 21.3078393, 37.805600499954842 ], [ 21.3078105, 37.805662999954848 ], [ 21.3078105, 37.805740599954852 ], [ 21.3078251, 37.805818999954859 ], [ 21.3078137, 37.805868399954875 ], [ 21.3077763, 37.805901699954866 ], [ 21.3077094, 37.805935399954883 ], [ 21.30770764994837, 37.805935884286683 ] ] } },
{ "type": "Feature", "properties": { "osm_id": 119962380, "name": null, "label": "waterway:canal", "natural": null, "amenity": null, "landuse": null, "building": null, "shop": null, "waterway": "canal" }, "geometry": { "type": "LineString", "coordinates": [ [ 21.330396, 37.795699199953461 ], [ 21.330405066516953, 37.795682824393481 ] ] } },
{ "type": "Feature", "properties": { "osm_id": 1344970271, "name": "ΑΠ", "label": "amenity:fuel", "natural": null, "amenity": "fuel", "landuse": null, "building": null, "shop": null, "waterway": null }, "geometry": { "type": "Point", "coordinates": [ 21.3080842, 37.798599799953848 ] } },
{ "type": "Feature", "properties": { "osm_id": 9779182444, "name": null, "label": "amenity:fast_food", "natural": null, "amenity": "fast_food", "landuse": null, "building": null, "shop": null, "waterway": null }, "geometry": { "type": "Point", "coordinates": [ 21.3090552, 37.796745199953612 ] } },
{ "type": "Feature", "properties": { "osm_id": 9779182480, "name": null, "label": "amenity:cafe", "natural": null, "amenity": "cafe", "landuse": null, "building": null, "shop": null, "waterway": null }, "geometry": { "type": "Point", "coordinates": [ 21.3091552, 37.796622199953589 ] } },
{ "type": "Feature", "properties": { "osm_id": 9779182443, "name": null, "label": "amenity:cafe", "natural": null, "amenity": "cafe", "landuse": null, "building": null, "shop": null, "waterway": null }, "geometry": { "type": "Point", "coordinates": [ 21.3095917, 37.796792999953617 ] } }
]
}
