{
"type": "FeatureCollection",
"name": "patch_59466_features",
"crs": { "type": "name", "properties": { "name": "urn:ogc:def:crs:OGC:1.3:CRS84" } },
"features": [
{ "type": "Feature", "properties": { "@type": "way", "@id": 27648182, "admin_level": null, "alt_name:ca": null, "amenity": null, "barrier": null, "boat": "no", "boundary": null, "bridge": null, "cables": null, "construction": null, "denomination": null, "design": null, "destination": null, "destination:int_ref": null, "destination:lang:el-Latn": null, "destination:ref": null, "direction": null, "distance": null, "embankment": null, "ford": null, "highway": null, "int_name": null, "int_ref": null, "intermittent": null, "landuse": null, "lanes": null, "lanes:backward": null, "lanes:forward": null, "layer": null, "line_attachment": null, "lit": null, "man_made": null, "maxspeed": null, "name": null, "name:bg": null, "name:ca": null, "name:el": null, "name:en": null, "name:fr": null, "name:mk": null, "name:prefix": null, "natural": null, "noexit": null, "note": null, "oneway": null, "operator": null, "operator:1995-2025": null, "placement": null, "placement:backward": null, "placement:forward": null, "plant:method": null, "plant:output:electricity": null, "plant:source": null, "power": null, "ref": null, "religion": null, "smoothness": null, "source": null, "source:ref": null, "surface": null, "toll": null, "tunnel": null, "turn:lanes": null, "turn:lanes:backward": null, "turn:lanes:forward": null, "voltage": null, "waterway": "stream", "wikidata": null, "wikipedia": null, "label": "waterway:stream" }, "geometry": { "type": "LineString", "coordinates": [ [ 23.0196667, 40.7654007 ], [ 23.0155519, 40.7678711 ], [ 23.0152944, 40.7682611 ], [ 23.0149511, 40.7687162 ], [ 23.0143503, 40.7691712 ], [ 23.0134919, 40.7698862 ], [ 23.0130628, 40.7699512 ], [ 23.0123761, 40.7696262 ], [ 23.0116895, 40.7700812 ], [ 23.0110887, 40.7706663 ], [ 23.0105737, 40.7710563 ], [ 23.0098012, 40.7712513 ], [ 23.0091146, 40.7717713 ], [ 23.0080846, 40.7726813 ], [ 23.0071405, 40.7735263 ], [ 23.0064538, 40.7739813 ], [ 23.0059388, 40.7744363 ], [ 23.005424313568188, 40.774896727482513 ] ] } },
{ "type": "Feature", "properties": { "@type": "way", "@id": 164867033, "admin_level": null, "alt_name:ca": null, "amenity": null, "barrier": null, "boat": "no", "boundary": null, "bridge": null, "cables": null, "construction": null, "denomination": null, "design": null, "destination": null, "destination:int_ref": null, "destination:lang:el-Latn": null, "destination:ref": null, "direction": null, "distance": null, "embankment": null, "ford": null, "highway": null, "int_name": null, "int_ref": null, "intermittent": null, "landuse": null, "lanes": null, "lanes:backward": null, "lanes:forward": null, "layer": null, "line_attachment": null, "lit": null, "man_made": null, "maxspeed": null, "name": null, "name:bg": null, "name:ca": null, "name:el": null, "name:en": null, "name:fr": null, "name:mk": null, "name:prefix": null, "natural": null, "noexit": null, "note": null, "oneway": null, "operator": null, "operator:1995-2025": null, "placement": null, "placement:backward": null, "placement:forward": null, "plant:method": null, "plant:output:electricity": null, "plant:source": null, "power": null, "ref": null, "religion": null, "smoothness": null, "source": null, "source:ref": null, "surface": null, "toll": null, "tunnel": null, "turn:lanes": null, "turn:lanes:backward": null, "turn:lanes:forward": null, "voltage": null, "waterway": "stream", "wikidata": null, "wikipedia": null, "label": "waterway:stream" }, "geometry": { "type": "LineString", "coordinates": [ [ 23.0293688, 40.764719 ], [ 23.0292848, 40.7641007 ], [ 23.02912162034611, 40.76382882262233 ] ] } },
{ "type": "Feature", "properties": { "@type": "way", "@id": 768140387, "admin_level": null, "alt_name:ca": null, "amenity": null, "barrier": null, "boat": "no", "boundary": null, "bridge": null, "cables": null, "construction": null, "denomination": null, "design": null, "destination": null, "destination:int_ref": null, "destination:lang:el-Latn": null, "destination:ref": null, "direction": null, "distance": null, "embankment": null, "ford": null, "highway": null, "int_name": null, "int_ref": null, "intermittent": "yes", "landuse": null, "lanes": null, "lanes:backward": null, "lanes:forward": null, "layer": null, "line_attachment": null, "lit": null, "man_made": null, "maxspeed": null, "name": null, "name:bg": null, "name:ca": null, "name:el": null, "name:en": null, "name:fr": null, "name:mk": null, "name:prefix": null, "natural": null, "noexit": null, "note": null, "oneway": null, "operator": null, "operator:1995-2025": null, "placement": null, "placement:backward": null, "placement:forward": null, "plant:method": null, "plant:output:electricity": null, "plant:source": null, "power": null, "ref": null, "religion": null, "smoothness": null, "source": null, "source:ref": null, "surface": null, "toll": null, "tunnel": null, "turn:lanes": null, "turn:lanes:backward": null, "turn:lanes:forward": null, "voltage": null, "waterway": "stream", "wikidata": null, "wikipedia": null, "label": "waterway:stream" }, "geometry": { "type": "LineString", "coordinates": [ [ 23.0344585, 40.7717015 ], [ 23.0330638, 40.771348 ], [ 23.032876, 40.7712261 ], [ 23.0326322, 40.7708613 ], [ 23.03141, 40.768858 ], [ 23.0303961, 40.7671557 ] ] } },
{ "type": "Feature", "properties": { "@type": "way", "@id": 768140388, "admin_level": null, "alt_name:ca": null, "amenity": null, "barrier": null, "boat": "no", "boundary": null, "bridge": null, "cables": null, "construction": null, "denomination": null, "design": null, "destination": null, "destination:int_ref": null, "destination:lang:el-Latn": null, "destination:ref": null, "direction": null, "distance": null, "embankment": null, "ford": null, "highway": null, "int_name": null, "int_ref": null, "intermittent": "yes", "landuse": null, "lanes": null, "lanes:backward": null, "lanes:forward": null, "layer": "-1", "line_attachment": null, "lit": null, "man_made": null, "maxspeed": null, "name": null, "name:bg": null, "name:ca": null, "name:el": null, "name:en": null, "name:fr": null, "name:mk": null, "name:prefix": null, "natural": null, "noexit": null, "note": null, "oneway": null, "operator": null, "operator:1995-2025": null, "placement": null, "placement:backward": null, "placement:forward": null, "plant:method": null, "plant:output:electricity": null, "plant:source": null, "power": null, "ref": null, "religion": null, "smoothness": null, "source": null, "source:ref": null, "surface": null, "toll": null, "tunnel": "culvert", "turn:lanes": null, "turn:lanes:backward": null, "turn:lanes:forward": null, "voltage": null, "waterway": "stream", "wikidata": null, "wikipedia": null, "label": "waterway:stream" }, "geometry": { "type": "LineString", "coordinates": [ [ 23.0303961, 40.7671557 ], [ 23.0302289, 40.766896 ] ] } },
{ "type": "Feature", "properties": { "@type": "way", "@id": 768140389, "admin_level": null, "alt_name:ca": null, "amenity": null, "barrier": null, "boat": "no", "boundary": null, "bridge": null, "cables": null, "construction": null, "denomination": null, "design": null, "destination": null, "destination:int_ref": null, "destination:lang:el-Latn": null, "destination:ref": null, "direction": null, "distance": null, "embankment": null, "ford": null, "highway": null, "int_name": null, "int_ref": null, "intermittent": "yes", "landuse": null, "lanes": null, "lanes:backward": null, "lanes:forward": null, "layer": null, "line_attachment": null, "lit": null, "man_made": null, "maxspeed": null, "name": null, "name:bg": null, "name:ca": null, "name:el": null, "name:en": null, "name:fr": null, "name:mk": null, "name:prefix": null, "natural": null, "noexit": null, "note": null, "oneway": null, "operator": null, "operator:1995-2025": null, "placement": null, "placement:backward": null, "placement:forward": null, "plant:method": null, "plant:output:electricity": null, "plant:source": null, "power": null, "ref": null, "religion": null, "smoothness": null, "source": null, "source:ref": null, "surface": null, "toll": null, "tunnel": null, "turn:lanes": null, "turn:lanes:backward": null, "turn:lanes:forward": null, "voltage": null, "waterway": "stream", "wikidata": null, "wikipedia": null, "label": "waterway:stream" }, "geometry": { "type": "LineString", "coordinates": [ [ 23.0302289, 40.766896 ], [ 23.0294565, 40.7654009 ], [ 23.0293849, 40.7648409 ] ] } },
{ "type": "Feature", "properties": { "@type": "way", "@id": 768140390, "admin_level": null, "alt_name:ca": null, "amenity": null, "barrier": null, "boat": "no", "boundary": null, "bridge": null, "cables": null, "construction": null, "denomination": null, "design": null, "destination": null, "destination:int_ref": null, "destination:lang:el-Latn": null, "destination:ref": null, "direction": null, "distance": null, "embankment": null, "ford": null, "highway": null, "int_name": null, "int_ref": null, "intermittent": null, "landuse": null, "lanes": null, "lanes:backward": null, "lanes:forward": null, "layer": "-1", "line_attachment": null, "lit": null, "man_made": null, "maxspeed": null, "name": null, "name:bg": null, "name:ca": null, "name:el": null, "name:en": null, "name:fr": null, "name:mk": null, "name:prefix": null, "natural": null, "noexit": null, "note": null, "oneway": null, "operator": null, "operator:1995-2025": null, "placement": null, "placement:backward": null, "placement:forward": null, "plant:method": null, "plant:output:electricity": null, "plant:source": null, "power": null, "ref": null, "religion": null, "smoothness": null, "source": null, "source:ref": null, "surface": null, "toll": null, "tunnel": "culvert", "turn:lanes": null, "turn:lanes:backward": null, "turn:lanes:forward": null, "voltage": null, "waterway": "stream", "wikidata": null, "wikipedia": null, "label": "waterway:stream" }, "geometry": { "type": "LineString", "coordinates": [ [ 23.0293849, 40.7648409 ], [ 23.0293688, 40.764719 ] ] } },
{ "type": "Feature", "properties": { "@type": "way", "@id": 782272777, "admin_level": null, "alt_name:ca": null, "amenity": null, "barrier": null, "boat": "no", "boundary": null, "bridge": null, "cables": null, "construction": null, "denomination": null, "design": null, "destination": null, "destination:int_ref": null, "destination:lang:el-Latn": null, "destination:ref": null, "direction": null, "distance": null, "embankment": null, "ford": null, "highway": null, "int_name": null, "int_ref": null, "intermittent": null, "landuse": null, "lanes": null, "lanes:backward": null, "lanes:forward": null, "layer": "-1", "line_attachment": null, "lit": null, "man_made": null, "maxspeed": null, "name": null, "name:bg": null, "name:ca": null, "name:el": null, "name:en": null, "name:fr": null, "name:mk": null, "name:prefix": null, "natural": null, "noexit": null, "note": null, "oneway": null, "operator": null, "operator:1995-2025": null, "placement": null, "placement:backward": null, "placement:forward": null, "plant:method": null, "plant:output:electricity": null, "plant:source": null, "power": null, "ref": null, "religion": null, "smoothness": null, "source": null, "source:ref": null, "surface": null, "toll": null, "tunnel": "culvert", "turn:lanes": null, "turn:lanes:backward": null, "turn:lanes:forward": null, "voltage": null, "waterway": "stream", "wikidata": null, "wikipedia": null, "label": "waterway:stream" }, "geometry": { "type": "LineString", "coordinates": [ [ 23.0197874, 40.7653307 ], [ 23.0196667, 40.7654007 ] ] } },
{ "type": "Feature", "properties": { "@type": "way", "@id": 782272778, "admin_level": null, "alt_name:ca": null, "amenity": null, "barrier": null, "boat": "no", "boundary": null, "bridge": null, "cables": null, "construction": null, "denomination": null, "design": null, "destination": null, "destination:int_ref": null, "destination:lang:el-Latn": null, "destination:ref": null, "direction": null, "distance": null, "embankment": null, "ford": null, "highway": null, "int_name": null, "int_ref": null, "intermittent": null, "landuse": null, "lanes": null, "lanes:backward": null, "lanes:forward": null, "layer": null, "line_attachment": null, "lit": null, "man_made": null, "maxspeed": null, "name": null, "name:bg": null, "name:ca": null, "name:el": null, "name:en": null, "name:fr": null, "name:mk": null, "name:prefix": null, "natural": null, "noexit": null, "note": null, "oneway": null, "operator": null, "operator:1995-2025": null, "placement": null, "placement:backward": null, "placement:forward": null, "plant:method": null, "plant:output:electricity": null, "plant:source": null, "power": null, "ref": null, "religion": null, "smoothness": null, "source": null, "source:ref": null, "surface": null, "toll": null, "tunnel": null, "turn:lanes": null, "turn:lanes:backward": null, "turn:lanes:forward": null, "voltage": null, "waterway": "stream", "wikidata": null, "wikipedia": null, "label": "waterway:stream" }, "geometry": { "type": "LineString", "coordinates": [ [ 23.0198829, 40.7652731 ], [ 23.0197874, 40.7653307 ] ] } },
{ "type": "Feature", "properties": { "@type": "way", "@id": 782272779, "admin_level": null, "alt_name:ca": null, "amenity": null, "barrier": null, "boat": "no", "boundary": null, "bridge": null, "cables": null, "construction": null, "denomination": null, "design": null, "destination": null, "destination:int_ref": null, "destination:lang:el-Latn": null, "destination:ref": null, "direction": null, "distance": null, "embankment": null, "ford": null, "highway": null, "int_name": null, "int_ref": null, "intermittent": null, "landuse": null, "lanes": null, "lanes:backward": null, "lanes:forward": null, "layer": "-1", "line_attachment": null, "lit": null, "man_made": null, "maxspeed": null, "name": null, "name:bg": null, "name:ca": null, "name:el": null, "name:en": null, "name:fr": null, "name:mk": null, "name:prefix": null, "natural": null, "noexit": null, "note": null, "oneway": null, "operator": null, "operator:1995-2025": null, "placement": null, "placement:backward": null, "placement:forward": null, "plant:method": null, "plant:output:electricity": null, "plant:source": null, "power": null, "ref": null, "religion": null, "smoothness": null, "source": null, "source:ref": null, "surface": null, "toll": null, "tunnel": "culvert", "turn:lanes": null, "turn:lanes:backward": null, "turn:lanes:forward": null, "voltage": null, "waterway": "stream", "wikidata": null, "wikipedia": null, "label": "waterway:stream" }, "geometry": { "type": "LineString", "coordinates": [ [ 23.020166, 40.7651042 ], [ 23.0198829, 40.7652731 ] ] } },
{ "type": "Feature", "properties": { "@type": "way", "@id": 782272780, "admin_level": null, "alt_name:ca": null, "amenity": null, "barrier": null, "boat": "no", "boundary": null, "bridge": null, "cables": null, "construction": null, "denomination": null, "design": null, "destination": null, "destination:int_ref": null, "destination:lang:el-Latn": null, "destination:ref": null, "direction": null, "distance": null, "embankment": null, "ford": null, "highway": null, "int_name": null, "int_ref": null, "intermittent": null, "landuse": null, "lanes": null, "lanes:backward": null, "lanes:forward": null, "layer": null, "line_attachment": null, "lit": null, "man_made": null, "maxspeed": null, "name": null, "name:bg": null, "name:ca": null, "name:el": null, "name:en": null, "name:fr": null, "name:mk": null, "name:prefix": null, "natural": null, "noexit": null, "note": null, "oneway": null, "operator": null, "operator:1995-2025": null, "placement": null, "placement:backward": null, "placement:forward": null, "plant:method": null, "plant:output:electricity": null, "plant:source": null, "power": null, "ref": null, "religion": null, "smoothness": null, "source": null, "source:ref": null, "surface": null, "toll": null, "tunnel": null, "turn:lanes": null, "turn:lanes:backward": null, "turn:lanes:forward": null, "voltage": null, "waterway": "stream", "wikidata": null, "wikipedia": null, "label": "waterway:stream" }, "geometry": { "type": "LineString", "coordinates": [ [ 23.021385544218862, 40.76382882262233 ], [ 23.0213704, 40.7638616 ], [ 23.0211665, 40.7642923 ], [ 23.020909, 40.7646011 ], [ 23.0204692, 40.7649099 ], [ 23.0203599, 40.7649757 ], [ 23.020166, 40.7651042 ] ] } },
{ "type": "Feature", "properties": { "@type": "way", "@id": 1424577418, "admin_level": null, "alt_name:ca": null, "amenity": null, "barrier": null, "boat": null, "boundary": null, "bridge": null, "cables": null, "construction": null, "denomination": null, "design": null, "destination": null, "destination:int_ref": null, "destination:lang:el-Latn": null, "destination:ref": null, "direction": null, "distance": null, "embankment": null, "ford": null, "highway": null, "int_name": null, "int_ref": null, "intermittent": null, "landuse": null, "lanes": null, "lanes:backward": null, "lanes:forward": null, "layer": null, "line_attachment": null, "lit": null, "man_made": null, "maxspeed": null, "name": null, "name:bg": null, "name:ca": null, "name:el": null, "name:en": null, "name:fr": null, "name:mk": null, "name:prefix": null, "natural": null, "noexit": null, "note": null, "oneway": null, "operator": null, "operator:1995-2025": null, "placement": null, "placement:backward": null, "placement:forward": null, "plant:method": null, "plant:output:electricity": null, "plant:source": null, "power": null, "ref": null, "religion": null, "smoothness": null, "source": null, "source:ref": null, "surface": null, "toll": null, "tunnel": null, "turn:lanes": null, "turn:lanes:backward": null, "turn:lanes:forward": null, "voltage": null, "waterway": "stream", "wikidata": null, "wikipedia": null, "label": "waterway:stream" }, "geometry": { "type": "LineString", "coordinates": [ [ 23.019903089557161, 40.786345299019196 ], [ 23.0201089, 40.7859657 ], [ 23.0200202, 40.7855924 ], [ 23.0199117, 40.7851856 ], [ 23.0203061, 40.785081 ], [ 23.0203258, 40.78423 ], [ 23.0202276, 40.7838243 ], [ 23.0200819, 40.7836345 ], [ 23.0200221, 40.7834122 ], [ 23.0200103, 40.783367 ] ] } },
{ "type": "Feature", "properties": { "@type": "way", "@id": 1424577419, "admin_level": null, "alt_name:ca": null, "amenity": null, "barrier": null, "boat": null, "boundary": null, "bridge": null, "cables": null, "construction": null, "denomination": null, "design": null, "destination": null, "destination:int_ref": null, "destination:lang:el-Latn": null, "destination:ref": null, "direction": null, "distance": null, "embankment": null, "ford": null, "highway": null, "int_name": null, "int_ref": null, "intermittent": null, "landuse": null, "lanes": null, "lanes:backward": null, "lanes:forward": null, "layer": null, "line_attachment": null, "lit": null, "man_made": null, "maxspeed": null, "name": null, "name:bg": null, "name:ca": null, "name:el": null, "name:en": null, "name:fr": null, "name:mk": null, "name:prefix": null, "natural": null, "noexit": null, "note": null, "oneway": null, "operator": null, "operator:1995-2025": null, "placement": null, "placement:backward": null, "placement:forward": null, "plant:method": null, "plant:output:electricity": null, "plant:source": null, "power": null, "ref": null, "religion": null, "smoothness": null, "source": null, "source:ref": null, "surface": null, "toll": null, "tunnel": null, "turn:lanes": null, "turn:lanes:backward": null, "turn:lanes:forward": null, "voltage": null, "waterway": "stream", "wikidata": null, "wikipedia": null, "label": "waterway:stream" }, "geometry": { "type": "LineString", "coordinates": [ [ 23.0199801, 40.7830827 ], [ 23.0199898, 40.7830133 ], [ 23.020004, 40.7829661 ] ] } },
{ "type": "Feature", "properties": { "@type": "way", "@id": 1424577420, "admin_level": null, "alt_name:ca": null, "amenity": null, "barrier": null, "boat": null, "boundary": null, "bridge": null, "cables": null, "construction": null, "denomination": null, "design": null, "destination": null, "destination:int_ref": null, "destination:lang:el-Latn": null, "destination:ref": null, "direction": null, "distance": null, "embankment": null, "ford": null, "highway": null, "int_name": null, "int_ref": null, "intermittent": null, "landuse": null, "lanes": null, "lanes:backward": null, "lanes:forward": null, "layer": "-1", "line_attachment": null, "lit": null, "man_made": null, "maxspeed": null, "name": null, "name:bg": null, "name:ca": null, "name:el": null, "name:en": null, "name:fr": null, "name:mk": null, "name:prefix": null, "natural": null, "noexit": null, "note": null, "oneway": null, "operator": null, "operator:1995-2025": null, "placement": null, "placement:backward": null, "placement:forward": null, "plant:method": null, "plant:output:electricity": null, "plant:source": null, "power": null, "ref": null, "religion": null, "smoothness": null, "source": null, "source:ref": null, "surface": null, "toll": null, "tunnel": "culvert", "turn:lanes": null, "turn:lanes:backward": null, "turn:lanes:forward": null, "voltage": null, "waterway": "stream", "wikidata": null, "wikipedia": null, "label": "waterway:stream" }, "geometry": { "type": "LineString", "coordinates": [ [ 23.0200103, 40.783367 ], [ 23.0199801, 40.7830827 ] ] } },
{ "type": "Feature", "properties": { "@type": "node", "@id": 6906532798, "admin_level": null, "alt_name:ca": null, "amenity": "place_of_worship", "barrier": null, "boat": null, "boundary": null, "bridge": null, "cables": null, "construction": null, "denomination": "greek_orthodox", "design": null, "destination": null, "destination:int_ref": null, "destination:lang:el-Latn": null, "destination:ref": null, "direction": null, "distance": null, "embankment": null, "ford": null, "highway": null, "int_name": null, "int_ref": null, "intermittent": null, "landuse": null, "lanes": null, "lanes:backward": null, "lanes:forward": null, "layer": null, "line_attachment": null, "lit": null, "man_made": null, "maxspeed": null, "name": null, "name:bg": null, "name:ca": null, "name:el": null, "name:en": "Church", "name:fr": null, "name:mk": null, "name:prefix": null, "natural": null, "noexit": null, "note": null, "oneway": null, "operator": null, "operator:1995-2025": null, "placement": null, "placement:backward": null, "placement:forward": null, "plant:method": null, "plant:output:electricity": null, "plant:source": null, "power": null, "ref": null, "religion": "christian", "smoothness": null, "source": null, "source:ref": null, "surface": null, "toll": null, "tunnel": null, "turn:lanes": null, "turn:lanes:backward": null, "turn:lanes:forward": null, "voltage": null, "waterway": null, "wikidata": null, "wikipedia": null, "label": "amenity:place_of_worship" }, "geometry": { "type": "Point", "coordinates": [ 23.0230281, 40.769808 ] } },
{ "type": "Feature", "properties": { "@type": "way", "@id": 901496952, "admin_level": null, "alt_name:ca": null, "amenity": null, "barrier": null, "boat": null, "boundary": null, "bridge": null, "cables": null, "construction": null, "denomination": null, "design": null, "destination": null, "destination:int_ref": null, "destination:lang:el-Latn": null, "destination:ref": null, "direction": null, "distance": null, "embankment": null, "ford": null, "highway": null, "int_name": null, "int_ref": null, "intermittent": null, "landuse": null, "lanes": null, "lanes:backward": null, "lanes:forward": null, "layer": null, "line_attachment": null, "lit": null, "man_made": null, "maxspeed": null, "name": null, "name:bg": null, "name:ca": null, "name:el": null, "name:en": null, "name:fr": null, "name:mk": null, "name:prefix": null, "natural": "heath", "noexit": null, "note": null, "oneway": null, "operator": null, "operator:1995-2025": null, "placement": null, "placement:backward": null, "placement:forward": null, "plant:method": null, "plant:output:electricity": null, "plant:source": null, "power": null, "ref": null, "religion": null, "smoothness": null, "source": null, "source:ref": null, "surface": null, "toll": null, "tunnel": null, "turn:lanes": null, "turn:lanes:backward": null, "turn:lanes:forward": null, "voltage": null, "waterway": null, "wikidata": null, "wikipedia": null, "label": "natural:heath" }, "geometry": { "type": "Polygon", "coordinates": [ [ [ 23.0217846, 40.769286 ], [ 23.0219499, 40.7696945 ], [ 23.0220891, 40.7700136 ], [ 23.0222353, 40.7703559 ], [ 23.0222957, 40.7705073 ], [ 23.0223446, 40.7706463 ], [ 23.0224091, 40.7708149 ], [ 23.022478, 40.7709936 ], [ 23.022551, 40.771186 ], [ 23.0226182, 40.7713671 ], [ 23.0226879, 40.771552 ], [ 23.0227515, 40.7717281 ], [ 23.0228078, 40.7718865 ], [ 23.0228746, 40.7720698 ], [ 23.0229567, 40.7723039 ], [ 23.0232462, 40.7732331 ], [ 23.0234154, 40.7738434 ], [ 23.0236069, 40.7745747 ], [ 23.0237679, 40.7753038 ], [ 23.0239265, 40.7760946 ], [ 23.0240088, 40.776541 ], [ 23.0240838, 40.7769918 ], [ 23.0241981, 40.7778491 ], [ 23.0242731, 40.7784121 ], [ 23.0243119, 40.7784096 ], [ 23.0242369, 40.7778484 ], [ 23.0241231, 40.7769962 ], [ 23.0240484, 40.7765405 ], [ 23.0239661, 40.7760941 ], [ 23.0238069, 40.7752984 ], [ 23.0236465, 40.7745742 ], [ 23.0234544, 40.7738405 ], [ 23.023284, 40.7732261 ], [ 23.0229952, 40.7722962 ], [ 23.0229125, 40.7720619 ], [ 23.0228463, 40.7718788 ], [ 23.0227905, 40.7717227 ], [ 23.0227269, 40.7715467 ], [ 23.0226561, 40.7713598 ], [ 23.0225888, 40.7711801 ], [ 23.0225161, 40.7709896 ], [ 23.0224481, 40.7708095 ], [ 23.0223825, 40.7706389 ], [ 23.0223353, 40.7705068 ], [ 23.0222732, 40.7703485 ], [ 23.0221281, 40.7700083 ], [ 23.0219878, 40.7696866 ], [ 23.0218225, 40.7692781 ], [ 23.019472564127032, 40.76382882262233 ], [ 23.019431145879352, 40.76382882262233 ], [ 23.0217846, 40.769286 ] ] ] } },
{ "type": "Feature", "properties": { "@type": "way", "@id": 901511855, "admin_level": null, "alt_name:ca": null, "amenity": null, "barrier": null, "boat": null, "boundary": null, "bridge": null, "cables": null, "construction": null, "denomination": null, "design": null, "destination": null, "destination:int_ref": null, "destination:lang:el-Latn": null, "destination:ref": null, "direction": null, "distance": null, "embankment": null, "ford": null, "highway": null, "int_name": null, "int_ref": null, "intermittent": null, "landuse": null, "lanes": null, "lanes:backward": null, "lanes:forward": null, "layer": null, "line_attachment": null, "lit": null, "man_made": null, "maxspeed": null, "name": null, "name:bg": null, "name:ca": null, "name:el": null, "name:en": null, "name:fr": null, "name:mk": null, "name:prefix": null, "natural": "heath", "noexit": null, "note": null, "oneway": null, "operator": null, "operator:1995-2025": null, "placement": null, "placement:backward": null, "placement:forward": null, "plant:method": null, "plant:output:electricity": null, "plant:source": null, "power": null, "ref": null, "religion": null, "smoothness": null, "source": null, "source:ref": null, "surface": null, "toll": null, "tunnel": null, "turn:lanes": null, "turn:lanes:backward": null, "turn:lanes:forward": null, "voltage": null, "waterway": null, "wikidata": null, "wikipedia": null, "label": "natural:heath" }, "geometry": { "type": "Polygon", "coordinates": [ [ [ 23.0252038, 40.785819 ], [ 23.0248633, 40.7830129 ], [ 23.0248376, 40.7827791 ], [ 23.0247047, 40.7816899 ], [ 23.024517, 40.7800491 ], [ 23.0244844, 40.7796998 ], [ 23.0244302, 40.7792942 ], [ 23.0243913, 40.7792985 ], [ 23.0244449, 40.7797001 ], [ 23.0244775, 40.7800494 ], [ 23.0246654, 40.7816855 ], [ 23.0248021, 40.7827814 ], [ 23.0248278, 40.7830151 ], [ 23.025165, 40.7858197 ], [ 23.025238375659256, 40.786345299019196 ], [ 23.025276665152465, 40.786345299019196 ], [ 23.0252038, 40.785819 ] ] ] } },
{ "type": "Feature", "properties": { "@type": "way", "@id": 1252122448, "admin_level": null, "alt_name:ca": null, "amenity": null, "barrier": null, "boat": null, "boundary": null, "bridge": null, "cables": null, "construction": null, "denomination": null, "design": null, "destination": null, "destination:int_ref": null, "destination:lang:el-Latn": null, "destination:ref": null, "direction": null, "distance": null, "embankment": null, "ford": null, "highway": null, "int_name": null, "int_ref": null, "intermittent": null, "landuse": "farmland", "lanes": null, "lanes:backward": null, "lanes:forward": null, "layer": null, "line_attachment": null, "lit": null, "man_made": null, "maxspeed": null, "name": null, "name:bg": null, "name:ca": null, "name:el": null, "name:en": null, "name:fr": null, "name:mk": null, "name:prefix": null, "natural": null, "noexit": null, "note": null, "oneway": null, "operator": null, "operator:1995-2025": null, "placement": null, "placement:backward": null, "placement:forward": null, "plant:method": null, "plant:output:electricity": null, "plant:source": null, "power": null, "ref": null, "religion": null, "smoothness": null, "source": null, "source:ref": null, "surface": null, "toll": null, "tunnel": null, "turn:lanes": null, "turn:lanes:backward": null, "turn:lanes:forward": null, "voltage": null, "waterway": null, "wikidata": null, "wikipedia": null, "label": "landuse:farmland" }, "geometry": { "type": "Polygon", "coordinates": [ [ [ 23.0059388, 40.7744363 ], [ 23.0064538, 40.7739813 ], [ 23.0071405, 40.7735263 ], [ 23.0080846, 40.7726813 ], [ 23.0098012, 40.7712513 ], [ 23.0105737, 40.7710563 ], [ 23.0110887, 40.7706663 ], [ 23.0116895, 40.7700812 ], [ 23.0123761, 40.7696262 ], [ 23.0130628, 40.7699512 ], [ 23.0134919, 40.7698862 ], [ 23.0143503, 40.7691712 ], [ 23.0149511, 40.7687162 ], [ 23.0152944, 40.7682611 ], [ 23.0155519, 40.7678711 ], [ 23.0198269, 40.7652967 ], [ 23.019193640335416, 40.76382882262233 ], [ 23.005424313568188, 40.76382882262233 ], [ 23.005424313568188, 40.774896727482513 ], [ 23.0059388, 40.7744363 ] ] ] } }
]
}
