{
"type": "FeatureCollection",
"name": "patch_9060_polygon",
"crs": { "type": "name", "properties": { "name": "urn:ogc:def:crs:OGC:1.3:CRS84" } },
"features": [
{ "type": "Feature", "properties": { "element": "way", "id": 180437823, "amenity": null, "brand": null, "brand:wikidata": null, "name": "Kini", "operator": null, "landuse": "residential", "name:de": "Kini", "natural": null, "water": null, "waterway": null, "building": null, "denomination": null, "religion": null, "intermittent": null, "layer": null, "label": "landuse:residential" }, "geometry": { "type": "Polygon", "coordinates": [ [ [ 26.0705735, 38.2491003 ], [ 26.0692383, 38.2513555 ], [ 26.0682565, 38.2520416 ], [ 26.0680832, 38.2521627 ], [ 26.0692912, 38.2532778 ], [ 26.070611288167541, 38.252438410525784 ], [ 26.070611288167541, 38.249089270298519 ], [ 26.0705735, 38.2491003 ] ] ] } },
{ "type": "Feature", "properties": { "element": "way", "id": 180437829, "amenity": null, "brand": null, "brand:wikidata": null, "name": "Φράγμα Καλαμωτής - Κατράρη", "operator": null, "landuse": null, "name:de": null, "natural": "water", "water": "reservoir", "waterway": null, "building": null, "denomination": null, "religion": null, "intermittent": null, "layer": null, "label": "water:reservoir;natural:water" }, "geometry": { "type": "Polygon", "coordinates": [ [ [ 26.0498232, 38.2487638 ], [ 26.0498768, 38.2488986 ], [ 26.0498983, 38.2490671 ], [ 26.0499519, 38.2492103 ], [ 26.0500753, 38.2493872 ], [ 26.0501826, 38.2495136 ], [ 26.0502201, 38.2497243 ], [ 26.0502899, 38.2499307 ], [ 26.0503596, 38.2501455 ], [ 26.0504079, 38.2502972 ], [ 26.0504669, 38.2504868 ], [ 26.0506707, 38.2507185 ], [ 26.0507351, 38.2508954 ], [ 26.0507727, 38.2510766 ], [ 26.0507137, 38.2512661 ], [ 26.0506868, 38.2514726 ], [ 26.0507351, 38.2516916 ], [ 26.0508102, 38.2519823 ], [ 26.0508156, 38.2522435 ], [ 26.0508049, 38.2526858 ], [ 26.050778, 38.2531281 ], [ 26.050778, 38.2533514 ], [ 26.0508049, 38.2535494 ], [ 26.0508639, 38.25368 ], [ 26.0509712, 38.2538569 ], [ 26.0510838, 38.2540675 ], [ 26.051175, 38.2542992 ], [ 26.0512608, 38.254632 ], [ 26.0513091, 38.2549016 ], [ 26.0513198, 38.2550532 ], [ 26.0512877, 38.2552344 ], [ 26.0512877, 38.2554071 ], [ 26.0513306, 38.255643 ], [ 26.0513413, 38.2558031 ], [ 26.0513145, 38.2559716 ], [ 26.0513359, 38.2561401 ], [ 26.0514325, 38.2563549 ], [ 26.0515827, 38.2565992 ], [ 26.0516739, 38.2566455 ], [ 26.0517168, 38.256456 ], [ 26.0517114, 38.2562285 ], [ 26.0517007, 38.2560516 ], [ 26.0518563, 38.2559294 ], [ 26.0518134, 38.2557778 ], [ 26.0518616, 38.255049 ], [ 26.0519207, 38.2548763 ], [ 26.0520655, 38.2546826 ], [ 26.0521299, 38.2544129 ], [ 26.0521513, 38.2542866 ], [ 26.0521352, 38.2540507 ], [ 26.0519689, 38.2537895 ], [ 26.0517812, 38.2534272 ], [ 26.0517329, 38.2532292 ], [ 26.0516954, 38.2529554 ], [ 26.0517329, 38.2527026 ], [ 26.0518026, 38.2525131 ], [ 26.0518724, 38.2523993 ], [ 26.0520065, 38.2522856 ], [ 26.0522024, 38.2521143 ], [ 26.0523176, 38.2520118 ], [ 26.052382, 38.2518138 ], [ 26.0524142, 38.2515273 ], [ 26.0523444, 38.2514515 ], [ 26.052441, 38.2513167 ], [ 26.0525621, 38.2513023 ], [ 26.0527569, 38.2511964 ], [ 26.0528433, 38.2511061 ], [ 26.0528433, 38.2510092 ], [ 26.0527521, 38.2509038 ], [ 26.0526502, 38.2507859 ], [ 26.0526288, 38.2506974 ], [ 26.0526449, 38.2506174 ], [ 26.05272, 38.250432 ], [ 26.0527414, 38.2501034 ], [ 26.0528004, 38.2499307 ], [ 26.0528755, 38.2497664 ], [ 26.0528648, 38.2496779 ], [ 26.0528541, 38.249581 ], [ 26.0528487, 38.249501 ], [ 26.0529184, 38.2493872 ], [ 26.053015, 38.2492946 ], [ 26.0530901, 38.2492356 ], [ 26.0532671, 38.249185 ], [ 26.053369, 38.2490924 ], [ 26.0534173, 38.2489618 ], [ 26.0534066, 38.2488312 ], [ 26.053369, 38.24873 ], [ 26.0531765, 38.2487014 ], [ 26.0530901, 38.2485868 ], [ 26.0529721, 38.2485657 ], [ 26.0528272, 38.2485657 ], [ 26.0526234, 38.2485447 ], [ 26.0525107, 38.2484646 ], [ 26.0524839, 38.2484014 ], [ 26.0525376, 38.2483509 ], [ 26.0526609, 38.2483256 ], [ 26.0528004, 38.2483846 ], [ 26.0529345, 38.2484057 ], [ 26.053192, 38.2483509 ], [ 26.0532242, 38.2483003 ], [ 26.0531652, 38.2482161 ], [ 26.0530794, 38.2481487 ], [ 26.0530257, 38.2480602 ], [ 26.0529131, 38.2479254 ], [ 26.0528165, 38.2478032 ], [ 26.0527843, 38.2476853 ], [ 26.0527253, 38.247601 ], [ 26.0497266, 38.2486458 ], [ 26.0498232, 38.2487638 ] ] ] } },
{ "type": "Feature", "properties": { "element": "way", "id": 402225984, "amenity": "place_of_worship", "brand": null, "brand:wikidata": null, "name": null, "operator": null, "landuse": null, "name:de": null, "natural": null, "water": null, "waterway": null, "building": "yes", "denomination": "greek_orthodox", "religion": "christian", "intermittent": null, "layer": null, "label": "building:yes;amenity:place_of_worship" }, "geometry": { "type": "Polygon", "coordinates": [ [ [ 26.0704354, 38.2508507 ], [ 26.070477, 38.2507423 ], [ 26.0702329, 38.2506928 ], [ 26.0702195, 38.2507244 ], [ 26.0702007, 38.2507307 ], [ 26.0701846, 38.2507412 ], [ 26.0701792, 38.2507538 ], [ 26.0701953, 38.2507675 ], [ 26.0701846, 38.250796 ], [ 26.0704354, 38.2508507 ] ] ] } },
{ "type": "Feature", "properties": { "element": "way", "id": 408248030, "amenity": null, "brand": null, "brand:wikidata": null, "name": null, "operator": null, "landuse": null, "name:de": null, "natural": null, "water": null, "waterway": null, "building": "yes", "denomination": null, "religion": null, "intermittent": null, "layer": null, "label": "building:yes" }, "geometry": { "type": "Polygon", "coordinates": [ [ [ 26.069151, 38.2518542 ], [ 26.0691186, 38.2517452 ], [ 26.0689436, 38.2517773 ], [ 26.0689672, 38.2518567 ], [ 26.0690729, 38.2518373 ], [ 26.0690817, 38.2518669 ], [ 26.069151, 38.2518542 ] ] ] } },
{ "type": "Feature", "properties": { "element": "way", "id": 416578065, "amenity": null, "brand": null, "brand:wikidata": null, "name": null, "operator": null, "landuse": null, "name:de": null, "natural": null, "water": null, "waterway": null, "building": "yes", "denomination": null, "religion": null, "intermittent": null, "layer": null, "label": "building:yes" }, "geometry": { "type": "Polygon", "coordinates": [ [ [ 26.044922, 38.2615905 ], [ 26.0448476, 38.2614855 ], [ 26.0447091, 38.261546 ], [ 26.0447835, 38.261651 ], [ 26.044922, 38.2615905 ] ] ] } },
{ "type": "Feature", "properties": { "element": "way", "id": 1065322431, "amenity": null, "brand": null, "brand:wikidata": null, "name": null, "operator": null, "landuse": null, "name:de": null, "natural": null, "water": null, "waterway": null, "building": "roof", "denomination": null, "religion": null, "intermittent": null, "layer": "2", "label": "building:roof" }, "geometry": { "type": "Polygon", "coordinates": [ [ [ 26.0677315, 38.2521486 ], [ 26.0677867, 38.2520968 ], [ 26.0677326, 38.2520612 ], [ 26.067704, 38.2520911 ], [ 26.0676773, 38.252113 ], [ 26.0677315, 38.2521486 ] ] ] } },
{ "type": "Feature", "properties": { "element": "way", "id": 1065322432, "amenity": null, "brand": null, "brand:wikidata": null, "name": null, "operator": null, "landuse": null, "name:de": null, "natural": null, "water": null, "waterway": null, "building": "yes", "denomination": null, "religion": null, "intermittent": null, "layer": null, "label": "building:yes" }, "geometry": { "type": "Polygon", "coordinates": [ [ [ 26.0677326, 38.2520612 ], [ 26.0677822, 38.2520095 ], [ 26.0676959, 38.2519586 ], [ 26.0676178, 38.2520402 ], [ 26.067704, 38.2520911 ], [ 26.0677326, 38.2520612 ] ] ] } }
]
}
