{
"type": "FeatureCollection",
"name": "patch_9060_point",
"crs": { "type": "name", "properties": { "name": "urn:ogc:def:crs:OGC:1.3:CRS84" } },
"features": [
{ "type": "Feature", "properties": { "element": "node", "id": 1338824344, "amenity": "fuel", "brand": "Revoil", "brand:wikidata": "Q62530755", "name": "REVOIL", "operator": "ΚΑΛΠΑΚΤΣΟΓΛΟΥ ΦΡΑΓΚΟΥΛΗΣ", "landuse": null, "name:de": null, "natural": null, "water": null, "waterway": null, "building": null, "denomination": null, "religion": null, "intermittent": null, "layer": null, "label": "amenity:fuel" }, "geometry": { "type": "Point", "coordinates": [ 26.0677331, 38.2520896 ] } }
]
}
