{
"type": "FeatureCollection",
"name": "patch_9060_linestring",
"crs": { "type": "name", "properties": { "name": "urn:ogc:def:crs:OGC:1.3:CRS84" } },
"features": [
{ "type": "Feature", "properties": { "element": "way", "id": 402169629, "amenity": null, "brand": null, "brand:wikidata": null, "name": "Φράγμα Καλαμωτής", "operator": null, "landuse": null, "name:de": null, "natural": null, "water": null, "waterway": "dam", "building": null, "denomination": null, "religion": null, "intermittent": null, "layer": null, "label": "waterway:dam" }, "geometry": { "type": "LineString", "coordinates": [ [ 26.048998, 38.2485511 ], [ 26.0526458, 38.2473125 ] ] } },
{ "type": "Feature", "properties": { "element": "way", "id": 405528652, "amenity": null, "brand": null, "brand:wikidata": null, "name": "Κατράρης", "operator": null, "landuse": null, "name:de": null, "natural": null, "water": null, "waterway": "stream", "building": null, "denomination": null, "religion": null, "intermittent": "yes", "layer": null, "label": "waterway:stream" }, "geometry": { "type": "LineString", "coordinates": [ [ 26.053331799820029, 38.264266272715844 ], [ 26.0533348, 38.2641864 ], [ 26.0533348, 38.2640621 ], [ 26.0533482, 38.2638663 ], [ 26.0533643, 38.2634619 ], [ 26.0533402, 38.2630744 ], [ 26.0533321, 38.2628386 ], [ 26.0532919, 38.26247 ], [ 26.053249, 38.2620888 ], [ 26.0532168, 38.261695 ], [ 26.0532088, 38.2613959 ], [ 26.0532275, 38.261318 ], [ 26.0532785, 38.2612064 ], [ 26.0533482, 38.26104 ], [ 26.0533643, 38.2609347 ], [ 26.0533482, 38.2608231 ], [ 26.0533134, 38.2607157 ], [ 26.0532463, 38.2605851 ], [ 26.0531712, 38.2604103 ], [ 26.0531229, 38.2602144 ], [ 26.0531095, 38.2601323 ], [ 26.0531337, 38.2598122 ], [ 26.0531658, 38.2596374 ], [ 26.0532195, 38.2595131 ], [ 26.0533563, 38.2593572 ], [ 26.0534716, 38.2592393 ], [ 26.0535709, 38.2590813 ], [ 26.0536084, 38.2589781 ], [ 26.0535869, 38.2588707 ], [ 26.0535494, 38.2587928 ], [ 26.0534609, 38.2587338 ], [ 26.0532919, 38.2586875 ], [ 26.05308, 38.2586201 ], [ 26.0529003, 38.2585696 ], [ 26.0528145, 38.2585295 ], [ 26.0527608, 38.2584832 ], [ 26.0526187, 38.2583189 ], [ 26.0525033, 38.2581315 ], [ 26.052439, 38.2579503 ], [ 26.0524255, 38.257805 ], [ 26.0523531, 38.257546 ], [ 26.0522646, 38.2573838 ], [ 26.0520903, 38.2571542 ], [ 26.0519803, 38.2570615 ], [ 26.0518435, 38.2569478 ], [ 26.0517657, 38.2568257 ], [ 26.0516739, 38.2566455 ] ] } }
]
}
