{
"type": "FeatureCollection",
"name": "patch_23873_point",
"crs": { "type": "name", "properties": { "name": "urn:ogc:def:crs:OGC:1.3:CRS84" } },
"features": [
{ "type": "Feature", "properties": { "element": "node", "id": 10202093917, "amenity": "atm", "name:en": "HDi rassk tri9 gdamk", "leaf_type": null, "natural": null, "source": null, "landuse": null, "water": null, "intermittent": null, "waterway": null, "type": null, "label": "amenity:atm" }, "geometry": { "type": "Point", "coordinates": [ 26.2021324, 41.2232781 ] } }
]
}
