{
"type": "FeatureCollection",
"name": "patch_23873_features",
"crs": { "type": "name", "properties": { "name": "urn:ogc:def:crs:OGC:1.3:CRS84" } },
"features": [
{ "type": "Feature", "properties": { "element": "node", "id": 10202093917, "amenity": "atm", "name:en": "HDi rassk tri9 gdamk", "leaf_type": null, "natural": null, "source": null, "landuse": null, "water": null, "intermittent": null, "waterway": null, "type": null, "label": "amenity:atm" }, "geometry": { "type": "Point", "coordinates": [ 26.2021324, 41.2232781 ] } },
{ "type": "Feature", "properties": { "element": "relation", "id": 1844015, "amenity": null, "name:en": null, "leaf_type": "mixed", "natural": "wood", "source": "http://geodata.gov.gr/", "landuse": null, "water": null, "intermittent": null, "waterway": null, "type": "multipolygon", "label": "natural:wood" }, "geometry": { "type": "MultiPolygon", "coordinates": [ [ [ [ 26.184688, 41.202457 ], [ 26.186028, 41.204724 ], [ 26.18621, 41.206391 ], [ 26.186123, 41.207587 ], [ 26.185966, 41.208545 ], [ 26.185831, 41.208807 ], [ 26.185993, 41.208853 ], [ 26.186871, 41.209224 ], [ 26.187809, 41.209683 ], [ 26.188384, 41.209959 ], [ 26.188777, 41.210118 ], [ 26.189412, 41.210232 ], [ 26.189837, 41.210261 ], [ 26.190169, 41.210281 ], [ 26.190594, 41.210215 ], [ 26.190957, 41.210078 ], [ 26.191381, 41.209643 ], [ 26.191896, 41.209373 ], [ 26.192138, 41.209188 ], [ 26.192168, 41.209172 ], [ 26.192291, 41.208384 ], [ 26.192758, 41.207553 ], [ 26.193928, 41.207007 ], [ 26.194917, 41.206988 ], [ 26.195403, 41.206942 ], [ 26.195411, 41.206934 ], [ 26.195684, 41.206709 ], [ 26.195775, 41.206455 ], [ 26.195593, 41.206203 ], [ 26.195352, 41.206018 ], [ 26.194989, 41.205791 ], [ 26.194111, 41.205471 ], [ 26.193627, 41.205331 ], [ 26.193264, 41.205217 ], [ 26.192931, 41.205102 ], [ 26.192568, 41.204987 ], [ 26.191963, 41.204756 ], [ 26.19169, 41.204639 ], [ 26.191297, 41.204386 ], [ 26.191025, 41.204274 ], [ 26.190752, 41.204019 ], [ 26.19042, 41.203791 ], [ 26.19039, 41.203563 ], [ 26.190481, 41.203287 ], [ 26.1905514, 41.2031629 ], [ 26.190816, 41.202696 ], [ 26.190967, 41.202469 ], [ 26.191209, 41.202195 ], [ 26.191391, 41.202011 ], [ 26.191845, 41.201693 ], [ 26.192149, 41.201512 ], [ 26.192482, 41.201353 ], [ 26.19289011293661, 41.201213461385642 ], [ 26.184036168997537, 41.201213461385642 ], [ 26.184036168997537, 41.201988636304868 ], [ 26.184688, 41.202457 ] ] ], [ [ [ 26.194358, 41.201309 ], [ 26.194903, 41.201447 ], [ 26.195327, 41.201565 ], [ 26.195811, 41.201722 ], [ 26.196174, 41.201841 ], [ 26.197022, 41.202095 ], [ 26.197342, 41.202158 ], [ 26.197354, 41.202161 ], [ 26.197748, 41.20214 ], [ 26.198293, 41.202026 ], [ 26.198778, 41.201914 ], [ 26.199232, 41.201779 ], [ 26.200019, 41.201576 ], [ 26.200322, 41.201368 ], [ 26.20049703863463, 41.201213461385642 ], [ 26.194060846809759, 41.201213461385642 ], [ 26.194358, 41.201309 ] ] ], [ [ [ 26.205438, 41.201313 ], [ 26.205286, 41.201518 ], [ 26.205104, 41.201723 ], [ 26.204832, 41.201953 ], [ 26.204468, 41.202315 ], [ 26.204135, 41.202613 ], [ 26.203923, 41.202887 ], [ 26.203619, 41.203207 ], [ 26.203377, 41.20341 ], [ 26.204255, 41.203528 ], [ 26.20483, 41.203436 ], [ 26.205072, 41.203576 ], [ 26.20592, 41.203735 ], [ 26.206404, 41.203874 ], [ 26.206888, 41.203968 ], [ 26.207372, 41.204058 ], [ 26.207381, 41.204059 ], [ 26.207735, 41.204105 ], [ 26.208099, 41.204085 ], [ 26.208795, 41.204247 ], [ 26.209097, 41.204269 ], [ 26.209703, 41.20436 ], [ 26.210006, 41.204409 ], [ 26.21052, 41.20448 ], [ 26.211065, 41.204524 ], [ 26.211609, 41.204549 ], [ 26.212064, 41.204527 ], [ 26.212548, 41.204415 ], [ 26.213093, 41.204211 ], [ 26.213457, 41.204142 ], [ 26.213941, 41.203845 ], [ 26.214289814816471, 41.203699001221146 ], [ 26.214289814816471, 41.201213461385642 ], [ 26.205488950273789, 41.201213461385642 ], [ 26.205438, 41.201313 ] ] ] ] } },
{ "type": "Feature", "properties": { "element": "way", "id": 136842716, "amenity": null, "name:en": null, "leaf_type": "needleleaved", "natural": "wood", "source": "http://geodata.gov.gr/", "landuse": null, "water": null, "intermittent": null, "waterway": null, "type": null, "label": "natural:wood" }, "geometry": { "type": "Polygon", "coordinates": [ [ [ 26.185324, 41.211482 ], [ 26.185081, 41.211297 ], [ 26.1849, 41.211116 ], [ 26.184689, 41.210842 ], [ 26.184447, 41.210541 ], [ 26.184175, 41.210245 ], [ 26.184036168997537, 41.210050943405399 ], [ 26.184036168997537, 41.221111072774463 ], [ 26.184856, 41.2214 ], [ 26.185279, 41.221518 ], [ 26.185855, 41.221768 ], [ 26.18649, 41.221815 ], [ 26.187156, 41.221681 ], [ 26.187611, 41.221614 ], [ 26.188095, 41.221452 ], [ 26.188581, 41.221183 ], [ 26.189005, 41.220725 ], [ 26.189369, 41.220314 ], [ 26.189914, 41.219926 ], [ 26.190521, 41.219268 ], [ 26.190673, 41.219013 ], [ 26.190976, 41.218558 ], [ 26.191128, 41.218308 ], [ 26.191372, 41.217922 ], [ 26.191008, 41.217803 ], [ 26.190705, 41.217759 ], [ 26.190372, 41.217711 ], [ 26.190008, 41.217664 ], [ 26.188979, 41.217364 ], [ 26.188586, 41.217228 ], [ 26.188284, 41.217089 ], [ 26.18789, 41.216926 ], [ 26.187557, 41.216743 ], [ 26.187194, 41.216584 ], [ 26.186891, 41.216378 ], [ 26.186619, 41.216195 ], [ 26.186347, 41.215988 ], [ 26.186135, 41.215781 ], [ 26.185924, 41.215596 ], [ 26.185652, 41.215116 ], [ 26.18547, 41.214796 ], [ 26.18538, 41.214523 ], [ 26.18532, 41.214156 ], [ 26.185412, 41.213678 ], [ 26.185503, 41.213447 ], [ 26.185746, 41.212993 ], [ 26.18608, 41.212214 ], [ 26.186444, 41.211735 ], [ 26.185324, 41.211482 ] ] ] } },
{ "type": "Feature", "properties": { "element": "way", "id": 193380322, "amenity": null, "name:en": null, "leaf_type": null, "natural": null, "source": null, "landuse": "residential", "water": null, "intermittent": null, "waterway": null, "type": null, "label": "landuse:residential" }, "geometry": { "type": "Polygon", "coordinates": [ [ [ 26.2003393, 41.2085657 ], [ 26.1995414, 41.2090713 ], [ 26.1983969, 41.2098809 ], [ 26.1984231, 41.2102324 ], [ 26.1990269, 41.2105484 ], [ 26.1996884, 41.2109986 ], [ 26.2003498, 41.2118912 ], [ 26.2001608, 41.2121992 ], [ 26.1991424, 41.2115199 ], [ 26.1987539, 41.2116858 ], [ 26.1984389, 41.2124046 ], [ 26.1989406, 41.2130965 ], [ 26.1990689, 41.2132734 ], [ 26.2001503, 41.2130049 ], [ 26.2007488, 41.213542 ], [ 26.2015783, 41.2132497 ], [ 26.2028488, 41.2130049 ], [ 26.2031024, 41.2129537 ], [ 26.2037097, 41.2128311 ], [ 26.2043607, 41.2135025 ], [ 26.2042872, 41.2141422 ], [ 26.2047091, 41.2147122 ], [ 26.2048017, 41.2148373 ], [ 26.2073006, 41.214316 ], [ 26.2069016, 41.2130996 ], [ 26.2063872, 41.2124204 ], [ 26.2063596, 41.2120016 ], [ 26.2063347, 41.2116226 ], [ 26.2053057, 41.2111724 ], [ 26.2051797, 41.2104457 ], [ 26.2054948, 41.210199 ], [ 26.2056942, 41.2100428 ], [ 26.2054212, 41.209561 ], [ 26.2044972, 41.2090555 ], [ 26.2040498, 41.2092055 ], [ 26.2035312, 41.2093793 ], [ 26.2028068, 41.2097822 ], [ 26.2022713, 41.209324 ], [ 26.2015678, 41.2086289 ], [ 26.2010029, 41.2084739 ], [ 26.2006753, 41.208384 ], [ 26.2003393, 41.2085657 ] ] ] } },
{ "type": "Feature", "properties": { "element": "way", "id": 338650862, "amenity": null, "name:en": null, "leaf_type": "mixed", "natural": "wood", "source": "http://geodata.gov.gr/", "landuse": null, "water": null, "intermittent": null, "waterway": null, "type": null, "label": "natural:wood" }, "geometry": { "type": "Polygon", "coordinates": [ [ [ 26.214211, 41.206819 ], [ 26.213908, 41.206933 ], [ 26.213515, 41.207066 ], [ 26.213151, 41.207226 ], [ 26.212666, 41.207455 ], [ 26.212424, 41.207613 ], [ 26.212091, 41.207821 ], [ 26.211818, 41.207957 ], [ 26.211243, 41.208457 ], [ 26.210989, 41.2087378 ], [ 26.210788, 41.20896 ], [ 26.210424, 41.209439 ], [ 26.210121, 41.209782 ], [ 26.209879, 41.210056 ], [ 26.209576, 41.210349 ], [ 26.209333, 41.210601 ], [ 26.209061, 41.210921 ], [ 26.208757, 41.211376 ], [ 26.208605, 41.211743 ], [ 26.208575, 41.211995 ], [ 26.208635, 41.212223 ], [ 26.208907, 41.212681 ], [ 26.209058, 41.213024 ], [ 26.20924, 41.213299 ], [ 26.20939, 41.213643 ], [ 26.209451, 41.213961 ], [ 26.209511, 41.214238 ], [ 26.209087, 41.214601 ], [ 26.208814, 41.214737 ], [ 26.208481, 41.214896 ], [ 26.208178, 41.215077 ], [ 26.207724, 41.215305 ], [ 26.20739, 41.215536 ], [ 26.207118, 41.215717 ], [ 26.206875, 41.215874 ], [ 26.206482, 41.216174 ], [ 26.205997, 41.216443 ], [ 26.205603, 41.216649 ], [ 26.2053, 41.216785 ], [ 26.204785, 41.217037 ], [ 26.204089, 41.217333 ], [ 26.203574, 41.21763 ], [ 26.20327, 41.217834 ], [ 26.202937, 41.218105 ], [ 26.202724, 41.218289 ], [ 26.202513, 41.218495 ], [ 26.202179, 41.218789 ], [ 26.201936, 41.218951 ], [ 26.201512, 41.219062 ], [ 26.201209, 41.219131 ], [ 26.201119, 41.218836 ], [ 26.200907, 41.218534 ], [ 26.200606, 41.218194 ], [ 26.200242, 41.217805 ], [ 26.2, 41.217527 ], [ 26.199698, 41.217231 ], [ 26.199395, 41.216909 ], [ 26.198911, 41.216473 ], [ 26.198518, 41.216175 ], [ 26.198215, 41.215992 ], [ 26.197913, 41.215764 ], [ 26.19755, 41.215487 ], [ 26.197248, 41.215169 ], [ 26.197067, 41.214984 ], [ 26.196885, 41.214781 ], [ 26.196704, 41.214528 ], [ 26.196643, 41.21425 ], [ 26.196553, 41.213726 ], [ 26.196523, 41.21343 ], [ 26.196463, 41.21304 ], [ 26.196403, 41.212767 ], [ 26.196312, 41.212535 ], [ 26.196132, 41.212125 ], [ 26.19595, 41.21185 ], [ 26.195375, 41.211622 ], [ 26.194285, 41.211319 ], [ 26.193589, 41.211112 ], [ 26.193257, 41.211046 ], [ 26.192712, 41.210975 ], [ 26.191894, 41.21095 ], [ 26.190865, 41.210992 ], [ 26.190502, 41.211039 ], [ 26.190047, 41.211034 ], [ 26.189623, 41.211011 ], [ 26.188957, 41.210987 ], [ 26.187958, 41.211033 ], [ 26.187595, 41.211075 ], [ 26.18711, 41.211327 ], [ 26.186868, 41.211462 ], [ 26.186444, 41.211735 ], [ 26.18608, 41.212214 ], [ 26.185746, 41.212993 ], [ 26.185503, 41.213447 ], [ 26.185412, 41.213678 ], [ 26.18532, 41.214156 ], [ 26.18538, 41.214523 ], [ 26.18547, 41.214796 ], [ 26.185652, 41.215116 ], [ 26.185924, 41.215596 ], [ 26.186135, 41.215781 ], [ 26.186347, 41.215988 ], [ 26.186619, 41.216195 ], [ 26.186891, 41.216378 ], [ 26.187194, 41.216584 ], [ 26.187557, 41.216743 ], [ 26.18789, 41.216926 ], [ 26.188284, 41.217089 ], [ 26.188586, 41.217228 ], [ 26.188979, 41.217364 ], [ 26.190008, 41.217664 ], [ 26.190372, 41.217711 ], [ 26.190705, 41.217759 ], [ 26.191008, 41.217803 ], [ 26.191372, 41.217922 ], [ 26.191128, 41.218308 ], [ 26.190976, 41.218558 ], [ 26.190673, 41.219013 ], [ 26.190521, 41.219268 ], [ 26.189914, 41.219926 ], [ 26.189369, 41.220314 ], [ 26.189005, 41.220725 ], [ 26.188581, 41.221183 ], [ 26.188095, 41.221452 ], [ 26.187611, 41.221614 ], [ 26.187156, 41.221681 ], [ 26.18649, 41.221815 ], [ 26.185855, 41.221768 ], [ 26.185279, 41.221518 ], [ 26.184856, 41.2214 ], [ 26.184036168997537, 41.221111072774463 ], [ 26.184036168997537, 41.223303765265044 ], [ 26.184278, 41.223204 ], [ 26.184914, 41.223022 ], [ 26.185489, 41.223047 ], [ 26.185671, 41.223232 ], [ 26.185731, 41.22346 ], [ 26.185761, 41.223689 ], [ 26.185609, 41.224078 ], [ 26.185397, 41.224352 ], [ 26.185197108429819, 41.224483796639682 ], [ 26.189040963114419, 41.224483796639682 ], [ 26.189077, 41.224448 ], [ 26.189163761347018, 41.224483796639682 ], [ 26.202503453369697, 41.224483796639682 ], [ 26.202627, 41.224417 ], [ 26.203021, 41.224256 ], [ 26.203263, 41.224117 ], [ 26.203687, 41.223983 ], [ 26.204051, 41.223801 ], [ 26.204384, 41.223732 ], [ 26.204747, 41.223644 ], [ 26.205596, 41.223574 ], [ 26.20605, 41.223602 ], [ 26.206386, 41.223621 ], [ 26.206474, 41.223625 ], [ 26.207049, 41.223646 ], [ 26.207594, 41.223811 ], [ 26.207896, 41.223922 ], [ 26.20832, 41.224108 ], [ 26.208683, 41.224245 ], [ 26.208949244529297, 41.224483796639682 ], [ 26.212605449459506, 41.224483796639682 ], [ 26.212954, 41.223957 ], [ 26.213438, 41.223458 ], [ 26.213469, 41.222793 ], [ 26.2135, 41.222473 ], [ 26.21356, 41.22213 ], [ 26.213652, 41.221697 ], [ 26.213713, 41.221215 ], [ 26.213743, 41.220967 ], [ 26.213743, 41.220738 ], [ 26.213743, 41.220509 ], [ 26.213805, 41.220279 ], [ 26.214138, 41.220052 ], [ 26.214289814816471, 41.220010019902922 ], [ 26.214289814816471, 41.206797462017121 ], [ 26.214211, 41.206819 ] ] ] } },
{ "type": "Feature", "properties": { "element": "way", "id": 562712381, "amenity": null, "name:en": null, "leaf_type": null, "natural": "water", "source": null, "landuse": null, "water": "pond", "intermittent": null, "waterway": null, "type": null, "label": "water:pond;natural:water" }, "geometry": { "type": "Polygon", "coordinates": [ [ [ 26.1924561, 41.2188361 ], [ 26.1924561, 41.2189908 ], [ 26.1923964, 41.2191355 ], [ 26.192058, 41.2193352 ], [ 26.191912, 41.21944 ], [ 26.1918324, 41.2195348 ], [ 26.1916997, 41.2196496 ], [ 26.1916134, 41.2197444 ], [ 26.1915139, 41.2198692 ], [ 26.1916931, 41.2198342 ], [ 26.1918258, 41.2197045 ], [ 26.1919916, 41.2196546 ], [ 26.1923234, 41.2195298 ], [ 26.1925224, 41.219415 ], [ 26.192748, 41.2193152 ], [ 26.1929205, 41.2192653 ], [ 26.1930997, 41.2192154 ], [ 26.1932589, 41.2192054 ], [ 26.1933319, 41.2192004 ], [ 26.193312, 41.2190457 ], [ 26.1930134, 41.2186714 ], [ 26.1928011, 41.2185067 ], [ 26.192675, 41.2184568 ], [ 26.1924362, 41.2184518 ], [ 26.1921907, 41.2185067 ], [ 26.1920779, 41.2185067 ], [ 26.1919717, 41.2185067 ], [ 26.1919717, 41.2185666 ], [ 26.1921044, 41.2185816 ], [ 26.192257, 41.2186514 ], [ 26.1923234, 41.2187113 ], [ 26.1924561, 41.2188361 ] ] ] } },
{ "type": "Feature", "properties": { "element": "way", "id": 806184534, "amenity": null, "name:en": null, "leaf_type": null, "natural": null, "source": null, "landuse": "cemetery", "water": null, "intermittent": null, "waterway": null, "type": null, "label": "landuse:cemetery" }, "geometry": { "type": "Polygon", "coordinates": [ [ [ 26.2055787, 41.2070332 ], [ 26.2057901, 41.2069839 ], [ 26.2058994, 41.2065945 ], [ 26.2053746, 41.2065177 ], [ 26.2052361, 41.2069236 ], [ 26.2055787, 41.2070332 ] ] ] } },
{ "type": "Feature", "properties": { "element": "way", "id": 845118493, "amenity": null, "name:en": null, "leaf_type": null, "natural": null, "source": null, "landuse": null, "water": null, "intermittent": "yes", "waterway": "stream", "type": null, "label": "waterway:stream" }, "geometry": { "type": "LineString", "coordinates": [ [ 26.2140056, 41.2091317 ], [ 26.214289814816471, 41.209204793796751 ] ] } },
{ "type": "Feature", "properties": { "element": "way", "id": 845118494, "amenity": null, "name:en": null, "leaf_type": null, "natural": null, "source": null, "landuse": null, "water": null, "intermittent": null, "waterway": "stream", "type": null, "label": "waterway:stream" }, "geometry": { "type": "LineString", "coordinates": [ [ 26.2069096, 41.2125345 ], [ 26.2077046, 41.2128471 ], [ 26.2084635, 41.2130918 ], [ 26.2092547, 41.2131826 ], [ 26.2095295, 41.2132141 ], [ 26.2103788, 41.2134316 ], [ 26.2113725, 41.2138394 ], [ 26.2120049, 41.2143423 ], [ 26.2127277, 41.2147908 ], [ 26.213324, 41.2152258 ], [ 26.2140828, 41.2155248 ], [ 26.214289814816471, 41.2158128679336 ] ] } },
{ "type": "Feature", "properties": { "element": "way", "id": 1170011686, "amenity": null, "name:en": null, "leaf_type": null, "natural": "wood", "source": "Maxar Premium", "landuse": null, "water": null, "intermittent": null, "waterway": null, "type": null, "label": "natural:wood" }, "geometry": { "type": "Polygon", "coordinates": [ [ [ 26.1923236, 41.2098502 ], [ 26.1923045, 41.2097885 ], [ 26.1922375, 41.2097582 ], [ 26.1921838, 41.2097158 ], [ 26.19216, 41.2096525 ], [ 26.1920604, 41.2096533 ], [ 26.1920553, 41.2097574 ], [ 26.1919692, 41.2097602 ], [ 26.1919639, 41.2096957 ], [ 26.1919129, 41.2096674 ], [ 26.1918005, 41.2096908 ], [ 26.1916772, 41.2097191 ], [ 26.1915615, 41.2097481 ], [ 26.1915213, 41.2098026 ], [ 26.1915833, 41.2098684 ], [ 26.1916876, 41.2098692 ], [ 26.1917549, 41.2098845 ], [ 26.1918325, 41.209956 ], [ 26.1919129, 41.2099681 ], [ 26.1919827, 41.2100246 ], [ 26.1920741, 41.2100298 ], [ 26.1921251, 41.2099895 ], [ 26.1922214, 41.2099661 ], [ 26.1923128, 41.2099552 ], [ 26.1923823, 41.2098853 ], [ 26.1923236, 41.2098502 ] ] ] } }
]
}
