{
"type": "FeatureCollection",
"name": "patch_9804_linestring",
"crs": { "type": "name", "properties": { "name": "urn:ogc:def:crs:OGC:1.3:CRS84" } },
"features": [
{ "type": "Feature", "properties": { "@type": "way", "@id": 8886120, "admin_level": "7", "building": null, "int_name": null, "leaf_cycle": null, "leaf_type": null, "man_made": null, "name": null, "name:el": null, "name:en": null, "name:ru": null, "natural": "coastline", "place": null, "seamark:light:1:character": null, "seamark:light:1:colour": null, "seamark:light:1:group": null, "seamark:light:1:height": null, "seamark:light:1:period": null, "seamark:light:1:range": null, "seamark:light:1:sector_end": null, "seamark:light:1:sector_start": null, "seamark:light:1:sequence": null, "seamark:light:2:character": null, "seamark:light:2:colour": null, "seamark:light:2:group": null, "seamark:light:2:height": null, "seamark:light:2:period": null, "seamark:light:2:range": null, "seamark:light:2:sector_end": null, "seamark:light:2:sector_start": null, "seamark:light:2:sequence": null, "seamark:light:3:character": null, "seamark:light:3:colour": null, "seamark:light:3:group": null, "seamark:light:3:height": null, "seamark:light:3:period": null, "seamark:light:3:range": null, "seamark:light:3:sector_end": null, "seamark:light:3:sector_start": null, "seamark:light:3:sequence": null, "seamark:light:4:character": null, "seamark:light:4:colour": null, "seamark:light:4:group": null, "seamark:light:4:height": null, "seamark:light:4:period": null, "seamark:light:4:range": null, "seamark:light:4:sector_end": null, "seamark:light:4:sector_start": null, "seamark:light:4:sequence": null, "seamark:light:reference": null, "seamark:name": null, "seamark:type": null, "source": "PGS", "wikidata": null, "wikipedia": null, "label": "natural:coastline" }, "geometry": { "type": "LineString", "coordinates": [ [ 23.3466602, 39.0416226 ], [ 23.3467996, 39.0417726 ], [ 23.3470142, 39.0418559 ], [ 23.3471, 39.0419642 ], [ 23.3473253, 39.0419851 ], [ 23.3471483, 39.0422184 ], [ 23.3471912, 39.0422851 ], [ 23.3469122, 39.0426267 ], [ 23.3462239, 39.0430331 ], [ 23.3459807, 39.0430731 ], [ 23.3458018, 39.0427121 ], [ 23.3459744, 39.0424683 ], [ 23.3463114, 39.0418788 ], [ 23.3466602, 39.0416226 ] ] } },
{ "type": "Feature", "properties": { "@type": "way", "@id": 136247451, "admin_level": null, "building": null, "int_name": null, "leaf_cycle": null, "leaf_type": null, "man_made": null, "name": null, "name:el": null, "name:en": null, "name:ru": null, "natural": "coastline", "place": null, "seamark:light:1:character": null, "seamark:light:1:colour": null, "seamark:light:1:group": null, "seamark:light:1:height": null, "seamark:light:1:period": null, "seamark:light:1:range": null, "seamark:light:1:sector_end": null, "seamark:light:1:sector_start": null, "seamark:light:1:sequence": null, "seamark:light:2:character": null, "seamark:light:2:colour": null, "seamark:light:2:group": null, "seamark:light:2:height": null, "seamark:light:2:period": null, "seamark:light:2:range": null, "seamark:light:2:sector_end": null, "seamark:light:2:sector_start": null, "seamark:light:2:sequence": null, "seamark:light:3:character": null, "seamark:light:3:colour": null, "seamark:light:3:group": null, "seamark:light:3:height": null, "seamark:light:3:period": null, "seamark:light:3:range": null, "seamark:light:3:sector_end": null, "seamark:light:3:sector_start": null, "seamark:light:3:sequence": null, "seamark:light:4:character": null, "seamark:light:4:colour": null, "seamark:light:4:group": null, "seamark:light:4:height": null, "seamark:light:4:period": null, "seamark:light:4:range": null, "seamark:light:4:sector_end": null, "seamark:light:4:sector_start": null, "seamark:light:4:sequence": null, "seamark:light:reference": null, "seamark:name": null, "seamark:type": null, "source": null, "wikidata": null, "wikipedia": null, "label": "natural:coastline" }, "geometry": { "type": "LineString", "coordinates": [ [ 23.33178, 39.043779 ], [ 23.332609, 39.044948 ], [ 23.332953, 39.045623 ], [ 23.333464, 39.045917 ], [ 23.333721, 39.045846 ], [ 23.334029, 39.045302 ], [ 23.334617, 39.044905 ], [ 23.335249, 39.044672 ], [ 23.335392, 39.04429 ], [ 23.335651, 39.044074 ], [ 23.335977, 39.04413 ], [ 23.336114, 39.044495 ], [ 23.336109, 39.045022 ], [ 23.33615, 39.045605 ], [ 23.3368, 39.045991 ], [ 23.337448, 39.046504 ], [ 23.337845, 39.046488 ], [ 23.338234, 39.046089 ], [ 23.338922, 39.046112 ], [ 23.339434, 39.046333 ], [ 23.339896, 39.046791 ], [ 23.33999, 39.047929 ], [ 23.340608, 39.048032 ], [ 23.341081, 39.048275 ], [ 23.341115, 39.048708 ], [ 23.340714, 39.049197 ], [ 23.340127, 39.049576 ], [ 23.33896, 39.049624 ], [ 23.3387, 39.04995 ], [ 23.3383478, 39.0501616 ], [ 23.3381876, 39.0503547 ], [ 23.338057, 39.0504212 ], [ 23.337435, 39.050471 ], [ 23.337274, 39.050197 ], [ 23.33737, 39.0500416 ], [ 23.3375031, 39.0499967 ], [ 23.3375245, 39.0498051 ], [ 23.3375031, 39.0496676 ], [ 23.3372846, 39.0497582 ], [ 23.3372938, 39.0495593 ], [ 23.3371168, 39.0494801 ], [ 23.3368379, 39.0497051 ], [ 23.336556, 39.049592 ], [ 23.336298, 39.049773 ], [ 23.336389, 39.050046 ], [ 23.336129, 39.050336 ], [ 23.335685, 39.050443 ], [ 23.335429, 39.050296 ], [ 23.335316, 39.049967 ], [ 23.334944, 39.049783 ], [ 23.334871, 39.050165 ], [ 23.334681, 39.050464 ], [ 23.3345192, 39.0499997 ], [ 23.334238, 39.049557 ], [ 23.333524, 39.049393 ], [ 23.333318, 39.04901 ], [ 23.333277, 39.048355 ], [ 23.333069, 39.04819 ], [ 23.332627, 39.048023 ], [ 23.332419, 39.047786 ], [ 23.332682, 39.047132 ], [ 23.332548, 39.046512 ], [ 23.331849, 39.046399 ], [ 23.331008, 39.046531 ], [ 23.330481, 39.046646 ], [ 23.3301095, 39.0461994 ], [ 23.3300856, 39.045757 ], [ 23.3303231, 39.0453637 ], [ 23.3304992, 39.0447843 ], [ 23.3315317, 39.0439843 ], [ 23.33178, 39.043779 ] ] } }
]
}
