{
"type": "FeatureCollection",
"name": "patch_9804_polygon",
"crs": { "type": "name", "properties": { "name": "urn:ogc:def:crs:OGC:1.3:CRS84" } },
"features": [
{ "type": "Feature", "properties": { "@type": "way", "@id": 415669197, "admin_level": null, "building": null, "int_name": null, "leaf_cycle": "evergreen", "leaf_type": "needleleaved", "man_made": null, "name": null, "name:el": null, "name:en": null, "name:ru": null, "natural": "wood", "place": null, "seamark:light:1:character": null, "seamark:light:1:colour": null, "seamark:light:1:group": null, "seamark:light:1:height": null, "seamark:light:1:period": null, "seamark:light:1:range": null, "seamark:light:1:sector_end": null, "seamark:light:1:sector_start": null, "seamark:light:1:sequence": null, "seamark:light:2:character": null, "seamark:light:2:colour": null, "seamark:light:2:group": null, "seamark:light:2:height": null, "seamark:light:2:period": null, "seamark:light:2:range": null, "seamark:light:2:sector_end": null, "seamark:light:2:sector_start": null, "seamark:light:2:sequence": null, "seamark:light:3:character": null, "seamark:light:3:colour": null, "seamark:light:3:group": null, "seamark:light:3:height": null, "seamark:light:3:period": null, "seamark:light:3:range": null, "seamark:light:3:sector_end": null, "seamark:light:3:sector_start": null, "seamark:light:3:sequence": null, "seamark:light:4:character": null, "seamark:light:4:colour": null, "seamark:light:4:group": null, "seamark:light:4:height": null, "seamark:light:4:period": null, "seamark:light:4:range": null, "seamark:light:4:sector_end": null, "seamark:light:4:sector_start": null, "seamark:light:4:sequence": null, "seamark:light:reference": null, "seamark:name": null, "seamark:type": null, "source": null, "wikidata": null, "wikipedia": null, "label": "natural:wood" }, "geometry": { "type": "Polygon", "coordinates": [ [ [ 23.3308887, 39.0463118 ], [ 23.3312321, 39.0462701 ], [ 23.3316505, 39.0459952 ], [ 23.3321011, 39.046241 ], [ 23.3322835, 39.0462826 ], [ 23.3325624, 39.046316 ], [ 23.3327341, 39.0464576 ], [ 23.3328199, 39.0467326 ], [ 23.3328628, 39.0471409 ], [ 23.3327555, 39.0474158 ], [ 23.3326697, 39.0476491 ], [ 23.3329487, 39.0479408 ], [ 23.3332383, 39.0479824 ], [ 23.3334637, 39.0483241 ], [ 23.3335602, 39.0486157 ], [ 23.3336353, 39.0490989 ], [ 23.3339357, 39.0493239 ], [ 23.3344722, 39.0495489 ], [ 23.3346867, 39.0497988 ], [ 23.3349335, 39.0496739 ], [ 23.3352554, 39.0497155 ], [ 23.3355021, 39.0498738 ], [ 23.3355236, 39.0501404 ], [ 23.3357382, 39.0502404 ], [ 23.3359957, 39.0501738 ], [ 23.3359742, 39.0499905 ], [ 23.3361137, 39.0497405 ], [ 23.3363282, 39.0494322 ], [ 23.3365536, 39.0493572 ], [ 23.3368003, 39.0494905 ], [ 23.3369505, 39.0494156 ], [ 23.3371329, 39.0491989 ], [ 23.3374119, 39.0494905 ], [ 23.3376908, 39.0496572 ], [ 23.3376908, 39.0498905 ], [ 23.3376157, 39.0501238 ], [ 23.3377552, 39.0502071 ], [ 23.3380663, 39.0499488 ], [ 23.3383238, 39.0496905 ], [ 23.3383667, 39.0494489 ], [ 23.3384633, 39.0491906 ], [ 23.3386135, 39.0490989 ], [ 23.3388603, 39.0492406 ], [ 23.3391821, 39.0493072 ], [ 23.3395898, 39.0493322 ], [ 23.3399761, 39.0493572 ], [ 23.3404481, 39.0490823 ], [ 23.3403194, 39.0487657 ], [ 23.3405018, 39.0486157 ], [ 23.3405769, 39.048399 ], [ 23.3403623, 39.0482991 ], [ 23.3397293, 39.0481407 ], [ 23.3397186, 39.0479158 ], [ 23.3395362, 39.0477325 ], [ 23.3395684, 39.0475075 ], [ 23.3393752, 39.0466909 ], [ 23.3392143, 39.0465493 ], [ 23.338989, 39.0465826 ], [ 23.3388388, 39.046491 ], [ 23.3387744, 39.0463493 ], [ 23.3385384, 39.046441 ], [ 23.3383882, 39.0463243 ], [ 23.3381522, 39.0463576 ], [ 23.3378732, 39.0466076 ], [ 23.3375943, 39.0466659 ], [ 23.3371115, 39.0465243 ], [ 23.3363926, 39.046191 ], [ 23.3362961, 39.0458952 ], [ 23.3360278, 39.0457869 ], [ 23.3359635, 39.0453286 ], [ 23.3357811, 39.0452619 ], [ 23.3359527, 39.0451286 ], [ 23.3359098, 39.0448703 ], [ 23.3356631, 39.0444953 ], [ 23.3354592, 39.044662 ], [ 23.335073, 39.0448953 ], [ 23.3345365, 39.0451119 ], [ 23.3342469, 39.0453619 ], [ 23.3340108, 39.0456869 ], [ 23.3336997, 39.0460452 ], [ 23.3334851, 39.0460702 ], [ 23.3329058, 39.0458785 ], [ 23.3325732, 39.0454452 ], [ 23.3324015, 39.0449619 ], [ 23.3319187, 39.044537 ], [ 23.3316827, 39.0445786 ], [ 23.3315432, 39.0448036 ], [ 23.331629, 39.0452203 ], [ 23.3314681, 39.0453119 ], [ 23.3309853, 39.0453619 ], [ 23.3306527, 39.0455702 ], [ 23.3305991, 39.0459868 ], [ 23.3308887, 39.0463118 ] ] ] } },
{ "type": "Feature", "properties": { "@type": "way", "@id": 415669201, "admin_level": null, "building": "yes", "int_name": null, "leaf_cycle": null, "leaf_type": null, "man_made": "lighthouse", "name": null, "name:el": null, "name:en": null, "name:ru": null, "natural": null, "place": null, "seamark:light:1:character": null, "seamark:light:1:colour": null, "seamark:light:1:group": null, "seamark:light:1:height": null, "seamark:light:1:period": null, "seamark:light:1:range": null, "seamark:light:1:sector_end": null, "seamark:light:1:sector_start": null, "seamark:light:1:sequence": null, "seamark:light:2:character": null, "seamark:light:2:colour": null, "seamark:light:2:group": null, "seamark:light:2:height": null, "seamark:light:2:period": null, "seamark:light:2:range": null, "seamark:light:2:sector_end": null, "seamark:light:2:sector_start": null, "seamark:light:2:sequence": null, "seamark:light:3:character": null, "seamark:light:3:colour": null, "seamark:light:3:group": null, "seamark:light:3:height": null, "seamark:light:3:period": null, "seamark:light:3:range": null, "seamark:light:3:sector_end": null, "seamark:light:3:sector_start": null, "seamark:light:3:sequence": null, "seamark:light:4:character": null, "seamark:light:4:colour": null, "seamark:light:4:group": null, "seamark:light:4:height": null, "seamark:light:4:period": null, "seamark:light:4:range": null, "seamark:light:4:sector_end": null, "seamark:light:4:sector_start": null, "seamark:light:4:sequence": null, "seamark:light:reference": null, "seamark:name": null, "seamark:type": null, "source": null, "wikidata": null, "wikipedia": null, "label": "building:yes" }, "geometry": { "type": "Polygon", "coordinates": [ [ [ 23.3386135, 39.0494551 ], [ 23.3386725, 39.0493593 ], [ 23.3385169, 39.0493343 ], [ 23.3384955, 39.0494468 ], [ 23.3386135, 39.0494551 ] ] ] } }
]
}
