{
"type": "FeatureCollection",
"name": "patch_92822_point",
"crs": { "type": "name", "properties": { "name": "urn:ogc:def:crs:OGC:1.3:CRS84" } },
"features": [
{ "type": "Feature", "properties": { "@type": "node", "@id": 5935809089, "access": null, "addr:postcode": null, "amenity": "place_of_worship", "barrier": null, "boundary": null, "cables": null, "date": null, "ele": null, "highway": null, "landuse": null, "lanes": null, "leaf_type": null, "leisure": null, "maxspeed": null, "name": null, "name:el": null, "name:en": null, "natural": null, "note": null, "oneway": null, "opening_hours": null, "place": null, "plant:method": null, "plant:output:electricity": null, "plant:source": null, "population": null, "population:date": null, "power": null, "protect_class": null, "protection_title": null, "religion": "christian", "service": null, "source": null, "source:population": null, "surface": null, "tracktype": null, "voltage": null, "wikidata": null, "wikipedia": null, "label": "amenity:place_of_worship" }, "geometry": { "type": "Point", "coordinates": [ 22.2477758, 37.3998136 ] } },
{ "type": "Feature", "properties": { "@type": "node", "@id": 5935809109, "access": null, "addr:postcode": null, "amenity": "place_of_worship", "barrier": null, "boundary": null, "cables": null, "date": null, "ele": null, "highway": null, "landuse": null, "lanes": null, "leaf_type": null, "leisure": null, "maxspeed": null, "name": null, "name:el": null, "name:en": null, "natural": null, "note": null, "oneway": null, "opening_hours": null, "place": null, "plant:method": null, "plant:output:electricity": null, "plant:source": null, "population": null, "population:date": null, "power": null, "protect_class": null, "protection_title": null, "religion": "christian", "service": null, "source": null, "source:population": null, "surface": null, "tracktype": null, "voltage": null, "wikidata": null, "wikipedia": null, "label": "amenity:place_of_worship" }, "geometry": { "type": "Point", "coordinates": [ 22.2455902, 37.4035329 ] } },
{ "type": "Feature", "properties": { "@type": "node", "@id": 5935813615, "access": null, "addr:postcode": null, "amenity": "place_of_worship", "barrier": null, "boundary": null, "cables": null, "date": null, "ele": null, "highway": null, "landuse": null, "lanes": null, "leaf_type": null, "leisure": null, "maxspeed": null, "name": null, "name:el": null, "name:en": null, "natural": null, "note": null, "oneway": null, "opening_hours": null, "place": null, "plant:method": null, "plant:output:electricity": null, "plant:source": null, "population": null, "population:date": null, "power": null, "protect_class": null, "protection_title": null, "religion": "christian", "service": null, "source": null, "source:population": null, "surface": null, "tracktype": null, "voltage": null, "wikidata": "Q113905188", "wikipedia": null, "label": "amenity:place_of_worship" }, "geometry": { "type": "Point", "coordinates": [ 22.2386604, 37.421215 ] } }
]
}
