{
"type": "FeatureCollection",
"name": "patch_68412_features",
"crs": { "type": "name", "properties": { "name": "urn:ogc:def:crs:OGC:1.3:CRS84" } },
"features": [
{ "type": "Feature", "properties": { "osm_id": 326129025, "name": null, "label": "landuse:farmland", "landuse": "farmland", "natural": null }, "geometry": { "type": "Polygon", "coordinates": [ [ [ 21.0960931, 40.494378600331977 ], [ 21.0957665, 40.494540300332012 ], [ 21.0955878, 40.494713600332013 ], [ 21.0955601, 40.494798000332032 ], [ 21.0956063, 40.494828500332034 ], [ 21.0959576, 40.49478160033204 ], [ 21.096120586464675, 40.494719388081961 ], [ 21.096120586464675, 40.494370639033392 ], [ 21.0960931, 40.494378600331977 ] ] ] } },
{ "type": "Feature", "properties": { "osm_id": 359368586, "name": null, "label": "natural:heath", "landuse": null, "natural": "heath" }, "geometry": { "type": "Polygon", "coordinates": [ [ [ 21.0956593, 40.494477200331993 ], [ 21.0951574, 40.494728900332035 ], [ 21.095224, 40.494800800332044 ], [ 21.0952609, 40.494842000332056 ], [ 21.0954276, 40.494801800332041 ], [ 21.0955601, 40.494798000332032 ], [ 21.0955878, 40.494713600332013 ], [ 21.0957665, 40.494540300332012 ], [ 21.0960931, 40.494378600331977 ], [ 21.096120586464675, 40.494370639033392 ], [ 21.096120586464675, 40.494264958994421 ], [ 21.0956593, 40.494477200331993 ] ] ] } },
{ "type": "Feature", "properties": { "osm_id": 326144083, "name": null, "label": "landuse:farmland", "landuse": "farmland", "natural": null }, "geometry": { "type": "Polygon", "coordinates": [ [ [ 21.0960824, 40.495869600332178 ], [ 21.0959166, 40.495787900332182 ], [ 21.0956901, 40.495699200332147 ], [ 21.0956364, 40.495651200332155 ], [ 21.095452, 40.49566540033215 ], [ 21.0954706, 40.495837700332167 ], [ 21.095501, 40.49593000033218 ], [ 21.095571, 40.495969100332189 ], [ 21.0957111, 40.495919300332169 ], [ 21.0958863, 40.495862500332173 ], [ 21.095954, 40.495903400332175 ], [ 21.0958956, 40.495942400332176 ], [ 21.0957415, 40.496013400332195 ], [ 21.0956364, 40.496072000332191 ], [ 21.0957415, 40.496121800332226 ], [ 21.0958676, 40.496217600332209 ], [ 21.0959026, 40.496302900332246 ], [ 21.0958746, 40.496430700332247 ], [ 21.0958092, 40.496567400332268 ], [ 21.0957695, 40.496658000332282 ], [ 21.0956784, 40.496766300332304 ], [ 21.095585, 40.496904800332317 ], [ 21.0954893, 40.497043300332329 ], [ 21.0953889, 40.497002500332314 ], [ 21.0954636, 40.496817800332302 ], [ 21.0955874, 40.496649100332263 ], [ 21.0956901, 40.496500000332247 ], [ 21.0957555, 40.496334800332235 ], [ 21.0957415, 40.496201700332222 ], [ 21.0956271, 40.496160800332198 ], [ 21.0954683, 40.496112900332207 ], [ 21.0954487, 40.496123700332205 ], [ 21.0953399, 40.49618390033222 ], [ 21.0951881, 40.496302900332246 ], [ 21.0949476, 40.496500000332247 ], [ 21.0948635, 40.496569200332267 ], [ 21.0947701, 40.496690000332286 ], [ 21.0946044, 40.496748600332296 ], [ 21.0943195, 40.496808900332312 ], [ 21.0942051, 40.496796500332287 ], [ 21.0939973, 40.496844400332307 ], [ 21.0938315, 40.496871100332299 ], [ 21.0937007, 40.496887100332302 ], [ 21.093647, 40.4969119003323 ], [ 21.0935209, 40.496926100332317 ], [ 21.0933972, 40.496910100332308 ], [ 21.0933738, 40.496949200332324 ], [ 21.0933691, 40.497004300332321 ], [ 21.0933645, 40.49705220033232 ], [ 21.0934182, 40.497132100332337 ], [ 21.0934789, 40.497183600332328 ], [ 21.0936096, 40.497162300332334 ], [ 21.0938852, 40.497110800332329 ], [ 21.0941934, 40.497080600332339 ], [ 21.0944269, 40.49706990033232 ], [ 21.0949383, 40.496942100332305 ], [ 21.0950854, 40.496933200332307 ], [ 21.0951321, 40.496954500332308 ], [ 21.0951344, 40.497043300332329 ], [ 21.0951344, 40.497121400332333 ], [ 21.0951858, 40.49720840033234 ], [ 21.095179057878532, 40.497259396599155 ], [ 21.096120586464675, 40.497259396599155 ], [ 21.096120586464675, 40.495909127645504 ], [ 21.0960824, 40.495869600332178 ] ] ] } },
{ "type": "Feature", "properties": { "osm_id": 326144093, "name": null, "label": "landuse:farmland", "landuse": "farmland", "natural": null }, "geometry": { "type": "Polygon", "coordinates": [ [ [ 21.0958177, 40.495452200332132 ], [ 21.0959491, 40.495574500332147 ], [ 21.096120586464675, 40.495732362110367 ], [ 21.096120586464675, 40.495344749075066 ], [ 21.0958177, 40.495452200332132 ] ] ] } },
{ "type": "Feature", "properties": { "osm_id": 374838509, "name": null, "label": "natural:heath", "landuse": null, "natural": "heath" }, "geometry": { "type": "Polygon", "coordinates": [ [ [ 21.0960824, 40.495869600332178 ], [ 21.096120586464675, 40.495909127645504 ], [ 21.096120586464675, 40.495811509329343 ], [ 21.0960824, 40.495869600332178 ] ] ] } },
{ "type": "Feature", "properties": { "osm_id": 326145970, "name": null, "label": "landuse:farmland", "landuse": "farmland", "natural": null }, "geometry": { "type": "Polygon", "coordinates": [ [ [ 21.0919804, 40.497228500332341 ], [ 21.0918919, 40.497186700332342 ], [ 21.0917503, 40.497154400332349 ], [ 21.0916796, 40.496953900332322 ], [ 21.091607, 40.496927000332306 ], [ 21.0913327, 40.496897400332315 ], [ 21.0911947, 40.496900100332297 ], [ 21.0910425, 40.496853000332294 ], [ 21.0909009, 40.496797800332295 ], [ 21.0910779, 40.496783000332293 ], [ 21.0913281, 40.496783000332293 ], [ 21.0913575, 40.496783000332293 ], [ 21.0915681, 40.496713100332293 ], [ 21.0917309, 40.496635000332276 ], [ 21.0918141, 40.496503100332262 ], [ 21.0918441, 40.49636320033224 ], [ 21.0921414, 40.496203100332217 ], [ 21.0922529, 40.496147900332218 ], [ 21.0925219, 40.496095400332202 ], [ 21.0928581, 40.496005200332199 ], [ 21.0930209, 40.496216500332231 ], [ 21.0931005, 40.496227300332222 ], [ 21.0932457, 40.496164000332215 ], [ 21.0936491, 40.495950100332188 ], [ 21.0938526, 40.495863900332182 ], [ 21.0940738, 40.495798000332172 ], [ 21.0942189, 40.495763000332168 ], [ 21.0943481, 40.49567290033216 ], [ 21.0944012, 40.495580000332133 ], [ 21.0944331, 40.495434700332126 ], [ 21.0945145, 40.495249000332102 ], [ 21.0946613, 40.495152100332092 ], [ 21.0948712, 40.495027500332071 ], [ 21.0950375, 40.494892900332061 ], [ 21.0951153, 40.494859300332067 ], [ 21.0951743, 40.494836800332045 ], [ 21.0951037, 40.494748300332034 ], [ 21.0947693, 40.494912500332056 ], [ 21.0942472, 40.495170900332084 ], [ 21.0939907, 40.495302800332105 ], [ 21.0936226, 40.49545750033213 ], [ 21.0933288, 40.495570600332137 ], [ 21.0928829, 40.495740100332156 ], [ 21.0924546, 40.495849100332165 ], [ 21.0920618, 40.495989100332196 ], [ 21.0916902, 40.496111500332205 ], [ 21.0913416, 40.496224600332212 ], [ 21.0911133, 40.496298600332238 ], [ 21.0909239, 40.496364500332241 ], [ 21.0907027, 40.496465500332256 ], [ 21.0905222, 40.496562400332273 ], [ 21.0906337, 40.496801900332301 ], [ 21.0906992, 40.496853000332294 ], [ 21.0908779, 40.496898800332303 ], [ 21.0911398, 40.496964700332313 ], [ 21.0911575, 40.497092500332329 ], [ 21.091192786632533, 40.497259396599155 ], [ 21.091996519786527, 40.497259396599155 ], [ 21.0919804, 40.497228500332341 ] ] ] } },
{ "type": "Feature", "properties": { "osm_id": 326144095, "name": null, "label": "landuse:farmland", "landuse": "farmland", "natural": null }, "geometry": { "type": "Polygon", "coordinates": [ [ [ 21.0931952, 40.496766200332289 ], [ 21.0933943, 40.496789600332292 ], [ 21.0934716, 40.496798700332306 ], [ 21.0937074, 40.496821900332293 ], [ 21.0939351, 40.4968018003323 ], [ 21.0942014, 40.496744600332292 ], [ 21.0944413, 40.496684300332277 ], [ 21.094551, 40.496670400332277 ], [ 21.0947584, 40.496576100332256 ], [ 21.0948112, 40.496515800332254 ], [ 21.0948356, 40.496412200332259 ], [ 21.0950287, 40.496288600332235 ], [ 21.0952645, 40.4961263003322 ], [ 21.0953214, 40.496030400332202 ], [ 21.0953153, 40.495925300332175 ], [ 21.0952747, 40.495858800332179 ], [ 21.0952727, 40.495724300332171 ], [ 21.0952706, 40.495653200332143 ], [ 21.0951141, 40.495611500332146 ], [ 21.0949291, 40.495572900332149 ], [ 21.0947889, 40.495563600332147 ], [ 21.0946872, 40.495608400332152 ], [ 21.0946262, 40.495727400332157 ], [ 21.0945836, 40.495914500332169 ], [ 21.0945958, 40.496135500332208 ], [ 21.0946567, 40.496223600332215 ], [ 21.0947401, 40.496334900332251 ], [ 21.0946811, 40.496364300332246 ], [ 21.0945978, 40.496345800332229 ], [ 21.0944169, 40.49631790033223 ], [ 21.0942238, 40.496328800332236 ], [ 21.0941323, 40.496350400332233 ], [ 21.0938924, 40.496433900332249 ], [ 21.0937237, 40.496494200332265 ], [ 21.09362, 40.496505000332263 ], [ 21.0934615, 40.496528200332264 ], [ 21.0933131, 40.496556000332269 ], [ 21.0931708, 40.496611600332265 ], [ 21.0930326, 40.496696700332279 ], [ 21.0931952, 40.496766200332289 ] ] ] } },
{ "type": "Feature", "properties": { "osm_id": 374838508, "name": null, "label": "natural:heath", "landuse": null, "natural": "heath" }, "geometry": { "type": "Polygon", "coordinates": [ [ [ 21.0933972, 40.496910100332308 ], [ 21.0935209, 40.496926100332317 ], [ 21.093647, 40.4969119003323 ], [ 21.0937007, 40.496887100332302 ], [ 21.0938315, 40.496871100332299 ], [ 21.0939973, 40.496844400332307 ], [ 21.0942051, 40.496796500332287 ], [ 21.0943195, 40.496808900332312 ], [ 21.0946044, 40.496748600332296 ], [ 21.0947701, 40.496690000332286 ], [ 21.0948635, 40.496569200332267 ], [ 21.0949476, 40.496500000332247 ], [ 21.0951881, 40.496302900332246 ], [ 21.0953399, 40.49618390033222 ], [ 21.0954487, 40.496123700332205 ], [ 21.0954683, 40.496112900332207 ], [ 21.0956271, 40.496160800332198 ], [ 21.0957415, 40.496201700332222 ], [ 21.0957555, 40.496334800332235 ], [ 21.0956901, 40.496500000332247 ], [ 21.0955874, 40.496649100332263 ], [ 21.0954636, 40.496817800332302 ], [ 21.0953889, 40.497002500332314 ], [ 21.0954893, 40.497043300332329 ], [ 21.095585, 40.496904800332317 ], [ 21.0956784, 40.496766300332304 ], [ 21.0957695, 40.496658000332282 ], [ 21.0958092, 40.496567400332268 ], [ 21.0958746, 40.496430700332247 ], [ 21.0959026, 40.496302900332246 ], [ 21.0958676, 40.496217600332209 ], [ 21.0957415, 40.496121800332226 ], [ 21.0956364, 40.496072000332191 ], [ 21.0957415, 40.496013400332195 ], [ 21.0958956, 40.495942400332176 ], [ 21.095954, 40.495903400332175 ], [ 21.0958863, 40.495862500332173 ], [ 21.0957111, 40.495919300332169 ], [ 21.095571, 40.495969100332189 ], [ 21.095501, 40.49593000033218 ], [ 21.0954706, 40.495837700332167 ], [ 21.095452, 40.49566540033215 ], [ 21.0952706, 40.495653200332143 ], [ 21.0952727, 40.495724300332171 ], [ 21.0952747, 40.495858800332179 ], [ 21.0953153, 40.495925300332175 ], [ 21.0953214, 40.496030400332202 ], [ 21.0952645, 40.4961263003322 ], [ 21.0950287, 40.496288600332235 ], [ 21.0948356, 40.496412200332259 ], [ 21.0948112, 40.496515800332254 ], [ 21.0947584, 40.496576100332256 ], [ 21.094551, 40.496670400332277 ], [ 21.0944413, 40.496684300332277 ], [ 21.0942014, 40.496744600332292 ], [ 21.0939351, 40.4968018003323 ], [ 21.0937074, 40.496821900332293 ], [ 21.0934716, 40.496798700332306 ], [ 21.0933943, 40.496789600332292 ], [ 21.0933972, 40.496910100332308 ] ] ] } },
{ "type": "Feature", "properties": { "osm_id": 374838511, "name": null, "label": "natural:heath", "landuse": null, "natural": "heath" }, "geometry": { "type": "MultiPolygon", "coordinates": [ [ [ [ 21.0911575, 40.497092500332329 ], [ 21.0911398, 40.496964700332313 ], [ 21.0908779, 40.496898800332303 ], [ 21.0906992, 40.496853000332294 ], [ 21.0906337, 40.496801900332301 ], [ 21.0905719, 40.496814500332299 ], [ 21.0906622, 40.497039200332331 ], [ 21.090732540438569, 40.497259396599155 ], [ 21.091192786632533, 40.497259396599155 ], [ 21.0911575, 40.497092500332329 ] ] ], [ [ [ 21.0959576, 40.49478160033204 ], [ 21.0956063, 40.494828500332034 ], [ 21.0955601, 40.494798000332032 ], [ 21.0954276, 40.494801800332041 ], [ 21.0952609, 40.494842000332056 ], [ 21.0951743, 40.494836800332045 ], [ 21.0951153, 40.494859300332067 ], [ 21.0950375, 40.494892900332061 ], [ 21.0948712, 40.495027500332071 ], [ 21.0946613, 40.495152100332092 ], [ 21.0945145, 40.495249000332102 ], [ 21.0944331, 40.495434700332126 ], [ 21.0944012, 40.495580000332133 ], [ 21.0943481, 40.49567290033216 ], [ 21.0942189, 40.495763000332168 ], [ 21.0940738, 40.495798000332172 ], [ 21.0938526, 40.495863900332182 ], [ 21.0936491, 40.495950100332188 ], [ 21.0932457, 40.496164000332215 ], [ 21.0931005, 40.496227300332222 ], [ 21.0930209, 40.496216500332231 ], [ 21.0928581, 40.496005200332199 ], [ 21.0925219, 40.496095400332202 ], [ 21.0922529, 40.496147900332218 ], [ 21.0921414, 40.496203100332217 ], [ 21.0918441, 40.49636320033224 ], [ 21.0918141, 40.496503100332262 ], [ 21.0917309, 40.496635000332276 ], [ 21.0915681, 40.496713100332293 ], [ 21.0913575, 40.496783000332293 ], [ 21.0913281, 40.496783000332293 ], [ 21.0910779, 40.496783000332293 ], [ 21.0909009, 40.496797800332295 ], [ 21.0910425, 40.496853000332294 ], [ 21.0911947, 40.496900100332297 ], [ 21.0913327, 40.496897400332315 ], [ 21.091607, 40.496927000332306 ], [ 21.0916796, 40.496953900332322 ], [ 21.0917503, 40.497154400332349 ], [ 21.0918919, 40.497186700332342 ], [ 21.0919804, 40.497228500332341 ], [ 21.091996519786527, 40.497259396599155 ], [ 21.095179057878532, 40.497259396599155 ], [ 21.0951858, 40.49720840033234 ], [ 21.0951344, 40.497121400332333 ], [ 21.0951344, 40.497043300332329 ], [ 21.0951321, 40.496954500332308 ], [ 21.0950854, 40.496933200332307 ], [ 21.0949383, 40.496942100332305 ], [ 21.0944269, 40.49706990033232 ], [ 21.0941934, 40.497080600332339 ], [ 21.0938852, 40.497110800332329 ], [ 21.0936096, 40.497162300332334 ], [ 21.0934789, 40.497183600332328 ], [ 21.0934182, 40.497132100332337 ], [ 21.0933645, 40.49705220033232 ], [ 21.0933691, 40.497004300332321 ], [ 21.0933738, 40.496949200332324 ], [ 21.0933972, 40.496910100332308 ], [ 21.0933943, 40.496789600332292 ], [ 21.0931952, 40.496766200332289 ], [ 21.0930326, 40.496696700332279 ], [ 21.0931708, 40.496611600332265 ], [ 21.0933131, 40.496556000332269 ], [ 21.0934615, 40.496528200332264 ], [ 21.09362, 40.496505000332263 ], [ 21.0937237, 40.496494200332265 ], [ 21.0938924, 40.496433900332249 ], [ 21.0941323, 40.496350400332233 ], [ 21.0942238, 40.496328800332236 ], [ 21.0944169, 40.49631790033223 ], [ 21.0945978, 40.496345800332229 ], [ 21.0946811, 40.496364300332246 ], [ 21.0947401, 40.496334900332251 ], [ 21.0946567, 40.496223600332215 ], [ 21.0945958, 40.496135500332208 ], [ 21.0945836, 40.495914500332169 ], [ 21.0946262, 40.495727400332157 ], [ 21.0946872, 40.495608400332152 ], [ 21.0947889, 40.495563600332147 ], [ 21.0949291, 40.495572900332149 ], [ 21.0951141, 40.495611500332146 ], [ 21.0952706, 40.495653200332143 ], [ 21.095452, 40.49566540033215 ], [ 21.0956364, 40.495651200332155 ], [ 21.0956901, 40.495699200332147 ], [ 21.0959166, 40.495787900332182 ], [ 21.0960824, 40.495869600332178 ], [ 21.096120586464675, 40.495811509329343 ], [ 21.096120586464675, 40.495732362110367 ], [ 21.0959491, 40.495574500332147 ], [ 21.0958177, 40.495452200332132 ], [ 21.096120586464675, 40.495344749075066 ], [ 21.096120586464675, 40.494719388081961 ], [ 21.0959576, 40.49478160033204 ] ] ] ] } },
{ "type": "Feature", "properties": { "osm_id": 326148251, "name": null, "label": "landuse:farmland", "landuse": "farmland", "natural": null }, "geometry": { "type": "Polygon", "coordinates": [ [ [ 21.0896462, 40.497238600332352 ], [ 21.089758, 40.497172200332344 ], [ 21.0899085, 40.497115000332336 ], [ 21.0897824, 40.496988200332311 ], [ 21.0894125, 40.497186100332343 ], [ 21.089264993465861, 40.497259396599155 ], [ 21.089618878948123, 40.497259396599155 ], [ 21.0896462, 40.497238600332352 ] ] ] } },
{ "type": "Feature", "properties": { "osm_id": 326148250, "name": null, "label": "landuse:farmland", "landuse": "farmland", "natural": null }, "geometry": { "type": "Polygon", "coordinates": [ [ [ 21.0906622, 40.497039200332331 ], [ 21.0905719, 40.496814500332299 ], [ 21.0906337, 40.496801900332301 ], [ 21.0905222, 40.496562400332273 ], [ 21.0902994, 40.496688000332284 ], [ 21.0900835, 40.4968225003323 ], [ 21.0901401, 40.496896600332313 ], [ 21.0901561, 40.496996100332304 ], [ 21.0901207, 40.497111900332321 ], [ 21.090073236682528, 40.497259396599155 ], [ 21.090732540438569, 40.497259396599155 ], [ 21.0906622, 40.497039200332331 ] ] ] } },
{ "type": "Feature", "properties": { "osm_id": 374837387, "name": null, "label": "natural:heath", "landuse": null, "natural": "heath" }, "geometry": { "type": "Polygon", "coordinates": [ [ [ 21.0901207, 40.497111900332321 ], [ 21.0901561, 40.496996100332304 ], [ 21.0901401, 40.496896600332313 ], [ 21.0900835, 40.4968225003323 ], [ 21.0897824, 40.496988200332311 ], [ 21.0899085, 40.497115000332336 ], [ 21.089758, 40.497172200332344 ], [ 21.0896462, 40.497238600332352 ], [ 21.089618878948123, 40.497259396599155 ], [ 21.090073236682528, 40.497259396599155 ], [ 21.0901207, 40.497111900332321 ] ] ] } },
{ "type": "Feature", "properties": { "osm_id": 963896843, "name": null, "label": "landuse:farmland", "landuse": "farmland", "natural": null }, "geometry": { "type": "Polygon", "coordinates": [ [ [ 21.0872866, 40.483729700330649 ], [ 21.0873858, 40.483854200330669 ], [ 21.087469, 40.483911300330682 ], [ 21.0876004, 40.483937800330665 ], [ 21.0876674, 40.483986800330676 ], [ 21.0877238, 40.484035800330702 ], [ 21.0878123, 40.484066400330704 ], [ 21.0879169, 40.484062300330692 ], [ 21.088059, 40.484033700330698 ], [ 21.08811, 40.483990900330681 ], [ 21.0881932, 40.483982700330685 ], [ 21.088287, 40.484011300330693 ], [ 21.088389, 40.484015400330698 ], [ 21.0885097, 40.48395210033069 ], [ 21.0887832, 40.483852100330672 ], [ 21.0890059, 40.483788900330651 ], [ 21.089148, 40.483727700330661 ], [ 21.0892902, 40.483650200330644 ], [ 21.0893438, 40.483605300330638 ], [ 21.0891641, 40.483497200330625 ], [ 21.0890756, 40.483391100330607 ], [ 21.0890246, 40.483307400330602 ], [ 21.0889227, 40.483246200330598 ], [ 21.0888288, 40.483207500330586 ], [ 21.0887671, 40.483213600330579 ], [ 21.0887028, 40.483242200330601 ], [ 21.0886572, 40.483276800330593 ], [ 21.0884453, 40.483299300330614 ], [ 21.0883353, 40.483280900330591 ], [ 21.0882253, 40.483293200330593 ], [ 21.0877372, 40.483456400330617 ], [ 21.0874663, 40.483552300330622 ], [ 21.0873322, 40.48359920033063 ], [ 21.0872732, 40.483654300330642 ], [ 21.0872866, 40.483729700330649 ] ] ] } },
{ "type": "Feature", "properties": { "osm_id": 963896842, "name": null, "label": "landuse:farmland", "landuse": "farmland", "natural": null }, "geometry": { "type": "Polygon", "coordinates": [ [ [ 21.0893197, 40.48311980033057 ], [ 21.0894028, 40.483317700330595 ], [ 21.0894913, 40.483454300330607 ], [ 21.0895718, 40.483509400330625 ], [ 21.0896818, 40.483509400330625 ], [ 21.0898052, 40.483476800330621 ], [ 21.0898856, 40.483421700330624 ], [ 21.0900063, 40.483238100330588 ], [ 21.0901083, 40.483113600330583 ], [ 21.0901994, 40.483042200330566 ], [ 21.0903309, 40.483030000330565 ], [ 21.0904435, 40.483060600330582 ], [ 21.0905803, 40.483095300330582 ], [ 21.0907386, 40.483107500330568 ], [ 21.0908405, 40.483076900330573 ], [ 21.0908512, 40.483015700330569 ], [ 21.0908298, 40.482970800330556 ], [ 21.0907708, 40.482940200330553 ], [ 21.090642, 40.482887200330552 ], [ 21.0905374, 40.482891300330543 ], [ 21.0904355, 40.482903500330551 ], [ 21.0903953, 40.482864800330546 ], [ 21.090288, 40.482762700330525 ], [ 21.0902236, 40.482709700330531 ], [ 21.0901512, 40.48271790033052 ], [ 21.0897488, 40.482836200330539 ], [ 21.089486, 40.482921900330552 ], [ 21.0893224, 40.482979000330566 ], [ 21.0892473, 40.483023900330565 ], [ 21.0893197, 40.48311980033057 ] ] ] } },
{ "type": "Feature", "properties": { "osm_id": 963896841, "name": null, "label": "landuse:farmland", "landuse": "farmland", "natural": null }, "geometry": { "type": "Polygon", "coordinates": [ [ [ 21.0892883, 40.475371700329589 ], [ 21.0893929, 40.475661400329628 ], [ 21.0894305, 40.475755300329652 ], [ 21.089519, 40.475972000329676 ], [ 21.089645, 40.4762026003297 ], [ 21.0896531, 40.476327000329718 ], [ 21.0897175, 40.476427000329736 ], [ 21.0897443, 40.476486200329745 ], [ 21.0897389, 40.476571800329751 ], [ 21.0897336, 40.476629200329739 ], [ 21.0897711, 40.476763900329779 ], [ 21.0898462, 40.476857700329795 ], [ 21.0901091, 40.477018900329796 ], [ 21.0903558, 40.477159700329814 ], [ 21.0905168, 40.477269900329837 ], [ 21.0906643, 40.477325000329841 ], [ 21.0907662, 40.477337200329856 ], [ 21.0908225, 40.477306600329833 ], [ 21.0908762, 40.477145400329817 ], [ 21.0908681, 40.477012800329796 ], [ 21.0907984, 40.476910800329797 ], [ 21.090726, 40.476816900329787 ], [ 21.0906562, 40.476792500329772 ], [ 21.0905168, 40.476776100329779 ], [ 21.090498, 40.476684300329765 ], [ 21.0905087, 40.476619000329755 ], [ 21.0906884, 40.47660880032975 ], [ 21.0907099, 40.476555800329763 ], [ 21.0906992, 40.476419100329728 ], [ 21.090667, 40.476294100329717 ], [ 21.0906884, 40.476112500329698 ], [ 21.0907877, 40.475998300329678 ], [ 21.0908333, 40.47592280032967 ], [ 21.0908413, 40.475806500329647 ], [ 21.0909245, 40.475655500329644 ], [ 21.0910452, 40.475444800329612 ], [ 21.091131, 40.47527550032958 ], [ 21.0911578, 40.475212200329587 ], [ 21.0910183, 40.475204000329569 ], [ 21.0908118, 40.475161200329573 ], [ 21.0906053, 40.475083700329556 ], [ 21.0904524, 40.474961200329552 ], [ 21.0904122, 40.47499590032956 ], [ 21.0904095, 40.47515300032957 ], [ 21.0904604, 40.475326500329587 ], [ 21.0904873, 40.4754754003296 ], [ 21.0904792, 40.475552900329625 ], [ 21.0904524, 40.475624300329621 ], [ 21.0904122, 40.475765100329653 ], [ 21.0903907, 40.475920200329668 ], [ 21.0903961, 40.476069100329681 ], [ 21.0904175, 40.476179300329704 ], [ 21.0904202, 40.476224200329689 ], [ 21.0904068, 40.476265000329711 ], [ 21.0903451, 40.476285400329708 ], [ 21.0903022, 40.476252800329711 ], [ 21.0902646, 40.476191600329706 ], [ 21.0902271, 40.476069100329681 ], [ 21.0902298, 40.475840600329647 ], [ 21.0902324, 40.475669200329634 ], [ 21.090262, 40.475485600329613 ], [ 21.0902405, 40.475312200329583 ], [ 21.0901547, 40.475139100329585 ], [ 21.0901225, 40.475114600329576 ], [ 21.0899696, 40.475128900329565 ], [ 21.0896799, 40.475163600329587 ], [ 21.08946, 40.475177900329577 ], [ 21.0893688, 40.475200300329575 ], [ 21.0892937, 40.475249300329594 ], [ 21.0892669, 40.4752942003296 ], [ 21.0892883, 40.475371700329589 ] ] ] } },
{ "type": "Feature", "properties": { "osm_id": 963896839, "name": null, "label": "landuse:farmland", "landuse": "farmland", "natural": null }, "geometry": { "type": "Polygon", "coordinates": [ [ [ 21.090447, 40.474852100329521 ], [ 21.0905382, 40.474941900329547 ], [ 21.0906831, 40.475027600329547 ], [ 21.0907957, 40.47507250032956 ], [ 21.0909674, 40.474943900329535 ], [ 21.0910773, 40.47486440032953 ], [ 21.091241, 40.474813400329545 ], [ 21.0913938, 40.474760300329528 ], [ 21.0914341, 40.474733800329531 ], [ 21.0914314, 40.474688900329518 ], [ 21.0913912, 40.474654200329525 ], [ 21.0910103, 40.47447670032949 ], [ 21.0908494, 40.474446100329494 ], [ 21.0907582, 40.474456300329486 ], [ 21.0906375, 40.47448280032949 ], [ 21.0905409, 40.474550200329489 ], [ 21.0904738, 40.474646100329508 ], [ 21.0904175, 40.474735800329526 ], [ 21.0904041, 40.474788900329528 ], [ 21.090447, 40.474852100329521 ] ] ] } },
{ "type": "Feature", "properties": { "osm_id": 963896840, "name": null, "label": "landuse:farmland", "landuse": "farmland", "natural": null }, "geometry": { "type": "Polygon", "coordinates": [ [ [ 21.0906348, 40.474254300329463 ], [ 21.0908681, 40.474295100329456 ], [ 21.0910344, 40.474321600329468 ], [ 21.091131, 40.474356300329475 ], [ 21.0912785, 40.474444100329485 ], [ 21.0913831, 40.474521600329489 ], [ 21.0914716, 40.474597100329497 ], [ 21.0915253, 40.474615500329499 ], [ 21.0915843, 40.474611400329508 ], [ 21.0916165, 40.474572600329495 ], [ 21.0916218, 40.474531800329508 ], [ 21.0916031, 40.474505300329476 ], [ 21.0914502, 40.474372700329496 ], [ 21.0914502, 40.474342000329472 ], [ 21.0914904, 40.474305300329455 ], [ 21.091582093428539, 40.474217436034138 ], [ 21.090512873813775, 40.474217436034138 ], [ 21.0906348, 40.474254300329463 ] ] ] } }
]
}
