{
"type": "FeatureCollection",
"name": "patch_55328_point",
"crs": { "type": "name", "properties": { "name": "urn:ogc:def:crs:OGC:1.3:CRS84" } },
"features": [
{ "type": "Feature", "properties": { "element": "node", "id": 5327981543, "ele": "474", "name": "Ασπρούλα", "name:el": "Ασπρούλα", "name:en": "Asproula", "natural": "peak", "leaf_type": null, "source": null, "boundary": null, "leisure": null, "opening_hours": null, "protect_class": null, "protection_title": null, "landuse": null, "historic": null, "label": "natural:peak" }, "geometry": { "type": "Point", "coordinates": [ 25.7403546, 41.1253851 ] } }
]
}
