{
"type": "FeatureCollection",
"name": "patch_23825_linestring",
"crs": { "type": "name", "properties": { "name": "urn:ogc:def:crs:OGC:1.3:CRS84" } },
"features": [
{ "type": "Feature", "properties": { "@type": "way", "@id": 691370827, "admin_level": null, "alt_name": null, "alt_name1": null, "barrier": null, "boat": "no", "boundary": null, "highway": null, "int_name": null, "int_ref": null, "lanes": null, "layer": null, "lit": null, "maxspeed": null, "name": null, "name:ar": null, "name:bg": null, "name:de": null, "name:el": null, "name:en": null, "name:es": null, "name:fr": null, "name:it": null, "name:mk": null, "name:nl": null, "name:pl": null, "name:prefix": null, "name:pt": null, "name:ro": null, "name:ru": null, "name:sq": null, "name:sr": null, "name:tr": null, "name:uk": null, "narrow": null, "natural": null, "noname": null, "oneway": null, "operator": null, "ref": null, "sidewalk": null, "smoothness": null, "source": "Bing", "source:ref": null, "surface": null, "toll": null, "traffic_sign": null, "traffic_sign:direction": null, "tunnel": null, "water": null, "waterway": "stream", "wikidata": null, "wikipedia": null, "label": "waterway:stream" }, "geometry": { "type": "LineString", "coordinates": [ [ 22.6374228, 37.7593513 ], [ 22.637377, 37.7589343 ], [ 22.637377, 37.7588572 ], [ 22.6374136, 37.7587752 ], [ 22.6374807, 37.7587013 ], [ 22.6375082, 37.7586414 ], [ 22.6375153, 37.7585295 ], [ 22.6375542, 37.7584147 ], [ 22.6375719, 37.7582636 ], [ 22.6376002, 37.7581013 ], [ 22.6376144, 37.7578999 ], [ 22.637586, 37.7577656 ], [ 22.6375471, 37.7576341 ], [ 22.6375365, 37.7574858 ], [ 22.6374728, 37.7574074 ], [ 22.637356, 37.7573542 ], [ 22.6372003, 37.7573403 ], [ 22.6370658, 37.7572899 ], [ 22.6369277, 37.7572171 ], [ 22.6368039, 37.7571892 ], [ 22.6366859, 37.7571874 ], [ 22.636568, 37.7571488 ], [ 22.6364562, 37.7571038 ], [ 22.6363871, 37.7570508 ], [ 22.6363159, 37.7569913 ], [ 22.6362611, 37.7569158 ], [ 22.6362224, 37.7568451 ], [ 22.6361858, 37.7567888 ], [ 22.6361804, 37.7567555 ], [ 22.6361818, 37.7566265 ], [ 22.6361818, 37.7565783 ], [ 22.6361411, 37.7565317 ], [ 22.6360761, 37.7564867 ], [ 22.6360232, 37.7564128 ], [ 22.636021199239178, 37.756408142491203 ] ] } },
{ "type": "Feature", "properties": { "@type": "way", "@id": 732795913, "admin_level": null, "alt_name": null, "alt_name1": null, "barrier": null, "boat": "no", "boundary": null, "highway": null, "int_name": null, "int_ref": null, "lanes": null, "layer": "-1", "lit": null, "maxspeed": null, "name": null, "name:ar": null, "name:bg": null, "name:de": null, "name:el": null, "name:en": null, "name:es": null, "name:fr": null, "name:it": null, "name:mk": null, "name:nl": null, "name:pl": null, "name:prefix": null, "name:pt": null, "name:ro": null, "name:ru": null, "name:sq": null, "name:sr": null, "name:tr": null, "name:uk": null, "narrow": null, "natural": null, "noname": null, "oneway": null, "operator": null, "ref": null, "sidewalk": null, "smoothness": null, "source": "Bing", "source:ref": null, "surface": null, "toll": null, "traffic_sign": null, "traffic_sign:direction": null, "tunnel": "culvert", "water": null, "waterway": "stream", "wikidata": null, "wikipedia": null, "label": "waterway:stream" }, "geometry": { "type": "LineString", "coordinates": [ [ 22.6374686, 37.7599328 ], [ 22.6374228, 37.7593513 ] ] } },
{ "type": "Feature", "properties": { "@type": "way", "@id": 732795914, "admin_level": null, "alt_name": null, "alt_name1": null, "barrier": null, "boat": "no", "boundary": null, "highway": null, "int_name": null, "int_ref": null, "lanes": null, "layer": null, "lit": null, "maxspeed": null, "name": null, "name:ar": null, "name:bg": null, "name:de": null, "name:el": null, "name:en": null, "name:es": null, "name:fr": null, "name:it": null, "name:mk": null, "name:nl": null, "name:pl": null, "name:prefix": null, "name:pt": null, "name:ro": null, "name:ru": null, "name:sq": null, "name:sr": null, "name:tr": null, "name:uk": null, "narrow": null, "natural": null, "noname": null, "oneway": null, "operator": null, "ref": null, "sidewalk": null, "smoothness": null, "source": "Bing", "source:ref": null, "surface": null, "toll": null, "traffic_sign": null, "traffic_sign:direction": null, "tunnel": null, "water": null, "waterway": "stream", "wikidata": null, "wikipedia": null, "label": "waterway:stream" }, "geometry": { "type": "LineString", "coordinates": [ [ 22.6371844, 37.7603354 ], [ 22.6372862, 37.7603081 ], [ 22.6373666, 37.760289 ], [ 22.6374444, 37.7602593 ], [ 22.6374739, 37.760219 ], [ 22.6374686, 37.7599328 ] ] } },
{ "type": "Feature", "properties": { "@type": "way", "@id": 732795915, "admin_level": null, "alt_name": null, "alt_name1": null, "barrier": null, "boat": "no", "boundary": null, "highway": null, "int_name": null, "int_ref": null, "lanes": null, "layer": "-1", "lit": null, "maxspeed": null, "name": null, "name:ar": null, "name:bg": null, "name:de": null, "name:el": null, "name:en": null, "name:es": null, "name:fr": null, "name:it": null, "name:mk": null, "name:nl": null, "name:pl": null, "name:prefix": null, "name:pt": null, "name:ro": null, "name:ru": null, "name:sq": null, "name:sr": null, "name:tr": null, "name:uk": null, "narrow": null, "natural": null, "noname": null, "oneway": null, "operator": null, "ref": null, "sidewalk": null, "smoothness": null, "source": "Bing", "source:ref": null, "surface": null, "toll": null, "traffic_sign": null, "traffic_sign:direction": null, "tunnel": "culvert", "water": null, "waterway": "stream", "wikidata": null, "wikipedia": null, "label": "waterway:stream" }, "geometry": { "type": "LineString", "coordinates": [ [ 22.6369332, 37.760423 ], [ 22.6371844, 37.7603354 ] ] } },
{ "type": "Feature", "properties": { "@type": "way", "@id": 732795916, "admin_level": null, "alt_name": null, "alt_name1": null, "barrier": null, "boat": "no", "boundary": null, "highway": null, "int_name": null, "int_ref": null, "lanes": null, "layer": null, "lit": null, "maxspeed": null, "name": null, "name:ar": null, "name:bg": null, "name:de": null, "name:el": null, "name:en": null, "name:es": null, "name:fr": null, "name:it": null, "name:mk": null, "name:nl": null, "name:pl": null, "name:prefix": null, "name:pt": null, "name:ro": null, "name:ru": null, "name:sq": null, "name:sr": null, "name:tr": null, "name:uk": null, "narrow": null, "natural": null, "noname": null, "oneway": null, "operator": null, "ref": null, "sidewalk": null, "smoothness": null, "source": "Bing", "source:ref": null, "surface": null, "toll": null, "traffic_sign": null, "traffic_sign:direction": null, "tunnel": null, "water": null, "waterway": "stream", "wikidata": null, "wikipedia": null, "label": "waterway:stream" }, "geometry": { "type": "LineString", "coordinates": [ [ 22.6364475, 37.7605633 ], [ 22.6365175, 37.7605079 ], [ 22.6366249, 37.7604839 ], [ 22.6367324, 37.7604839 ], [ 22.6368398, 37.7604636 ], [ 22.6369332, 37.760423 ] ] } }
]
}
