{
"type": "FeatureCollection",
"name": "patch_52767_features",
"crs": { "type": "name", "properties": { "name": "urn:ogc:def:crs:OGC:1.3:CRS84" } },
"features": [
{ "type": "Feature", "properties": { "element": "relation", "id": 5685149, "name": "Ακρωτήρι", "name:el": "Ακρωτήρι", "natural": "peninsula", "landuse": null, "source": null, "type": "multipolygon", "int_name": "Akrotiri", "name:ca": "Akrotiri", "name:cs": "Akrotiri", "name:de": "Akrotiri", "name:en": "Akrotiri", "name:fi": "Akrotíri", "name:fr": "Akrotíri", "name:it": "Akrotiri", "name:nn": "Akrotíri", "name:pt": "Acrotíri", "name:ru": "Акротири", "name:sv": "Akrotiri", "name:uk": "Акротирі", "note": "border in SW (very coarse)", "old_name": "Κύαμον", "old_name:de": "Kiamon", "old_name:en": "Kiamon", "wikidata": "Q421226", "wikipedia": "el:Ακρωτήρι Κρήτης", "label": "natural:peninsula" }, "geometry": { "type": "Polygon", "coordinates": [ [ [ 24.1979589, 35.5328402 ], [ 24.1978845, 35.5326953 ], [ 24.197795, 35.5324201 ], [ 24.1975104, 35.5320582 ], [ 24.1973882, 35.5320204 ], [ 24.1972595, 35.5318444 ], [ 24.1971898, 35.5315829 ], [ 24.197068, 35.531497 ], [ 24.1968412, 35.531336 ], [ 24.1968102, 35.5312684 ], [ 24.1967904, 35.531247 ], [ 24.1967841, 35.5312164 ], [ 24.1967496, 35.5311702 ], [ 24.1967747, 35.531146 ], [ 24.1967485, 35.5311314 ], [ 24.1967387, 35.5311008 ], [ 24.1967688, 35.5310588 ], [ 24.1967347, 35.5309937 ], [ 24.1967319, 35.5309354 ], [ 24.1967768, 35.5309306 ], [ 24.1968255, 35.5308778 ], [ 24.1967914, 35.5308557 ], [ 24.1967955, 35.5308093 ], [ 24.196851, 35.530793 ], [ 24.1968362, 35.5307561 ], [ 24.1968873, 35.5307394 ], [ 24.1968499, 35.5306867 ], [ 24.1969682, 35.530564 ], [ 24.1970524, 35.5303473 ], [ 24.1970249, 35.5301433 ], [ 24.1969801, 35.530059 ], [ 24.1968812, 35.5299913 ], [ 24.1968355, 35.5300212 ], [ 24.196604, 35.530031 ], [ 24.1964482, 35.5297706 ], [ 24.1962477, 35.5295668 ], [ 24.1959792, 35.529399 ], [ 24.1956901, 35.5291146 ], [ 24.1952517, 35.52888 ], [ 24.1946072, 35.5283375 ], [ 24.1944843, 35.5283427 ], [ 24.1943628, 35.5282645 ], [ 24.1943509, 35.5281358 ], [ 24.1942757, 35.5280965 ], [ 24.1941525, 35.5280914 ], [ 24.1940047, 35.5276908 ], [ 24.1936516, 35.527314 ], [ 24.1934985, 35.5270606 ], [ 24.1933576, 35.5269593 ], [ 24.1930324, 35.5266418 ], [ 24.1925653, 35.5261216 ], [ 24.1924034, 35.5258616 ], [ 24.1922914, 35.5257751 ], [ 24.1920987, 35.5257415 ], [ 24.1920086, 35.5256351 ], [ 24.1919359, 35.5256258 ], [ 24.1916366, 35.5257463 ], [ 24.1914823, 35.5258291 ], [ 24.1914012, 35.5258171 ], [ 24.1914397, 35.5257423 ], [ 24.1914516, 35.5255889 ], [ 24.1915926, 35.5254762 ], [ 24.1918727, 35.5252496 ], [ 24.1918942, 35.5251802 ], [ 24.1916293, 35.5249916 ], [ 24.1914291, 35.5248853 ], [ 24.1910088, 35.5246868 ], [ 24.1913032, 35.5246189 ], [ 24.1912817, 35.5245396 ], [ 24.1912069, 35.5244657 ], [ 24.1911306, 35.5244235 ], [ 24.1908504, 35.5244191 ], [ 24.1907367, 35.5243712 ], [ 24.1903742, 35.5240355 ], [ 24.1901469, 35.5239236 ], [ 24.189913, 35.5238659 ], [ 24.1897095, 35.5238552 ], [ 24.1896126, 35.5237848 ], [ 24.1896674, 35.523676 ], [ 24.1898715, 35.5236802 ], [ 24.1899608, 35.5235773 ], [ 24.189979, 35.5234938 ], [ 24.1898674, 35.523432 ], [ 24.189624, 35.5231832 ], [ 24.1893669, 35.5228641 ], [ 24.18921529401349, 35.522637713955 ], [ 24.18921529401349, 35.533149504722807 ], [ 24.198085021667143, 35.533149504722807 ], [ 24.1979589, 35.5328402 ] ] ] } },
{ "type": "Feature", "properties": { "element": "way", "id": 27267393, "name": null, "name:el": null, "natural": "coastline", "landuse": null, "source": null, "type": null, "int_name": null, "name:ca": null, "name:cs": null, "name:de": null, "name:en": null, "name:fi": null, "name:fr": null, "name:it": null, "name:nn": null, "name:pt": null, "name:ru": null, "name:sv": null, "name:uk": null, "note": null, "old_name": null, "old_name:de": null, "old_name:en": null, "wikidata": null, "wikipedia": null, "label": "natural:coastline" }, "geometry": { "type": "LineString", "coordinates": [ [ 24.18921529401349, 35.522637713955 ], [ 24.1893669, 35.5228641 ], [ 24.189624, 35.5231832 ], [ 24.1898674, 35.523432 ], [ 24.189979, 35.5234938 ], [ 24.1899608, 35.5235773 ], [ 24.1898715, 35.5236802 ], [ 24.1896674, 35.523676 ], [ 24.1896126, 35.5237848 ], [ 24.1897095, 35.5238552 ], [ 24.189913, 35.5238659 ], [ 24.1901469, 35.5239236 ], [ 24.1903742, 35.5240355 ], [ 24.1907367, 35.5243712 ], [ 24.1908504, 35.5244191 ], [ 24.1911306, 35.5244235 ], [ 24.1912069, 35.5244657 ], [ 24.1912817, 35.5245396 ], [ 24.1913032, 35.5246189 ], [ 24.1910088, 35.5246868 ], [ 24.1914291, 35.5248853 ], [ 24.1916293, 35.5249916 ], [ 24.1918942, 35.5251802 ], [ 24.1918727, 35.5252496 ], [ 24.1915926, 35.5254762 ], [ 24.1914516, 35.5255889 ], [ 24.1914397, 35.5257423 ], [ 24.1914012, 35.5258171 ], [ 24.1914823, 35.5258291 ], [ 24.1916366, 35.5257463 ], [ 24.1919359, 35.5256258 ], [ 24.1920086, 35.5256351 ], [ 24.1920987, 35.5257415 ], [ 24.1922914, 35.5257751 ], [ 24.1924034, 35.5258616 ], [ 24.1925653, 35.5261216 ], [ 24.1930324, 35.5266418 ], [ 24.1933576, 35.5269593 ], [ 24.1934985, 35.5270606 ], [ 24.1936516, 35.527314 ], [ 24.1940047, 35.5276908 ], [ 24.1941525, 35.5280914 ], [ 24.1942757, 35.5280965 ], [ 24.1943509, 35.5281358 ], [ 24.1943628, 35.5282645 ], [ 24.1944843, 35.5283427 ], [ 24.1946072, 35.5283375 ], [ 24.1952517, 35.52888 ], [ 24.1956901, 35.5291146 ], [ 24.1959792, 35.529399 ], [ 24.1962477, 35.5295668 ], [ 24.1964482, 35.5297706 ], [ 24.196604, 35.530031 ], [ 24.1968355, 35.5300212 ], [ 24.1968812, 35.5299913 ], [ 24.1969801, 35.530059 ], [ 24.1970249, 35.5301433 ], [ 24.1970524, 35.5303473 ], [ 24.1969682, 35.530564 ], [ 24.1968499, 35.5306867 ], [ 24.1968873, 35.5307394 ], [ 24.1968362, 35.5307561 ], [ 24.196851, 35.530793 ], [ 24.1967955, 35.5308093 ], [ 24.1967914, 35.5308557 ], [ 24.1968255, 35.5308778 ], [ 24.1967768, 35.5309306 ], [ 24.1967319, 35.5309354 ], [ 24.1967347, 35.5309937 ], [ 24.1967688, 35.5310588 ], [ 24.1967387, 35.5311008 ], [ 24.1967485, 35.5311314 ], [ 24.1967747, 35.531146 ], [ 24.1967496, 35.5311702 ], [ 24.1967841, 35.5312164 ], [ 24.1967904, 35.531247 ], [ 24.1968102, 35.5312684 ], [ 24.1968412, 35.531336 ], [ 24.197068, 35.531497 ], [ 24.1971898, 35.5315829 ], [ 24.1972595, 35.5318444 ], [ 24.1973882, 35.5320204 ], [ 24.1975104, 35.5320582 ], [ 24.197795, 35.5324201 ], [ 24.1978845, 35.5326953 ], [ 24.1979589, 35.5328402 ], [ 24.198085021667143, 35.533149504722807 ] ] } },
{ "type": "Feature", "properties": { "element": "way", "id": 822273694, "name": null, "name:el": null, "natural": null, "landuse": "military", "source": "Maxar Premium Imagery (2020-07-02)", "type": null, "int_name": null, "name:ca": null, "name:cs": null, "name:de": null, "name:en": null, "name:fi": null, "name:fr": null, "name:it": null, "name:nn": null, "name:pt": null, "name:ru": null, "name:sv": null, "name:uk": null, "note": null, "old_name": null, "old_name:de": null, "old_name:en": null, "wikidata": null, "wikipedia": null, "label": "landuse:military" }, "geometry": { "type": "Polygon", "coordinates": [ [ [ 24.1930988, 35.5286901 ], [ 24.1906124, 35.528498 ], [ 24.1903147, 35.52893 ], [ 24.1900063, 35.5293777 ], [ 24.1908941, 35.5308424 ], [ 24.1932356, 35.5304407 ], [ 24.1941127, 35.529155 ], [ 24.1930988, 35.5286901 ] ] ] } },
{ "type": "Feature", "properties": { "element": "way", "id": 1152847144, "name": null, "name:el": null, "natural": "bare_rock", "landuse": null, "source": "Maxar Premium", "type": null, "int_name": null, "name:ca": null, "name:cs": null, "name:de": null, "name:en": null, "name:fi": null, "name:fr": null, "name:it": null, "name:nn": null, "name:pt": null, "name:ru": null, "name:sv": null, "name:uk": null, "note": null, "old_name": null, "old_name:de": null, "old_name:en": null, "wikidata": null, "wikipedia": null, "label": "natural:bare_rock" }, "geometry": { "type": "Polygon", "coordinates": [ [ [ 24.1962959, 35.5312637 ], [ 24.1963792, 35.5312771 ], [ 24.1964261, 35.5313055 ], [ 24.1964959, 35.5313132 ], [ 24.1965643, 35.5312782 ], [ 24.1966327, 35.5312815 ], [ 24.196685, 35.5313164 ], [ 24.1967627, 35.5313339 ], [ 24.1968412, 35.531336 ], [ 24.1968102, 35.5312684 ], [ 24.1967904, 35.531247 ], [ 24.1967841, 35.5312164 ], [ 24.1967496, 35.5311702 ], [ 24.1967747, 35.531146 ], [ 24.1967485, 35.5311314 ], [ 24.1967387, 35.5311008 ], [ 24.1967688, 35.5310588 ], [ 24.1967347, 35.5309937 ], [ 24.1967319, 35.5309354 ], [ 24.1967768, 35.5309306 ], [ 24.1968255, 35.5308778 ], [ 24.1967914, 35.5308557 ], [ 24.1967955, 35.5308093 ], [ 24.196851, 35.530793 ], [ 24.1968362, 35.5307561 ], [ 24.1968873, 35.5307394 ], [ 24.1968499, 35.5306867 ], [ 24.196454, 35.5306854 ], [ 24.1962689, 35.5307203 ], [ 24.196178, 35.5308308 ], [ 24.1961697, 35.5309757 ], [ 24.1962145, 35.531106 ], [ 24.1962233, 35.5312333 ], [ 24.1962959, 35.5312637 ] ] ] } }
]
}
