{
"type": "FeatureCollection",
"name": "patch_55328_polygon",
"crs": { "type": "name", "properties": { "name": "urn:ogc:def:crs:OGC:1.3:CRS84" } },
"features": [
{ "type": "Feature", "properties": { "@type": "way", "@id": 136823620, "addr:postcode": null, "admin_level": null, "boundary": null, "bridge": null, "cables": null, "circuits": null, "communication": null, "ele": null, "highway": null, "historic": null, "landuse": null, "lanes": null, "layer": null, "leaf_type": "broadleaved", "leisure": null, "lit": null, "man_made": null, "name": null, "name:el": null, "name:en": null, "name:ru": null, "name:tr": null, "natural": "wood", "note": null, "old_ref": null, "opening_hours": null, "operator": null, "operator:wikidata": null, "place": null, "power": null, "protect_class": null, "protection_title": null, "source": "http://geodata.gov.gr/", "surface": null, "type": null, "voltage": null, "wikidata": null, "wikipedia": null, "wires": null, "label": "natural:wood" }, "geometry": { "type": "Polygon", "coordinates": [ [ [ 25.741139, 41.141544 ], [ 25.740908, 41.141242 ], [ 25.740673, 41.141057 ], [ 25.74044, 41.140778 ], [ 25.740005, 41.140242 ], [ 25.739816, 41.139622 ], [ 25.739624, 41.139073 ], [ 25.739427, 41.138681 ], [ 25.739202, 41.138196 ], [ 25.738977, 41.137733 ], [ 25.73872, 41.13732 ], [ 25.738401, 41.136926 ], [ 25.738079, 41.136599 ], [ 25.7377, 41.136227 ], [ 25.737436, 41.135994 ], [ 25.737023, 41.135686 ], [ 25.736851, 41.135596 ], [ 25.73661, 41.135305 ], [ 25.734406, 41.134076 ], [ 25.733231, 41.133841 ], [ 25.732406, 41.134232 ], [ 25.732422, 41.134863 ], [ 25.732145, 41.137014 ], [ 25.732539, 41.139281 ], [ 25.732588, 41.141175 ], [ 25.732727945992082, 41.141711208837044 ], [ 25.741262805692109, 41.141711208837044 ], [ 25.741139, 41.141544 ] ] ] } },
{ "type": "Feature", "properties": { "@type": "way", "@id": 136823641, "addr:postcode": null, "admin_level": null, "boundary": null, "bridge": null, "cables": null, "circuits": null, "communication": null, "ele": null, "highway": null, "historic": null, "landuse": null, "lanes": null, "layer": null, "leaf_type": "broadleaved", "leisure": null, "lit": null, "man_made": null, "name": null, "name:el": null, "name:en": null, "name:ru": null, "name:tr": null, "natural": "wood", "note": null, "old_ref": null, "opening_hours": null, "operator": null, "operator:wikidata": null, "place": null, "power": null, "protect_class": null, "protection_title": null, "source": "http://geodata.gov.gr/", "surface": null, "type": null, "voltage": null, "wikidata": null, "wikipedia": null, "wires": null, "label": "natural:wood" }, "geometry": { "type": "Polygon", "coordinates": [ [ [ 25.72189, 41.123228 ], [ 25.722032, 41.123308 ], [ 25.722578, 41.123605 ], [ 25.72282, 41.123786 ], [ 25.723122, 41.12392 ], [ 25.723516, 41.124175 ], [ 25.723729, 41.124355 ], [ 25.724122, 41.124673 ], [ 25.724364, 41.124902 ], [ 25.724728, 41.125292 ], [ 25.724791, 41.125342 ], [ 25.726753, 41.125363 ], [ 25.729364, 41.125837 ], [ 25.731084, 41.126793 ], [ 25.732166, 41.127119 ], [ 25.733558, 41.126372 ], [ 25.733583, 41.125175 ], [ 25.733166, 41.124327 ], [ 25.732487, 41.123578 ], [ 25.732446, 41.123573 ], [ 25.732052, 41.123574 ], [ 25.731598, 41.123527 ], [ 25.731235, 41.123505 ], [ 25.730781, 41.123413 ], [ 25.730357, 41.123275 ], [ 25.729963, 41.123164 ], [ 25.72957, 41.123071 ], [ 25.729207, 41.122982 ], [ 25.728661, 41.122936 ], [ 25.728238, 41.122938 ], [ 25.727935, 41.122915 ], [ 25.727541, 41.122845 ], [ 25.727118, 41.122801 ], [ 25.726572, 41.122778 ], [ 25.72627, 41.122755 ], [ 25.725755, 41.122686 ], [ 25.725361, 41.122575 ], [ 25.724908, 41.122349 ], [ 25.724574, 41.12212 ], [ 25.724362, 41.121935 ], [ 25.724029, 41.121617 ], [ 25.723878, 41.121413 ], [ 25.723847, 41.121001 ], [ 25.72391, 41.120938 ], [ 25.722501, 41.120472 ], [ 25.721678, 41.121424 ], [ 25.72189, 41.123228 ] ] ] } },
{ "type": "Feature", "properties": { "@type": "way", "@id": 138270683, "addr:postcode": null, "admin_level": null, "boundary": "protected_area", "bridge": null, "cables": null, "circuits": null, "communication": null, "ele": null, "highway": null, "historic": null, "landuse": null, "lanes": null, "layer": null, "leaf_type": null, "leisure": "nature_reserve", "lit": null, "man_made": null, "name": "Αρριανών - Νέας Σάντας Δήμων Αρριανών - Σαπών", "name:el": null, "name:en": null, "name:ru": null, "name:tr": null, "natural": null, "note": null, "old_ref": null, "opening_hours": "24/7", "operator": null, "operator:wikidata": null, "place": null, "power": null, "protect_class": "4", "protection_title": "Wildlife Refugee", "source": "http://geodata.gov.gr/", "surface": null, "type": null, "voltage": null, "wikidata": null, "wikipedia": null, "wires": null, "label": "leisure:nature_reserve" }, "geometry": { "type": "Polygon", "coordinates": [ [ [ 25.7470845, 41.131668 ], [ 25.7451809, 41.1308901 ], [ 25.7446761, 41.130466 ], [ 25.744719, 41.1300429 ], [ 25.7436901, 41.1291093 ], [ 25.7456764, 41.1282725 ], [ 25.747111237101038, 41.128742383251002 ], [ 25.747111237101038, 41.118320655773772 ], [ 25.722521700886656, 41.118320655773772 ], [ 25.7226463, 41.118843 ], [ 25.7231618, 41.1193573 ], [ 25.7233562, 41.1195917 ], [ 25.7223785, 41.120603 ], [ 25.7221524, 41.1215555 ], [ 25.7224244, 41.1223582 ], [ 25.7226337, 41.1231618 ], [ 25.7226132, 41.1247757 ], [ 25.7235225, 41.1259485 ], [ 25.7247406, 41.1269269 ], [ 25.7268998, 41.1278911 ], [ 25.7279814, 41.1284444 ], [ 25.7284945, 41.1288638 ], [ 25.7290903, 41.1300413 ], [ 25.7297979, 41.1306951 ], [ 25.7315921, 41.1320918 ], [ 25.731858, 41.1326573 ], [ 25.7329471, 41.1334952 ], [ 25.7351645, 41.1342686 ], [ 25.7367896, 41.1340068 ], [ 25.7390559, 41.1342573 ], [ 25.7425006, 41.133968 ], [ 25.7460306, 41.1345315 ], [ 25.747111237101038, 41.134695910263538 ], [ 25.747111237101038, 41.131695139193873 ], [ 25.7470845, 41.131668 ] ] ] } },
{ "type": "Feature", "properties": { "@type": "way", "@id": 208526798, "addr:postcode": null, "admin_level": null, "boundary": null, "bridge": null, "cables": null, "circuits": null, "communication": null, "ele": null, "highway": null, "historic": null, "landuse": "residential", "lanes": null, "layer": null, "leaf_type": null, "leisure": null, "lit": null, "man_made": null, "name": null, "name:el": null, "name:en": null, "name:ru": null, "name:tr": null, "natural": null, "note": null, "old_ref": null, "opening_hours": null, "operator": null, "operator:wikidata": null, "place": null, "power": null, "protect_class": null, "protection_title": null, "source": null, "surface": null, "type": null, "voltage": null, "wikidata": null, "wikipedia": null, "wires": null, "label": "landuse:residential" }, "geometry": { "type": "Polygon", "coordinates": [ [ [ 25.7176603, 41.1308581 ], [ 25.7181137, 41.1318828 ], [ 25.7184184, 41.1325891 ], [ 25.7191437, 41.1326909 ], [ 25.7194441, 41.1330141 ], [ 25.7193196, 41.1335911 ], [ 25.7203319, 41.1338323 ], [ 25.7213156, 41.1334606 ], [ 25.721952, 41.1332202 ], [ 25.7221517, 41.1329755 ], [ 25.722379, 41.132697 ], [ 25.7225554, 41.1324808 ], [ 25.7211544, 41.1314735 ], [ 25.720879, 41.1313253 ], [ 25.7199001, 41.1309531 ], [ 25.7191052, 41.1306508 ], [ 25.7190809, 41.1306416 ], [ 25.7176217, 41.1307709 ], [ 25.7176603, 41.1308581 ] ] ] } },
{ "type": "Feature", "properties": { "@type": "way", "@id": 577859860, "addr:postcode": null, "admin_level": null, "boundary": null, "bridge": null, "cables": null, "circuits": null, "communication": null, "ele": null, "highway": null, "historic": "ruins", "landuse": null, "lanes": null, "layer": null, "leaf_type": null, "leisure": null, "lit": null, "man_made": null, "name": null, "name:el": null, "name:en": null, "name:ru": null, "name:tr": null, "natural": null, "note": null, "old_ref": null, "opening_hours": null, "operator": null, "operator:wikidata": null, "place": null, "power": null, "protect_class": null, "protection_title": null, "source": null, "surface": null, "type": null, "voltage": null, "wikidata": null, "wikipedia": null, "wires": null, "label": "historic:ruins" }, "geometry": { "type": "Polygon", "coordinates": [ [ [ 25.7390624, 41.1255665 ], [ 25.7391643, 41.1256958 ], [ 25.7394755, 41.1257645 ], [ 25.7397973, 41.1256999 ], [ 25.7401299, 41.1256837 ], [ 25.7405269, 41.125514 ], [ 25.7408273, 41.1253079 ], [ 25.7409668, 41.1250614 ], [ 25.7410151, 41.1248755 ], [ 25.7409453, 41.1246492 ], [ 25.74072, 41.1244755 ], [ 25.7403982, 41.1244553 ], [ 25.7400387, 41.1244916 ], [ 25.7396364, 41.1245927 ], [ 25.7393306, 41.1248311 ], [ 25.7391804, 41.1250897 ], [ 25.7390249, 41.1253766 ], [ 25.7390624, 41.1255665 ] ] ] } }
]
}
