{
"type": "FeatureCollection",
"name": "patch_95834_polygon",
"crs": { "type": "name", "properties": { "name": "urn:ogc:def:crs:OGC:1.3:CRS84" } },
"features": [
{ "type": "Feature", "properties": { "osm_id": 136734645, "name": null, "label": "natural:wood", "natural": "wood", "landuse": null, "tourism": null }, "geometry": { "type": "Polygon", "coordinates": [ [ [ 23.430766, 40.613210000346733 ], [ 23.430469, 40.613091000346728 ], [ 23.430173, 40.612927000346708 ], [ 23.429787, 40.612754000346683 ], [ 23.429485, 40.612753000346679 ], [ 23.429001, 40.612885000346708 ], [ 23.428931, 40.61322700034674 ], [ 23.429314, 40.613526000346774 ], [ 23.42968, 40.614014000346842 ], [ 23.430738, 40.614236000346871 ], [ 23.430966387591763, 40.614294093171765 ], [ 23.430966387591763, 40.613229621635789 ], [ 23.430766, 40.613210000346733 ] ] ] } },
{ "type": "Feature", "properties": { "osm_id": 1042041853, "name": null, "label": "landuse:orchard", "natural": null, "landuse": "orchard", "tourism": null }, "geometry": { "type": "Polygon", "coordinates": [ [ [ 23.4280214, 40.618490900347403 ], [ 23.4280221, 40.618455300347392 ], [ 23.4280311, 40.618183000347358 ], [ 23.4256496, 40.618171000347338 ], [ 23.4256424, 40.618470900347397 ], [ 23.4280214, 40.618490900347403 ] ] ] } },
{ "type": "Feature", "properties": { "osm_id": -1850515, "name": "Εθνικό Πάρκο Κορώνειας-Βόλβης", "label": "tourism:information", "natural": null, "landuse": null, "tourism": "information" }, "geometry": { "type": "Polygon", "coordinates": [ [ [ 23.399901690023832, 40.620713537190895 ], [ 23.430966387591763, 40.620713537190895 ], [ 23.430966387591763, 40.598304073282051 ], [ 23.399901690023832, 40.598304073282051 ], [ 23.399901690023832, 40.620713537190895 ] ] ] } },
{ "type": "Feature", "properties": { "osm_id": -17347937, "name": "Χαλκιδική", "label": "natural:peninsula", "natural": "peninsula", "landuse": null, "tourism": null }, "geometry": { "type": "Polygon", "coordinates": [ [ [ 23.399901690023832, 40.620713537190895 ], [ 23.430966387591763, 40.620713537190895 ], [ 23.430966387591763, 40.598304073282051 ], [ 23.399901690023832, 40.598304073282051 ], [ 23.399901690023832, 40.620713537190895 ] ] ] } }
]
}
