{
"type": "FeatureCollection",
"name": "patch_64466_features",
"crs": { "type": "name", "properties": { "name": "urn:ogc:def:crs:OGC:1.3:CRS84" } },
"features": [
{ "type": "Feature", "properties": { "osm_id": -1850517, "name": "Εθνικό πάρκο λιμνοθαλασσών Μεσσολογγίου-Αιτωλικού", "label": "tourism:information", "tourism": "information", "landuse": null, "building": null, "water": null, "natural": null }, "geometry": { "type": "Polygon", "coordinates": [ [ [ 21.542836, 38.345310000031134 ], [ 21.540628, 38.342608000030751 ], [ 21.538897033140589, 38.341467246142628 ], [ 21.538897033140589, 38.346870226977437 ], [ 21.544438878005472, 38.346870226977437 ], [ 21.542836, 38.345310000031134 ] ] ] } },
{ "type": "Feature", "properties": { "osm_id": 1125557896, "name": null, "label": "landuse:farmland", "tourism": null, "landuse": "farmland", "building": null, "water": null, "natural": null }, "geometry": { "type": "Polygon", "coordinates": [ [ [ 21.5525562, 38.345889700031229 ], [ 21.5480871, 38.346496400031313 ], [ 21.548199375372924, 38.346870226977437 ], [ 21.552779862145528, 38.346870226977437 ], [ 21.5525562, 38.345889700031229 ] ] ] } },
{ "type": "Feature", "properties": { "osm_id": -6256872, "name": null, "label": "landuse:farmland", "tourism": null, "landuse": "farmland", "building": null, "water": null, "natural": null }, "geometry": { "type": "Polygon", "coordinates": [ [ [ 21.5682757, 38.325641900028309 ], [ 21.5680236, 38.325430400028296 ], [ 21.5678747, 38.325300000028264 ], [ 21.5677553, 38.325226300028255 ], [ 21.5676172, 38.325200000028239 ], [ 21.5675086, 38.325193700028251 ], [ 21.5673852, 38.325170600028244 ], [ 21.5671559, 38.32510640002824 ], [ 21.5669614, 38.325041200028238 ], [ 21.5667401, 38.324914900028212 ], [ 21.5665872, 38.324805500028177 ], [ 21.5664639, 38.32474340002819 ], [ 21.5662453, 38.324664500028163 ], [ 21.565965, 38.324549800028159 ], [ 21.5657946, 38.324470900028153 ], [ 21.5656552, 38.324446700028155 ], [ 21.5655304, 38.32445940002814 ], [ 21.5654473, 38.324483600028138 ], [ 21.5653159, 38.32451200002815 ], [ 21.5651751, 38.324504600028156 ], [ 21.5650128, 38.324467800028145 ], [ 21.5648223, 38.324378300028144 ], [ 21.5646735, 38.324293100028108 ], [ 21.5645783, 38.324218400028116 ], [ 21.5644683, 38.324147900028088 ], [ 21.5643355, 38.324098500028093 ], [ 21.564184, 38.324053200028075 ], [ 21.5640566, 38.323997500028071 ], [ 21.563952764069995, 38.323937879723545 ], [ 21.538897033140589, 38.323937879723545 ], [ 21.538897033140589, 38.341177990783926 ], [ 21.5404084, 38.342243100030693 ], [ 21.5415252, 38.343062000030812 ], [ 21.5423771, 38.343900700030929 ], [ 21.5433528, 38.345044000031102 ], [ 21.5443343, 38.34614500003125 ], [ 21.544981576953184, 38.346870226977437 ], [ 21.56836319492524, 38.346870226977437 ], [ 21.56836319492524, 38.325711834210033 ], [ 21.5682757, 38.325641900028309 ] ] ] } },
{ "type": "Feature", "properties": { "osm_id": 1125557894, "name": null, "label": "landuse:orchard", "tourism": null, "landuse": "orchard", "building": null, "water": null, "natural": null }, "geometry": { "type": "Polygon", "coordinates": [ [ [ 21.5580052, 38.346819900031349 ], [ 21.55765008615748, 38.346870226977437 ], [ 21.558003723839921, 38.346870226977437 ], [ 21.5580052, 38.346819900031349 ] ] ] } },
{ "type": "Feature", "properties": { "osm_id": 1125388174, "name": null, "label": "landuse:orchard", "tourism": null, "landuse": "orchard", "building": null, "water": null, "natural": null }, "geometry": { "type": "Polygon", "coordinates": [ [ [ 21.5443925, 38.330552100029017 ], [ 21.5450005, 38.330556700029021 ], [ 21.5450243, 38.331117800029105 ], [ 21.5460197, 38.331075700029082 ], [ 21.5459243, 38.329631000028883 ], [ 21.5443329, 38.329645000028897 ], [ 21.5443925, 38.330552100029017 ] ] ] } },
{ "type": "Feature", "properties": { "osm_id": 1125466744, "name": null, "label": "landuse:orchard", "tourism": null, "landuse": "orchard", "building": null, "water": null, "natural": null }, "geometry": { "type": "Polygon", "coordinates": [ [ [ 21.547671, 38.329412700028854 ], [ 21.5480185, 38.329401000028838 ], [ 21.5479639, 38.328731300028757 ], [ 21.5475966, 38.328746900028762 ], [ 21.547671, 38.329412700028854 ] ] ] } },
{ "type": "Feature", "properties": { "osm_id": 1125466759, "name": null, "label": "landuse:orchard", "tourism": null, "landuse": "orchard", "building": null, "water": null, "natural": null }, "geometry": { "type": "Polygon", "coordinates": [ [ [ 21.5476097, 38.328698700028752 ], [ 21.5478231, 38.32867540002875 ], [ 21.547843, 38.328324900028697 ], [ 21.5480614, 38.328305500028698 ], [ 21.5479968, 38.327916100028631 ], [ 21.547565, 38.327931600028641 ], [ 21.5476097, 38.328698700028752 ] ] ] } },
{ "type": "Feature", "properties": { "osm_id": 1126242917, "name": null, "label": "landuse:residential", "tourism": null, "landuse": "residential", "building": null, "water": null, "natural": null }, "geometry": { "type": "Polygon", "coordinates": [ [ [ 21.5459212, 38.325246600028265 ], [ 21.5461837, 38.325493600028295 ], [ 21.5463111, 38.325477400028277 ], [ 21.5463627, 38.32565830002833 ], [ 21.5465452, 38.325652900028317 ], [ 21.5465279, 38.325282900028256 ], [ 21.5463489, 38.325255900028253 ], [ 21.5463111, 38.325085800028234 ], [ 21.5465038, 38.325048000028239 ], [ 21.5463593, 38.324407900028135 ], [ 21.5462353, 38.32439440002814 ], [ 21.546256, 38.324637500028174 ], [ 21.5459427, 38.324675300028183 ], [ 21.5460047, 38.324915600028206 ], [ 21.5458704, 38.324923700028208 ], [ 21.5459212, 38.325246600028265 ] ] ] } },
{ "type": "Feature", "properties": { "osm_id": 1125466758, "name": null, "label": "landuse:orchard", "tourism": null, "landuse": "orchard", "building": null, "water": null, "natural": null }, "geometry": { "type": "Polygon", "coordinates": [ [ [ 21.5491236, 38.33027570002897 ], [ 21.5495108, 38.330287400028993 ], [ 21.549481, 38.329508700028867 ], [ 21.5491137, 38.329512600028863 ], [ 21.5491236, 38.33027570002897 ] ] ] } },
{ "type": "Feature", "properties": { "osm_id": 1125466756, "name": null, "label": "landuse:orchard", "tourism": null, "landuse": "orchard", "building": null, "water": null, "natural": null }, "geometry": { "type": "Polygon", "coordinates": [ [ [ 21.5517808, 38.328574900028748 ], [ 21.552318, 38.328550600028727 ], [ 21.5522607, 38.327752800028598 ], [ 21.5517474, 38.327775200028618 ], [ 21.5517808, 38.328574900028748 ] ] ] } },
{ "type": "Feature", "properties": { "osm_id": 1125466757, "name": null, "label": "landuse:orchard", "tourism": null, "landuse": "orchard", "building": null, "water": null, "natural": null }, "geometry": { "type": "Polygon", "coordinates": [ [ [ 21.5513463, 38.32860680002873 ], [ 21.551523, 38.328603000028735 ], [ 21.551492, 38.327775200028618 ], [ 21.5513153, 38.327790200028623 ], [ 21.5513463, 38.32860680002873 ] ] ] } },
{ "type": "Feature", "properties": { "osm_id": 1125466743, "name": null, "label": "landuse:orchard", "tourism": null, "landuse": "orchard", "building": null, "water": null, "natural": null }, "geometry": { "type": "Polygon", "coordinates": [ [ [ 21.5554163, 38.331436800029138 ], [ 21.5558214, 38.330577500029023 ], [ 21.555346, 38.330428300029006 ], [ 21.5549203, 38.331264900029126 ], [ 21.5554163, 38.331436800029138 ] ] ] } },
{ "type": "Feature", "properties": { "osm_id": 1126242916, "name": null, "label": "landuse:orchard", "tourism": null, "landuse": "orchard", "building": null, "water": null, "natural": null }, "geometry": { "type": "Polygon", "coordinates": [ [ [ 21.5547366, 38.337240800029981 ], [ 21.5555937, 38.335661200029747 ], [ 21.5547262, 38.335385800029712 ], [ 21.5538794, 38.336973500029963 ], [ 21.5547366, 38.337240800029981 ] ] ] } },
{ "type": "Feature", "properties": { "osm_id": 1125466721, "name": null, "label": "landuse:orchard", "tourism": null, "landuse": "orchard", "building": null, "water": null, "natural": null }, "geometry": { "type": "Polygon", "coordinates": [ [ [ 21.5550018, 38.338692700030187 ], [ 21.5553839, 38.338703500030185 ], [ 21.555353, 38.337537000030025 ], [ 21.5549881, 38.337434400030013 ], [ 21.5550018, 38.338692700030187 ] ] ] } },
{ "type": "Feature", "properties": { "osm_id": 1125466720, "name": null, "label": "landuse:orchard", "tourism": null, "landuse": "orchard", "building": null, "water": null, "natural": null }, "geometry": { "type": "Polygon", "coordinates": [ [ [ 21.5573702, 38.337858400030065 ], [ 21.5575596, 38.33762340003004 ], [ 21.5558383, 38.337277800029995 ], [ 21.555711, 38.337547800030023 ], [ 21.5573702, 38.337858400030065 ] ] ] } },
{ "type": "Feature", "properties": { "osm_id": 1125466719, "name": null, "label": "landuse:orchard", "tourism": null, "landuse": "orchard", "building": null, "water": null, "natural": null }, "geometry": { "type": "Polygon", "coordinates": [ [ [ 21.5562514, 38.337345300029995 ], [ 21.5576284, 38.337609900030031 ], [ 21.5584408, 38.336551500029884 ], [ 21.5565303, 38.33596280002979 ], [ 21.5558177, 38.337248100029974 ], [ 21.5562514, 38.337345300029995 ] ] ] } },
{ "type": "Feature", "properties": { "osm_id": 1125466717, "name": null, "label": "landuse:orchard", "tourism": null, "landuse": "orchard", "building": null, "water": null, "natural": null }, "geometry": { "type": "Polygon", "coordinates": [ [ [ 21.5603238, 38.338941100030226 ], [ 21.5606956, 38.337150900029961 ], [ 21.5597765, 38.337024000029956 ], [ 21.5596629, 38.337175200029968 ], [ 21.5587747, 38.338144600030112 ], [ 21.5587059, 38.338738600030197 ], [ 21.5603238, 38.338941100030226 ] ] ] } },
{ "type": "Feature", "properties": { "osm_id": 1125466718, "name": null, "label": "landuse:orchard", "tourism": null, "landuse": "orchard", "building": null, "water": null, "natural": null }, "geometry": { "type": "Polygon", "coordinates": [ [ [ 21.5586749, 38.337998800030093 ], [ 21.5595045, 38.336948400029939 ], [ 21.5585028, 38.336670300029901 ], [ 21.558427, 38.33682150002992 ], [ 21.5583823, 38.336778300029913 ], [ 21.5583238, 38.336867400029924 ], [ 21.558248, 38.336864700029928 ], [ 21.5576456, 38.337631500030042 ], [ 21.5586749, 38.337998800030093 ] ] ] } },
{ "type": "Feature", "properties": { "osm_id": 1125466752, "name": null, "label": "landuse:orchard", "tourism": null, "landuse": "orchard", "building": null, "water": null, "natural": null }, "geometry": { "type": "Polygon", "coordinates": [ [ [ 21.5616826, 38.340919700030504 ], [ 21.5619761, 38.339533100030309 ], [ 21.561246, 38.339476900030306 ], [ 21.5611745, 38.339746400030336 ], [ 21.5607092, 38.339673400030343 ], [ 21.5605088, 38.340773700030496 ], [ 21.5616826, 38.340919700030504 ] ] ] } },
{ "type": "Feature", "properties": { "osm_id": 1125557873, "name": null, "label": "landuse:orchard", "tourism": null, "landuse": "orchard", "building": null, "water": null, "natural": null }, "geometry": { "type": "Polygon", "coordinates": [ [ [ 21.5598404, 38.344015400030948 ], [ 21.5601696, 38.342679400030754 ], [ 21.5584447, 38.342482900030738 ], [ 21.5583588, 38.343869400030933 ], [ 21.5598404, 38.344015400030948 ] ] ] } },
{ "type": "Feature", "properties": { "osm_id": 1125557870, "name": null, "label": "landuse:orchard", "tourism": null, "landuse": "orchard", "building": null, "water": null, "natural": null }, "geometry": { "type": "Polygon", "coordinates": [ [ [ 21.5566319, 38.340582000030452 ], [ 21.5575916, 38.340567900030457 ], [ 21.557526, 38.338828800030207 ], [ 21.5565306, 38.338833500030212 ], [ 21.5566319, 38.340582000030452 ] ] ] } },
{ "type": "Feature", "properties": { "osm_id": 1125557871, "name": null, "label": "building:farm", "tourism": null, "landuse": null, "building": "farm", "water": null, "natural": null }, "geometry": { "type": "Polygon", "coordinates": [ [ [ 21.5553841, 38.340657300030465 ], [ 21.5553344, 38.340196600030396 ], [ 21.555333, 38.340006300030382 ], [ 21.5548118, 38.339981400030368 ], [ 21.5548008, 38.340665900030473 ], [ 21.5553841, 38.340657300030465 ] ] ] } },
{ "type": "Feature", "properties": { "osm_id": 1125557872, "name": null, "label": "landuse:orchard", "tourism": null, "landuse": "orchard", "building": null, "water": null, "natural": null }, "geometry": { "type": "Polygon", "coordinates": [ [ [ 21.5536851, 38.342555900030753 ], [ 21.55823, 38.342331300030708 ], [ 21.5583875, 38.340669700030475 ], [ 21.5536064, 38.34081000003048 ], [ 21.5536851, 38.342555900030753 ] ] ] } },
{ "type": "Feature", "properties": { "osm_id": 1125466738, "name": null, "label": "landuse:orchard", "tourism": null, "landuse": "orchard", "building": null, "water": null, "natural": null }, "geometry": { "type": "Polygon", "coordinates": [ [ [ 21.5509362, 38.344203800030982 ], [ 21.5581365, 38.343885900030934 ], [ 21.5582378, 38.342441400030722 ], [ 21.5543933, 38.342628400030755 ], [ 21.5501852, 38.342838700030782 ], [ 21.5509362, 38.344203800030982 ] ] ] } },
{ "type": "Feature", "properties": { "osm_id": 1125466724, "name": null, "label": "landuse:orchard", "tourism": null, "landuse": "orchard", "building": null, "water": null, "natural": null }, "geometry": { "type": "Polygon", "coordinates": [ [ [ 21.5490107, 38.335931900029784 ], [ 21.5506889, 38.335860600029775 ], [ 21.5516521, 38.334326900029552 ], [ 21.5514743, 38.33429450002955 ], [ 21.5489239, 38.33448580002959 ], [ 21.5490107, 38.335931900029784 ] ] ] } },
{ "type": "Feature", "properties": { "osm_id": 1125466722, "name": null, "label": "landuse:orchard", "tourism": null, "landuse": "orchard", "building": null, "water": null, "natural": null }, "geometry": { "type": "Polygon", "coordinates": [ [ [ 21.549893, 38.334236100029543 ], [ 21.5507805, 38.334208100029535 ], [ 21.5506588, 38.332669700029321 ], [ 21.5497713, 38.332692200029321 ], [ 21.549893, 38.334236100029543 ] ] ] } },
{ "type": "Feature", "properties": { "osm_id": 1125466726, "name": null, "label": "landuse:orchard", "tourism": null, "landuse": "orchard", "building": null, "water": null, "natural": null }, "geometry": { "type": "Polygon", "coordinates": [ [ [ 21.5478649, 38.337730000030049 ], [ 21.5496166, 38.337575900030032 ], [ 21.550476, 38.33603890002982 ], [ 21.5476828, 38.336140000029815 ], [ 21.5478649, 38.337730000030049 ] ] ] } },
{ "type": "Feature", "properties": { "osm_id": 1125466725, "name": null, "label": "landuse:orchard", "tourism": null, "landuse": "orchard", "building": null, "water": null, "natural": null }, "geometry": { "type": "Polygon", "coordinates": [ [ [ 21.5493837, 38.338679700030184 ], [ 21.5514214, 38.338654500030188 ], [ 21.5514558, 38.336315200029858 ], [ 21.5506823, 38.336072600029809 ], [ 21.5492563, 38.338365700030138 ], [ 21.5493837, 38.338679700030184 ] ] ] } },
{ "type": "Feature", "properties": { "osm_id": 1125466727, "name": null, "label": "landuse:orchard", "tourism": null, "landuse": "orchard", "building": null, "water": null, "natural": null }, "geometry": { "type": "Polygon", "coordinates": [ [ [ 21.5484503, 38.339526400030302 ], [ 21.5492605, 38.339513400030306 ], [ 21.5491778, 38.338605600030185 ], [ 21.5483676, 38.33859910003018 ], [ 21.5484503, 38.339526400030302 ] ] ] } },
{ "type": "Feature", "properties": { "osm_id": 1125466723, "name": null, "label": "landuse:orchard", "tourism": null, "landuse": "orchard", "building": null, "water": null, "natural": null }, "geometry": { "type": "Polygon", "coordinates": [ [ [ 21.5461855, 38.334382100029572 ], [ 21.5470014, 38.33435400002957 ], [ 21.5468941, 38.33280450002934 ], [ 21.5460924, 38.332843800029345 ], [ 21.5461855, 38.334382100029572 ] ] ] } },
{ "type": "Feature", "properties": { "osm_id": 1125557868, "name": null, "label": "landuse:orchard", "tourism": null, "landuse": "orchard", "building": null, "water": null, "natural": null }, "geometry": { "type": "Polygon", "coordinates": [ [ [ 21.5446163, 38.333744400029481 ], [ 21.5460905, 38.333693800029472 ], [ 21.5460855, 38.333246000029405 ], [ 21.5445865, 38.333308300029415 ], [ 21.5446163, 38.333744400029481 ] ] ] } },
{ "type": "Feature", "properties": { "osm_id": 1125557869, "name": null, "label": "water:basin;natural:water", "tourism": null, "landuse": null, "building": null, "water": "basin", "natural": "water" }, "geometry": { "type": "Polygon", "coordinates": [ [ [ 21.5431371, 38.333538000029449 ], [ 21.5440604, 38.333506900029448 ], [ 21.5440256, 38.33299680002937 ], [ 21.5431222, 38.333028000029387 ], [ 21.5431371, 38.333538000029449 ] ] ] } },
{ "type": "Feature", "properties": { "osm_id": 1125466728, "name": null, "label": "landuse:orchard", "tourism": null, "landuse": "orchard", "building": null, "water": null, "natural": null }, "geometry": { "type": "Polygon", "coordinates": [ [ [ 21.5439115, 38.339646300030317 ], [ 21.5461024, 38.33958150003032 ], [ 21.5460321, 38.337918200030074 ], [ 21.5448953, 38.337976500030088 ], [ 21.543866, 38.338015500030096 ], [ 21.5439115, 38.339646300030317 ] ] ] } },
{ "type": "Feature", "properties": { "osm_id": 1125466730, "name": null, "label": "landuse:orchard", "tourism": null, "landuse": "orchard", "building": null, "water": null, "natural": null }, "geometry": { "type": "Polygon", "coordinates": [ [ [ 21.5442061, 38.341488600030587 ], [ 21.5453708, 38.341374800030565 ], [ 21.5452419, 38.339786100030352 ], [ 21.5441039, 38.339836600030353 ], [ 21.5442061, 38.341488600030587 ] ] ] } },
{ "type": "Feature", "properties": { "osm_id": 1125466737, "name": null, "label": "landuse:orchard", "tourism": null, "landuse": "orchard", "building": null, "water": null, "natural": null }, "geometry": { "type": "Polygon", "coordinates": [ [ [ 21.5466462, 38.34319330003084 ], [ 21.547382, 38.343089600030815 ], [ 21.5483782, 38.342959900030806 ], [ 21.5499986, 38.342710200030758 ], [ 21.5493372, 38.341627400030603 ], [ 21.5493331, 38.341312900030566 ], [ 21.5487543, 38.341368000030577 ], [ 21.5488163, 38.341627400030603 ], [ 21.5479855, 38.341744100030631 ], [ 21.5478739, 38.341406900030577 ], [ 21.5460881, 38.341517100030586 ], [ 21.5466462, 38.34319330003084 ] ] ] } },
{ "type": "Feature", "properties": { "osm_id": 1125466736, "name": null, "label": "landuse:orchard", "tourism": null, "landuse": "orchard", "building": null, "water": null, "natural": null }, "geometry": { "type": "Polygon", "coordinates": [ [ [ 21.5437609, 38.343618000030887 ], [ 21.544323, 38.343504500030875 ], [ 21.5438044, 38.342131200030686 ], [ 21.5431973, 38.342156800030686 ], [ 21.5437609, 38.343618000030887 ] ] ] } },
{ "type": "Feature", "properties": { "osm_id": 1125466729, "name": null, "label": "landuse:orchard", "tourism": null, "landuse": "orchard", "building": null, "water": null, "natural": null }, "geometry": { "type": "Polygon", "coordinates": [ [ [ 21.5432625, 38.339707900030326 ], [ 21.5431385, 38.3380414000301 ], [ 21.5425143, 38.338077100030084 ], [ 21.5425267, 38.338748200030182 ], [ 21.5417496, 38.338780600030198 ], [ 21.5416669, 38.339750100030351 ], [ 21.5432625, 38.339707900030326 ] ] ] } },
{ "type": "Feature", "properties": { "osm_id": 1125557867, "name": null, "label": "landuse:farmyard", "tourism": null, "landuse": "farmyard", "building": null, "water": null, "natural": null }, "geometry": { "type": "Polygon", "coordinates": [ [ [ 21.5431465, 38.336139800029812 ], [ 21.5438551, 38.336083600029824 ], [ 21.5437549, 38.334607100029608 ], [ 21.5430463, 38.334607100029608 ], [ 21.5431465, 38.336139800029812 ] ] ] } },
{ "type": "Feature", "properties": { "osm_id": 1125466760, "name": null, "label": "landuse:orchard", "tourism": null, "landuse": "orchard", "building": null, "water": null, "natural": null }, "geometry": { "type": "Polygon", "coordinates": [ [ [ 21.5429508, 38.332789400029348 ], [ 21.5436445, 38.332778200029331 ], [ 21.5435356, 38.331282700029135 ], [ 21.5428504, 38.331300700029132 ], [ 21.5429508, 38.332789400029348 ] ] ] } },
{ "type": "Feature", "properties": { "osm_id": 1125388175, "name": null, "label": "landuse:orchard", "tourism": null, "landuse": "orchard", "building": null, "water": null, "natural": null }, "geometry": { "type": "Polygon", "coordinates": [ [ [ 21.5397314, 38.331290800029137 ], [ 21.5412275, 38.331202000029101 ], [ 21.5411441, 38.329780600028911 ], [ 21.5396718, 38.329827300028924 ], [ 21.5397314, 38.331290800029137 ] ] ] } },
{ "type": "Feature", "properties": { "osm_id": 1125466745, "name": null, "label": "landuse:orchard", "tourism": null, "landuse": "orchard", "building": null, "water": null, "natural": null }, "geometry": { "type": "Polygon", "coordinates": [ [ [ 21.5396607, 38.328091200028666 ], [ 21.540931, 38.32805880002865 ], [ 21.5408277, 38.326597800028452 ], [ 21.5395953, 38.326635600028453 ], [ 21.5396607, 38.328091200028666 ] ] ] } },
{ "type": "Feature", "properties": { "osm_id": 1125466747, "name": null, "label": "landuse:farmyard", "tourism": null, "landuse": "farmyard", "building": null, "water": null, "natural": null }, "geometry": { "type": "Polygon", "coordinates": [ [ [ 21.539036, 38.325170300028248 ], [ 21.5396075, 38.324921900028208 ], [ 21.5394147, 38.324443900028143 ], [ 21.538897033140589, 38.324654080597298 ], [ 21.538897033140589, 38.324841356076746 ], [ 21.539036, 38.325170300028248 ] ] ] } },
{ "type": "Feature", "properties": { "osm_id": 1125466755, "name": null, "label": "landuse:orchard", "tourism": null, "landuse": "orchard", "building": null, "water": null, "natural": null }, "geometry": { "type": "Polygon", "coordinates": [ [ [ 21.5682876, 38.339867600030352 ], [ 21.56836319492524, 38.339996793594722 ], [ 21.56836319492524, 38.339784403485325 ], [ 21.5682876, 38.339867600030352 ] ] ] } },
{ "type": "Feature", "properties": { "osm_id": 1125466753, "name": null, "label": "landuse:orchard", "tourism": null, "landuse": "orchard", "building": null, "water": null, "natural": null }, "geometry": { "type": "Polygon", "coordinates": [ [ [ 21.5675159, 38.342794600030778 ], [ 21.567659, 38.343182000030836 ], [ 21.56836319492524, 38.342931306527106 ], [ 21.56836319492524, 38.342529293657577 ], [ 21.5675159, 38.342794600030778 ] ] ] } },
{ "type": "Feature", "properties": { "osm_id": 1125557863, "name": null, "label": "building:yes", "tourism": null, "landuse": null, "building": "yes", "water": null, "natural": null }, "geometry": { "type": "Polygon", "coordinates": [ [ [ 21.5682389, 38.339680900030324 ], [ 21.5682437, 38.339458000030298 ], [ 21.5681363, 38.339459900030306 ], [ 21.5681172, 38.339673400030343 ], [ 21.5682389, 38.339680900030324 ] ] ] } },
{ "type": "Feature", "properties": { "osm_id": 1125557862, "name": null, "label": "water:basin;natural:water", "tourism": null, "landuse": null, "building": null, "water": "basin", "natural": "water" }, "geometry": { "type": "Polygon", "coordinates": [ [ [ 21.5678856, 38.339780100030346 ], [ 21.5679787, 38.339270800030285 ], [ 21.5671192, 38.339160300030258 ], [ 21.5669975, 38.339680900030324 ], [ 21.5678856, 38.339780100030346 ] ] ] } },
{ "type": "Feature", "properties": { "osm_id": 1125669273, "name": null, "label": "landuse:orchard", "tourism": null, "landuse": "orchard", "building": null, "water": null, "natural": null }, "geometry": { "type": "Polygon", "coordinates": [ [ [ 21.568284, 38.344434400031012 ], [ 21.5667794, 38.344719600031056 ], [ 21.5670315, 38.343860500030928 ], [ 21.5668207, 38.343847500030932 ], [ 21.5666057, 38.344453800031005 ], [ 21.5664528, 38.344466800031029 ], [ 21.5663205, 38.344794200031068 ], [ 21.5662213, 38.344966000031093 ], [ 21.565717, 38.346613000031319 ], [ 21.5657307, 38.346772800031331 ], [ 21.5658342, 38.346769100031359 ], [ 21.566803643679265, 38.346870226977437 ], [ 21.567010100613217, 38.346870226977437 ], [ 21.5671154, 38.346461300031301 ], [ 21.5675854, 38.346801000031355 ], [ 21.5681517, 38.346373100031286 ], [ 21.5673622, 38.345270800031123 ], [ 21.5680071, 38.345180000031114 ], [ 21.5682344, 38.345287000031135 ], [ 21.56836319492524, 38.345415144137753 ], [ 21.56836319492524, 38.344563315590612 ], [ 21.568284, 38.344434400031012 ] ] ] } },
{ "type": "Feature", "properties": { "osm_id": 1125669274, "name": null, "label": "landuse:orchard", "tourism": null, "landuse": "orchard", "building": null, "water": null, "natural": null }, "geometry": { "type": "Polygon", "coordinates": [ [ [ 21.5652044, 38.346577300031321 ], [ 21.5657087, 38.344852600031082 ], [ 21.5649854, 38.344781200031072 ], [ 21.5646547, 38.346518900031313 ], [ 21.5652044, 38.346577300031321 ] ] ] } },
{ "type": "Feature", "properties": { "osm_id": 1125557893, "name": null, "label": "landuse:farmland", "tourism": null, "landuse": "farmland", "building": null, "water": null, "natural": null }, "geometry": { "type": "Polygon", "coordinates": [ [ [ 21.5661811, 38.344794800031067 ], [ 21.5665481, 38.343517000030879 ], [ 21.5601696, 38.342679400030754 ], [ 21.5598404, 38.344015400030948 ], [ 21.5661811, 38.344794800031067 ] ] ] } },
{ "type": "Feature", "properties": { "osm_id": 1125557892, "name": null, "label": "landuse:farmland", "tourism": null, "landuse": "farmland", "building": null, "water": null, "natural": null }, "geometry": { "type": "Polygon", "coordinates": [ [ [ 21.5665911, 38.343362000030851 ], [ 21.5670294, 38.341697000030621 ], [ 21.5638581, 38.341319500030572 ], [ 21.5635528, 38.343013100030817 ], [ 21.5665911, 38.343362000030851 ] ] ] } },
{ "type": "Feature", "properties": { "osm_id": 1125466751, "name": null, "label": "landuse:farmyard", "tourism": null, "landuse": "farmyard", "building": null, "water": null, "natural": null }, "geometry": { "type": "Polygon", "coordinates": [ [ [ 21.5655497, 38.33844000003014 ], [ 21.5660007, 38.338413000030151 ], [ 21.5661487, 38.33778930003006 ], [ 21.5653501, 38.337689400030037 ], [ 21.5651504, 38.338475100030159 ], [ 21.5655497, 38.33844000003014 ] ] ] } },
{ "type": "Feature", "properties": { "osm_id": 1125557865, "name": null, "label": "landuse:orchard", "tourism": null, "landuse": "orchard", "building": null, "water": null, "natural": null }, "geometry": { "type": "Polygon", "coordinates": [ [ [ 21.5662323, 38.337685100030043 ], [ 21.5665419, 38.336016600029801 ], [ 21.5653666, 38.335933400029795 ], [ 21.5650713, 38.337541100030037 ], [ 21.5662323, 38.337685100030043 ] ] ] } },
{ "type": "Feature", "properties": { "osm_id": 1125557864, "name": null, "label": "landuse:orchard", "tourism": null, "landuse": "orchard", "building": null, "water": null, "natural": null }, "geometry": { "type": "Polygon", "coordinates": [ [ [ 21.5644501, 38.339411000030289 ], [ 21.5647976, 38.337655100030041 ], [ 21.5639289, 38.337550000030028 ], [ 21.5635765, 38.339259200030256 ], [ 21.5644501, 38.339411000030289 ] ] ] } },
{ "type": "Feature", "properties": { "osm_id": 1125466742, "name": null, "label": "landuse:orchard", "tourism": null, "landuse": "orchard", "building": null, "water": null, "natural": null }, "geometry": { "type": "Polygon", "coordinates": [ [ [ 21.5630431, 38.337304300029984 ], [ 21.5633366, 38.335699300029766 ], [ 21.5619353, 38.335550200029736 ], [ 21.5616666, 38.337145400029954 ], [ 21.5630431, 38.337304300029984 ] ] ] } },
{ "type": "Feature", "properties": { "osm_id": 1126242915, "name": null, "label": "landuse:orchard", "tourism": null, "landuse": "orchard", "building": null, "water": null, "natural": null }, "geometry": { "type": "Polygon", "coordinates": [ [ [ 21.5630218, 38.335573800029735 ], [ 21.5633468, 38.333962000029501 ], [ 21.5628283, 38.333924600029505 ], [ 21.5625303, 38.335486200029713 ], [ 21.5630218, 38.335573800029735 ] ] ] } },
{ "type": "Feature", "properties": { "osm_id": -11368108, "name": "Πατραϊκός κόλπος", "label": "natural:bay", "tourism": null, "landuse": null, "building": null, "water": null, "natural": "bay" }, "geometry": { "type": "Polygon", "coordinates": [ [ [ 21.5640566, 38.323997500028071 ], [ 21.564184, 38.324053200028075 ], [ 21.5643355, 38.324098500028093 ], [ 21.5644683, 38.324147900028088 ], [ 21.5645783, 38.324218400028116 ], [ 21.5646735, 38.324293100028108 ], [ 21.5648223, 38.324378300028144 ], [ 21.5650128, 38.324467800028145 ], [ 21.5651751, 38.324504600028156 ], [ 21.5653159, 38.32451200002815 ], [ 21.5654473, 38.324483600028138 ], [ 21.5655304, 38.32445940002814 ], [ 21.5656552, 38.324446700028155 ], [ 21.5657946, 38.324470900028153 ], [ 21.565965, 38.324549800028159 ], [ 21.5662453, 38.324664500028163 ], [ 21.5664639, 38.32474340002819 ], [ 21.5665872, 38.324805500028177 ], [ 21.5667401, 38.324914900028212 ], [ 21.5669614, 38.325041200028238 ], [ 21.5671559, 38.32510640002824 ], [ 21.5673852, 38.325170600028244 ], [ 21.5675086, 38.325193700028251 ], [ 21.5676172, 38.325200000028239 ], [ 21.5677553, 38.325226300028255 ], [ 21.5678747, 38.325300000028264 ], [ 21.5680236, 38.325430400028296 ], [ 21.5682757, 38.325641900028309 ], [ 21.56836319492524, 38.325711834210033 ], [ 21.56836319492524, 38.323937879723545 ], [ 21.563952764069995, 38.323937879723545 ], [ 21.5640566, 38.323997500028071 ] ] ] } },
{ "type": "Feature", "properties": { "osm_id": 9498812, "name": null, "label": "natural:coastline", "tourism": null, "landuse": null, "building": null, "water": null, "natural": "coastline" }, "geometry": { "type": "LineString", "coordinates": [ [ 21.563952764069995, 38.323937879723545 ], [ 21.5640566, 38.323997500028071 ], [ 21.564184, 38.324053200028075 ], [ 21.5643355, 38.324098500028093 ], [ 21.5644683, 38.324147900028088 ], [ 21.5645783, 38.324218400028116 ], [ 21.5646735, 38.324293100028108 ], [ 21.5648223, 38.324378300028144 ], [ 21.5650128, 38.324467800028145 ], [ 21.5651751, 38.324504600028156 ], [ 21.5653159, 38.32451200002815 ], [ 21.5654473, 38.324483600028138 ], [ 21.5655304, 38.32445940002814 ], [ 21.5656552, 38.324446700028155 ], [ 21.5657946, 38.324470900028153 ], [ 21.565965, 38.324549800028159 ], [ 21.5662453, 38.324664500028163 ], [ 21.5664639, 38.32474340002819 ], [ 21.5665872, 38.324805500028177 ], [ 21.5667401, 38.324914900028212 ], [ 21.5669614, 38.325041200028238 ], [ 21.5671559, 38.32510640002824 ], [ 21.5673852, 38.325170600028244 ], [ 21.5675086, 38.325193700028251 ], [ 21.5676172, 38.325200000028239 ], [ 21.5677553, 38.325226300028255 ], [ 21.5678747, 38.325300000028264 ], [ 21.5680236, 38.325430400028296 ], [ 21.5682757, 38.325641900028309 ], [ 21.56836319492524, 38.325711834210033 ] ] } }
]
}
