{
"type": "FeatureCollection",
"name": "patch_39426_polygon",
"crs": { "type": "name", "properties": { "name": "urn:ogc:def:crs:OGC:1.3:CRS84" } },
"features": [
{ "type": "Feature", "properties": { "osm_id": 812831401, "name": null, "label": "landuse:vineyard", "landuse": "vineyard", "building": null, "historic": null }, "geometry": { "type": "Polygon", "coordinates": [ [ [ 25.3195475, 35.107916299659145 ], [ 25.3199821, 35.107804399659145 ], [ 25.320025, 35.107595899659124 ], [ 25.3195449, 35.107799999659136 ], [ 25.3195475, 35.107916299659145 ] ] ] } },
{ "type": "Feature", "properties": { "osm_id": 812831403, "name": null, "label": "landuse:vineyard", "landuse": "vineyard", "building": null, "historic": null }, "geometry": { "type": "Polygon", "coordinates": [ [ [ 25.3195878, 35.108083099659154 ], [ 25.319907, 35.108025999659155 ], [ 25.319974, 35.10782409965914 ], [ 25.319561, 35.107940399659142 ], [ 25.3195878, 35.108083099659154 ] ] ] } },
{ "type": "Feature", "properties": { "osm_id": 812831405, "name": null, "label": "building:yes", "landuse": null, "building": "yes", "historic": null }, "geometry": { "type": "Polygon", "coordinates": [ [ [ 25.3197085, 35.108429799659191 ], [ 25.3198775, 35.10843189965918 ], [ 25.3198748, 35.108357299659183 ], [ 25.3197058, 35.108355199659179 ], [ 25.3197085, 35.108429799659191 ] ] ] } },
{ "type": "Feature", "properties": { "osm_id": 812831402, "name": null, "label": "landuse:vineyard", "landuse": "vineyard", "building": null, "historic": null }, "geometry": { "type": "Polygon", "coordinates": [ [ [ 25.3198721, 35.108225699659165 ], [ 25.3199096, 35.108045799659152 ], [ 25.3195851, 35.108111599659168 ], [ 25.3195824, 35.108333199659178 ], [ 25.3198721, 35.108225699659165 ] ] ] } },
{ "type": "Feature", "properties": { "osm_id": 812831404, "name": null, "label": "building:yes", "landuse": null, "building": "yes", "historic": null }, "geometry": { "type": "Polygon", "coordinates": [ [ [ 25.3198587, 35.10870619965921 ], [ 25.3199847, 35.10870619965921 ], [ 25.3199874, 35.108484599659185 ], [ 25.319856, 35.108484599659185 ], [ 25.3198587, 35.10870619965921 ] ] ] } },
{ "type": "Feature", "properties": { "osm_id": 812831399, "name": null, "label": "landuse:vineyard", "landuse": "vineyard", "building": null, "historic": null }, "geometry": { "type": "Polygon", "coordinates": [ [ [ 25.3190701, 35.108214699659165 ], [ 25.3191747, 35.108276199659159 ], [ 25.3192632, 35.108304699659165 ], [ 25.3193222, 35.107909699659153 ], [ 25.3192766, 35.107894399659145 ], [ 25.3189816, 35.108126999659163 ], [ 25.3190701, 35.108214699659165 ] ] ] } },
{ "type": "Feature", "properties": { "osm_id": 812831400, "name": null, "label": "landuse:vineyard", "landuse": "vineyard", "building": null, "historic": null }, "geometry": { "type": "Polygon", "coordinates": [ [ [ 25.3188877, 35.108056699659151 ], [ 25.3189628, 35.108113799659158 ], [ 25.3192579, 35.107876799659152 ], [ 25.3191506, 35.107797799659153 ], [ 25.3188743, 35.107973399659159 ], [ 25.3188877, 35.108056699659151 ] ] ] } },
{ "type": "Feature", "properties": { "osm_id": 812831398, "name": null, "label": "landuse:vineyard", "landuse": "vineyard", "building": null, "historic": null }, "geometry": { "type": "Polygon", "coordinates": [ [ [ 25.3194, 35.108313499659182 ], [ 25.3195207, 35.108379299659184 ], [ 25.3195395, 35.108330999659174 ], [ 25.3195315, 35.108025999659155 ], [ 25.3194349, 35.107949199659153 ], [ 25.319341, 35.107909699659153 ], [ 25.3192927, 35.108295899659176 ], [ 25.3194, 35.108313499659182 ] ] ] } },
{ "type": "Feature", "properties": { "osm_id": 25784173, "name": null, "label": "landuse:residential", "landuse": "residential", "building": null, "historic": null }, "geometry": { "type": "Polygon", "coordinates": [ [ [ 25.3407674, 35.113925699659589 ], [ 25.3389904, 35.114499099659625 ], [ 25.338879143749843, 35.114568423624895 ], [ 25.340985704561721, 35.114568423624895 ], [ 25.3407674, 35.113925699659589 ] ] ] } },
{ "type": "Feature", "properties": { "osm_id": 813413676, "name": null, "label": "landuse:orchard", "landuse": "orchard", "building": null, "historic": null }, "geometry": { "type": "Polygon", "coordinates": [ [ [ 25.3372613, 35.098155099658456 ], [ 25.3375456, 35.098416299658467 ], [ 25.3376704, 35.098565499658477 ], [ 25.3378018, 35.098659799658492 ], [ 25.3379426, 35.098714699658501 ], [ 25.3379855, 35.098690599658497 ], [ 25.3380646, 35.098564399658478 ], [ 25.3381518, 35.098397599658469 ], [ 25.3381344, 35.098330699658469 ], [ 25.3380874, 35.098272499658457 ], [ 25.338003, 35.098178099658455 ], [ 25.3379346, 35.098099099658455 ], [ 25.3379024, 35.09800809965845 ], [ 25.3378782, 35.097891799658434 ], [ 25.3377803, 35.097890699658443 ], [ 25.3375175, 35.097896199658436 ], [ 25.337378, 35.097907099658428 ], [ 25.3372305, 35.097955399658439 ], [ 25.3371607, 35.098027799658439 ], [ 25.3372613, 35.098155099658456 ] ] ] } },
{ "type": "Feature", "properties": { "osm_id": 1181844056, "name": "Αρχαία Αρκαδία (Αφρατί)", "label": "historic:archaeological_site", "landuse": null, "building": null, "historic": "archaeological_site" }, "geometry": { "type": "Polygon", "coordinates": [ [ [ 25.3422739, 35.101807099658721 ], [ 25.3420293, 35.101561399658692 ], [ 25.3414499, 35.101427899658688 ], [ 25.3410208, 35.101610499658698 ], [ 25.3406045, 35.101838699658714 ], [ 25.3407504, 35.101979199658736 ], [ 25.3408534, 35.102393499658753 ], [ 25.3410637, 35.102561999658768 ], [ 25.3415358, 35.10287799965878 ], [ 25.341892, 35.10322559965882 ], [ 25.3424584, 35.103748699658844 ], [ 25.342726984876787, 35.103849956283739 ], [ 25.342726984876787, 35.102141763195696 ], [ 25.3422739, 35.101807099658721 ] ] ] } },
{ "type": "Feature", "properties": { "osm_id": 813402464, "name": null, "label": "landuse:orchard", "landuse": "orchard", "building": null, "historic": null }, "geometry": { "type": "Polygon", "coordinates": [ [ [ 25.3303745, 35.092007599658032 ], [ 25.3304737, 35.092075599658031 ], [ 25.3307768, 35.091847299658006 ], [ 25.3308117, 35.091770499658011 ], [ 25.3309243, 35.091706899658 ], [ 25.3310021, 35.091702499657991 ], [ 25.3310423, 35.091665199657996 ], [ 25.3310048, 35.091579599657983 ], [ 25.3308948, 35.091463299657981 ], [ 25.3307795, 35.091318399657965 ], [ 25.3306346, 35.091445699657974 ], [ 25.3305273, 35.091524699657981 ], [ 25.3304898, 35.091588399657986 ], [ 25.3304066, 35.091645399657992 ], [ 25.3303503, 35.091755199658003 ], [ 25.3302806, 35.091864899658013 ], [ 25.3302484, 35.091882499658006 ], [ 25.3302403, 35.091950499658019 ], [ 25.3303745, 35.092007599658032 ] ] ] } },
{ "type": "Feature", "properties": { "osm_id": 813402462, "name": null, "label": "landuse:orchard", "landuse": "orchard", "building": null, "historic": null }, "geometry": { "type": "Polygon", "coordinates": [ [ [ 25.3283065, 35.09116699965795 ], [ 25.328434037993357, 35.091106905493398 ], [ 25.328286180377109, 35.091106905493398 ], [ 25.3283065, 35.09116699965795 ] ] ] } },
{ "type": "Feature", "properties": { "osm_id": 349613615, "name": null, "label": "landuse:residential", "landuse": "residential", "building": null, "historic": null }, "geometry": { "type": "Polygon", "coordinates": [ [ [ 25.3152393, 35.104169699658883 ], [ 25.3152719, 35.103903199658852 ], [ 25.3152068, 35.103583499658839 ], [ 25.3153305, 35.103567499658837 ], [ 25.3153761, 35.103759399658848 ], [ 25.3157148, 35.103722099658853 ], [ 25.3155064, 35.103194499658819 ], [ 25.3156888, 35.103167899658807 ], [ 25.3155064, 35.102672299658785 ], [ 25.3152133, 35.102720199658783 ], [ 25.315120533287786, 35.102662390033409 ], [ 25.315120533287786, 35.104165265591291 ], [ 25.3152393, 35.104169699658883 ] ] ] } }
]
}
