{
"type": "FeatureCollection",
"name": "patch_95933_linestring",
"crs": { "type": "name", "properties": { "name": "urn:ogc:def:crs:OGC:1.3:CRS84" } },
"features": [
{ "type": "Feature", "properties": { "element": "way", "id": 26165925, "amenity": null, "fixme": null, "name": null, "operator": null, "phone": null, "brand": null, "brand:wikidata": null, "brand:wikipedia": null, "aeroway": "runway", "length": "1814", "ref": "13/31", "surface": "asphalt", "width": "30", "barrier": null, "icao": null, "landuse": null, "military": null, "name:de": null, "name:el": null, "name:en": null, "name:tr": null, "wikidata": null, "waterway": null, "layer": null, "tunnel": null, "oneway": null, "leisure": null, "sport": null, "religion": null, "building": null, "source": null, "natural": null, "wetland": null, "label": "aeroway:runway" }, "geometry": { "type": "LineString", "coordinates": [ [ 22.4972238, 40.646145 ], [ 22.4957218, 40.6469946 ], [ 22.4955363, 40.6471035 ], [ 22.4953797, 40.6471955 ], [ 22.4934916, 40.6483045 ], [ 22.4932915, 40.648422 ], [ 22.4931036, 40.6485343 ], [ 22.4916459, 40.6494051 ], [ 22.4894798, 40.6506805 ], [ 22.488043326534704, 40.651515063465574 ] ] } },
{ "type": "Feature", "properties": { "element": "way", "id": 162246853, "amenity": null, "fixme": null, "name": null, "operator": null, "phone": null, "brand": null, "brand:wikidata": null, "brand:wikipedia": null, "aeroway": null, "length": null, "ref": null, "surface": null, "width": null, "barrier": null, "icao": null, "landuse": null, "military": null, "name:de": null, "name:el": null, "name:en": null, "name:tr": null, "wikidata": null, "waterway": "canal", "layer": null, "tunnel": null, "oneway": null, "leisure": null, "sport": null, "religion": null, "building": null, "source": null, "natural": null, "wetland": null, "label": "waterway:canal" }, "geometry": { "type": "LineString", "coordinates": [ [ 22.5017017, 40.635288 ], [ 22.5017178, 40.6354224 ], [ 22.5017071, 40.6354875 ], [ 22.5016588, 40.6355689 ], [ 22.5012726, 40.6360452 ], [ 22.501117, 40.6362203 ], [ 22.5010312, 40.636375 ], [ 22.5010044, 40.6365419 ], [ 22.5010044, 40.6367291 ], [ 22.5010717, 40.6374588 ], [ 22.5011009, 40.6375881 ], [ 22.5011975, 40.6377346 ], [ 22.5013209, 40.6378527 ], [ 22.5015301, 40.6380155 ], [ 22.5029302, 40.6390169 ], [ 22.5045502, 40.6402014 ], [ 22.5057519, 40.6410522 ], [ 22.5067335, 40.6417767 ], [ 22.5080907, 40.6427496 ], [ 22.5082839, 40.6428839 ], [ 22.5084716, 40.6429653 ], [ 22.5086916, 40.643006 ], [ 22.5089383, 40.6430223 ], [ 22.5092012, 40.6429938 ], [ 22.5095123, 40.6429531 ], [ 22.5097376, 40.6429246 ], [ 22.5100005, 40.6429327 ], [ 22.5103438, 40.6429653 ], [ 22.5133962, 40.6434049 ], [ 22.5135625, 40.6434375 ], [ 22.5137073, 40.6435107 ], [ 22.513836, 40.6436166 ], [ 22.5155118, 40.6450954 ], [ 22.5173705, 40.6466831 ], [ 22.518826407243438, 40.647923667760537 ] ] } },
{ "type": "Feature", "properties": { "element": "way", "id": 162246949, "amenity": null, "fixme": null, "name": null, "operator": null, "phone": null, "brand": null, "brand:wikidata": null, "brand:wikipedia": null, "aeroway": null, "length": null, "ref": null, "surface": null, "width": null, "barrier": null, "icao": null, "landuse": null, "military": null, "name:de": null, "name:el": null, "name:en": null, "name:tr": null, "wikidata": null, "waterway": "canal", "layer": "-1", "tunnel": "yes", "oneway": null, "leisure": null, "sport": null, "religion": null, "building": null, "source": null, "natural": null, "wetland": null, "label": "waterway:canal" }, "geometry": { "type": "LineString", "coordinates": [ [ 22.503503343253872, 40.630592928570593 ], [ 22.5039053, 40.6311065 ], [ 22.5039322, 40.6311798 ], [ 22.5039429, 40.6312653 ], [ 22.5039214, 40.6313711 ], [ 22.503841, 40.6315828 ], [ 22.5035513, 40.6322179 ], [ 22.5034011, 40.6325477 ], [ 22.5029129, 40.6335777 ], [ 22.502693, 40.633997 ], [ 22.5025481, 40.6342209 ], [ 22.5021512, 40.6346727 ], [ 22.5017864, 40.6350961 ], [ 22.5017328, 40.6351938 ], [ 22.5017017, 40.635288 ] ] } },
{ "type": "Feature", "properties": { "element": "way", "id": 173230750, "amenity": null, "fixme": null, "name": null, "operator": null, "phone": null, "brand": null, "brand:wikidata": null, "brand:wikipedia": null, "aeroway": "taxiway", "length": null, "ref": null, "surface": "asphalt", "width": null, "barrier": null, "icao": null, "landuse": null, "military": null, "name:de": null, "name:el": null, "name:en": null, "name:tr": null, "wikidata": null, "waterway": null, "layer": null, "tunnel": null, "oneway": null, "leisure": null, "sport": null, "religion": null, "building": null, "source": null, "natural": null, "wetland": null, "label": "aeroway:taxiway" }, "geometry": { "type": "LineString", "coordinates": [ [ 22.4939509, 40.6436279 ], [ 22.4938651, 40.6443198 ], [ 22.4938597, 40.644387 ], [ 22.4938785, 40.6444196 ], [ 22.4939107, 40.6444359 ], [ 22.4939644, 40.6444623 ], [ 22.4940153, 40.6444827 ], [ 22.4940663, 40.6444928 ], [ 22.4953993, 40.6444928 ], [ 22.4965312, 40.6444888 ], [ 22.4967699, 40.6444908 ], [ 22.4968558, 40.6444949 ], [ 22.4969389, 40.644505 ], [ 22.4970274, 40.6445193 ], [ 22.4971159, 40.6445498 ], [ 22.4971857, 40.6445783 ], [ 22.4972715, 40.6446251 ], [ 22.4974217, 40.6447228 ], [ 22.4978321, 40.6450261 ], [ 22.4979045, 40.6450932 ], [ 22.4979474, 40.6451543 ], [ 22.4979877, 40.6452377 ], [ 22.4979984, 40.6453273 ], [ 22.4980011, 40.6454066 ], [ 22.497985, 40.6454962 ], [ 22.4979474, 40.6455776 ], [ 22.4979018, 40.6456508 ], [ 22.4978348, 40.64572 ], [ 22.497757, 40.6457852 ], [ 22.4976685, 40.6458523 ], [ 22.4975535, 40.6459372 ], [ 22.4972238, 40.646145 ] ] } },
{ "type": "Feature", "properties": { "element": "way", "id": 173230752, "amenity": null, "fixme": null, "name": null, "operator": null, "phone": null, "brand": null, "brand:wikidata": null, "brand:wikipedia": null, "aeroway": "taxiway", "length": null, "ref": null, "surface": "asphalt", "width": null, "barrier": null, "icao": null, "landuse": null, "military": null, "name:de": null, "name:el": null, "name:en": null, "name:tr": null, "wikidata": null, "waterway": null, "layer": null, "tunnel": null, "oneway": "no", "leisure": null, "sport": null, "religion": null, "building": null, "source": null, "natural": null, "wetland": null, "label": "aeroway:taxiway" }, "geometry": { "type": "LineString", "coordinates": [ [ 22.4931597, 40.6482863 ], [ 22.493216, 40.6483188 ], [ 22.493275, 40.6483311 ], [ 22.4933314, 40.6483351 ], [ 22.4933823, 40.648329 ], [ 22.4934252, 40.6483209 ], [ 22.4934916, 40.6483045 ] ] } },
{ "type": "Feature", "properties": { "element": "way", "id": 173230756, "amenity": null, "fixme": null, "name": null, "operator": null, "phone": null, "brand": null, "brand:wikidata": null, "brand:wikipedia": null, "aeroway": "taxiway", "length": null, "ref": null, "surface": "asphalt", "width": null, "barrier": null, "icao": null, "landuse": null, "military": null, "name:de": null, "name:el": null, "name:en": null, "name:tr": null, "wikidata": null, "waterway": null, "layer": null, "tunnel": null, "oneway": "no", "leisure": null, "sport": null, "religion": null, "building": null, "source": null, "natural": null, "wetland": null, "label": "aeroway:taxiway" }, "geometry": { "type": "LineString", "coordinates": [ [ 22.4925285, 40.6476437 ], [ 22.4925857, 40.6476737 ], [ 22.4926447, 40.64769 ], [ 22.4927064, 40.6476941 ], [ 22.4927547, 40.6476859 ], [ 22.492811, 40.6476737 ] ] } },
{ "type": "Feature", "properties": { "element": "way", "id": 173230759, "amenity": null, "fixme": null, "name": null, "operator": null, "phone": null, "brand": null, "brand:wikidata": null, "brand:wikipedia": null, "aeroway": "taxiway", "length": null, "ref": null, "surface": "asphalt", "width": null, "barrier": null, "icao": null, "landuse": null, "military": null, "name:de": null, "name:el": null, "name:en": null, "name:tr": null, "wikidata": null, "waterway": null, "layer": null, "tunnel": null, "oneway": "no", "leisure": null, "sport": null, "religion": null, "building": null, "source": null, "natural": null, "wetland": null, "label": "aeroway:taxiway" }, "geometry": { "type": "LineString", "coordinates": [ [ 22.4923041, 40.6471344 ], [ 22.4922477, 40.6471772 ], [ 22.4922263, 40.6472219 ], [ 22.4922156, 40.6472688 ], [ 22.4922209, 40.6473135 ], [ 22.4922429, 40.6473624 ] ] } },
{ "type": "Feature", "properties": { "element": "way", "id": 173230763, "amenity": null, "fixme": null, "name": null, "operator": null, "phone": null, "brand": null, "brand:wikidata": null, "brand:wikipedia": null, "aeroway": "taxiway", "length": null, "ref": "D", "surface": "asphalt", "width": null, "barrier": null, "icao": null, "landuse": null, "military": null, "name:de": null, "name:el": null, "name:en": null, "name:tr": null, "wikidata": null, "waterway": null, "layer": null, "tunnel": null, "oneway": "no", "leisure": null, "sport": null, "religion": null, "building": null, "source": null, "natural": null, "wetland": null, "label": "aeroway:taxiway" }, "geometry": { "type": "LineString", "coordinates": [ [ 22.491997, 40.6471271 ], [ 22.4920653, 40.6471589 ], [ 22.492127, 40.6471711 ], [ 22.4922021, 40.6471731 ], [ 22.4922531, 40.6471609 ], [ 22.4923041, 40.6471344 ], [ 22.4941923, 40.6460172 ] ] } },
{ "type": "Feature", "properties": { "element": "way", "id": 173230767, "amenity": null, "fixme": null, "name": null, "operator": null, "phone": null, "brand": null, "brand:wikidata": null, "brand:wikipedia": null, "aeroway": "taxiway", "length": null, "ref": null, "surface": "asphalt", "width": null, "barrier": null, "icao": null, "landuse": null, "military": null, "name:de": null, "name:el": null, "name:en": null, "name:tr": null, "wikidata": null, "waterway": null, "layer": null, "tunnel": null, "oneway": "no", "leisure": null, "sport": null, "religion": null, "building": null, "source": null, "natural": null, "wetland": null, "label": "aeroway:taxiway" }, "geometry": { "type": "LineString", "coordinates": [ [ 22.4947234, 40.6465402 ], [ 22.494769, 40.6464995 ], [ 22.4947878, 40.6464649 ], [ 22.4947932, 40.6464303 ], [ 22.4947956, 40.6463855 ], [ 22.4947696, 40.6463282 ] ] } },
{ "type": "Feature", "properties": { "element": "way", "id": 173230772, "amenity": null, "fixme": null, "name": null, "operator": null, "phone": null, "brand": null, "brand:wikidata": null, "brand:wikipedia": null, "aeroway": "taxiway", "length": null, "ref": "C", "surface": "asphalt", "width": null, "barrier": null, "icao": null, "landuse": null, "military": null, "name:de": null, "name:el": null, "name:en": null, "name:tr": null, "wikidata": null, "waterway": null, "layer": null, "tunnel": null, "oneway": "no", "leisure": null, "sport": null, "religion": null, "building": null, "source": null, "natural": null, "wetland": null, "label": "aeroway:taxiway" }, "geometry": { "type": "LineString", "coordinates": [ [ 22.4927734, 40.6478895 ], [ 22.492752, 40.6478386 ], [ 22.4927493, 40.6477979 ], [ 22.4927547, 40.6477592 ], [ 22.4927681, 40.6477266 ], [ 22.4927842, 40.6476982 ], [ 22.492811, 40.6476737 ], [ 22.4932026, 40.6474438 ], [ 22.4947234, 40.6465402 ] ] } },
{ "type": "Feature", "properties": { "element": "way", "id": 173230775, "amenity": null, "fixme": null, "name": null, "operator": null, "phone": null, "brand": null, "brand:wikidata": null, "brand:wikipedia": null, "aeroway": "taxiway", "length": null, "ref": null, "surface": "asphalt", "width": null, "barrier": null, "icao": null, "landuse": null, "military": null, "name:de": null, "name:el": null, "name:en": null, "name:tr": null, "wikidata": null, "waterway": null, "layer": null, "tunnel": null, "oneway": "no", "leisure": null, "sport": null, "religion": null, "building": null, "source": null, "natural": null, "wetland": null, "label": "aeroway:taxiway" }, "geometry": { "type": "LineString", "coordinates": [ [ 22.4954154, 40.6469655 ], [ 22.4954664, 40.646992 ], [ 22.4955227, 40.6470123 ], [ 22.495579, 40.6470184 ], [ 22.4956407, 40.6470164 ], [ 22.4957218, 40.6469946 ] ] } },
{ "type": "Feature", "properties": { "element": "way", "id": 173230777, "amenity": null, "fixme": null, "name": null, "operator": null, "phone": null, "brand": null, "brand:wikidata": null, "brand:wikipedia": null, "aeroway": "taxiway", "length": null, "ref": null, "surface": "asphalt", "width": null, "barrier": null, "icao": null, "landuse": null, "military": null, "name:de": null, "name:el": null, "name:en": null, "name:tr": null, "wikidata": null, "waterway": null, "layer": null, "tunnel": null, "oneway": "no", "leisure": null, "sport": null, "religion": null, "building": null, "source": null, "natural": null, "wetland": null, "label": "aeroway:taxiway" }, "geometry": { "type": "LineString", "coordinates": [ [ 22.4940663, 40.6444928 ], [ 22.4936237, 40.644503 ] ] } },
{ "type": "Feature", "properties": { "element": "way", "id": 173230792, "amenity": null, "fixme": null, "name": null, "operator": null, "phone": null, "brand": null, "brand:wikidata": null, "brand:wikipedia": null, "aeroway": "taxiway", "length": null, "ref": "E", "surface": "asphalt", "width": null, "barrier": null, "icao": null, "landuse": null, "military": null, "name:de": null, "name:el": null, "name:en": null, "name:tr": null, "wikidata": null, "waterway": null, "layer": null, "tunnel": null, "oneway": "no", "leisure": null, "sport": null, "religion": null, "building": null, "source": null, "natural": null, "wetland": null, "label": "aeroway:taxiway" }, "geometry": { "type": "LineString", "coordinates": [ [ 22.4938946, 40.6454921 ], [ 22.4938276, 40.6454758 ], [ 22.4937653, 40.6454757 ], [ 22.4937042, 40.645488 ], [ 22.4936479, 40.6455165 ], [ 22.4928673, 40.6459724 ], [ 22.4918025, 40.6465951 ], [ 22.4917488, 40.6466277 ], [ 22.4917059, 40.6466704 ], [ 22.4916845, 40.6467193 ], [ 22.4916791, 40.6467681 ] ] } },
{ "type": "Feature", "properties": { "element": "way", "id": 173230794, "amenity": null, "fixme": null, "name": null, "operator": null, "phone": null, "brand": null, "brand:wikidata": null, "brand:wikipedia": null, "aeroway": "taxiway", "length": null, "ref": null, "surface": "asphalt", "width": null, "barrier": null, "icao": null, "landuse": null, "military": null, "name:de": null, "name:el": null, "name:en": null, "name:tr": null, "wikidata": null, "waterway": null, "layer": null, "tunnel": null, "oneway": "no", "leisure": null, "sport": null, "religion": null, "building": null, "source": null, "natural": null, "wetland": null, "label": "aeroway:taxiway" }, "geometry": { "type": "LineString", "coordinates": [ [ 22.4941923, 40.6460172 ], [ 22.4942433, 40.6459968 ], [ 22.4942862, 40.6459887 ], [ 22.4943345, 40.6459887 ], [ 22.4943855, 40.6459988 ], [ 22.4944364, 40.6460151 ], [ 22.4944816, 40.6460439 ] ] } },
{ "type": "Feature", "properties": { "element": "way", "id": 339549367, "amenity": null, "fixme": null, "name": null, "operator": null, "phone": null, "brand": null, "brand:wikidata": null, "brand:wikipedia": null, "aeroway": null, "length": null, "ref": null, "surface": null, "width": null, "barrier": null, "icao": null, "landuse": null, "military": null, "name:de": null, "name:el": null, "name:en": null, "name:tr": null, "wikidata": null, "waterway": "drain", "layer": "-1", "tunnel": "yes", "oneway": null, "leisure": null, "sport": null, "religion": null, "building": null, "source": null, "natural": null, "wetland": null, "label": "waterway:drain" }, "geometry": { "type": "LineString", "coordinates": [ [ 22.50331171323624, 40.630592928570593 ], [ 22.5037748, 40.631154 ] ] } },
{ "type": "Feature", "properties": { "element": "way", "id": 350197789, "amenity": null, "fixme": null, "name": null, "operator": null, "phone": null, "brand": null, "brand:wikidata": null, "brand:wikipedia": null, "aeroway": null, "length": null, "ref": null, "surface": null, "width": null, "barrier": null, "icao": null, "landuse": null, "military": null, "name:de": null, "name:el": null, "name:en": null, "name:tr": null, "wikidata": null, "waterway": "stream", "layer": null, "tunnel": null, "oneway": null, "leisure": null, "sport": null, "religion": null, "building": null, "source": null, "natural": null, "wetland": null, "label": "waterway:stream" }, "geometry": { "type": "LineString", "coordinates": [ [ 22.5100826, 40.6307881 ], [ 22.508835818345432, 40.630592928570593 ] ] } },
{ "type": "Feature", "properties": { "element": "way", "id": 350197790, "amenity": null, "fixme": null, "name": null, "operator": null, "phone": null, "brand": null, "brand:wikidata": null, "brand:wikipedia": null, "aeroway": null, "length": null, "ref": null, "surface": null, "width": null, "barrier": null, "icao": null, "landuse": null, "military": null, "name:de": null, "name:el": null, "name:en": null, "name:tr": null, "wikidata": null, "waterway": "stream", "layer": null, "tunnel": null, "oneway": null, "leisure": null, "sport": null, "religion": null, "building": null, "source": null, "natural": null, "wetland": null, "label": "waterway:stream" }, "geometry": { "type": "LineString", "coordinates": [ [ 22.5132956, 40.6312976 ], [ 22.5101896, 40.630805 ] ] } },
{ "type": "Feature", "properties": { "element": "way", "id": 350197791, "amenity": null, "fixme": null, "name": null, "operator": null, "phone": null, "brand": null, "brand:wikidata": null, "brand:wikipedia": null, "aeroway": null, "length": null, "ref": null, "surface": null, "width": null, "barrier": null, "icao": null, "landuse": null, "military": null, "name:de": null, "name:el": null, "name:en": null, "name:tr": null, "wikidata": null, "waterway": "stream", "layer": "-1", "tunnel": "yes", "oneway": null, "leisure": null, "sport": null, "religion": null, "building": null, "source": null, "natural": null, "wetland": null, "label": "waterway:stream" }, "geometry": { "type": "LineString", "coordinates": [ [ 22.5134619, 40.631322 ], [ 22.5132956, 40.6312976 ] ] } },
{ "type": "Feature", "properties": { "element": "way", "id": 350197792, "amenity": null, "fixme": null, "name": null, "operator": null, "phone": null, "brand": null, "brand:wikidata": null, "brand:wikipedia": null, "aeroway": null, "length": null, "ref": null, "surface": null, "width": null, "barrier": null, "icao": null, "landuse": null, "military": null, "name:de": null, "name:el": null, "name:en": null, "name:tr": null, "wikidata": null, "waterway": "stream", "layer": "-1", "tunnel": "yes", "oneway": null, "leisure": null, "sport": null, "religion": null, "building": null, "source": null, "natural": null, "wetland": null, "label": "waterway:stream" }, "geometry": { "type": "LineString", "coordinates": [ [ 22.5101896, 40.630805 ], [ 22.5100826, 40.6307881 ] ] } },
{ "type": "Feature", "properties": { "element": "way", "id": 350197793, "amenity": null, "fixme": null, "name": null, "operator": null, "phone": null, "brand": null, "brand:wikidata": null, "brand:wikipedia": null, "aeroway": null, "length": null, "ref": null, "surface": null, "width": null, "barrier": null, "icao": null, "landuse": null, "military": null, "name:de": null, "name:el": null, "name:en": null, "name:tr": null, "wikidata": null, "waterway": "stream", "layer": null, "tunnel": null, "oneway": null, "leisure": null, "sport": null, "religion": null, "building": null, "source": null, "natural": null, "wetland": null, "label": "waterway:stream" }, "geometry": { "type": "LineString", "coordinates": [ [ 22.518826407243438, 40.632041429076949 ], [ 22.518081, 40.6318873 ], [ 22.5179898, 40.6318751 ], [ 22.51792, 40.6318873 ], [ 22.5176894, 40.6319525 ], [ 22.5176143, 40.6319647 ], [ 22.5175445, 40.6319687 ], [ 22.5134619, 40.631322 ] ] } },
{ "type": "Feature", "properties": { "element": "way", "id": 1433979850, "amenity": null, "fixme": null, "name": null, "operator": null, "phone": null, "brand": null, "brand:wikidata": null, "brand:wikipedia": null, "aeroway": "taxiway", "length": null, "ref": "B", "surface": "asphalt", "width": null, "barrier": null, "icao": null, "landuse": null, "military": null, "name:de": null, "name:el": null, "name:en": null, "name:tr": null, "wikidata": null, "waterway": null, "layer": null, "tunnel": null, "oneway": "no", "leisure": null, "sport": null, "religion": null, "building": null, "source": null, "natural": null, "wetland": null, "label": "aeroway:taxiway" }, "geometry": { "type": "LineString", "coordinates": [ [ 22.4916791, 40.6467681 ], [ 22.4916952, 40.646821 ], [ 22.4917301, 40.6468699 ], [ 22.491997, 40.6471271 ], [ 22.4920975, 40.647224 ], [ 22.4922429, 40.6473624 ], [ 22.4923497, 40.6474641 ], [ 22.4925285, 40.6476437 ], [ 22.4927734, 40.6478895 ], [ 22.4929719, 40.6480889 ], [ 22.4931141, 40.6482334 ], [ 22.4931597, 40.6482863 ], [ 22.4931811, 40.6483331 ], [ 22.4931838, 40.648386 ], [ 22.4931758, 40.6484328 ], [ 22.493157, 40.6484755 ], [ 22.4931036, 40.6485343 ] ] } },
{ "type": "Feature", "properties": { "element": "way", "id": 1433979851, "amenity": null, "fixme": null, "name": null, "operator": null, "phone": null, "brand": null, "brand:wikidata": null, "brand:wikipedia": null, "aeroway": "taxiway", "length": null, "ref": "A", "surface": "asphalt", "width": null, "barrier": null, "icao": null, "landuse": null, "military": null, "name:de": null, "name:el": null, "name:en": null, "name:tr": null, "wikidata": null, "waterway": null, "layer": null, "tunnel": null, "oneway": "no", "leisure": null, "sport": null, "religion": null, "building": null, "source": null, "natural": null, "wetland": null, "label": "aeroway:taxiway" }, "geometry": { "type": "LineString", "coordinates": [ [ 22.4950319, 40.646587 ], [ 22.4947696, 40.6463282 ], [ 22.4944816, 40.6460439 ], [ 22.4942393, 40.6458047 ], [ 22.4939885, 40.6455572 ], [ 22.4939402, 40.6455165 ], [ 22.4938946, 40.6454921 ] ] } },
{ "type": "Feature", "properties": { "element": "way", "id": 1433979852, "amenity": null, "fixme": null, "name": null, "operator": null, "phone": null, "brand": null, "brand:wikidata": null, "brand:wikipedia": null, "aeroway": "taxiway", "length": null, "ref": null, "surface": "asphalt", "width": null, "barrier": null, "icao": null, "landuse": null, "military": null, "name:de": null, "name:el": null, "name:en": null, "name:tr": null, "wikidata": null, "waterway": null, "layer": null, "tunnel": null, "oneway": "no", "leisure": null, "sport": null, "religion": null, "building": null, "source": null, "natural": null, "wetland": null, "label": "aeroway:taxiway" }, "geometry": { "type": "LineString", "coordinates": [ [ 22.4947234, 40.6465402 ], [ 22.4947717, 40.6465239 ], [ 22.4948227, 40.6465137 ], [ 22.4948843, 40.6465158 ], [ 22.4949434, 40.64653 ], [ 22.4949863, 40.6465504 ], [ 22.4950319, 40.646587 ], [ 22.4954154, 40.6469655 ], [ 22.4954422, 40.6470144 ], [ 22.4954476, 40.6470632 ], [ 22.4954342, 40.647112 ], [ 22.4954127, 40.6471528 ], [ 22.4953797, 40.6471955 ] ] } },
{ "type": "Feature", "properties": { "element": "way", "id": 1433979853, "amenity": null, "fixme": null, "name": null, "operator": null, "phone": null, "brand": null, "brand:wikidata": null, "brand:wikipedia": null, "aeroway": "taxiway", "length": null, "ref": null, "surface": "asphalt", "width": null, "barrier": null, "icao": null, "landuse": null, "military": null, "name:de": null, "name:el": null, "name:en": null, "name:tr": null, "wikidata": null, "waterway": null, "layer": null, "tunnel": null, "oneway": "no", "leisure": null, "sport": null, "religion": null, "building": null, "source": null, "natural": null, "wetland": null, "label": "aeroway:taxiway" }, "geometry": { "type": "LineString", "coordinates": [ [ 22.4941923, 40.6460172 ], [ 22.4942299, 40.6459805 ], [ 22.494254, 40.6459358 ], [ 22.4942621, 40.645893 ], [ 22.4942567, 40.6458544 ], [ 22.4942393, 40.6458047 ] ] } }
]
}
