{
"type": "FeatureCollection",
"name": "patch_95933_multilinestring",
"crs": { "type": "name", "properties": { "name": "urn:ogc:def:crs:OGC:1.3:CRS84" } },
"features": [
{ "type": "Feature", "properties": { "element": "way", "id": 1387993561, "amenity": null, "fixme": null, "name": null, "operator": null, "phone": null, "brand": null, "brand:wikidata": null, "brand:wikipedia": null, "aeroway": null, "length": null, "ref": null, "surface": null, "width": null, "barrier": null, "icao": null, "landuse": null, "military": null, "name:de": null, "name:el": null, "name:en": null, "name:tr": null, "wikidata": null, "waterway": null, "layer": null, "tunnel": null, "oneway": null, "leisure": "track", "sport": "running", "religion": null, "building": null, "source": null, "natural": null, "wetland": null, "label": "sport:running;leisure:track" }, "geometry": { "type": "MultiLineString", "coordinates": [ [ [ 22.4910255, 40.641267 ], [ 22.4906976, 40.6412006 ] ], [ [ 22.4906976, 40.6412006 ], [ 22.4898593, 40.6410308 ], [ 22.4897915, 40.6410145 ], [ 22.4897499, 40.6410004 ], [ 22.4897021, 40.6409759 ], [ 22.4896559, 40.6409467 ], [ 22.4896236, 40.6409128 ], [ 22.4895928, 40.6408765 ], [ 22.4895712, 40.6408438 ], [ 22.4895543, 40.6408052 ], [ 22.489545, 40.6407678 ], [ 22.4895389, 40.6407281 ], [ 22.4895404, 40.6406825 ], [ 22.489545, 40.6406451 ], [ 22.4895573, 40.6406077 ], [ 22.4895743, 40.6405749 ], [ 22.4895989, 40.6405364 ], [ 22.4896297, 40.6405048 ], [ 22.4896652, 40.6404709 ], [ 22.4896991, 40.6404463 ], [ 22.4897437, 40.640423 ], [ 22.4898023, 40.6404019 ], [ 22.48985, 40.6403891 ], [ 22.4899101, 40.6403809 ], [ 22.4899887, 40.6403774 ], [ 22.4900534, 40.6403856 ], [ 22.4909869, 40.6405901 ], [ 22.491027, 40.6406053 ], [ 22.4910717, 40.6406299 ], [ 22.4911133, 40.6406638 ], [ 22.4911533, 40.6407094 ], [ 22.4911795, 40.6407573 ], [ 22.4911965, 40.6408005 ], [ 22.4912088, 40.6408613 ], [ 22.4912072, 40.6409128 ], [ 22.4911934, 40.6409619 ], [ 22.4911718, 40.6410051 ], [ 22.4911395, 40.6410507 ], [ 22.4910979, 40.6410916 ], [ 22.491047, 40.6411267 ], [ 22.4909839, 40.6411536 ], [ 22.4908976, 40.6411816 ], [ 22.4908067, 40.6411968 ], [ 22.4906976, 40.6412006 ] ] ] } }
]
}
