{
"type": "FeatureCollection",
"name": "patch_95919_point",
"crs": { "type": "name", "properties": { "name": "urn:ogc:def:crs:OGC:1.3:CRS84" } },
"features": [
{ "type": "Feature", "properties": { "@type": "node", "@id": 7589376467, "access": null, "admin_level": null, "amenity": "place_of_worship", "barrier": null, "boundary": null, "building": "chapel", "castle_type": null, "denomination": "greek_orthodox", "highway": null, "historic": null, "historic:civilization": null, "image": null, "int_name": null, "landuse": null, "lanes": null, "lit": null, "name": null, "name:de": null, "name:el": null, "name:en": null, "name:ru": null, "natural": null, "noexit": null, "oneway": null, "place": null, "plant:method": null, "plant:output:electricity": null, "plant:source": null, "power": null, "reg_ref": null, "religion": "christian", "ruins": null, "service": null, "source": null, "source:reg_ref": null, "surface": null, "tracktype": null, "water": null, "wikidata": null, "label": "building:chapel;amenity:place_of_worship" }, "geometry": { "type": "Point", "coordinates": [ 25.2345905, 35.1227578 ] } },
{ "type": "Feature", "properties": { "@type": "node", "@id": 7589376468, "access": null, "admin_level": null, "amenity": "place_of_worship", "barrier": null, "boundary": null, "building": "chapel", "castle_type": null, "denomination": "greek_orthodox", "highway": null, "historic": null, "historic:civilization": null, "image": null, "int_name": null, "landuse": null, "lanes": null, "lit": null, "name": "Άγιος Ιωάννης", "name:de": null, "name:el": null, "name:en": null, "name:ru": null, "natural": null, "noexit": null, "oneway": null, "place": null, "plant:method": null, "plant:output:electricity": null, "plant:source": null, "power": null, "reg_ref": null, "religion": "christian", "ruins": null, "service": null, "source": null, "source:reg_ref": null, "surface": null, "tracktype": null, "water": null, "wikidata": null, "label": "building:chapel;amenity:place_of_worship" }, "geometry": { "type": "Point", "coordinates": [ 25.238536, 35.1219351 ] } },
{ "type": "Feature", "properties": { "@type": "node", "@id": 7589708804, "access": null, "admin_level": null, "amenity": "place_of_worship", "barrier": null, "boundary": null, "building": "chapel", "castle_type": null, "denomination": "greek_orthodox", "highway": null, "historic": null, "historic:civilization": null, "image": null, "int_name": null, "landuse": null, "lanes": null, "lit": null, "name": "Άγιος Νικόλαος", "name:de": null, "name:el": null, "name:en": null, "name:ru": null, "natural": null, "noexit": null, "oneway": null, "place": null, "plant:method": null, "plant:output:electricity": null, "plant:source": null, "power": null, "reg_ref": null, "religion": "christian", "ruins": null, "service": null, "source": null, "source:reg_ref": null, "surface": null, "tracktype": null, "water": null, "wikidata": null, "label": "building:chapel;amenity:place_of_worship" }, "geometry": { "type": "Point", "coordinates": [ 25.2322729, 35.1302484 ] } },
{ "type": "Feature", "properties": { "@type": "node", "@id": 9960803179, "access": null, "admin_level": null, "amenity": null, "barrier": null, "boundary": null, "building": null, "castle_type": "fortification", "denomination": null, "highway": null, "historic": "castle", "historic:civilization": "venetian", "image": "https://www.kastra.eu/pics/vitsilia1.jpg", "int_name": null, "landuse": null, "lanes": null, "lit": null, "name": "Κάστρο Βιτσιλιάς", "name:de": null, "name:el": "Κάστρο Βιτσιλιάς", "name:en": "Castle of Vitsilia", "name:ru": null, "natural": null, "noexit": null, "oneway": null, "place": null, "plant:method": null, "plant:output:electricity": null, "plant:source": null, "power": null, "reg_ref": null, "religion": null, "ruins": "yes", "service": null, "source": "https://www.kastra.eu/castlegr.php?kastro=vitsilia", "source:reg_ref": null, "surface": null, "tracktype": null, "water": null, "wikidata": "Q108612730", "label": "historic:castle" }, "geometry": { "type": "Point", "coordinates": [ 25.2342935, 35.1223529 ] } }
]
}
