{
"type": "FeatureCollection",
"name": "patch_22738_polygon",
"crs": { "type": "name", "properties": { "name": "urn:ogc:def:crs:OGC:1.3:CRS84" } },
"features": [
{ "type": "Feature", "properties": { "osm_id": 136823575, "name": null, "label": "natural:wood", "natural": "wood", "water": null, "landuse": null, "building": null, "leisure": null }, "geometry": { "type": "Polygon", "coordinates": [ [ [ 25.858507, 41.247542000418839 ], [ 25.858639, 41.247226000418806 ], [ 25.85871, 41.246929000418767 ], [ 25.858691, 41.246611000418746 ], [ 25.858641, 41.246289000418706 ], [ 25.858535, 41.245829000418667 ], [ 25.858361, 41.24562100041863 ], [ 25.857971, 41.245502000418632 ], [ 25.857833, 41.24510900041858 ], [ 25.857597, 41.244902000418584 ], [ 25.8573, 41.244714000418533 ], [ 25.856675, 41.244379000418512 ], [ 25.856109, 41.24409600041848 ], [ 25.855723, 41.243837000418445 ], [ 25.855247, 41.243576000418422 ], [ 25.85474, 41.2433370004184 ], [ 25.854199, 41.243193000418387 ], [ 25.85369, 41.242999000418372 ], [ 25.853179, 41.242877000418368 ], [ 25.852847, 41.242801000418353 ], [ 25.852212, 41.242766000418349 ], [ 25.851847, 41.242780000418342 ], [ 25.851451, 41.242818000418353 ], [ 25.851088, 41.242814000418356 ], [ 25.850418, 41.242870000418378 ], [ 25.850085, 41.242884000418357 ], [ 25.849717, 41.242970000418353 ], [ 25.848856, 41.24331900041841 ], [ 25.848552, 41.243333000418396 ], [ 25.848036, 41.2433230004184 ], [ 25.847555, 41.243222000418399 ], [ 25.847165, 41.243103000418373 ], [ 25.846746, 41.242934000418359 ], [ 25.846358, 41.242743000418351 ], [ 25.846002, 41.242511000418318 ], [ 25.845621, 41.242136000418284 ], [ 25.845297, 41.241881000418253 ], [ 25.844794, 41.241530000418209 ], [ 25.844319, 41.241223000418181 ], [ 25.843935, 41.240920000418171 ], [ 25.843491, 41.240613000418115 ], [ 25.843225, 41.240424000418102 ], [ 25.842781, 41.240122000418069 ], [ 25.842336, 41.239837000418035 ], [ 25.842039, 41.239627000418018 ], [ 25.841687, 41.239278000417976 ], [ 25.841422, 41.239067000417947 ], [ 25.841007, 41.238786000417925 ], [ 25.840412, 41.238455000417893 ], [ 25.839934, 41.23823800041788 ], [ 25.839735, 41.23813600041786 ], [ 25.838429, 41.236815000417728 ], [ 25.837458, 41.235972000417632 ], [ 25.835734, 41.235285000417569 ], [ 25.835273, 41.235398000417575 ], [ 25.835250012843446, 41.235421705924473 ], [ 25.835250012843446, 41.247876692868338 ], [ 25.85821485350786, 41.247876692868338 ], [ 25.858507, 41.247542000418839 ] ] ] } },
{ "type": "Feature", "properties": { "osm_id": 806503019, "name": null, "label": "natural:water", "natural": "water", "water": null, "landuse": null, "building": null, "leisure": null }, "geometry": { "type": "Polygon", "coordinates": [ [ [ 25.8452257, 41.238762300417918 ], [ 25.8452945, 41.238777800417928 ], [ 25.8453564, 41.238803700417932 ], [ 25.8453839, 41.238850200417929 ], [ 25.8454733, 41.238814000417925 ], [ 25.8455009, 41.238726100417928 ], [ 25.8455146, 41.238638200417924 ], [ 25.8456315, 41.238560600417905 ], [ 25.8455421, 41.238446800417897 ], [ 25.8455009, 41.238405400417889 ], [ 25.8454046, 41.238410600417893 ], [ 25.8453702, 41.238503700417908 ], [ 25.8453151, 41.23858650041791 ], [ 25.8452051, 41.238658900417896 ], [ 25.8450813, 41.238736500417922 ], [ 25.8452257, 41.238762300417918 ] ] ] } },
{ "type": "Feature", "properties": { "osm_id": 561795913, "name": null, "label": "water:pond;natural:water", "natural": "water", "water": "pond", "landuse": null, "building": null, "leisure": null }, "geometry": { "type": "Polygon", "coordinates": [ [ [ 25.842312, 41.234309700417455 ], [ 25.8423639, 41.234396700417463 ], [ 25.8423759, 41.234462700417467 ], [ 25.8424038, 41.234537800417492 ], [ 25.8424038, 41.2345768004175 ], [ 25.8424238, 41.234606800417502 ], [ 25.8424956, 41.234597800417504 ], [ 25.8425714, 41.234570800417501 ], [ 25.8426553, 41.234561800417488 ], [ 25.8427351, 41.234621800417486 ], [ 25.842775, 41.234657800417502 ], [ 25.8428349, 41.234681800417491 ], [ 25.8429785, 41.23469380041751 ], [ 25.8430903, 41.234714900417508 ], [ 25.8431541, 41.234696800417503 ], [ 25.84323, 41.234654800417509 ], [ 25.8432539, 41.234606800417502 ], [ 25.843222, 41.234543800417491 ], [ 25.8431741, 41.234450700417476 ], [ 25.8430504, 41.234309700417455 ], [ 25.8429227, 41.234156600417464 ], [ 25.842775, 41.23400050041743 ], [ 25.8427111, 41.233934500417426 ], [ 25.8426433, 41.233889500417419 ], [ 25.8426074, 41.233889500417419 ], [ 25.8425874, 41.233934500417426 ], [ 25.8425395, 41.233994500417431 ], [ 25.8424677, 41.234039600417439 ], [ 25.8423519, 41.234126600417454 ], [ 25.842308, 41.234183600417452 ], [ 25.8422961, 41.234249700417443 ], [ 25.842312, 41.234309700417455 ] ] ] } },
{ "type": "Feature", "properties": { "osm_id": 211154313, "name": null, "label": "landuse:residential", "natural": null, "water": null, "landuse": "residential", "building": null, "leisure": null }, "geometry": { "type": "Polygon", "coordinates": [ [ [ 25.8489996, 41.23134280041716 ], [ 25.8503631, 41.23152790041717 ], [ 25.8513573, 41.231143400417132 ], [ 25.8522848, 41.231855300417202 ], [ 25.8516508, 41.232645900417282 ], [ 25.8518402, 41.233536000417388 ], [ 25.8516035, 41.234475900417479 ], [ 25.8520296, 41.234967200417536 ], [ 25.8516698, 41.235536900417586 ], [ 25.8525569, 41.235760900417624 ], [ 25.8529007, 41.235608100417593 ], [ 25.8530522, 41.235010000417546 ], [ 25.8534025, 41.234888900417531 ], [ 25.854018, 41.235059800417545 ], [ 25.8546903, 41.235074000417526 ], [ 25.854942, 41.235328000417567 ], [ 25.8550785, 41.235465700417585 ], [ 25.8554856, 41.235814600417619 ], [ 25.855907, 41.235596400417606 ], [ 25.8566408, 41.235216500417565 ], [ 25.8569722, 41.234775000417521 ], [ 25.8565461, 41.234105600417436 ], [ 25.8570385, 41.233486100417387 ], [ 25.8564325, 41.233037500417339 ], [ 25.8557318, 41.233115900417332 ], [ 25.855391, 41.23370690041741 ], [ 25.8552395, 41.23420530041745 ], [ 25.8549365, 41.233877800417424 ], [ 25.8545198, 41.233742500417392 ], [ 25.854179, 41.234034400417428 ], [ 25.853573, 41.233870700417413 ], [ 25.8538286, 41.233365100417373 ], [ 25.854624, 41.232923600417337 ], [ 25.8553057, 41.232645900417282 ], [ 25.855391, 41.231919600417207 ], [ 25.8551164, 41.231549300417171 ], [ 25.8543589, 41.231691700417194 ], [ 25.8540085, 41.23253910041727 ], [ 25.8535446, 41.233080300417321 ], [ 25.8530333, 41.233407800417368 ], [ 25.8525882, 41.233365100417373 ], [ 25.8527965, 41.232816800417311 ], [ 25.8523894, 41.232311200417264 ], [ 25.8528912, 41.23183410041721 ], [ 25.8532416, 41.231221700417137 ], [ 25.8527965, 41.231022300417131 ], [ 25.8522947, 41.230801600417088 ], [ 25.8525875, 41.230399500417057 ], [ 25.8516792, 41.230174900417033 ], [ 25.851353, 41.230580300417081 ], [ 25.8502305, 41.229968400417022 ], [ 25.849047, 41.230459800417066 ], [ 25.8487142, 41.230739600417103 ], [ 25.848564, 41.231100700417123 ], [ 25.8489996, 41.23134280041716 ] ] ] } },
{ "type": "Feature", "properties": { "osm_id": 1360178560, "name": "Ε.Φ. ΛΟΦΟΥ (Λαμψάκι)", "label": "building:yes", "natural": null, "water": null, "landuse": null, "building": "yes", "leisure": null }, "geometry": { "type": "Polygon", "coordinates": [ [ [ 25.8586126, 41.242544600418334 ], [ 25.8586757, 41.242483800418313 ], [ 25.8584192, 41.242333400418303 ], [ 25.8583561, 41.242394100418302 ], [ 25.8586126, 41.242544600418334 ] ] ] } },
{ "type": "Feature", "properties": { "osm_id": 140502726, "name": "Πόας - Διχάλας Δήμου Σώστη", "label": "leisure:nature_reserve", "natural": null, "water": null, "landuse": null, "building": null, "leisure": "nature_reserve" }, "geometry": { "type": "MultiPolygon", "coordinates": [ [ [ [ 25.8649776, 41.231251600417153 ], [ 25.8644675, 41.232004900417223 ], [ 25.8624316, 41.232496400417283 ], [ 25.8614678, 41.233314400417356 ], [ 25.8601777, 41.233335300417359 ], [ 25.8582046, 41.233367100417368 ], [ 25.8573847, 41.236590000417692 ], [ 25.8608893, 41.237774300417826 ], [ 25.8620509, 41.239638500418017 ], [ 25.863644, 41.239612700418014 ], [ 25.865388534531437, 41.2402822527891 ], [ 25.865388534531437, 41.231041272163459 ], [ 25.8649776, 41.231251600417153 ] ] ], [ [ [ 25.8630543, 41.245689800418646 ], [ 25.8622305, 41.245964700418682 ], [ 25.8622429, 41.246402300418715 ], [ 25.8622721, 41.247428600418836 ], [ 25.86269472360939, 41.247876692868338 ], [ 25.865388534531437, 41.247876692868338 ], [ 25.865388534531437, 41.243350419416586 ], [ 25.8630543, 41.245689800418646 ] ] ], [ [ [ 25.8650388, 41.242362400418308 ], [ 25.8653548, 41.242877200418356 ], [ 25.865388534531437, 41.242932152625926 ], [ 25.865388534531437, 41.241659065090936 ], [ 25.8650388, 41.242362400418308 ] ] ] ] } },
{ "type": "Feature", "properties": { "osm_id": 424088962, "name": null, "label": "natural:wood", "natural": "wood", "water": null, "landuse": null, "building": null, "leisure": null }, "geometry": { "type": "Polygon", "coordinates": [ [ [ 25.865193, 41.231443000417165 ], [ 25.864752, 41.231889000417226 ], [ 25.864502, 41.232139000417234 ], [ 25.864278, 41.232452000417275 ], [ 25.863966, 41.232721000417307 ], [ 25.863287, 41.233050000417329 ], [ 25.863158, 41.233276000417355 ], [ 25.862963, 41.233660000417402 ], [ 25.862793, 41.234160000417454 ], [ 25.862722, 41.234475000417476 ], [ 25.862622, 41.234727000417514 ], [ 25.862491, 41.235020000417535 ], [ 25.86233, 41.235269000417581 ], [ 25.86217, 41.235492000417594 ], [ 25.86201, 41.235763000417613 ], [ 25.861787, 41.236058000417643 ], [ 25.861597, 41.236303000417678 ], [ 25.861438, 41.23652900041769 ], [ 25.861248, 41.236729000417711 ], [ 25.860994, 41.237069000417755 ], [ 25.860674, 41.237563000417808 ], [ 25.860662, 41.237573000417783 ], [ 25.860267, 41.237901000417835 ], [ 25.859864, 41.23816700041786 ], [ 25.859374, 41.238313000417882 ], [ 25.858541, 41.238689000417928 ], [ 25.858264, 41.238819000417926 ], [ 25.857959, 41.238882000417931 ], [ 25.857345, 41.239075000417962 ], [ 25.85701, 41.239116000417972 ], [ 25.856675, 41.23915200041796 ], [ 25.856278, 41.239239000417967 ], [ 25.855319, 41.239456000417995 ], [ 25.855438, 41.239839000418051 ], [ 25.855486, 41.240201000418082 ], [ 25.855622, 41.24063900041812 ], [ 25.85588, 41.241078000418163 ], [ 25.855988, 41.241467000418204 ], [ 25.856159, 41.241791000418239 ], [ 25.856482, 41.242096000418279 ], [ 25.857018, 41.242356000418305 ], [ 25.857626, 41.242343000418302 ], [ 25.858052, 41.242309000418295 ], [ 25.858878, 41.242095000418274 ], [ 25.859552, 41.241901000418267 ], [ 25.860133, 41.241753000418242 ], [ 25.86066, 41.241444000418213 ], [ 25.861002, 41.241202000418184 ], [ 25.861474, 41.240706000418136 ], [ 25.861819, 41.240369000418092 ], [ 25.862038, 41.240168000418066 ], [ 25.862384, 41.239831000418036 ], [ 25.862822, 41.239453000417996 ], [ 25.863318, 41.23912200041795 ], [ 25.863754, 41.238811000417932 ], [ 25.864034, 41.238609000417917 ], [ 25.864376, 41.238366000417884 ], [ 25.864685, 41.238187000417867 ], [ 25.865245, 41.237811000417828 ], [ 25.865388534531437, 41.23769978227137 ], [ 25.865388534531437, 41.231239180973425 ], [ 25.865193, 41.231443000417165 ] ] ] } },
{ "type": "Feature", "properties": { "osm_id": 136823572, "name": null, "label": "natural:wood", "natural": "wood", "water": null, "landuse": null, "building": null, "leisure": null }, "geometry": { "type": "MultiPolygon", "coordinates": [ [ [ [ 25.841381, 41.224662000416451 ], [ 25.841647, 41.22487300041648 ], [ 25.84191, 41.22515100041651 ], [ 25.842174, 41.225407000416524 ], [ 25.842468, 41.225690000416563 ], [ 25.84291, 41.226042000416598 ], [ 25.843413, 41.226393000416635 ], [ 25.843979, 41.226698000416683 ], [ 25.844309, 41.226773000416685 ], [ 25.84467, 41.226871000416693 ], [ 25.845394, 41.226976000416691 ], [ 25.84633, 41.227088000416707 ], [ 25.847236, 41.227195000416735 ], [ 25.848052, 41.227281000416724 ], [ 25.848689, 41.227271000416735 ], [ 25.849056, 41.227208000416724 ], [ 25.849573, 41.227150000416721 ], [ 25.85009, 41.22709300041673 ], [ 25.850816, 41.227149000416716 ], [ 25.851513, 41.227188000416724 ], [ 25.85215, 41.227151000416725 ], [ 25.852849, 41.227123000416704 ], [ 25.853672, 41.2269980004167 ], [ 25.854491, 41.226972000416694 ], [ 25.855369, 41.227031000416709 ], [ 25.856097, 41.227046000416699 ], [ 25.856642, 41.227056000416709 ], [ 25.857066, 41.227063000416699 ], [ 25.857521, 41.227051000416708 ], [ 25.857945, 41.22708100041671 ], [ 25.858518, 41.22718400041672 ], [ 25.859091, 41.227265000416736 ], [ 25.859573, 41.227343000416745 ], [ 25.859993, 41.227457000416763 ], [ 25.860024, 41.227466000416754 ], [ 25.860385, 41.227541000416764 ], [ 25.860777, 41.227616000416759 ], [ 25.861167, 41.227713000416777 ], [ 25.86155, 41.228065000416819 ], [ 25.861693, 41.228319000416839 ], [ 25.861918, 41.228826000416888 ], [ 25.862115, 41.229262000416931 ], [ 25.862255, 41.229583000416959 ], [ 25.862488, 41.229862000417008 ], [ 25.862785, 41.230050000417016 ], [ 25.863207, 41.23010200041702 ], [ 25.863547, 41.229926000417016 ], [ 25.863886, 41.229773000417005 ], [ 25.864165, 41.229598000416971 ], [ 25.864474, 41.229419000416947 ], [ 25.864754, 41.229244000416948 ], [ 25.865187, 41.228978000416909 ], [ 25.865388534531437, 41.228818452352876 ], [ 25.865388534531437, 41.224516214424554 ], [ 25.841092078628172, 41.224516214424554 ], [ 25.841381, 41.224662000416451 ] ] ], [ [ [ 25.837474, 41.224519000416443 ], [ 25.837489726546174, 41.224516214424554 ], [ 25.837438425020352, 41.224516214424554 ], [ 25.837474, 41.224519000416443 ] ] ], [ [ [ 25.83635, 41.224613000416454 ], [ 25.836776, 41.224552000416452 ], [ 25.836997994497569, 41.224516214424554 ], [ 25.836174518698542, 41.224516214424554 ], [ 25.83635, 41.224613000416454 ] ] ] ] } }
]
}
