{
"type": "FeatureCollection",
"name": "patch_63550_features",
"crs": { "type": "name", "properties": { "name": "urn:ogc:def:crs:OGC:1.3:CRS84" } },
"features": [
{ "type": "Feature", "properties": { "@type": "way", "@id": 85105840, "admin_level": null, "boat": "no", "boundary": null, "est_width": "350", "ford": null, "highway": null, "int_name": "Aliakmonas", "landuse": null, "lanes": null, "layer": null, "leisure": null, "lit": null, "maxspeed": null, "name": "Αλιάκμονας", "name:bg": "Bistrica", "name:de": "Aliakmonas", "name:el": "Αλιάκμονας", "name:en": "Aliakmonas", "name:fr": "Aliakmonas", "name:mk": "Bistrica", "natural": null, "old_name": "Ἁλιάκμων", "old_name:en": "Aliakmon", "oneway": null, "protect_class": null, "protection_title": null, "source": null, "surface": null, "toll": null, "tracktype": null, "tunnel": null, "water": null, "waterway": "river", "wetland": null, "wikipedia": "el:Αλιάκμονας", "label": "waterway:river" }, "geometry": { "type": "LineString", "coordinates": [ [ 22.604771110968031, 40.530465133772388 ], [ 22.6048663, 40.530197 ], [ 22.6049414, 40.5300268 ], [ 22.6050326, 40.529882 ], [ 22.6051345, 40.5297301 ], [ 22.6052405, 40.5296068 ], [ 22.6055422, 40.5292949 ], [ 22.6059848, 40.5286568 ], [ 22.6062074, 40.5283714 ], [ 22.6063496, 40.5281858 ], [ 22.6064113, 40.5280676 ], [ 22.6064676, 40.5279269 ], [ 22.6064837, 40.5277761 ], [ 22.6065534, 40.5274213 ], [ 22.6066098, 40.5271706 ], [ 22.6067331, 40.5268627 ], [ 22.6069504, 40.5265222 ], [ 22.6072347, 40.526088 ], [ 22.6073018, 40.5259575 ], [ 22.6073393, 40.5258209 ], [ 22.60735, 40.5257312 ], [ 22.60735, 40.5254845 ], [ 22.6073205, 40.5252378 ], [ 22.6072991, 40.5251053 ], [ 22.6070604, 40.5246465 ], [ 22.6068565, 40.5243958 ], [ 22.6066406, 40.5241623 ], [ 22.606599, 40.524093 ], [ 22.6065595, 40.5240196 ], [ 22.6065461, 40.5239411 ], [ 22.6065642, 40.5237556 ], [ 22.6065937, 40.5235843 ], [ 22.6067653, 40.5230032 ], [ 22.6068753, 40.5225058 ], [ 22.6069987, 40.5220817 ], [ 22.6072025, 40.5214557 ], [ 22.6073098, 40.5211886 ], [ 22.6074949, 40.5209032 ], [ 22.6077229, 40.5206249 ], [ 22.6078556, 40.5204954 ], [ 22.6079991, 40.5203996 ], [ 22.6081534, 40.5202986 ], [ 22.6087582, 40.5199714 ], [ 22.6090533, 40.5198164 ], [ 22.60919, 40.5197226 ], [ 22.6093134, 40.5195942 ], [ 22.6094797, 40.5193556 ], [ 22.6096943, 40.5190029 ], [ 22.609764, 40.5188479 ], [ 22.6097962, 40.5187215 ], [ 22.6097962, 40.5185869 ], [ 22.6096782, 40.5181995 ], [ 22.6094341, 40.5175327 ], [ 22.6092893, 40.5170372 ], [ 22.6092973, 40.5168333 ], [ 22.6093617, 40.5166213 ], [ 22.6094636, 40.5163827 ], [ 22.6096594, 40.5161421 ], [ 22.6097855, 40.515979 ], [ 22.6098633, 40.5158709 ], [ 22.6099759, 40.5156915 ], [ 22.6100188, 40.5156017 ], [ 22.6101154, 40.5154284 ], [ 22.6102294, 40.5152082 ], [ 22.6103997, 40.5149615 ], [ 22.610731, 40.5146276 ], [ 22.6109858, 40.5143976 ], [ 22.611258, 40.5141805 ], [ 22.611549, 40.5139898 ], [ 22.6118682, 40.5138491 ], [ 22.6122048, 40.513737 ], [ 22.6128593, 40.5135259 ], [ 22.6132536, 40.5133852 ], [ 22.6136586, 40.5131935 ], [ 22.6139617, 40.5130365 ], [ 22.614007213132055, 40.513001889448731 ] ] } },
{ "type": "Feature", "properties": { "@type": "way", "@id": 161791073, "admin_level": null, "boat": "no", "boundary": null, "est_width": null, "ford": null, "highway": null, "int_name": null, "landuse": null, "lanes": null, "layer": null, "leisure": null, "lit": null, "maxspeed": null, "name": null, "name:bg": null, "name:de": null, "name:el": null, "name:en": null, "name:fr": null, "name:mk": null, "natural": null, "old_name": null, "old_name:en": null, "oneway": null, "protect_class": null, "protection_title": null, "source": null, "surface": null, "toll": null, "tracktype": null, "tunnel": null, "water": null, "waterway": "river", "wetland": null, "wikipedia": null, "label": "waterway:river" }, "geometry": { "type": "LineString", "coordinates": [ [ 22.621457090349633, 40.535631954133294 ], [ 22.6227581, 40.5345483 ], [ 22.6255691, 40.5321673 ], [ 22.6302683, 40.5282368 ], [ 22.635537396534854, 40.52376958116416 ] ] } },
{ "type": "Feature", "properties": { "@type": "way", "@id": 807924190, "admin_level": null, "boat": null, "boundary": null, "est_width": null, "ford": null, "highway": null, "int_name": null, "landuse": null, "lanes": null, "layer": null, "leisure": null, "lit": null, "maxspeed": null, "name": null, "name:bg": null, "name:de": null, "name:el": null, "name:en": null, "name:fr": null, "name:mk": null, "natural": null, "old_name": null, "old_name:en": null, "oneway": null, "protect_class": null, "protection_title": null, "source": null, "surface": null, "toll": null, "tracktype": null, "tunnel": null, "water": null, "waterway": "drain", "wetland": null, "wikipedia": null, "label": "waterway:drain" }, "geometry": { "type": "LineString", "coordinates": [ [ 22.6332876, 40.5267281 ], [ 22.6352382, 40.5278505 ], [ 22.635537396534854, 40.52801993706899 ] ] } },
{ "type": "Feature", "properties": { "@type": "way", "@id": 807924199, "admin_level": null, "boat": null, "boundary": null, "est_width": null, "ford": null, "highway": null, "int_name": null, "landuse": null, "lanes": null, "layer": null, "leisure": null, "lit": null, "maxspeed": null, "name": null, "name:bg": null, "name:de": null, "name:el": null, "name:en": null, "name:fr": null, "name:mk": null, "natural": null, "old_name": null, "old_name:en": null, "oneway": null, "protect_class": null, "protection_title": null, "source": null, "surface": null, "toll": null, "tracktype": null, "tunnel": null, "water": null, "waterway": "drain", "wetland": null, "wikipedia": null, "label": "waterway:drain" }, "geometry": { "type": "LineString", "coordinates": [ [ 22.6348292, 40.5254303 ], [ 22.635537396534854, 40.525832953686148 ] ] } },
{ "type": "Feature", "properties": { "@type": "way", "@id": 807924202, "admin_level": null, "boat": null, "boundary": null, "est_width": null, "ford": null, "highway": null, "int_name": null, "landuse": null, "lanes": null, "layer": null, "leisure": null, "lit": null, "maxspeed": null, "name": null, "name:bg": null, "name:de": null, "name:el": null, "name:en": null, "name:fr": null, "name:mk": null, "natural": null, "old_name": null, "old_name:en": null, "oneway": null, "protect_class": null, "protection_title": null, "source": null, "surface": null, "toll": null, "tracktype": null, "tunnel": null, "water": null, "waterway": "drain", "wetland": null, "wikipedia": null, "label": "waterway:drain" }, "geometry": { "type": "LineString", "coordinates": [ [ 22.6349092, 40.5252132 ], [ 22.6350641, 40.5250847 ], [ 22.6355054, 40.5247458 ], [ 22.635537396534854, 40.524724328641085 ] ] } },
{ "type": "Feature", "properties": { "@type": "way", "@id": 807924216, "admin_level": null, "boat": null, "boundary": null, "est_width": null, "ford": null, "highway": null, "int_name": null, "landuse": null, "lanes": null, "layer": null, "leisure": null, "lit": null, "maxspeed": null, "name": null, "name:bg": null, "name:de": null, "name:el": null, "name:en": null, "name:fr": null, "name:mk": null, "natural": null, "old_name": null, "old_name:en": null, "oneway": null, "protect_class": null, "protection_title": null, "source": null, "surface": null, "toll": null, "tracktype": null, "tunnel": null, "water": null, "waterway": "canal", "wetland": null, "wikipedia": null, "label": "waterway:canal" }, "geometry": { "type": "LineString", "coordinates": [ [ 22.62221586010169, 40.535631954133294 ], [ 22.6225039, 40.5353979 ] ] } },
{ "type": "Feature", "properties": { "@type": "way", "@id": 807924218, "admin_level": null, "boat": null, "boundary": null, "est_width": null, "ford": null, "highway": null, "int_name": null, "landuse": null, "lanes": null, "layer": "-1", "leisure": null, "lit": null, "maxspeed": null, "name": null, "name:bg": null, "name:de": null, "name:el": null, "name:en": null, "name:fr": null, "name:mk": null, "natural": null, "old_name": null, "old_name:en": null, "oneway": null, "protect_class": null, "protection_title": null, "source": null, "surface": null, "toll": null, "tracktype": null, "tunnel": "culvert", "water": null, "waterway": "canal", "wetland": null, "wikipedia": null, "label": "waterway:canal" }, "geometry": { "type": "LineString", "coordinates": [ [ 22.6225039, 40.5353979 ], [ 22.6226091, 40.5353157 ] ] } },
{ "type": "Feature", "properties": { "@type": "way", "@id": 807924219, "admin_level": null, "boat": null, "boundary": null, "est_width": null, "ford": null, "highway": null, "int_name": null, "landuse": null, "lanes": null, "layer": null, "leisure": null, "lit": null, "maxspeed": null, "name": null, "name:bg": null, "name:de": null, "name:el": null, "name:en": null, "name:fr": null, "name:mk": null, "natural": null, "old_name": null, "old_name:en": null, "oneway": null, "protect_class": null, "protection_title": null, "source": null, "surface": null, "toll": null, "tracktype": null, "tunnel": null, "water": null, "waterway": "canal", "wetland": null, "wikipedia": null, "label": "waterway:canal" }, "geometry": { "type": "LineString", "coordinates": [ [ 22.6226091, 40.5353157 ], [ 22.6240715, 40.5340231 ], [ 22.6259536, 40.5325033 ], [ 22.6280647, 40.530752 ], [ 22.6285306, 40.5303624 ], [ 22.6297845, 40.5293289 ], [ 22.6311333, 40.5281955 ], [ 22.6321034, 40.5273938 ], [ 22.6339249, 40.5258869 ], [ 22.6350112, 40.5250179 ], [ 22.6354941, 40.5246508 ], [ 22.635537396534854, 40.524624877825701 ] ] } },
{ "type": "Feature", "properties": { "@type": "way", "@id": 488520994, "admin_level": null, "boat": null, "boundary": null, "est_width": null, "ford": null, "highway": null, "int_name": null, "landuse": null, "lanes": null, "layer": null, "leisure": null, "lit": null, "maxspeed": null, "name": null, "name:bg": null, "name:de": null, "name:el": null, "name:en": null, "name:fr": null, "name:mk": null, "natural": "wetland", "old_name": null, "old_name:en": null, "oneway": null, "protect_class": null, "protection_title": null, "source": null, "surface": null, "toll": null, "tracktype": null, "tunnel": null, "water": null, "waterway": null, "wetland": "marsh", "wikipedia": null, "label": "natural:wetland" }, "geometry": { "type": "MultiPolygon", "coordinates": [ [ [ [ 22.6049278, 40.5136775 ], [ 22.604771110968031, 40.513602280441248 ], [ 22.604771110968031, 40.513951484625288 ], [ 22.6049278, 40.5136775 ] ] ], [ [ [ 22.6064195, 40.5131148 ], [ 22.6059035, 40.5138225 ], [ 22.6060493, 40.5139248 ], [ 22.6052194, 40.5150588 ], [ 22.604771110968031, 40.514793734676537 ], [ 22.604771110968031, 40.516242946611257 ], [ 22.6050624, 40.5160734 ], [ 22.6058475, 40.5154766 ], [ 22.60624, 40.5151185 ], [ 22.6065653, 40.5147178 ], [ 22.6068681, 40.5141891 ], [ 22.6068905, 40.5136946 ], [ 22.6068793, 40.513183 ], [ 22.606968572372363, 40.513001889448731 ], [ 22.606563754626229, 40.513001889448731 ], [ 22.6064195, 40.5131148 ] ] ] ] } },
{ "type": "Feature", "properties": { "@type": "way", "@id": 1422786103, "admin_level": null, "boat": null, "boundary": null, "est_width": null, "ford": null, "highway": null, "int_name": null, "landuse": null, "lanes": null, "layer": null, "leisure": null, "lit": null, "maxspeed": null, "name": null, "name:bg": null, "name:de": null, "name:el": null, "name:en": null, "name:fr": null, "name:mk": null, "natural": "water", "old_name": null, "old_name:en": null, "oneway": null, "protect_class": null, "protection_title": null, "source": null, "surface": null, "toll": null, "tracktype": null, "tunnel": null, "water": "river", "waterway": null, "wetland": null, "wikipedia": null, "label": "natural:water;water:river" }, "geometry": { "type": "MultiPolygon", "coordinates": [ [ [ [ 22.6355096, 40.5146963 ], [ 22.6355136, 40.5146375 ], [ 22.6354323, 40.5146406 ], [ 22.6354323, 40.5146777 ], [ 22.6355096, 40.514823 ], [ 22.635537396534854, 40.514846399894893 ], [ 22.635537396534854, 40.514766133658995 ], [ 22.6355096, 40.5146963 ] ] ], [ [ [ 22.6355299, 40.5151444 ], [ 22.6354811, 40.5151537 ], [ 22.635537396534854, 40.515180463926406 ], [ 22.635537396534854, 40.515104418480774 ], [ 22.6355299, 40.5151444 ] ] ], [ [ [ 22.6355014, 40.5149652 ], [ 22.6354892, 40.5150301 ], [ 22.635537396534854, 40.515100320771062 ], [ 22.635537396534854, 40.515017463425323 ], [ 22.6355014, 40.5149652 ] ] ] ] } },
{ "type": "Feature", "properties": { "@type": "way", "@id": 16315768, "admin_level": null, "boat": null, "boundary": null, "est_width": null, "ford": null, "highway": null, "int_name": null, "landuse": null, "lanes": null, "layer": null, "leisure": null, "lit": null, "maxspeed": null, "name": null, "name:bg": null, "name:de": null, "name:el": null, "name:en": null, "name:fr": null, "name:mk": null, "natural": "water", "old_name": null, "old_name:en": null, "oneway": null, "protect_class": null, "protection_title": null, "source": "PGS", "surface": null, "toll": null, "tracktype": null, "tunnel": null, "water": "river", "waterway": null, "wetland": null, "wikipedia": null, "label": "natural:water;water:river" }, "geometry": { "type": "Polygon", "coordinates": [ [ [ 22.6353547, 40.5236072 ], [ 22.6317623, 40.5263015 ], [ 22.630772, 40.5270857 ], [ 22.6276217, 40.5298075 ], [ 22.6271468, 40.5302178 ], [ 22.6259166, 40.5315143 ], [ 22.6254411, 40.5318798 ], [ 22.6245189, 40.5326933 ], [ 22.6243671, 40.5329067 ], [ 22.6225378, 40.5342616 ], [ 22.6214453, 40.535181 ], [ 22.62086234149281, 40.535631954133294 ], [ 22.622012799379288, 40.535631954133294 ], [ 22.6223565, 40.5353799 ], [ 22.62355, 40.5343762 ], [ 22.6240062, 40.5339005 ], [ 22.6247877, 40.5333339 ], [ 22.6249233, 40.533225 ], [ 22.6259901, 40.5322301 ], [ 22.6262709, 40.5320347 ], [ 22.6274112, 40.5311098 ], [ 22.6281662, 40.5304603 ], [ 22.6290977, 40.529696 ], [ 22.6304771, 40.5286304 ], [ 22.6311648, 40.5280057 ], [ 22.6329462, 40.5265302 ], [ 22.635465, 40.5244435 ], [ 22.635537396534854, 40.524404421692353 ], [ 22.635537396534854, 40.523434011464232 ], [ 22.6353547, 40.5236072 ] ] ] } },
{ "type": "Feature", "properties": { "@type": "way", "@id": 16315770, "admin_level": null, "boat": null, "boundary": null, "est_width": null, "ford": null, "highway": null, "int_name": null, "landuse": null, "lanes": null, "layer": null, "leisure": null, "lit": null, "maxspeed": null, "name": null, "name:bg": null, "name:de": null, "name:el": null, "name:en": null, "name:fr": null, "name:mk": null, "natural": "water", "old_name": null, "old_name:en": null, "oneway": null, "protect_class": null, "protection_title": null, "source": "PGS", "surface": null, "toll": null, "tracktype": null, "tunnel": null, "water": "river", "waterway": null, "wetland": null, "wikipedia": null, "label": "natural:water;water:river" }, "geometry": { "type": "Polygon", "coordinates": [ [ [ 22.6350342, 40.5161752 ], [ 22.6343653, 40.5161565 ], [ 22.6341195, 40.5161196 ], [ 22.6340985, 40.516155 ], [ 22.6339368, 40.5164267 ], [ 22.633884, 40.5165155 ], [ 22.6338217, 40.5167498 ], [ 22.6349062, 40.5170593 ], [ 22.6349116, 40.5172713 ], [ 22.6350364, 40.5173316 ], [ 22.6351601, 40.5173913 ], [ 22.635537396534854, 40.517573464023585 ], [ 22.635537396534854, 40.516032047928952 ], [ 22.6350342, 40.5161752 ] ] ] } },
{ "type": "Feature", "properties": { "@type": "way", "@id": 30614255, "admin_level": null, "boat": null, "boundary": null, "est_width": null, "ford": null, "highway": null, "int_name": null, "landuse": "farmland", "lanes": null, "layer": null, "leisure": null, "lit": null, "maxspeed": null, "name": null, "name:bg": null, "name:de": null, "name:el": null, "name:en": null, "name:fr": null, "name:mk": null, "natural": null, "old_name": null, "old_name:en": null, "oneway": null, "protect_class": null, "protection_title": null, "source": null, "surface": null, "toll": null, "tracktype": null, "tunnel": null, "water": null, "waterway": null, "wetland": null, "wikipedia": null, "label": "landuse:farmland" }, "geometry": { "type": "Polygon", "coordinates": [ [ [ 22.6334629, 40.5265324 ], [ 22.6315736, 40.5279596 ], [ 22.6306657, 40.528705 ], [ 22.6294177, 40.5295933 ], [ 22.6283268, 40.5305479 ], [ 22.6275215, 40.5312285 ], [ 22.6263313, 40.5321299 ], [ 22.6258822, 40.5326336 ], [ 22.6249794, 40.5334509 ], [ 22.6240432, 40.534198 ], [ 22.6237134, 40.534462 ], [ 22.622391, 40.5355312 ], [ 22.622266954407625, 40.535631954133294 ], [ 22.635537396534854, 40.535631954133294 ], [ 22.635537396534854, 40.524982036037713 ], [ 22.6334629, 40.5265324 ] ] ] } },
{ "type": "Feature", "properties": { "@type": "way", "@id": 138271243, "admin_level": null, "boat": null, "boundary": "protected_area", "est_width": null, "ford": null, "highway": null, "int_name": null, "landuse": null, "lanes": null, "layer": null, "leisure": "nature_reserve", "lit": null, "maxspeed": null, "name": "Δέλτα Αλιάκμονα (Κλειδίου)", "name:bg": null, "name:de": null, "name:el": null, "name:en": null, "name:fr": null, "name:mk": null, "natural": null, "old_name": null, "old_name:en": null, "oneway": null, "protect_class": "4", "protection_title": "Wildlife Refugee", "source": "http://geodata.gov.gr/", "surface": null, "toll": null, "tracktype": null, "tunnel": null, "water": null, "waterway": null, "wetland": null, "wikipedia": null, "label": "leisure:nature_reserve" }, "geometry": { "type": "Polygon", "coordinates": [ [ [ 22.6145485, 40.5132277 ], [ 22.6137277, 40.5141818 ], [ 22.6128799, 40.5149959 ], [ 22.611906, 40.5161778 ], [ 22.6112038, 40.5171558 ], [ 22.6105304, 40.5182017 ], [ 22.6100839, 40.5188114 ], [ 22.6096148, 40.5194519 ], [ 22.6092769, 40.5200424 ], [ 22.6090565, 40.5207289 ], [ 22.6088352, 40.5214559 ], [ 22.6086144, 40.5221649 ], [ 22.6083952, 40.5227569 ], [ 22.6082377, 40.5232549 ], [ 22.607954, 40.5241479 ], [ 22.6077313, 40.5249424 ], [ 22.607505, 40.5259487 ], [ 22.6073414, 40.5267935 ], [ 22.6071775, 40.5276338 ], [ 22.6069517, 40.5286175 ], [ 22.6067577, 40.5294845 ], [ 22.6064757, 40.5302558 ], [ 22.6062896, 40.5306905 ], [ 22.6059243, 40.531123 ], [ 22.6048028, 40.5322355 ], [ 22.604771110968031, 40.532280748396268 ], [ 22.604771110968031, 40.535631954133294 ], [ 22.623022306534846, 40.535631954133294 ], [ 22.6238028, 40.5347449 ], [ 22.6246977, 40.5339628 ], [ 22.6261889, 40.5326338 ], [ 22.6276796, 40.5315795 ], [ 22.6291113, 40.5302497 ], [ 22.6308405, 40.5291487 ], [ 22.6323314, 40.5278421 ], [ 22.6332853, 40.5270876 ], [ 22.6340604, 40.5265608 ], [ 22.6348949, 40.5259626 ], [ 22.6354317, 40.5254149 ], [ 22.635537396534854, 40.525322493797297 ], [ 22.635537396534854, 40.513001889448731 ], [ 22.614729295475186, 40.513001889448731 ], [ 22.6145485, 40.5132277 ] ] ] } },
{ "type": "Feature", "properties": { "@type": "way", "@id": 139733365, "admin_level": null, "boat": null, "boundary": "protected_area", "est_width": null, "ford": null, "highway": null, "int_name": null, "landuse": null, "lanes": null, "layer": null, "leisure": "nature_reserve", "lit": null, "maxspeed": null, "name": "Στέργιος-Αλιάκμονας (Αιγινίου)", "name:bg": null, "name:de": null, "name:el": null, "name:en": null, "name:fr": null, "name:mk": null, "natural": null, "old_name": null, "old_name:en": null, "oneway": null, "protect_class": "4", "protection_title": "Wildlife Refugee", "source": "http://geodata.gov.gr/", "surface": null, "toll": null, "tracktype": null, "tunnel": null, "water": null, "waterway": null, "wetland": null, "wikipedia": null, "label": "leisure:nature_reserve" }, "geometry": { "type": "Polygon", "coordinates": [ [ [ 22.6048028, 40.5322355 ], [ 22.6059243, 40.531123 ], [ 22.6062896, 40.5306905 ], [ 22.6064757, 40.5302558 ], [ 22.6067577, 40.5294845 ], [ 22.6069517, 40.5286175 ], [ 22.6071775, 40.5276338 ], [ 22.6073414, 40.5267935 ], [ 22.607505, 40.5259487 ], [ 22.6077313, 40.5249424 ], [ 22.607954, 40.5241479 ], [ 22.6082377, 40.5232549 ], [ 22.6083952, 40.5227569 ], [ 22.6086144, 40.5221649 ], [ 22.6088352, 40.5214559 ], [ 22.6090565, 40.5207289 ], [ 22.6092769, 40.5200424 ], [ 22.6096148, 40.5194519 ], [ 22.6100839, 40.5188114 ], [ 22.6105304, 40.5182017 ], [ 22.6112038, 40.5171558 ], [ 22.611906, 40.5161778 ], [ 22.6128799, 40.5149959 ], [ 22.6137277, 40.5141818 ], [ 22.6145485, 40.5132277 ], [ 22.614729295475186, 40.513001889448731 ], [ 22.604771110968031, 40.513001889448731 ], [ 22.604771110968031, 40.532280748396268 ], [ 22.6048028, 40.5322355 ] ] ] } },
{ "type": "Feature", "properties": { "@type": "relation", "@id": 13013631, "admin_level": null, "boat": null, "boundary": null, "est_width": null, "ford": null, "highway": null, "int_name": null, "landuse": null, "lanes": null, "layer": null, "leisure": null, "lit": null, "maxspeed": null, "name": null, "name:bg": null, "name:de": null, "name:el": null, "name:en": null, "name:fr": null, "name:mk": null, "natural": "water", "old_name": null, "old_name:en": null, "oneway": null, "protect_class": null, "protection_title": null, "source": null, "surface": null, "toll": null, "tracktype": null, "tunnel": null, "water": "river", "waterway": null, "wetland": null, "wikipedia": null, "label": "natural:water;water:river" }, "geometry": { "type": "Polygon", "coordinates": [ [ [ 22.6134293, 40.5131007 ], [ 22.6131155, 40.5132292 ], [ 22.6126528, 40.5134148 ], [ 22.6122035, 40.5135596 ], [ 22.6118736, 40.5136839 ], [ 22.611549, 40.5138328 ], [ 22.6112232, 40.5140275 ], [ 22.6109266, 40.5142118 ], [ 22.6107752, 40.5143059 ], [ 22.6106626, 40.5143793 ], [ 22.61057, 40.5144527 ], [ 22.6105151, 40.5145159 ], [ 22.6104413, 40.5146158 ], [ 22.6103421, 40.5147626 ], [ 22.6102482, 40.5149523 ], [ 22.6101235, 40.5151338 ], [ 22.6100618, 40.5152327 ], [ 22.6100188, 40.5153397 ], [ 22.6099625, 40.5154743 ], [ 22.609874, 40.5156242 ], [ 22.6096098, 40.5159178 ], [ 22.6092732, 40.5162339 ], [ 22.6090975, 40.5165458 ], [ 22.6090264, 40.5167681 ], [ 22.6090224, 40.5169251 ], [ 22.6090157, 40.5170536 ], [ 22.6090372, 40.5171535 ], [ 22.6090854, 40.5173095 ], [ 22.6092705, 40.5177193 ], [ 22.6094234, 40.517967 ], [ 22.609477, 40.5181312 ], [ 22.6095374, 40.5183198 ], [ 22.6095857, 40.5185125 ], [ 22.6095843, 40.51859 ], [ 22.6095656, 40.5186899 ], [ 22.6094717, 40.5189111 ], [ 22.6094006, 40.5191272 ], [ 22.609186, 40.5195085 ], [ 22.6090586, 40.5196686 ], [ 22.6089245, 40.5197573 ], [ 22.60884, 40.5198021 ], [ 22.6086509, 40.5198623 ], [ 22.60849, 40.5198949 ], [ 22.6081775, 40.5199316 ], [ 22.6078798, 40.5199918 ], [ 22.6076813, 40.5200601 ], [ 22.6075137, 40.5201763 ], [ 22.6074037, 40.5202976 ], [ 22.6070892, 40.5207916 ], [ 22.6069987, 40.5210602 ], [ 22.6068538, 40.5215658 ], [ 22.606768, 40.521837 ], [ 22.6067305, 40.5220327 ], [ 22.6067063, 40.5223182 ], [ 22.6066205, 40.5227994 ], [ 22.6065772, 40.5229788 ], [ 22.6065186, 40.5232214 ], [ 22.6063952, 40.5235721 ], [ 22.6062798, 40.5238759 ], [ 22.6062235, 40.5241572 ], [ 22.6062101, 40.524355 ], [ 22.6062316, 40.5246812 ], [ 22.6062423, 40.5249911 ], [ 22.6062825, 40.5255192 ], [ 22.6063442, 40.5260635 ], [ 22.6063764, 40.5264651 ], [ 22.6064005, 40.5271216 ], [ 22.6064193, 40.5274417 ], [ 22.606363, 40.5277536 ], [ 22.6063147, 40.5279942 ], [ 22.6062477, 40.528141 ], [ 22.6061538, 40.5283041 ], [ 22.6058185, 40.5286731 ], [ 22.6055369, 40.5290543 ], [ 22.6053572, 40.5293326 ], [ 22.6051937, 40.5295404 ], [ 22.6049843, 40.5298066 ], [ 22.6048583, 40.5299615 ], [ 22.6047778, 40.5300757 ], [ 22.604771110968031, 40.53009200129128 ], [ 22.604771110968031, 40.530973137388401 ], [ 22.6047818, 40.5308963 ], [ 22.6048341, 40.5306649 ], [ 22.60492, 40.5304549 ], [ 22.6049696, 40.5303183 ], [ 22.6049736, 40.5302306 ], [ 22.6049736, 40.5301501 ], [ 22.604979, 40.5300431 ], [ 22.6050273, 40.5299422 ], [ 22.6052231, 40.5297179 ], [ 22.6054296, 40.5295314 ], [ 22.6056509, 40.5293092 ], [ 22.6058118, 40.5291053 ], [ 22.6059204, 40.5289361 ], [ 22.6061229, 40.5285717 ], [ 22.6062001, 40.5284539 ], [ 22.6062725, 40.5284121 ], [ 22.6063214, 40.528405 ], [ 22.6063717, 40.5284096 ], [ 22.6063985, 40.5284264 ], [ 22.606414, 40.5284565 ], [ 22.6064073, 40.5285115 ], [ 22.6063657, 40.5289789 ], [ 22.6063201, 40.5292032 ], [ 22.6061484, 40.5297149 ], [ 22.605954, 40.5303112 ], [ 22.6058158, 40.5306486 ], [ 22.6055704, 40.5311674 ], [ 22.6054162, 40.5315241 ], [ 22.605325, 40.5318462 ], [ 22.6052955, 40.5319441 ], [ 22.6052257, 40.5320562 ], [ 22.6051694, 40.5321316 ], [ 22.604975, 40.5324568 ], [ 22.6048449, 40.5327391 ], [ 22.604771110968031, 40.532792956883583 ], [ 22.604771110968031, 40.533051822926772 ], [ 22.6047926, 40.533046 ], [ 22.604861, 40.5329889 ], [ 22.6049307, 40.5328788 ], [ 22.6052357, 40.5324687 ], [ 22.6053759, 40.5322366 ], [ 22.6055852, 40.531835 ], [ 22.6059446, 40.5311562 ], [ 22.6061913, 40.5307321 ], [ 22.6063201, 40.5305201 ], [ 22.6063818, 40.5304019 ], [ 22.606414, 40.5303 ], [ 22.6064327, 40.5301369 ], [ 22.6064113, 40.5299371 ], [ 22.6064113, 40.5298331 ], [ 22.6064703, 40.5295742 ], [ 22.6066393, 40.5289769 ], [ 22.6067868, 40.5285283 ], [ 22.6069048, 40.5281797 ], [ 22.606988, 40.5279901 ], [ 22.6070577, 40.5278617 ], [ 22.6071516, 40.5276945 ], [ 22.6072025, 40.5275824 ], [ 22.6073447, 40.5273357 ], [ 22.6073849, 40.5272215 ], [ 22.6074332, 40.5268056 ], [ 22.6074386, 40.5266364 ], [ 22.6074064, 40.526512 ], [ 22.6073796, 40.5263551 ], [ 22.6074091, 40.526141 ], [ 22.6074198, 40.5259453 ], [ 22.6074547, 40.5257679 ], [ 22.6075304, 40.5252999 ], [ 22.607578, 40.5250686 ], [ 22.6075619, 40.5248321 ], [ 22.6074895, 40.5246527 ], [ 22.6073125, 40.5244957 ], [ 22.6070335, 40.5242816 ], [ 22.6068941, 40.5241858 ], [ 22.6067787, 40.5240981 ], [ 22.606701, 40.5239676 ], [ 22.6067331, 40.5238596 ], [ 22.6068136, 40.5236516 ], [ 22.6069182, 40.5233784 ], [ 22.6070604, 40.5227912 ], [ 22.6071918, 40.5221082 ], [ 22.6073688, 40.5216148 ], [ 22.6075485, 40.5212223 ], [ 22.6076424, 40.5210693 ], [ 22.6078489, 40.52079 ], [ 22.6080716, 40.5205331 ], [ 22.60827, 40.5204026 ], [ 22.608657, 40.5202099 ], [ 22.6087951, 40.5201574 ], [ 22.6089647, 40.520083 ], [ 22.6091062, 40.520006 ], [ 22.6091833, 40.5199515 ], [ 22.6093644, 40.5197838 ], [ 22.6100839, 40.5188114 ], [ 22.6101087, 40.5187154 ], [ 22.6101127, 40.5186338 ], [ 22.6101087, 40.5185757 ], [ 22.6100859, 40.5185013 ], [ 22.6098445, 40.5179854 ], [ 22.6096943, 40.517598 ], [ 22.6096219, 40.5174022 ], [ 22.6095977, 40.5173166 ], [ 22.6095736, 40.5171718 ], [ 22.6095736, 40.51697 ], [ 22.609583, 40.5166814 ], [ 22.6096219, 40.5165316 ], [ 22.6096702, 40.5164347 ], [ 22.6097439, 40.5163317 ], [ 22.6098807, 40.5161737 ], [ 22.6101556, 40.5158576 ], [ 22.610271, 40.5157373 ], [ 22.6103367, 40.5156252 ], [ 22.6103769, 40.5155028 ], [ 22.6104695, 40.5150726 ], [ 22.6105553, 40.5149278 ], [ 22.6106384, 40.5148432 ], [ 22.6111025, 40.5145281 ], [ 22.6113801, 40.5143212 ], [ 22.6116845, 40.5141203 ], [ 22.6120104, 40.5139786 ], [ 22.6123765, 40.5138563 ], [ 22.6131463, 40.5135993 ], [ 22.6135057, 40.5134607 ], [ 22.6138209, 40.513324 ], [ 22.6139671, 40.5132353 ], [ 22.6140717, 40.5131548 ], [ 22.6141548, 40.5130814 ], [ 22.61425731690305, 40.513001889448731 ], [ 22.613714408762938, 40.513001889448731 ], [ 22.6134293, 40.5131007 ] ], [ [ 22.6064596, 40.5248035 ], [ 22.6064844, 40.5245528 ], [ 22.6065142, 40.5244156 ], [ 22.6065337, 40.5243833 ], [ 22.6065608, 40.524367 ], [ 22.6065803, 40.5243665 ], [ 22.606601, 40.5243723 ], [ 22.6066212, 40.5243858 ], [ 22.6066916, 40.5244498 ], [ 22.606823, 40.5246486 ], [ 22.607, 40.5249289 ], [ 22.6070778, 40.5252154 ], [ 22.6071717, 40.5257801 ], [ 22.6071623, 40.5259137 ], [ 22.6071449, 40.5259707 ], [ 22.6071019, 40.5260299 ], [ 22.6068331, 40.5262735 ], [ 22.606768, 40.5263097 ], [ 22.6067284, 40.5263097 ], [ 22.6066983, 40.5262975 ], [ 22.6066795, 40.5262572 ], [ 22.6066312, 40.5260207 ], [ 22.606532, 40.52546 ], [ 22.6064542, 40.5249646 ], [ 22.6064596, 40.5248035 ] ], [ [ 22.6066849, 40.5275335 ], [ 22.6067787, 40.5272623 ], [ 22.6068096, 40.5271858 ], [ 22.6068451, 40.527167 ], [ 22.6068934, 40.5271751 ], [ 22.6069236, 40.5271986 ], [ 22.606988, 40.5272725 ], [ 22.6070429, 40.5273749 ], [ 22.6070342, 40.5274483 ], [ 22.606996, 40.5275222 ], [ 22.6067586, 40.5277174 ], [ 22.606705, 40.5277266 ], [ 22.6066768, 40.5277205 ], [ 22.6066527, 40.5276955 ], [ 22.6066426, 40.5276588 ], [ 22.6066849, 40.5275335 ] ], [ [ 22.6070121, 40.5266996 ], [ 22.6070503, 40.5265554 ], [ 22.6070629, 40.5265046 ], [ 22.6070761, 40.5264854 ], [ 22.6070949, 40.526477 ], [ 22.6071117, 40.5264767 ], [ 22.6071241, 40.5264823 ], [ 22.607283, 40.5266818 ], [ 22.6073568, 40.5268331 ], [ 22.6073688, 40.5269269 ], [ 22.6073527, 40.527036 ], [ 22.6073179, 40.5272174 ], [ 22.6072635, 40.5273607 ], [ 22.6072032, 40.527404 ], [ 22.6071724, 40.5274045 ], [ 22.6071422, 40.5273897 ], [ 22.6071113, 40.5273418 ], [ 22.6070094, 40.5270829 ], [ 22.6069786, 40.5268811 ], [ 22.6070121, 40.5266996 ] ], [ [ 22.6076712, 40.5202945 ], [ 22.6077007, 40.5202441 ], [ 22.6077926, 40.520161 ], [ 22.6078784, 40.52011 ], [ 22.6079824, 40.520082 ], [ 22.6080508, 40.5200774 ], [ 22.6081011, 40.5200891 ], [ 22.6081312, 40.5201131 ], [ 22.608146, 40.5201416 ], [ 22.6081406, 40.5201804 ], [ 22.6081272, 40.5202094 ], [ 22.6080675, 40.5202533 ], [ 22.6078275, 40.5203562 ], [ 22.6077437, 40.5203751 ], [ 22.6077128, 40.5203705 ], [ 22.6076907, 40.5203613 ], [ 22.6076692, 40.5203333 ], [ 22.6076712, 40.5202945 ] ] ] } },
{ "type": "Feature", "properties": { "@type": "way", "@id": 1422245014, "admin_level": null, "boat": null, "boundary": null, "est_width": null, "ford": null, "highway": null, "int_name": null, "landuse": "farmland", "lanes": null, "layer": null, "leisure": null, "lit": null, "maxspeed": null, "name": null, "name:bg": null, "name:de": null, "name:el": null, "name:en": null, "name:fr": null, "name:mk": null, "natural": null, "old_name": null, "old_name:en": null, "oneway": null, "protect_class": null, "protection_title": null, "source": null, "surface": null, "toll": null, "tracktype": null, "tunnel": null, "water": null, "waterway": null, "wetland": null, "wikipedia": null, "label": "landuse:farmland" }, "geometry": { "type": "Polygon", "coordinates": [ [ [ 22.6057524, 40.5228067 ], [ 22.6059313, 40.5228129 ], [ 22.6060651, 40.5227545 ], [ 22.6061865, 40.5224776 ], [ 22.6062565, 40.5219451 ], [ 22.6065461, 40.5210825 ], [ 22.606873, 40.5200814 ], [ 22.6071298, 40.5192684 ], [ 22.607396, 40.5187323 ], [ 22.6081479, 40.5170851 ], [ 22.6082973, 40.5166271 ], [ 22.6085729, 40.5162011 ], [ 22.6098104, 40.5147703 ], [ 22.6104549, 40.5143478 ], [ 22.6112441, 40.5138011 ], [ 22.6118185, 40.5135206 ], [ 22.6128132, 40.5132472 ], [ 22.613249485755112, 40.513001889448731 ], [ 22.604771110968031, 40.513001889448731 ], [ 22.604771110968031, 40.522448641387768 ], [ 22.6057524, 40.5228067 ] ] ] } },
{ "type": "Feature", "properties": { "@type": "way", "@id": 1422245022, "admin_level": null, "boat": null, "boundary": null, "est_width": null, "ford": null, "highway": null, "int_name": null, "landuse": "farmland", "lanes": null, "layer": null, "leisure": null, "lit": null, "maxspeed": null, "name": null, "name:bg": null, "name:de": null, "name:el": null, "name:en": null, "name:fr": null, "name:mk": null, "natural": null, "old_name": null, "old_name:en": null, "oneway": null, "protect_class": null, "protection_title": null, "source": null, "surface": null, "toll": null, "tracktype": null, "tunnel": null, "water": null, "waterway": null, "wetland": null, "wikipedia": null, "label": "landuse:farmland" }, "geometry": { "type": "Polygon", "coordinates": [ [ [ 22.6265943, 40.5136815 ], [ 22.6258331, 40.5133442 ], [ 22.6241332, 40.5153217 ], [ 22.6233907, 40.5149632 ], [ 22.6218169, 40.5166069 ], [ 22.6238483, 40.5175619 ], [ 22.6221531, 40.5193121 ], [ 22.6216908, 40.5192269 ], [ 22.6181509, 40.5184069 ], [ 22.6178801, 40.5186128 ], [ 22.6166192, 40.517995 ], [ 22.6151901, 40.518808 ], [ 22.6151575, 40.5187725 ], [ 22.6153769, 40.5186447 ], [ 22.616325, 40.5176933 ], [ 22.6171282, 40.5180589 ], [ 22.6173057, 40.518098 ], [ 22.6177727, 40.5173986 ], [ 22.6176279, 40.5171679 ], [ 22.6167499, 40.5166886 ], [ 22.6138032, 40.5147714 ], [ 22.6118762, 40.5169152 ], [ 22.6114373, 40.5172919 ], [ 22.6108852, 40.5179968 ], [ 22.610142, 40.5191214 ], [ 22.6095403, 40.5201115 ], [ 22.6093209, 40.5206657 ], [ 22.6087404, 40.5226673 ], [ 22.6081529, 40.5247442 ], [ 22.6077582, 40.52645 ], [ 22.6078219, 40.5269611 ], [ 22.6078077, 40.5273404 ], [ 22.6076945, 40.5276337 ], [ 22.6071141, 40.5286102 ], [ 22.6069265, 40.5294172 ], [ 22.6067283, 40.5304582 ], [ 22.6060098, 40.5318759 ], [ 22.6054542, 40.532785 ], [ 22.6051817, 40.5331589 ], [ 22.604771110968031, 40.533628994688776 ], [ 22.604771110968031, 40.534611698294228 ], [ 22.6052171, 40.5343909 ], [ 22.619342, 40.5270687 ], [ 22.6194198, 40.5268401 ], [ 22.6195756, 40.5264339 ], [ 22.6197171, 40.5262725 ], [ 22.6206232, 40.5255972 ], [ 22.622053, 40.524505 ], [ 22.6235855, 40.5233616 ], [ 22.6243676, 40.5227725 ], [ 22.6244774, 40.5226729 ], [ 22.6260121, 40.5201632 ], [ 22.6249017, 40.5199267 ], [ 22.6253523, 40.5181976 ], [ 22.6260264, 40.5174449 ], [ 22.626806, 40.5165746 ], [ 22.6277287, 40.5157018 ], [ 22.6285495, 40.5149025 ], [ 22.6289679, 40.5144213 ], [ 22.6297243, 40.5138748 ], [ 22.6311888, 40.5131162 ], [ 22.630999001816893, 40.513001889448731 ], [ 22.627141829732125, 40.513001889448731 ], [ 22.6265943, 40.5136815 ] ] ] } },
{ "type": "Feature", "properties": { "@type": "way", "@id": 1422245023, "admin_level": null, "boat": null, "boundary": null, "est_width": null, "ford": null, "highway": null, "int_name": null, "landuse": "farmland", "lanes": null, "layer": null, "leisure": null, "lit": null, "maxspeed": null, "name": null, "name:bg": null, "name:de": null, "name:el": null, "name:en": null, "name:fr": null, "name:mk": null, "natural": null, "old_name": null, "old_name:en": null, "oneway": null, "protect_class": null, "protection_title": null, "source": null, "surface": null, "toll": null, "tracktype": null, "tunnel": null, "water": null, "waterway": null, "wetland": null, "wikipedia": null, "label": "landuse:farmland" }, "geometry": { "type": "Polygon", "coordinates": [ [ [ 22.6196588, 40.5356226 ], [ 22.6194854, 40.5354774 ], [ 22.6204587, 40.5347538 ], [ 22.6213117, 40.5339684 ], [ 22.6217647, 40.5336671 ], [ 22.6225079, 40.5329166 ], [ 22.6227415, 40.532914 ], [ 22.6235378, 40.532419 ], [ 22.6242881, 40.5318783 ], [ 22.6247022, 40.5315233 ], [ 22.6251906, 40.530684 ], [ 22.6256896, 40.5301003 ], [ 22.6233538, 40.5280074 ], [ 22.6239696, 40.5275743 ], [ 22.6245677, 40.5271815 ], [ 22.6246527, 40.5269367 ], [ 22.6245288, 40.5268157 ], [ 22.6234706, 40.5262453 ], [ 22.6231273, 40.5265224 ], [ 22.6226778, 40.5267672 ], [ 22.6216585, 40.5271008 ], [ 22.6211949, 40.5271977 ], [ 22.6209153, 40.5271761 ], [ 22.6204162, 40.5269636 ], [ 22.6200836, 40.5267968 ], [ 22.6196341, 40.5271465 ], [ 22.619627, 40.5272111 ], [ 22.6204269, 40.5281634 ], [ 22.6203525, 40.5282172 ], [ 22.6194076, 40.5274236 ], [ 22.6192908, 40.5274075 ], [ 22.6191492, 40.5274371 ], [ 22.6186466, 40.5276281 ], [ 22.6166116, 40.5286934 ], [ 22.6105313, 40.5317627 ], [ 22.604771110968031, 40.534703516359869 ], [ 22.604771110968031, 40.535631954133294 ], [ 22.619656342656434, 40.535631954133294 ], [ 22.6196588, 40.5356226 ] ] ] } },
{ "type": "Feature", "properties": { "@type": "way", "@id": 1422245029, "admin_level": null, "boat": null, "boundary": null, "est_width": null, "ford": null, "highway": null, "int_name": null, "landuse": null, "lanes": null, "layer": null, "leisure": null, "lit": null, "maxspeed": null, "name": null, "name:bg": null, "name:de": null, "name:el": null, "name:en": null, "name:fr": null, "name:mk": null, "natural": "heath", "old_name": null, "old_name:en": null, "oneway": null, "protect_class": null, "protection_title": null, "source": null, "surface": null, "toll": null, "tracktype": null, "tunnel": null, "water": null, "waterway": null, "wetland": null, "wikipedia": null, "label": "natural:heath" }, "geometry": { "type": "Polygon", "coordinates": [ [ [ 22.6050334, 40.5283217 ], [ 22.6052634, 40.5276169 ], [ 22.6054121, 40.526869 ], [ 22.6058509, 40.525957 ], [ 22.605812, 40.525341 ], [ 22.6057695, 40.5248245 ], [ 22.6059571, 40.5243214 ], [ 22.606127, 40.5239125 ], [ 22.6062332, 40.5231807 ], [ 22.6059996, 40.5229493 ], [ 22.6057058, 40.5228417 ], [ 22.604771110968031, 40.522503541279697 ], [ 22.604771110968031, 40.52882370597618 ], [ 22.6050334, 40.5283217 ] ] ] } },
{ "type": "Feature", "properties": { "@type": "way", "@id": 1422249149, "admin_level": null, "boat": null, "boundary": null, "est_width": null, "ford": null, "highway": null, "int_name": null, "landuse": null, "lanes": null, "layer": null, "leisure": null, "lit": null, "maxspeed": null, "name": null, "name:bg": null, "name:de": null, "name:el": null, "name:en": null, "name:fr": null, "name:mk": null, "natural": "wood", "old_name": null, "old_name:en": null, "oneway": null, "protect_class": null, "protection_title": null, "source": null, "surface": null, "toll": null, "tracktype": null, "tunnel": null, "water": null, "waterway": null, "wetland": null, "wikipedia": null, "label": "natural:wood" }, "geometry": { "type": "Polygon", "coordinates": [ [ [ 22.6066205, 40.5227994 ], [ 22.6067063, 40.5223182 ], [ 22.6067305, 40.5220327 ], [ 22.606768, 40.521837 ], [ 22.6068538, 40.5215658 ], [ 22.6069987, 40.5210602 ], [ 22.6070892, 40.5207916 ], [ 22.6074037, 40.5202976 ], [ 22.6075137, 40.5201763 ], [ 22.6076813, 40.5200601 ], [ 22.6078798, 40.5199918 ], [ 22.6081775, 40.5199316 ], [ 22.60849, 40.5198949 ], [ 22.6086509, 40.5198623 ], [ 22.60884, 40.5198021 ], [ 22.6089245, 40.5197573 ], [ 22.6090586, 40.5196686 ], [ 22.609186, 40.5195085 ], [ 22.6094006, 40.5191272 ], [ 22.6094717, 40.5189111 ], [ 22.6095656, 40.5186899 ], [ 22.6095843, 40.51859 ], [ 22.6095857, 40.5185125 ], [ 22.6095374, 40.5183198 ], [ 22.609477, 40.5181312 ], [ 22.6094234, 40.517967 ], [ 22.6092705, 40.5177193 ], [ 22.6090854, 40.5173095 ], [ 22.6090372, 40.5171535 ], [ 22.6090157, 40.5170536 ], [ 22.6090224, 40.5169251 ], [ 22.6090264, 40.5167681 ], [ 22.6090975, 40.5165458 ], [ 22.6092732, 40.5162339 ], [ 22.6096098, 40.5159178 ], [ 22.609874, 40.5156242 ], [ 22.6099625, 40.5154743 ], [ 22.6100188, 40.5153397 ], [ 22.6100618, 40.5152327 ], [ 22.6101235, 40.5151338 ], [ 22.6102482, 40.5149523 ], [ 22.6103421, 40.5147626 ], [ 22.6104413, 40.5146158 ], [ 22.610368, 40.5146114 ], [ 22.6102406, 40.5147217 ], [ 22.6097947, 40.5151764 ], [ 22.6093912, 40.5156177 ], [ 22.6089134, 40.5161719 ], [ 22.6085701, 40.5167692 ], [ 22.6080994, 40.5177782 ], [ 22.6075048, 40.5190804 ], [ 22.6072854, 40.5195674 ], [ 22.6069067, 40.5208049 ], [ 22.6066908, 40.5214695 ], [ 22.6065528, 40.5219457 ], [ 22.6064466, 40.5225322 ], [ 22.6066205, 40.5227994 ] ] ] } },
{ "type": "Feature", "properties": { "@type": "way", "@id": 1422249151, "admin_level": null, "boat": null, "boundary": null, "est_width": null, "ford": null, "highway": null, "int_name": null, "landuse": null, "lanes": null, "layer": null, "leisure": null, "lit": null, "maxspeed": null, "name": null, "name:bg": null, "name:de": null, "name:el": null, "name:en": null, "name:fr": null, "name:mk": null, "natural": "wood", "old_name": null, "old_name:en": null, "oneway": null, "protect_class": null, "protection_title": null, "source": null, "surface": null, "toll": null, "tracktype": null, "tunnel": null, "water": null, "waterway": null, "wetland": null, "wikipedia": null, "label": "natural:wood" }, "geometry": { "type": "Polygon", "coordinates": [ [ [ 22.6047778, 40.5300757 ], [ 22.6048583, 40.5299615 ], [ 22.6049956, 40.5295658 ], [ 22.6051937, 40.5295404 ], [ 22.6053572, 40.5293326 ], [ 22.6055369, 40.5290543 ], [ 22.6058185, 40.5286731 ], [ 22.6061538, 40.5283041 ], [ 22.6062477, 40.528141 ], [ 22.6063147, 40.5279942 ], [ 22.606363, 40.5277536 ], [ 22.6064193, 40.5274417 ], [ 22.6064005, 40.5271216 ], [ 22.6063764, 40.5264651 ], [ 22.6063442, 40.5260635 ], [ 22.6062825, 40.5255192 ], [ 22.6062423, 40.5249911 ], [ 22.6062316, 40.5246812 ], [ 22.6062101, 40.524355 ], [ 22.6062235, 40.5241572 ], [ 22.6062798, 40.5238759 ], [ 22.6063952, 40.5235721 ], [ 22.6065186, 40.5232214 ], [ 22.6065772, 40.5229788 ], [ 22.6064064, 40.5231111 ], [ 22.6063045, 40.5232783 ], [ 22.6061972, 40.5236555 ], [ 22.606127, 40.5239125 ], [ 22.6059571, 40.5243214 ], [ 22.6057695, 40.5248245 ], [ 22.605812, 40.525341 ], [ 22.6058509, 40.525957 ], [ 22.6054121, 40.526869 ], [ 22.6052634, 40.5276169 ], [ 22.6050334, 40.5283217 ], [ 22.604771110968031, 40.52882370597618 ], [ 22.604771110968031, 40.53009200129128 ], [ 22.6047778, 40.5300757 ] ] ] } },
{ "type": "Feature", "properties": { "@type": "way", "@id": 1422249164, "admin_level": null, "boat": null, "boundary": null, "est_width": null, "ford": null, "highway": null, "int_name": null, "landuse": null, "lanes": null, "layer": null, "leisure": null, "lit": null, "maxspeed": null, "name": null, "name:bg": null, "name:de": null, "name:el": null, "name:en": null, "name:fr": null, "name:mk": null, "natural": "grassland", "old_name": null, "old_name:en": null, "oneway": null, "protect_class": null, "protection_title": null, "source": null, "surface": null, "toll": null, "tracktype": null, "tunnel": null, "water": null, "waterway": null, "wetland": null, "wikipedia": null, "label": "natural:grassland" }, "geometry": { "type": "Polygon", "coordinates": [ [ [ 22.6138032, 40.5147714 ], [ 22.6167499, 40.5166886 ], [ 22.6176279, 40.5171679 ], [ 22.6177727, 40.5173986 ], [ 22.6173057, 40.518098 ], [ 22.6171282, 40.5180589 ], [ 22.616325, 40.5176933 ], [ 22.6153769, 40.5186447 ], [ 22.6151575, 40.5187725 ], [ 22.6151901, 40.518808 ], [ 22.6166192, 40.517995 ], [ 22.6178801, 40.5186128 ], [ 22.6181509, 40.5184069 ], [ 22.6216908, 40.5192269 ], [ 22.6221531, 40.5193121 ], [ 22.6238483, 40.5175619 ], [ 22.6218169, 40.5166069 ], [ 22.6233907, 40.5149632 ], [ 22.6241332, 40.5153217 ], [ 22.6258331, 40.5133442 ], [ 22.6265943, 40.5136815 ], [ 22.627141829732125, 40.513001889448731 ], [ 22.615440329860913, 40.513001889448731 ], [ 22.6138032, 40.5147714 ] ] ] } },
{ "type": "Feature", "properties": { "@type": "way", "@id": 1422249165, "admin_level": null, "boat": null, "boundary": null, "est_width": null, "ford": null, "highway": null, "int_name": null, "landuse": null, "lanes": null, "layer": null, "leisure": null, "lit": null, "maxspeed": null, "name": null, "name:bg": null, "name:de": null, "name:el": null, "name:en": null, "name:fr": null, "name:mk": null, "natural": "grassland", "old_name": null, "old_name:en": null, "oneway": null, "protect_class": null, "protection_title": null, "source": null, "surface": null, "toll": null, "tracktype": null, "tunnel": null, "water": null, "waterway": null, "wetland": null, "wikipedia": null, "label": "natural:grassland" }, "geometry": { "type": "Polygon", "coordinates": [ [ [ 22.6196341, 40.5271465 ], [ 22.6200836, 40.5267968 ], [ 22.6204162, 40.5269636 ], [ 22.6209153, 40.5271761 ], [ 22.6211949, 40.5271977 ], [ 22.6216585, 40.5271008 ], [ 22.6226778, 40.5267672 ], [ 22.6231273, 40.5265224 ], [ 22.6234706, 40.5262453 ], [ 22.6245288, 40.5268157 ], [ 22.6246527, 40.5269367 ], [ 22.6245677, 40.5271815 ], [ 22.6239696, 40.5275743 ], [ 22.6233538, 40.5280074 ], [ 22.6256896, 40.5301003 ], [ 22.6266448, 40.5288404 ], [ 22.6267099, 40.5279999 ], [ 22.6266855, 40.5272026 ], [ 22.6267749, 40.5257008 ], [ 22.6273116, 40.5251013 ], [ 22.6297996, 40.5230122 ], [ 22.6290516, 40.5223694 ], [ 22.6295638, 40.5217143 ], [ 22.6298403, 40.5211642 ], [ 22.6302712, 40.5199094 ], [ 22.630629, 40.5193223 ], [ 22.6263709, 40.5175854 ], [ 22.6260264, 40.5174449 ], [ 22.6253523, 40.5181976 ], [ 22.6249017, 40.5199267 ], [ 22.6260121, 40.5201632 ], [ 22.6244774, 40.5226729 ], [ 22.6243676, 40.5227725 ], [ 22.6235855, 40.5233616 ], [ 22.622053, 40.524505 ], [ 22.6206232, 40.5255972 ], [ 22.6197171, 40.5262725 ], [ 22.6195756, 40.5264339 ], [ 22.6194198, 40.5268401 ], [ 22.619342, 40.5270687 ], [ 22.6196341, 40.5271465 ] ] ] } },
{ "type": "Feature", "properties": { "@type": "way", "@id": 1422252198, "admin_level": null, "boat": null, "boundary": null, "est_width": null, "ford": null, "highway": null, "int_name": null, "landuse": null, "lanes": null, "layer": null, "leisure": null, "lit": null, "maxspeed": null, "name": null, "name:bg": null, "name:de": null, "name:el": null, "name:en": null, "name:fr": null, "name:mk": null, "natural": "wood", "old_name": null, "old_name:en": null, "oneway": null, "protect_class": null, "protection_title": null, "source": null, "surface": null, "toll": null, "tracktype": null, "tunnel": null, "water": null, "waterway": null, "wetland": null, "wikipedia": null, "label": "natural:wood" }, "geometry": { "type": "Polygon", "coordinates": [ [ [ 22.6128132, 40.5132472 ], [ 22.6119627, 40.5135686 ], [ 22.6113416, 40.5138562 ], [ 22.610926, 40.5141616 ], [ 22.6109266, 40.5142118 ], [ 22.6112232, 40.5140275 ], [ 22.611549, 40.5138328 ], [ 22.6118736, 40.5136839 ], [ 22.6122035, 40.5135596 ], [ 22.6126528, 40.5134148 ], [ 22.6131155, 40.5132292 ], [ 22.6134293, 40.5131007 ], [ 22.613714408762938, 40.513001889448731 ], [ 22.613249485755112, 40.513001889448731 ], [ 22.6128132, 40.5132472 ] ] ] } },
{ "type": "Feature", "properties": { "@type": "way", "@id": 1422613796, "admin_level": null, "boat": null, "boundary": null, "est_width": null, "ford": null, "highway": null, "int_name": null, "landuse": null, "lanes": null, "layer": null, "leisure": null, "lit": null, "maxspeed": null, "name": null, "name:bg": null, "name:de": null, "name:el": null, "name:en": null, "name:fr": null, "name:mk": null, "natural": "water", "old_name": null, "old_name:en": null, "oneway": null, "protect_class": null, "protection_title": null, "source": null, "surface": null, "toll": null, "tracktype": null, "tunnel": null, "water": null, "waterway": null, "wetland": null, "wikipedia": null, "label": "natural:water" }, "geometry": { "type": "Polygon", "coordinates": [ [ [ 22.6312846, 40.51306 ], [ 22.6312332, 40.5131079 ], [ 22.631534751831754, 40.513001889448731 ], [ 22.631436008486066, 40.513001889448731 ], [ 22.6312846, 40.51306 ] ] ] } },
{ "type": "Feature", "properties": { "@type": "way", "@id": 1422786104, "admin_level": null, "boat": null, "boundary": null, "est_width": null, "ford": null, "highway": null, "int_name": null, "landuse": null, "lanes": null, "layer": null, "leisure": null, "lit": null, "maxspeed": null, "name": null, "name:bg": null, "name:de": null, "name:el": null, "name:en": null, "name:fr": null, "name:mk": null, "natural": "water", "old_name": null, "old_name:en": null, "oneway": null, "protect_class": null, "protection_title": null, "source": null, "surface": null, "toll": null, "tracktype": null, "tunnel": null, "water": "river", "waterway": null, "wetland": null, "wikipedia": null, "label": "natural:water;water:river" }, "geometry": { "type": "Polygon", "coordinates": [ [ [ 22.6354242, 40.5159573 ], [ 22.6348631, 40.5158367 ], [ 22.6341314, 40.5155431 ], [ 22.6336964, 40.5153299 ], [ 22.6332979, 40.5151135 ], [ 22.6330377, 40.5149435 ], [ 22.6327369, 40.5148261 ], [ 22.6324442, 40.5148446 ], [ 22.63231, 40.5148075 ], [ 22.6320986, 40.5147303 ], [ 22.6319116, 40.5145912 ], [ 22.6318222, 40.5145309 ], [ 22.6318364, 40.5145016 ], [ 22.6318364, 40.514449 ], [ 22.6318323, 40.5144243 ], [ 22.6319918, 40.5143849 ], [ 22.632305, 40.5142988 ], [ 22.6325758, 40.5141549 ], [ 22.63282, 40.5140338 ], [ 22.6332323, 40.5139396 ], [ 22.6328164, 40.5140217 ], [ 22.6325192, 40.5141414 ], [ 22.6322484, 40.5142921 ], [ 22.6318396, 40.5143876 ], [ 22.6314556, 40.5144899 ], [ 22.6313424, 40.5144737 ], [ 22.6312804, 40.5143997 ], [ 22.6312291, 40.5143432 ], [ 22.6311052, 40.5143486 ], [ 22.6309831, 40.5144334 ], [ 22.6309265, 40.5145343 ], [ 22.6309371, 40.5146352 ], [ 22.6309867, 40.5146809 ], [ 22.6310008, 40.5147239 ], [ 22.6309478, 40.5148033 ], [ 22.6307478, 40.515067 ], [ 22.6305708, 40.5152594 ], [ 22.6302965, 40.5153818 ], [ 22.6302193, 40.5153943 ], [ 22.6299143, 40.515495 ], [ 22.6296216, 40.5155887 ], [ 22.6293166, 40.5157643 ], [ 22.629144, 40.5158815 ], [ 22.629027, 40.5160033 ], [ 22.6289345, 40.5161391 ], [ 22.6289376, 40.5162211 ], [ 22.62899, 40.5162515 ], [ 22.6290824, 40.5162234 ], [ 22.6292888, 40.516015 ], [ 22.6294583, 40.5158768 ], [ 22.6297264, 40.5157269 ], [ 22.6299759, 40.5156215 ], [ 22.6301146, 40.515598 ], [ 22.6302409, 40.5156706 ], [ 22.6305089, 40.5156402 ], [ 22.6305151, 40.5156144 ], [ 22.6303518, 40.5156004 ], [ 22.6302501, 40.5155863 ], [ 22.6302317, 40.5155465 ], [ 22.6302686, 40.5154879 ], [ 22.6304319, 40.5154036 ], [ 22.630586, 40.5153521 ], [ 22.6306784, 40.5153216 ], [ 22.6307215, 40.5152982 ], [ 22.6306969, 40.5152537 ], [ 22.6306538, 40.5152303 ], [ 22.6307277, 40.5151319 ], [ 22.6308263, 40.5150382 ], [ 22.6309742, 40.5148391 ], [ 22.6310574, 40.5147384 ], [ 22.631082, 40.5146752 ], [ 22.631159, 40.5146189 ], [ 22.6314764, 40.5145276 ], [ 22.6318141, 40.5144313 ], [ 22.6318158, 40.5144743 ], [ 22.6317946, 40.5145026 ], [ 22.6317787, 40.5145254 ], [ 22.6317769, 40.5145483 ], [ 22.6318229, 40.5145752 ], [ 22.6318689, 40.5145994 ], [ 22.6319362, 40.5146357 ], [ 22.6319893, 40.5146775 ], [ 22.6320547, 40.5147528 ], [ 22.6321344, 40.5147878 ], [ 22.6322688, 40.5148456 ], [ 22.6323326, 40.5148604 ], [ 22.6323467, 40.5148725 ], [ 22.6322193, 40.5148779 ], [ 22.6320264, 40.5148443 ], [ 22.6318583, 40.5147689 ], [ 22.6317043, 40.5147084 ], [ 22.6315999, 40.5146761 ], [ 22.6313929, 40.5146923 ], [ 22.6312389, 40.5147824 ], [ 22.6314106, 40.5147044 ], [ 22.6315964, 40.5146949 ], [ 22.6316867, 40.5147192 ], [ 22.631876, 40.5148106 ], [ 22.6319521, 40.5148618 ], [ 22.6321184, 40.5149129 ], [ 22.6322954, 40.5149236 ], [ 22.6324405, 40.5149169 ], [ 22.6326263, 40.5148967 ], [ 22.6327343, 40.5149048 ], [ 22.6329926, 40.5150434 ], [ 22.6331731, 40.5151537 ], [ 22.6334102, 40.5153192 ], [ 22.63375, 40.5155048 ], [ 22.6341234, 40.5156824 ], [ 22.6344525, 40.5158035 ], [ 22.6347003, 40.5159326 ], [ 22.6349728, 40.5160833 ], [ 22.6350342, 40.5161752 ], [ 22.635537396534854, 40.516032047928952 ], [ 22.635537396534854, 40.515971482094592 ], [ 22.6354242, 40.5159573 ] ] ] } },
{ "type": "Feature", "properties": { "@type": "way", "@id": 1422786105, "admin_level": null, "boat": null, "boundary": null, "est_width": null, "ford": null, "highway": null, "int_name": null, "landuse": null, "lanes": null, "layer": null, "leisure": null, "lit": null, "maxspeed": null, "name": null, "name:bg": null, "name:de": null, "name:el": null, "name:en": null, "name:fr": null, "name:mk": null, "natural": "water", "old_name": null, "old_name:en": null, "oneway": null, "protect_class": null, "protection_title": null, "source": null, "surface": null, "toll": null, "tracktype": null, "tunnel": null, "water": "river", "waterway": null, "wetland": null, "wikipedia": null, "label": "natural:water;water:river" }, "geometry": { "type": "Polygon", "coordinates": [ [ [ 22.6351601, 40.5173913 ], [ 22.6350583, 40.5174564 ], [ 22.6350422, 40.5174992 ], [ 22.6349027, 40.5176052 ], [ 22.6347096, 40.5177276 ], [ 22.6343287, 40.5179294 ], [ 22.634157, 40.5180742 ], [ 22.6341436, 40.5181476 ], [ 22.6341463, 40.5182373 ], [ 22.6341007, 40.5182883 ], [ 22.6341061, 40.5183209 ], [ 22.6342241, 40.5183107 ], [ 22.6342643, 40.5183291 ], [ 22.6342456, 40.5183515 ], [ 22.6342536, 40.5184127 ], [ 22.634326, 40.5184229 ], [ 22.6343663, 40.518482 ], [ 22.6343475, 40.5185248 ], [ 22.634326, 40.5185575 ], [ 22.6343743, 40.5185758 ], [ 22.6344387, 40.5186105 ], [ 22.6344387, 40.5186655 ], [ 22.6344199, 40.5187145 ], [ 22.6344548, 40.5187634 ], [ 22.6345004, 40.5187634 ], [ 22.6344601, 40.5187185 ], [ 22.6344977, 40.5186472 ], [ 22.634546, 40.5186003 ], [ 22.6346586, 40.5185513 ], [ 22.6347552, 40.5186084 ], [ 22.6349268, 40.5186268 ], [ 22.6350717, 40.5186247 ], [ 22.6352058, 40.5186533 ], [ 22.6353935, 40.518745 ], [ 22.635537396534854, 40.518805050628494 ], [ 22.635537396534854, 40.518680167011439 ], [ 22.6354445, 40.5186472 ], [ 22.6352728, 40.5185758 ], [ 22.6351119, 40.5185493 ], [ 22.6349, 40.5185289 ], [ 22.6347927, 40.5184677 ], [ 22.6347498, 40.5183454 ], [ 22.6347605, 40.5181986 ], [ 22.6348491, 40.5180966 ], [ 22.6350502, 40.5179947 ], [ 22.6351629, 40.5179172 ], [ 22.635537396534854, 40.517644964511561 ], [ 22.635537396534854, 40.517573464023585 ], [ 22.6351601, 40.5173913 ] ] ] } },
{ "type": "Feature", "properties": { "@type": "way", "@id": 1422786106, "admin_level": null, "boat": null, "boundary": null, "est_width": null, "ford": null, "highway": null, "int_name": null, "landuse": null, "lanes": null, "layer": null, "leisure": null, "lit": null, "maxspeed": null, "name": null, "name:bg": null, "name:de": null, "name:el": null, "name:en": null, "name:fr": null, "name:mk": null, "natural": "water", "old_name": null, "old_name:en": null, "oneway": null, "protect_class": null, "protection_title": null, "source": null, "surface": null, "toll": null, "tracktype": null, "tunnel": null, "water": "river", "waterway": null, "wetland": null, "wikipedia": null, "label": "natural:water;water:river" }, "geometry": { "type": "Polygon", "coordinates": [ [ [ 22.6328535, 40.5177419 ], [ 22.6329501, 40.5176644 ], [ 22.6330198, 40.51754 ], [ 22.6330708, 40.5174972 ], [ 22.6332317, 40.5174278 ], [ 22.6333229, 40.5173932 ], [ 22.6334597, 40.5174034 ], [ 22.6337091, 40.5173687 ], [ 22.6338003, 40.5173667 ], [ 22.6336179, 40.5174645 ], [ 22.6335723, 40.5175502 ], [ 22.6335401, 40.5176338 ], [ 22.6335348, 40.5177194 ], [ 22.6335053, 40.5177684 ], [ 22.6335348, 40.517854 ], [ 22.6335294, 40.5177704 ], [ 22.6335616, 40.5177174 ], [ 22.6335991, 40.5176481 ], [ 22.6336179, 40.517697 ], [ 22.6336367, 40.5176338 ], [ 22.6336769, 40.517542 ], [ 22.6337386, 40.517487 ], [ 22.6338888, 40.5174258 ], [ 22.6340095, 40.5174278 ], [ 22.6343207, 40.5173402 ], [ 22.6346935, 40.5172994 ], [ 22.6347659, 40.5173116 ], [ 22.6347632, 40.517332 ], [ 22.6346774, 40.5174034 ], [ 22.6345218, 40.5174768 ], [ 22.6342938, 40.5175481 ], [ 22.6341705, 40.5176236 ], [ 22.63409, 40.5176256 ], [ 22.6340524, 40.5176909 ], [ 22.6338915, 40.5178785 ], [ 22.6340632, 40.5177072 ], [ 22.6341007, 40.5176501 ], [ 22.6341651, 40.5176419 ], [ 22.6342617, 40.5175889 ], [ 22.634487, 40.5175257 ], [ 22.6346989, 40.517434 ], [ 22.6349134, 40.5173463 ], [ 22.6350364, 40.5173316 ], [ 22.6349116, 40.5172713 ], [ 22.6349062, 40.5170593 ], [ 22.6348812, 40.5171016 ], [ 22.634731, 40.5171546 ], [ 22.6344065, 40.5171811 ], [ 22.6342456, 40.5172137 ], [ 22.6336555, 40.5173218 ], [ 22.6334275, 40.5173463 ], [ 22.6332424, 40.5173361 ], [ 22.6330976, 40.5173504 ], [ 22.6330466, 40.5173952 ], [ 22.6329796, 40.5175033 ], [ 22.6329366, 40.5175971 ], [ 22.6328884, 40.5176848 ], [ 22.6327784, 40.5177684 ], [ 22.6328535, 40.5177419 ] ] ] } },
{ "type": "Feature", "properties": { "@type": "way", "@id": 1422786107, "admin_level": null, "boat": null, "boundary": null, "est_width": null, "ford": null, "highway": null, "int_name": null, "landuse": null, "lanes": null, "layer": null, "leisure": null, "lit": null, "maxspeed": null, "name": null, "name:bg": null, "name:de": null, "name:el": null, "name:en": null, "name:fr": null, "name:mk": null, "natural": "water", "old_name": null, "old_name:en": null, "oneway": null, "protect_class": null, "protection_title": null, "source": null, "surface": null, "toll": null, "tracktype": null, "tunnel": null, "water": "river", "waterway": null, "wetland": null, "wikipedia": null, "label": "natural:water;water:river" }, "geometry": { "type": "Polygon", "coordinates": [ [ [ 22.6278772, 40.516613 ], [ 22.6289017, 40.51701 ], [ 22.6292267, 40.5171353 ], [ 22.6295179, 40.5171997 ], [ 22.62992, 40.5172302 ], [ 22.6302169, 40.5172208 ], [ 22.6311428, 40.5171576 ], [ 22.6314956, 40.5171365 ], [ 22.6317944, 40.5170779 ], [ 22.6321179, 40.5169913 ], [ 22.6322104, 40.5169796 ], [ 22.6322843, 40.5169866 ], [ 22.6323043, 40.5170065 ], [ 22.632292, 40.5170346 ], [ 22.6322273, 40.5170615 ], [ 22.6320486, 40.517092 ], [ 22.6319423, 40.5171201 ], [ 22.6318068, 40.5172161 ], [ 22.6316465, 40.5173531 ], [ 22.6314447, 40.5175651 ], [ 22.6314571, 40.5175721 ], [ 22.6316542, 40.5173719 ], [ 22.6318145, 40.517229 ], [ 22.6319608, 40.5171353 ], [ 22.6320409, 40.5171178 ], [ 22.6322643, 40.5170744 ], [ 22.6323968, 40.5170112 ], [ 22.6326879, 40.5169023 ], [ 22.6327742, 40.5168859 ], [ 22.6327912, 40.5169081 ], [ 22.6327449, 40.5169842 ], [ 22.6327511, 40.5170487 ], [ 22.6326371, 40.5171412 ], [ 22.632634, 40.5171751 ], [ 22.6325293, 40.5172887 ], [ 22.6324384, 40.5173555 ], [ 22.6323013, 40.5173871 ], [ 22.6321688, 40.5174586 ], [ 22.632309, 40.5173977 ], [ 22.6324153, 40.5173824 ], [ 22.6325015, 40.5173461 ], [ 22.6325293, 40.5173602 ], [ 22.6324599, 40.5175218 ], [ 22.6323752, 40.5176389 ], [ 22.6320363, 40.5179153 ], [ 22.6321903, 40.5178111 ], [ 22.6323706, 40.5176647 ], [ 22.6324908, 40.5175089 ], [ 22.6325555, 40.5173613 ], [ 22.6325616, 40.5173145 ], [ 22.6326063, 40.5172677 ], [ 22.6326402, 40.5172349 ], [ 22.632671, 40.5171845 ], [ 22.6327157, 40.517133 ], [ 22.6327773, 40.5171002 ], [ 22.6328343, 40.5170885 ], [ 22.6328343, 40.517126 ], [ 22.6328143, 40.5171658 ], [ 22.6327696, 40.5172114 ], [ 22.6327311, 40.5172548 ], [ 22.6327634, 40.5172442 ], [ 22.632825, 40.5171974 ], [ 22.6328713, 40.5171728 ], [ 22.6329113, 40.517092 ], [ 22.6329313, 40.5170018 ], [ 22.6329252, 40.5169175 ], [ 22.632939, 40.5168636 ], [ 22.6329699, 40.5168332 ], [ 22.6330962, 40.5167957 ], [ 22.6331886, 40.5167711 ], [ 22.6331932, 40.5167922 ], [ 22.6331532, 40.5168273 ], [ 22.633107, 40.5168882 ], [ 22.6330761, 40.5169737 ], [ 22.6330253, 40.5170299 ], [ 22.6329899, 40.5171025 ], [ 22.6329329, 40.5171939 ], [ 22.6328343, 40.5172349 ], [ 22.6327619, 40.5173157 ], [ 22.6326941, 40.5174246 ], [ 22.6325987, 40.5174972 ], [ 22.6326899, 40.5174503 ], [ 22.6327489, 40.5173667 ], [ 22.6327784, 40.5173279 ], [ 22.6328428, 40.5172545 ], [ 22.6329474, 40.5172137 ], [ 22.6330305, 40.5170975 ], [ 22.6330842, 40.5170343 ], [ 22.6331217, 40.5169262 ], [ 22.6331888, 40.5168426 ], [ 22.6333041, 40.5167998 ], [ 22.6335777, 40.5167488 ], [ 22.6338217, 40.5167498 ], [ 22.633884, 40.5165155 ], [ 22.6338021, 40.5165006 ], [ 22.633705, 40.5164783 ], [ 22.6335602, 40.5164725 ], [ 22.6330888, 40.5164561 ], [ 22.632847, 40.5164584 ], [ 22.6326837, 40.5164736 ], [ 22.6326544, 40.5164643 ], [ 22.6325019, 40.5164842 ], [ 22.6325111, 40.5165088 ], [ 22.6325928, 40.5165135 ], [ 22.6326975, 40.516524 ], [ 22.6326806, 40.5165626 ], [ 22.6325034, 40.5166107 ], [ 22.6326729, 40.5165896 ], [ 22.6327545, 40.5165111 ], [ 22.6329825, 40.5165111 ], [ 22.633457, 40.516524 ], [ 22.6336665, 40.5165544 ], [ 22.6336696, 40.516565 ], [ 22.6336326, 40.5165802 ], [ 22.6335217, 40.5165907 ], [ 22.6333137, 40.5166165 ], [ 22.6330888, 40.5166657 ], [ 22.6329348, 40.5166997 ], [ 22.6328439, 40.516743 ], [ 22.6327915, 40.5167711 ], [ 22.6327622, 40.5168027 ], [ 22.6326528, 40.5168121 ], [ 22.6326128, 40.5168285 ], [ 22.6325881, 40.5168695 ], [ 22.6324664, 40.5169257 ], [ 22.632374, 40.5169456 ], [ 22.6322415, 40.5169374 ], [ 22.6321291, 40.5169597 ], [ 22.6319642, 40.5170112 ], [ 22.6317763, 40.5170545 ], [ 22.6315129, 40.5171014 ], [ 22.6311324, 40.517126 ], [ 22.6305192, 40.5171611 ], [ 22.6302234, 40.5171927 ], [ 22.6299184, 40.5172032 ], [ 22.6295425, 40.5171728 ], [ 22.6292699, 40.5171178 ], [ 22.6291143, 40.5170604 ], [ 22.6287168, 40.5168929 ], [ 22.6280097, 40.5166025 ], [ 22.6278757, 40.5165662 ], [ 22.6278618, 40.5165872 ], [ 22.6278772, 40.516613 ] ] ] } },
{ "type": "Feature", "properties": { "@type": "way", "@id": 1422786108, "admin_level": null, "boat": null, "boundary": null, "est_width": null, "ford": null, "highway": null, "int_name": null, "landuse": null, "lanes": null, "layer": null, "leisure": null, "lit": null, "maxspeed": null, "name": null, "name:bg": null, "name:de": null, "name:el": null, "name:en": null, "name:fr": null, "name:mk": null, "natural": "water", "old_name": null, "old_name:en": null, "oneway": null, "protect_class": null, "protection_title": null, "source": null, "surface": null, "toll": null, "tracktype": null, "tunnel": null, "water": "river", "waterway": null, "wetland": null, "wikipedia": null, "label": "natural:water;water:river" }, "geometry": { "type": "Polygon", "coordinates": [ [ [ 22.6324693, 40.5151897 ], [ 22.6325628, 40.5152314 ], [ 22.6326217, 40.5152994 ], [ 22.6327173, 40.5153658 ], [ 22.6327376, 40.5154586 ], [ 22.6327945, 40.515542 ], [ 22.6328738, 40.5156363 ], [ 22.6329835, 40.5157213 ], [ 22.6331502, 40.5157923 ], [ 22.6333169, 40.5158573 ], [ 22.633697, 40.5160133 ], [ 22.6339023, 40.5160736 ], [ 22.6340985, 40.516155 ], [ 22.6341195, 40.5161196 ], [ 22.6339723, 40.5160677 ], [ 22.6337612, 40.5160127 ], [ 22.6336118, 40.5159576 ], [ 22.6334223, 40.5158792 ], [ 22.6332375, 40.5158019 ], [ 22.6331327, 40.5157538 ], [ 22.6330033, 40.5156871 ], [ 22.6328893, 40.515618 ], [ 22.6328153, 40.5155325 ], [ 22.6327553, 40.5154482 ], [ 22.6327352, 40.5153697 ], [ 22.6327091, 40.5153381 ], [ 22.6326289, 40.5152901 ], [ 22.6325781, 40.5152245 ], [ 22.6324774, 40.5151788 ], [ 22.6322416, 40.5151495 ], [ 22.6324693, 40.5151897 ] ] ] } },
{ "type": "Feature", "properties": { "@type": "way", "@id": 1422786109, "admin_level": null, "boat": null, "boundary": null, "est_width": null, "ford": null, "highway": null, "int_name": null, "landuse": null, "lanes": null, "layer": null, "leisure": null, "lit": null, "maxspeed": null, "name": null, "name:bg": null, "name:de": null, "name:el": null, "name:en": null, "name:fr": null, "name:mk": null, "natural": "water", "old_name": null, "old_name:en": null, "oneway": null, "protect_class": null, "protection_title": null, "source": null, "surface": null, "toll": null, "tracktype": null, "tunnel": null, "water": "river", "waterway": null, "wetland": null, "wikipedia": null, "label": "natural:water;water:river" }, "geometry": { "type": "Polygon", "coordinates": [ [ [ 22.6319973, 40.5162024 ], [ 22.6322592, 40.5162071 ], [ 22.6323732, 40.5162352 ], [ 22.6325165, 40.5162246 ], [ 22.6325719, 40.5162422 ], [ 22.633031, 40.5162492 ], [ 22.6334146, 40.5163031 ], [ 22.6338259, 40.516357 ], [ 22.6339168, 40.5163933 ], [ 22.6339368, 40.5164267 ], [ 22.6340985, 40.516155 ], [ 22.6338213, 40.5161743 ], [ 22.6334732, 40.5161474 ], [ 22.6332852, 40.5161181 ], [ 22.6330819, 40.5160419 ], [ 22.6329494, 40.5159623 ], [ 22.63288, 40.5159096 ], [ 22.6328246, 40.5158628 ], [ 22.6328184, 40.5158429 ], [ 22.6327984, 40.5158464 ], [ 22.6327599, 40.5158429 ], [ 22.632726, 40.5158159 ], [ 22.6327229, 40.5157855 ], [ 22.6327337, 40.5157281 ], [ 22.6327275, 40.5156883 ], [ 22.6326998, 40.5156473 ], [ 22.6326582, 40.515625 ], [ 22.6327013, 40.5156754 ], [ 22.6327091, 40.5157023 ], [ 22.6326906, 40.5157093 ], [ 22.6326736, 40.5156976 ], [ 22.6325488, 40.515611 ], [ 22.6324734, 40.5155395 ], [ 22.6323424, 40.5154505 ], [ 22.6324811, 40.5155817 ], [ 22.6326829, 40.5157445 ], [ 22.6326613, 40.5157878 ], [ 22.6326659, 40.5158358 ], [ 22.6326906, 40.515871 ], [ 22.6327753, 40.5158932 ], [ 22.6328523, 40.5159483 ], [ 22.6330634, 40.516097 ], [ 22.6331358, 40.516138 ], [ 22.633108, 40.516145 ], [ 22.6329987, 40.5161321 ], [ 22.6328492, 40.516097 ], [ 22.6327291, 40.5160384 ], [ 22.6326798, 40.5159869 ], [ 22.6326228, 40.5159295 ], [ 22.6326243, 40.5160021 ], [ 22.6325473, 40.5160244 ], [ 22.6325889, 40.5160455 ], [ 22.6325304, 40.5160607 ], [ 22.6324502, 40.5160501 ], [ 22.6322546, 40.5160455 ], [ 22.632404, 40.5160771 ], [ 22.6324918, 40.5160911 ], [ 22.6326536, 40.5160958 ], [ 22.6327183, 40.5161298 ], [ 22.6328939, 40.5161637 ], [ 22.6328908, 40.5161895 ], [ 22.6327676, 40.5162012 ], [ 22.6325766, 40.5161743 ], [ 22.632461, 40.5161813 ], [ 22.632384, 40.5161965 ], [ 22.63227, 40.516179 ], [ 22.6320759, 40.5161837 ], [ 22.6317447, 40.5162071 ], [ 22.6319973, 40.5162024 ] ] ] } },
{ "type": "Feature", "properties": { "@type": "way", "@id": 1422786110, "admin_level": null, "boat": null, "boundary": null, "est_width": null, "ford": null, "highway": null, "int_name": null, "landuse": null, "lanes": null, "layer": null, "leisure": null, "lit": null, "maxspeed": null, "name": null, "name:bg": null, "name:de": null, "name:el": null, "name:en": null, "name:fr": null, "name:mk": null, "natural": "water", "old_name": null, "old_name:en": null, "oneway": null, "protect_class": null, "protection_title": null, "source": null, "surface": null, "toll": null, "tracktype": null, "tunnel": null, "water": "river", "waterway": null, "wetland": null, "wikipedia": null, "label": "natural:water;water:river" }, "geometry": { "type": "Polygon", "coordinates": [ [ [ 22.6301086, 40.51674 ], [ 22.6301926, 40.5166743 ], [ 22.6303094, 40.5165927 ], [ 22.6304308, 40.5165412 ], [ 22.6305896, 40.5164844 ], [ 22.6307554, 40.5164169 ], [ 22.6308418, 40.5164152 ], [ 22.6308324, 40.5164542 ], [ 22.6306176, 40.5165146 ], [ 22.6305826, 40.5165696 ], [ 22.630641, 40.5166122 ], [ 22.6308208, 40.5165785 ], [ 22.6308721, 40.5165234 ], [ 22.6308768, 40.5164542 ], [ 22.6309398, 40.5164152 ], [ 22.6309679, 40.5164453 ], [ 22.6310543, 40.5164879 ], [ 22.6312457, 40.5164879 ], [ 22.6317361, 40.5164542 ], [ 22.6315376, 40.5164578 ], [ 22.6312014, 40.5164595 ], [ 22.6310309, 40.5164187 ], [ 22.6310146, 40.5163459 ], [ 22.6308698, 40.5163459 ], [ 22.630732, 40.5163388 ], [ 22.6308138, 40.5162767 ], [ 22.6309936, 40.5162376 ], [ 22.6311547, 40.5162092 ], [ 22.631199, 40.5161631 ], [ 22.6312971, 40.5160992 ], [ 22.6313718, 40.5160832 ], [ 22.6314419, 40.5160868 ], [ 22.6313905, 40.5160584 ], [ 22.6313321, 40.5160584 ], [ 22.6312364, 40.5160903 ], [ 22.631115, 40.5161631 ], [ 22.6310169, 40.5162021 ], [ 22.6308955, 40.5162199 ], [ 22.6308138, 40.5162501 ], [ 22.6306993, 40.5163157 ], [ 22.6303257, 40.5165075 ], [ 22.630181, 40.5165962 ], [ 22.6301156, 40.516614 ], [ 22.6300689, 40.5166548 ], [ 22.6301483, 40.5166406 ], [ 22.6301086, 40.5166761 ], [ 22.6300455, 40.5167719 ], [ 22.6300012, 40.5168891 ], [ 22.6301086, 40.51674 ] ] ] } },
{ "type": "Feature", "properties": { "@type": "way", "@id": 1424540777, "admin_level": null, "boat": null, "boundary": null, "est_width": null, "ford": null, "highway": null, "int_name": null, "landuse": null, "lanes": null, "layer": null, "leisure": null, "lit": null, "maxspeed": null, "name": null, "name:bg": null, "name:de": null, "name:el": null, "name:en": null, "name:fr": null, "name:mk": null, "natural": "heath", "old_name": null, "old_name:en": null, "oneway": null, "protect_class": null, "protection_title": null, "source": null, "surface": null, "toll": null, "tracktype": null, "tunnel": null, "water": null, "waterway": null, "wetland": null, "wikipedia": null, "label": "natural:heath" }, "geometry": { "type": "Polygon", "coordinates": [ [ [ 22.6207327, 40.5353419 ], [ 22.6222288, 40.534133 ], [ 22.6234495, 40.533078 ], [ 22.6246891, 40.5321215 ], [ 22.6257991, 40.5311875 ], [ 22.6265498, 40.5306087 ], [ 22.6273897, 40.5298779 ], [ 22.6276217, 40.5298075 ], [ 22.630772, 40.5270857 ], [ 22.63096, 40.5267516 ], [ 22.6307952, 40.5265464 ], [ 22.6307952, 40.5263493 ], [ 22.63123, 40.5260106 ], [ 22.6314164, 40.525871 ], [ 22.6316648, 40.5255159 ], [ 22.6318404, 40.5251607 ], [ 22.6319665, 40.5248772 ], [ 22.6324632, 40.5243201 ], [ 22.6322512, 40.523473 ], [ 22.6315244, 40.5231323 ], [ 22.6297996, 40.5230122 ], [ 22.6273116, 40.5251013 ], [ 22.6267749, 40.5257008 ], [ 22.6266855, 40.5272026 ], [ 22.6267099, 40.5279999 ], [ 22.6266448, 40.5288404 ], [ 22.6256896, 40.5301003 ], [ 22.6251906, 40.530684 ], [ 22.6247022, 40.5315233 ], [ 22.6242881, 40.5318783 ], [ 22.6235378, 40.532419 ], [ 22.6227415, 40.532914 ], [ 22.6225079, 40.5329166 ], [ 22.6217647, 40.5336671 ], [ 22.6213117, 40.5339684 ], [ 22.6204587, 40.5347538 ], [ 22.6194854, 40.5354774 ], [ 22.6196588, 40.5356226 ], [ 22.619656342656434, 40.535631954133294 ], [ 22.620377929330207, 40.535631954133294 ], [ 22.6207327, 40.5353419 ] ] ] } },
{ "type": "Feature", "properties": { "@type": "way", "@id": 1424540779, "admin_level": null, "boat": null, "boundary": null, "est_width": null, "ford": null, "highway": null, "int_name": null, "landuse": null, "lanes": null, "layer": null, "leisure": null, "lit": null, "maxspeed": null, "name": null, "name:bg": null, "name:de": null, "name:el": null, "name:en": null, "name:fr": null, "name:mk": null, "natural": "heath", "old_name": null, "old_name:en": null, "oneway": null, "protect_class": null, "protection_title": null, "source": null, "surface": null, "toll": null, "tracktype": null, "tunnel": null, "water": null, "waterway": null, "wetland": null, "wikipedia": null, "label": "natural:heath" }, "geometry": { "type": "Polygon", "coordinates": [ [ [ 22.6263709, 40.5175854 ], [ 22.6265119, 40.5175211 ], [ 22.6268293, 40.5174138 ], [ 22.6270339, 40.5171725 ], [ 22.6270621, 40.5169205 ], [ 22.6273724, 40.5165506 ], [ 22.6279014, 40.5162127 ], [ 22.6283458, 40.5158106 ], [ 22.6288465, 40.5154835 ], [ 22.6290229, 40.5151832 ], [ 22.629039, 40.5149341 ], [ 22.6290511, 40.5147489 ], [ 22.6294249, 40.5142824 ], [ 22.6309836, 40.5133333 ], [ 22.6310657, 40.5132465 ], [ 22.6311888, 40.5131162 ], [ 22.6297243, 40.5138748 ], [ 22.6289679, 40.5144213 ], [ 22.6285495, 40.5149025 ], [ 22.6277287, 40.5157018 ], [ 22.626806, 40.5165746 ], [ 22.6260264, 40.5174449 ], [ 22.6263709, 40.5175854 ] ] ] } },
{ "type": "Feature", "properties": { "@type": "way", "@id": 1424540780, "admin_level": null, "boat": null, "boundary": null, "est_width": null, "ford": null, "highway": null, "int_name": null, "landuse": null, "lanes": null, "layer": null, "leisure": null, "lit": null, "maxspeed": null, "name": null, "name:bg": null, "name:de": null, "name:el": null, "name:en": null, "name:fr": null, "name:mk": null, "natural": "water", "old_name": null, "old_name:en": null, "oneway": null, "protect_class": null, "protection_title": null, "source": null, "surface": null, "toll": null, "tracktype": null, "tunnel": null, "water": null, "waterway": null, "wetland": null, "wikipedia": null, "label": "natural:water" }, "geometry": { "type": "Polygon", "coordinates": [ [ [ 22.6322965, 40.5130426 ], [ 22.6322283, 40.5130656 ], [ 22.632179, 40.5131175 ], [ 22.6320711, 40.5131271 ], [ 22.6319742, 40.5131549 ], [ 22.6318726, 40.5131911 ], [ 22.6317614, 40.513208 ], [ 22.6316693, 40.5131754 ], [ 22.6314057, 40.5132068 ], [ 22.6310657, 40.5132465 ], [ 22.6309836, 40.5133333 ], [ 22.6312137, 40.5133439 ], [ 22.6316423, 40.5132599 ], [ 22.6318947, 40.5132379 ], [ 22.6322365, 40.51322 ], [ 22.6325204, 40.5132399 ], [ 22.6323811, 40.513188 ], [ 22.6323442, 40.51313 ], [ 22.6323784, 40.5130481 ], [ 22.6324257, 40.5130181 ], [ 22.6324941, 40.5130021 ], [ 22.632494392913973, 40.513001889448731 ], [ 22.63235250512302, 40.513001889448731 ], [ 22.6322965, 40.5130426 ] ] ] } },
{ "type": "Feature", "properties": { "@type": "way", "@id": 1424540781, "admin_level": null, "boat": null, "boundary": null, "est_width": null, "ford": null, "highway": null, "int_name": null, "landuse": null, "lanes": null, "layer": null, "leisure": null, "lit": null, "maxspeed": null, "name": null, "name:bg": null, "name:de": null, "name:el": null, "name:en": null, "name:fr": null, "name:mk": null, "natural": "wetland", "old_name": null, "old_name:en": null, "oneway": null, "protect_class": null, "protection_title": null, "source": null, "surface": null, "toll": null, "tracktype": null, "tunnel": null, "water": null, "waterway": null, "wetland": "tidalflat", "wikipedia": null, "label": "natural:wetland" }, "geometry": { "type": "Polygon", "coordinates": [ [ [ 22.6324941, 40.5130021 ], [ 22.6324257, 40.5130181 ], [ 22.6323784, 40.5130481 ], [ 22.6323442, 40.51313 ], [ 22.6323811, 40.513188 ], [ 22.6325204, 40.5132399 ], [ 22.6322365, 40.51322 ], [ 22.6318947, 40.5132379 ], [ 22.6316423, 40.5132599 ], [ 22.6312137, 40.5133439 ], [ 22.6309836, 40.5133333 ], [ 22.6294249, 40.5142824 ], [ 22.6290511, 40.5147489 ], [ 22.629039, 40.5149341 ], [ 22.6298089, 40.5145995 ], [ 22.6303118, 40.5142087 ], [ 22.6314964, 40.5138462 ], [ 22.6320849, 40.5137442 ], [ 22.6327443, 40.5135884 ], [ 22.6332509, 40.5135743 ], [ 22.6340406, 40.5134015 ], [ 22.6348006, 40.513393 ], [ 22.6354711, 40.5135488 ], [ 22.635537396534854, 40.513581677421158 ], [ 22.635537396534854, 40.513001889448731 ], [ 22.632494392913973, 40.513001889448731 ], [ 22.6324941, 40.5130021 ] ] ] } }
]
}
