{
"type": "FeatureCollection",
"name": "patch_76802_linestring",
"crs": { "type": "name", "properties": { "name": "urn:ogc:def:crs:OGC:1.3:CRS84" } },
"features": [
{ "type": "Feature", "properties": { "element": "way", "id": 4517858, "ele": null, "name": null, "natural": "coastline", "leaf_type": null, "source": null, "intermittent": null, "waterway": null, "landuse": null, "access": null, "surface": null, "label": "natural:coastline" }, "geometry": { "type": "LineString", "coordinates": [ [ 27.756210928544036, 36.019858371999554 ], [ 27.7561019, 36.019073 ], [ 27.7559348, 36.0183042 ], [ 27.7556238, 36.0178383 ], [ 27.7555145, 36.0175666 ], [ 27.7554683, 36.0174517 ], [ 27.7553185, 36.016804 ], [ 27.7553473, 36.0161937 ], [ 27.755634, 36.015821 ], [ 27.755612, 36.015302 ], [ 27.755491, 36.0147242 ], [ 27.755324, 36.0142909 ], [ 27.7551569, 36.0134429 ], [ 27.754949193502672, 36.012888922090276 ] ] } },
{ "type": "Feature", "properties": { "element": "way", "id": 238663204, "ele": null, "name": null, "natural": null, "leaf_type": null, "source": null, "intermittent": "yes", "waterway": "river", "landuse": null, "access": null, "surface": null, "label": "waterway:river" }, "geometry": { "type": "LineString", "coordinates": [ [ 27.7725243, 36.0008379 ], [ 27.7724049, 36.0008452 ], [ 27.7722764, 36.0008174 ], [ 27.7721853, 36.0007582 ], [ 27.7721823, 36.000699 ], [ 27.7723197, 36.0005794 ], [ 27.7723675, 36.000496 ], [ 27.7723391, 36.0004259 ], [ 27.7721883, 36.0004066 ], [ 27.7721107, 36.0003631 ], [ 27.7720315, 36.000258 ], [ 27.7719553, 36.0001336 ], [ 27.7718732, 36.0001384 ], [ 27.7717254, 36.0002701 ], [ 27.7716417, 36.0002447 ], [ 27.7713505, 36.0000139 ], [ 27.7712848, 35.9998762 ], [ 27.7713535, 35.9996515 ], [ 27.7713221, 35.9995307 ], [ 27.7711564, 35.9994993 ], [ 27.7710966, 35.9993458 ], [ 27.7709473, 35.9992238 ], [ 27.770792, 35.9990184 ], [ 27.7706068, 35.9989616 ], [ 27.7705202, 35.9987768 ], [ 27.7704814, 35.99861 ], [ 27.7703888, 35.9985242 ], [ 27.7703888, 35.9984058 ], [ 27.7703335, 35.9983781 ], [ 27.7700318, 35.9983732 ], [ 27.7698661, 35.9983297 ], [ 27.7697571, 35.9982403 ], [ 27.7697436, 35.9981884 ], [ 27.7697944, 35.9981424 ], [ 27.7699064, 35.9981147 ], [ 27.770008, 35.9980712 ], [ 27.7700408, 35.9979914 ], [ 27.7700065, 35.9979117 ], [ 27.76989, 35.9979129 ], [ 27.769772, 35.9979262 ], [ 27.7696316, 35.9978344 ], [ 27.7695002, 35.9978368 ], [ 27.7693575, 35.9978637 ], [ 27.7693005, 35.9979799 ], [ 27.7690998, 35.9980619 ], [ 27.7686014, 35.9980671 ], [ 27.7683416, 35.9980995 ], [ 27.7678094, 35.9981816 ], [ 27.7675602, 35.9982021 ], [ 27.7673659, 35.9981679 ], [ 27.7672434, 35.9980363 ], [ 27.7671864, 35.997886 ], [ 27.7671251, 35.9976638 ], [ 27.7670301, 35.9975664 ], [ 27.7667006, 35.9975323 ], [ 27.7663374, 35.9975032 ], [ 27.7660248, 35.9975921 ], [ 27.7656552, 35.997575 ], [ 27.7655179, 35.9975066 ], [ 27.7653827, 35.9973511 ], [ 27.7652455, 35.997223 ], [ 27.7650321, 35.997223 ], [ 27.7647259, 35.9973682 ], [ 27.7642697, 35.9976023 ], [ 27.7639571, 35.9977458 ], [ 27.7637565, 35.9977151 ], [ 27.7634714, 35.997616 ], [ 27.7633721, 35.9974947 ], [ 27.7632623, 35.9972862 ], [ 27.7631968, 35.9972161 ], [ 27.7630046, 35.9973204 ], [ 27.7627406, 35.9974092 ], [ 27.7625379, 35.9974297 ], [ 27.7623373, 35.9974041 ], [ 27.7620226, 35.9971598 ], [ 27.761745074311861, 35.996961852016469 ] ] } },
{ "type": "Feature", "properties": { "element": "way", "id": 238663213, "ele": null, "name": null, "natural": null, "leaf_type": null, "source": null, "intermittent": "yes", "waterway": "stream", "landuse": null, "access": null, "surface": null, "label": "waterway:stream" }, "geometry": { "type": "LineString", "coordinates": [ [ 27.7653605, 36.0076321 ], [ 27.7652332, 36.007572 ], [ 27.7651589, 36.0073875 ], [ 27.7650581, 36.0073059 ], [ 27.7650952, 36.0071257 ], [ 27.7650209, 36.0070399 ], [ 27.7650316, 36.0068896 ], [ 27.7649732, 36.0066407 ], [ 27.7648353, 36.0065249 ], [ 27.7647451, 36.0062373 ], [ 27.7647132, 36.0059884 ], [ 27.7645859, 36.0058382 ], [ 27.7644108, 36.0057481 ], [ 27.7641774, 36.005688 ], [ 27.7640236, 36.0055893 ], [ 27.7637795, 36.0054863 ], [ 27.7635514, 36.0053146 ], [ 27.7634612, 36.0051858 ], [ 27.7632437, 36.0050743 ], [ 27.7630315, 36.0049112 ], [ 27.7627344, 36.0048554 ], [ 27.762485, 36.0048682 ], [ 27.7620871, 36.0048167 ], [ 27.7618855, 36.004791 ], [ 27.761806, 36.0046322 ], [ 27.7618219, 36.0044477 ], [ 27.761859, 36.0042245 ], [ 27.7617794, 36.0040356 ], [ 27.7616044, 36.0038554 ], [ 27.7613665, 36.0036461 ], [ 27.7611324, 36.0034593 ], [ 27.7605124, 36.003165 ], [ 27.7597342, 36.0030038 ], [ 27.7593199, 36.0029322 ], [ 27.7590352, 36.0029142 ], [ 27.7587821, 36.0028093 ], [ 27.7585544, 36.0027965 ], [ 27.7583677, 36.0028451 ], [ 27.7581115, 36.002945 ], [ 27.7579534, 36.002945 ], [ 27.7577098, 36.0027965 ], [ 27.7574915, 36.0028016 ], [ 27.7572606, 36.0028503 ], [ 27.7569944, 36.0027965 ], [ 27.7566749, 36.0028042 ], [ 27.7566148, 36.0026583 ], [ 27.7565104, 36.0024383 ], [ 27.7563997, 36.0023871 ], [ 27.7561972, 36.0023768 ], [ 27.7559189, 36.0025483 ], [ 27.7556405, 36.0025969 ], [ 27.7555709, 36.0025406 ], [ 27.7556057, 36.0023206 ], [ 27.7555709, 36.00219 ], [ 27.7554507, 36.0021337 ], [ 27.7551249, 36.0021491 ], [ 27.754992, 36.002057 ], [ 27.754949193502672, 36.002041953623028 ] ] } },
{ "type": "Feature", "properties": { "element": "way", "id": 238663217, "ele": null, "name": null, "natural": null, "leaf_type": null, "source": null, "intermittent": "yes", "waterway": "stream", "landuse": null, "access": null, "surface": null, "label": "waterway:stream" }, "geometry": { "type": "LineString", "coordinates": [ [ 27.7761215, 36.0133322 ], [ 27.7760151, 36.0133896 ], [ 27.7759324, 36.0134661 ], [ 27.7758762, 36.0134709 ], [ 27.7756575, 36.0133872 ], [ 27.7753531, 36.0134494 ], [ 27.7750132, 36.0134613 ], [ 27.7748004, 36.0134828 ], [ 27.7746615, 36.0133992 ], [ 27.7745906, 36.0132318 ], [ 27.7744753, 36.0131529 ], [ 27.7744073, 36.0131888 ], [ 27.7743926, 36.0133059 ], [ 27.7741916, 36.0134111 ], [ 27.7740172, 36.0134111 ], [ 27.7734734, 36.0134637 ], [ 27.7731808, 36.0133752 ], [ 27.7730478, 36.0134063 ], [ 27.7730596, 36.0134948 ], [ 27.7732665, 36.0136263 ], [ 27.7733552, 36.0137075 ], [ 27.7732517, 36.0137745 ], [ 27.7728911, 36.013796 ], [ 27.7726961, 36.0138008 ], [ 27.7723798, 36.014004 ], [ 27.7721729, 36.014059 ], [ 27.7718153, 36.0140422 ], [ 27.7717119, 36.0141116 ], [ 27.7716262, 36.0141426 ], [ 27.7712035, 36.0140375 ], [ 27.7711326, 36.0139777 ], [ 27.7711651, 36.0138558 ], [ 27.7711474, 36.0138008 ], [ 27.7710735, 36.0137912 ], [ 27.7709996, 36.0138366 ], [ 27.7709168, 36.0140614 ], [ 27.7707809, 36.0141474 ], [ 27.7704587, 36.0142215 ], [ 27.7701425, 36.0142287 ], [ 27.7700656, 36.0141809 ], [ 27.7700686, 36.014102 ], [ 27.7701986, 36.0139514 ], [ 27.7702489, 36.0138486 ], [ 27.7701927, 36.0137841 ], [ 27.7701159, 36.0137625 ], [ 27.7699652, 36.013808 ], [ 27.7696755, 36.0139657 ], [ 27.769445, 36.0141331 ], [ 27.7693297, 36.0142765 ], [ 27.769241, 36.0145395 ], [ 27.769114, 36.0146519 ], [ 27.7689632, 36.0146997 ], [ 27.768579, 36.0146758 ], [ 27.7679229, 36.0147738 ], [ 27.7677012, 36.0148575 ], [ 27.7675741, 36.014977 ], [ 27.7675387, 36.0151372 ], [ 27.7675623, 36.0152567 ], [ 27.7676391, 36.0154145 ], [ 27.7677574, 36.0156942 ], [ 27.7677396, 36.0157539 ], [ 27.7676717, 36.0158113 ], [ 27.767447, 36.0158687 ], [ 27.7671899, 36.0158639 ], [ 27.7665663, 36.015828 ], [ 27.7664362, 36.0158113 ], [ 27.7663683, 36.0158567 ], [ 27.7663771, 36.0159356 ], [ 27.7663919, 36.016048 ], [ 27.766318, 36.0164185 ], [ 27.7662294, 36.0165213 ], [ 27.7660047, 36.016605 ], [ 27.7657801, 36.0165882 ], [ 27.765387, 36.0164496 ], [ 27.7652481, 36.0164066 ], [ 27.7651594, 36.0164209 ], [ 27.7650838, 36.0166069 ], [ 27.7648469, 36.0166614 ], [ 27.76451, 36.0166263 ], [ 27.7642579, 36.0165014 ], [ 27.7639319, 36.0163274 ], [ 27.7638362, 36.0162026 ], [ 27.763758, 36.0159951 ], [ 27.7637189, 36.0158879 ], [ 27.7636341, 36.0157349 ], [ 27.7635254, 36.0156224 ], [ 27.7633624, 36.0155838 ], [ 27.7632863, 36.0156242 ], [ 27.7632124, 36.0158633 ], [ 27.7630733, 36.0160725 ], [ 27.7629864, 36.0161129 ], [ 27.7628516, 36.0160725 ], [ 27.7624235, 36.0159934 ], [ 27.7621605, 36.0159899 ], [ 27.7619562, 36.0160004 ], [ 27.7619105, 36.0160444 ], [ 27.7618801, 36.0162606 ], [ 27.7617965, 36.0164861 ], [ 27.7617888, 36.0165067 ], [ 27.7616954, 36.0167106 ], [ 27.7615628, 36.0169673 ], [ 27.7613976, 36.0170464 ], [ 27.7612781, 36.0170429 ], [ 27.7612215, 36.0169286 ], [ 27.7610944, 36.0168445 ], [ 27.7609042, 36.0167511 ], [ 27.7607477, 36.0167265 ], [ 27.7606347, 36.0168214 ], [ 27.7604978, 36.0170113 ], [ 27.7602674, 36.017231 ], [ 27.7600848, 36.0173295 ], [ 27.7598371, 36.0173857 ], [ 27.7596219, 36.0173787 ], [ 27.7595784, 36.0173084 ], [ 27.7596088, 36.0171361 ], [ 27.7595871, 36.0170552 ], [ 27.759498, 36.0169726 ], [ 27.7591763, 36.0168179 ], [ 27.7588134, 36.0166016 ], [ 27.7586612, 36.0165278 ], [ 27.758546, 36.0165788 ], [ 27.7584939, 36.0168038 ], [ 27.7585025, 36.016948 ], [ 27.7584482, 36.0170359 ], [ 27.7582895, 36.017057 ], [ 27.7578092, 36.0170763 ], [ 27.7572984, 36.0171396 ], [ 27.7570572, 36.0172292 ], [ 27.756905, 36.0173347 ], [ 27.7566594, 36.0173822 ], [ 27.7564591, 36.0173778 ], [ 27.7563356, 36.0174068 ], [ 27.7559292, 36.0174982 ], [ 27.7555145, 36.0175666 ] ] } },
{ "type": "Feature", "properties": { "element": "way", "id": 360316364, "ele": null, "name": null, "natural": "cliff", "leaf_type": null, "source": null, "intermittent": null, "waterway": null, "landuse": null, "access": null, "surface": null, "label": "natural:cliff" }, "geometry": { "type": "LineString", "coordinates": [ [ 27.760815978127251, 36.019858371999554 ], [ 27.7608131, 36.0198444 ], [ 27.7606919, 36.0197686 ], [ 27.7606479, 36.019684 ], [ 27.7605983, 36.0196127 ], [ 27.7606589, 36.0194969 ] ] } },
{ "type": "Feature", "properties": { "element": "way", "id": 487155995, "ele": null, "name": null, "natural": "cliff", "leaf_type": null, "source": null, "intermittent": null, "waterway": null, "landuse": null, "access": null, "surface": null, "label": "natural:cliff" }, "geometry": { "type": "LineString", "coordinates": [ [ 27.7571493, 36.0185649 ], [ 27.7569956, 36.0182776 ], [ 27.756982, 36.0181934 ], [ 27.7569871, 36.0181092 ], [ 27.7570554, 36.0179918 ], [ 27.7571578, 36.0179145 ], [ 27.7572347, 36.0179034 ] ] } }
]
}
