{
"type": "FeatureCollection",
"name": "patch_74988_linestring",
"crs": { "type": "name", "properties": { "name": "urn:ogc:def:crs:OGC:1.3:CRS84" } },
"features": [
{ "type": "Feature", "properties": { "osm_id": 1201676910, "name": null, "label": "natural:coastline", "natural": "coastline" }, "geometry": { "type": "LineString", "coordinates": [ [ 20.66704065339983, 38.360838347963998 ], [ 20.6674592, 38.36032600003329 ], [ 20.6680412, 38.35927230003314 ], [ 20.6685803, 38.358649700033062 ], [ 20.6688673, 38.358351000033004 ], [ 20.6691597, 38.357598100032902 ], [ 20.6691516, 38.357387700032866 ], [ 20.6693582, 38.357152200032843 ], [ 20.6694574, 38.356922900032806 ], [ 20.6698892, 38.356565400032757 ], [ 20.6702299, 38.356226700032707 ], [ 20.6704525, 38.355871300032653 ], [ 20.6709198, 38.355421600032585 ], [ 20.6715227, 38.355029900032534 ], [ 20.6718285, 38.354882700032498 ], [ 20.6718472, 38.3547607000325 ], [ 20.6723113, 38.35456930003248 ], [ 20.6726492, 38.354354800032446 ], [ 20.6731347, 38.354266400032415 ], [ 20.673537, 38.354028800032403 ], [ 20.6743095, 38.353061200032258 ], [ 20.6750418, 38.352569000032183 ], [ 20.6751571, 38.352444900032168 ], [ 20.6755648, 38.352226100032141 ], [ 20.675943, 38.352078900032126 ], [ 20.6761683, 38.3520074000321 ], [ 20.6764195, 38.351569500032028 ], [ 20.677091, 38.351069300031959 ], [ 20.6776247, 38.350781100031924 ], [ 20.6781451, 38.350623300031906 ], [ 20.6786869, 38.350471900031877 ], [ 20.6798966, 38.350267800031851 ], [ 20.6807173, 38.350147900031843 ], [ 20.6811947, 38.350179500031842 ], [ 20.681361, 38.350198400031836 ], [ 20.681581, 38.35033730003186 ], [ 20.681817, 38.35036040003186 ], [ 20.6817795, 38.350444500031891 ], [ 20.6819994, 38.350465600031882 ], [ 20.6825439, 38.350448700031876 ], [ 20.6826753, 38.350532900031887 ], [ 20.6827364, 38.350514900031889 ], [ 20.6831313, 38.350398300031863 ], [ 20.6833809, 38.350282000031854 ], [ 20.684032, 38.350049200031826 ], [ 20.6845588, 38.349720500031765 ], [ 20.6850656, 38.349315600031709 ], [ 20.6850503, 38.349265200031709 ], [ 20.6851139, 38.349271900031702 ], [ 20.6852112, 38.349189800031695 ], [ 20.6853525, 38.348926600031646 ], [ 20.6854383, 38.34881820003163 ], [ 20.6854436, 38.34863010003162 ], [ 20.6853675, 38.348461400031582 ], [ 20.6853693, 38.348393300031582 ] ] } },
{ "type": "Feature", "properties": { "osm_id": 1202047425, "name": null, "label": "natural:coastline", "natural": "coastline" }, "geometry": { "type": "LineString", "coordinates": [ [ 20.6820772, 38.363453300033754 ], [ 20.6811216, 38.363311700033734 ], [ 20.6799093, 38.363294000033733 ], [ 20.6791529, 38.363374000033737 ], [ 20.6779244, 38.363655800033776 ], [ 20.6771305, 38.363870300033803 ], [ 20.6762561, 38.364219400033853 ], [ 20.6753173, 38.364665300033913 ], [ 20.6741747, 38.365325600034012 ], [ 20.6740335, 38.365515300034048 ] ] } },
{ "type": "Feature", "properties": { "osm_id": 1201676911, "name": null, "label": "natural:coastline", "natural": "coastline" }, "geometry": { "type": "LineString", "coordinates": [ [ 20.6680841, 38.368948500034534 ], [ 20.6678132, 38.368368100034445 ], [ 20.6677622, 38.367899100034393 ], [ 20.6673921, 38.36695700003424 ], [ 20.6673143, 38.366084200034123 ], [ 20.6677006, 38.365344000034014 ], [ 20.6677757, 38.365171500033995 ], [ 20.6676281, 38.365125300033988 ], [ 20.6675208, 38.364971700033955 ], [ 20.6673599, 38.364933900033954 ], [ 20.6672473, 38.365003300033969 ], [ 20.6671722, 38.364849800033944 ], [ 20.6670568, 38.364797200033927 ], [ 20.66704065339983, 38.364793134900204 ] ] } },
{ "type": "Feature", "properties": { "osm_id": 1201859052, "name": null, "label": "natural:coastline", "natural": "coastline" }, "geometry": { "type": "LineString", "coordinates": [ [ 20.668102229286855, 38.369393633356594 ], [ 20.6680841, 38.368948500034534 ] ] } },
{ "type": "Feature", "properties": { "osm_id": 1201759010, "name": null, "label": "natural:coastline", "natural": "coastline" }, "geometry": { "type": "LineString", "coordinates": [ [ 20.6740335, 38.365515300034048 ], [ 20.6738958, 38.366133200034135 ], [ 20.6739655, 38.366680000034215 ], [ 20.6744, 38.366907100034247 ], [ 20.674679, 38.367058500034261 ], [ 20.674797, 38.367294000034299 ], [ 20.6748506, 38.367802900034363 ], [ 20.6746897, 38.368261400034442 ], [ 20.6745824, 38.368467500034463 ], [ 20.6746736, 38.3687030000345 ], [ 20.6745341, 38.36901000003455 ], [ 20.6748024, 38.36922030003457 ], [ 20.674847942406842, 38.369393633356594 ] ] } },
{ "type": "Feature", "properties": { "osm_id": 1088461466, "name": null, "label": "natural:coastline", "natural": "coastline" }, "geometry": { "type": "LineString", "coordinates": [ [ 20.689412138747649, 38.369393633356594 ], [ 20.6891421, 38.369181900034576 ], [ 20.6886486, 38.369165100034557 ], [ 20.6877527, 38.368925400034527 ], [ 20.6874845, 38.368668800034492 ], [ 20.6866477, 38.367844400034393 ], [ 20.6860341, 38.367637300034346 ], [ 20.6857357, 38.367415400034311 ], [ 20.6854729, 38.366662600034196 ], [ 20.6851617, 38.366414400034166 ], [ 20.684754, 38.366086300034127 ], [ 20.6847916, 38.365728800034077 ], [ 20.6841639, 38.364782500033932 ], [ 20.6829838, 38.363861300033811 ], [ 20.6820772, 38.363453300033754 ] ] } },
{ "type": "Feature", "properties": { "osm_id": 1211346201, "name": null, "label": "natural:cliff", "natural": "cliff" }, "geometry": { "type": "LineString", "coordinates": [ [ 20.6822214, 38.350501800031886 ], [ 20.6824359, 38.350482900031885 ], [ 20.6825486, 38.35051230003188 ], [ 20.6826451, 38.35057330003189 ], [ 20.6827739, 38.350529200031886 ], [ 20.6828339, 38.350545600031886 ], [ 20.6828812, 38.350558600031896 ], [ 20.6830341, 38.350516500031887 ], [ 20.6831467, 38.350556500031885 ] ] } },
{ "type": "Feature", "properties": { "osm_id": 1211346200, "name": null, "label": "natural:cliff", "natural": "cliff" }, "geometry": { "type": "LineString", "coordinates": [ [ 20.6814355, 38.351791200032068 ], [ 20.6822401, 38.351391600032009 ], [ 20.6826907, 38.351126500031981 ], [ 20.6835329, 38.350802600031926 ] ] } },
{ "type": "Feature", "properties": { "osm_id": 1202048217, "name": null, "label": "natural:coastline", "natural": "coastline" }, "geometry": { "type": "LineString", "coordinates": [ [ 20.6852021, 38.347909200031509 ], [ 20.6854737, 38.34710430003139 ], [ 20.6857108, 38.346782800031349 ], [ 20.6859803, 38.346661600031318 ] ] } },
{ "type": "Feature", "properties": { "osm_id": 275175559, "name": "Πίσω Αετός", "label": "natural:coastline", "natural": "coastline" }, "geometry": { "type": "LineString", "coordinates": [ [ 20.6853693, 38.348393300031582 ], [ 20.6852686, 38.34831810003157 ], [ 20.6851746, 38.348298700031577 ], [ 20.6851366, 38.348376400031569 ], [ 20.6851457, 38.348418300031575 ], [ 20.6851155, 38.348428300031586 ], [ 20.6848141, 38.348388200031586 ], [ 20.6847962, 38.348356800031581 ], [ 20.6847835, 38.348203900031557 ], [ 20.6847269, 38.348172500031545 ], [ 20.6847482, 38.34814310003155 ], [ 20.6847705, 38.348114700031545 ], [ 20.6848177, 38.348136900031548 ], [ 20.6848413, 38.348126600031549 ], [ 20.6848614, 38.348122700031539 ], [ 20.6848802, 38.34810700003154 ], [ 20.6848952, 38.348103000031543 ], [ 20.6849128, 38.348113800031541 ], [ 20.6849316, 38.34810700003154 ], [ 20.6849592, 38.348113800031541 ], [ 20.684988, 38.34810700003154 ], [ 20.6850068, 38.34810700003154 ], [ 20.6850269, 38.348127600031539 ], [ 20.6850583, 38.348098100031542 ], [ 20.6851083, 38.348049200031518 ], [ 20.6851561, 38.347995800031512 ], [ 20.6851799, 38.347961400031522 ], [ 20.6852021, 38.347909200031509 ] ] } },
{ "type": "Feature", "properties": { "osm_id": 1211346199, "name": null, "label": "natural:cliff", "natural": "cliff" }, "geometry": { "type": "LineString", "coordinates": [ [ 20.6859148, 38.347889300031518 ], [ 20.6859684, 38.346822800031362 ] ] } },
{ "type": "Feature", "properties": { "osm_id": 1211346197, "name": null, "label": "natural:cliff", "natural": "cliff" }, "geometry": { "type": "LineString", "coordinates": [ [ 20.6861615, 38.347525400031458 ], [ 20.6861857, 38.346877500031368 ] ] } },
{ "type": "Feature", "properties": { "osm_id": 1211346198, "name": null, "label": "natural:cliff", "natural": "cliff" }, "geometry": { "type": "LineString", "coordinates": [ [ 20.6860489, 38.347727300031494 ], [ 20.6860891, 38.346852200031364 ] ] } },
{ "type": "Feature", "properties": { "osm_id": 1202048218, "name": null, "label": "natural:coastline", "natural": "coastline" }, "geometry": { "type": "LineString", "coordinates": [ [ 20.6859803, 38.346661600031318 ], [ 20.686158425231213, 38.346242821837144 ] ] } }
]
}
