{
"type": "FeatureCollection",
"name": "patch_57308_point",
"crs": { "type": "name", "properties": { "name": "urn:ogc:def:crs:OGC:1.3:CRS84" } },
"features": [
{ "type": "Feature", "properties": { "@type": "node", "@id": 10694481585, "abandoned": null, "alt_name": null, "amenity": "place_of_worship", "barrier": null, "bicycle": null, "boat": null, "bridge": null, "building": null, "canoe": null, "crop": null, "denomination": "orthodox", "ele": null, "foot": null, "ford": null, "highway": null, "hiking": null, "historic": null, "informal": null, "information": null, "int_name": null, "intermittent": null, "landuse": null, "layer": null, "leisure": null, "motorboat": null, "name": "Αγία Γέννηση του Χριστού", "name:prefix": null, "natural": null, "opening_hours": null, "reg_ref": null, "religion": "christian", "ruins": null, "sac_scale": null, "seasonal": null, "service": null, "ship": null, "source": null, "source:reg_ref": null, "start_date": null, "surface": null, "survey:date": null, "tourism": null, "tracktype": null, "trees": null, "water": null, "waterway": null, "wheelchair": null, "width": null, "label": "amenity:place_of_worship" }, "geometry": { "type": "Point", "coordinates": [ 25.4456933, 37.1183953 ] } },
{ "type": "Feature", "properties": { "@type": "node", "@id": 10815940677, "abandoned": null, "alt_name": null, "amenity": null, "barrier": null, "bicycle": null, "boat": null, "bridge": null, "building": null, "canoe": null, "crop": null, "denomination": null, "ele": "294", "foot": null, "ford": null, "highway": null, "hiking": null, "historic": null, "informal": null, "information": null, "int_name": null, "intermittent": null, "landuse": null, "layer": null, "leisure": null, "motorboat": null, "name": "Κορακιά", "name:prefix": null, "natural": "peak", "opening_hours": null, "reg_ref": null, "religion": null, "ruins": null, "sac_scale": null, "seasonal": null, "service": null, "ship": null, "source": null, "source:reg_ref": null, "start_date": null, "surface": null, "survey:date": null, "tourism": null, "tracktype": null, "trees": null, "water": null, "waterway": null, "wheelchair": null, "width": null, "label": "natural:peak" }, "geometry": { "type": "Point", "coordinates": [ 25.4407216, 37.1091508 ] } },
{ "type": "Feature", "properties": { "@type": "node", "@id": 11182085001, "abandoned": null, "alt_name": null, "amenity": null, "barrier": null, "bicycle": null, "boat": null, "bridge": null, "building": null, "canoe": null, "crop": null, "denomination": null, "ele": null, "foot": null, "ford": null, "highway": null, "hiking": "yes", "historic": null, "informal": null, "information": "guidepost", "int_name": null, "intermittent": null, "landuse": null, "layer": null, "leisure": null, "motorboat": null, "name": null, "name:prefix": null, "natural": null, "opening_hours": null, "reg_ref": null, "religion": null, "ruins": null, "sac_scale": null, "seasonal": null, "service": null, "ship": null, "source": null, "source:reg_ref": null, "start_date": null, "surface": null, "survey:date": "2023-09-07T00:00:00", "tourism": "information", "tracktype": null, "trees": null, "water": null, "waterway": null, "wheelchair": null, "width": null, "label": "tourism:information" }, "geometry": { "type": "Point", "coordinates": [ 25.4673396, 37.1123789 ] } },
{ "type": "Feature", "properties": { "@type": "node", "@id": 12190306827, "abandoned": null, "alt_name": null, "amenity": "bench", "barrier": null, "bicycle": null, "boat": null, "bridge": null, "building": null, "canoe": null, "crop": null, "denomination": null, "ele": null, "foot": null, "ford": null, "highway": null, "hiking": null, "historic": null, "informal": null, "information": null, "int_name": null, "intermittent": null, "landuse": null, "layer": null, "leisure": null, "motorboat": null, "name": null, "name:prefix": null, "natural": null, "opening_hours": null, "reg_ref": null, "religion": null, "ruins": null, "sac_scale": null, "seasonal": null, "service": null, "ship": null, "source": null, "source:reg_ref": null, "start_date": null, "surface": null, "survey:date": null, "tourism": null, "tracktype": null, "trees": null, "water": null, "waterway": null, "wheelchair": null, "width": null, "label": "amenity:bench" }, "geometry": { "type": "Point", "coordinates": [ 25.4506746, 37.1123908 ] } },
{ "type": "Feature", "properties": { "@type": "node", "@id": 12190323622, "abandoned": null, "alt_name": null, "amenity": "bench", "barrier": null, "bicycle": null, "boat": null, "bridge": null, "building": null, "canoe": null, "crop": null, "denomination": null, "ele": null, "foot": null, "ford": null, "highway": null, "hiking": null, "historic": null, "informal": null, "information": null, "int_name": null, "intermittent": null, "landuse": null, "layer": null, "leisure": null, "motorboat": null, "name": null, "name:prefix": null, "natural": null, "opening_hours": null, "reg_ref": null, "religion": null, "ruins": null, "sac_scale": null, "seasonal": null, "service": null, "ship": null, "source": null, "source:reg_ref": null, "start_date": null, "surface": null, "survey:date": null, "tourism": null, "tracktype": null, "trees": null, "water": null, "waterway": null, "wheelchair": null, "width": null, "label": "amenity:bench" }, "geometry": { "type": "Point", "coordinates": [ 25.4652438, 37.1104146 ] } }
]
}
