{
"type": "FeatureCollection",
"name": "patch_50129_polygon",
"crs": { "type": "name", "properties": { "name": "urn:ogc:def:crs:OGC:1.3:CRS84" } },
"features": [
{ "type": "Feature", "properties": { "osm_id": 1151284788, "name": null, "label": "building:yes", "building": "yes", "landuse": null, "amenity": null, "leisure": null, "natural": null, "shop": null }, "geometry": { "type": "Polygon", "coordinates": [ [ [ 24.1453769, 35.423104399683233 ], [ 24.145527, 35.423100799683226 ], [ 24.1455241, 35.423019999683234 ], [ 24.145374, 35.423023599683219 ], [ 24.1453769, 35.423104399683233 ] ] ] } },
{ "type": "Feature", "properties": { "osm_id": 100031611, "name": null, "label": "landuse:residential", "building": null, "landuse": "residential", "amenity": null, "leisure": null, "natural": null, "shop": null }, "geometry": { "type": "Polygon", "coordinates": [ [ [ 24.1443994, 35.42453759968334 ], [ 24.1450707, 35.42447129968334 ], [ 24.1451474, 35.424756799683372 ], [ 24.145588, 35.424708199683366 ], [ 24.1454541, 35.424204599683321 ], [ 24.1461616, 35.424078499683297 ], [ 24.1461136, 35.423404499683251 ], [ 24.1460057, 35.423013799683233 ], [ 24.1454839, 35.42292309968321 ], [ 24.1453223, 35.422915199683217 ], [ 24.1452048, 35.422353399683175 ], [ 24.145243, 35.422255199683171 ], [ 24.1472131, 35.421337999683089 ], [ 24.1473369, 35.421720899683116 ], [ 24.1478342, 35.421588299683116 ], [ 24.1478627, 35.421005999683054 ], [ 24.1482451, 35.420885799683056 ], [ 24.1480795, 35.420053899682983 ], [ 24.1473363, 35.420327499683012 ], [ 24.1467969, 35.420092999683 ], [ 24.1463533, 35.420298099682995 ], [ 24.1455502, 35.41983899968298 ], [ 24.1452146, 35.420005099682982 ], [ 24.1452505, 35.420229799683 ], [ 24.1448909, 35.420395799683007 ], [ 24.1446114, 35.420308999683009 ], [ 24.1442314, 35.420340799682997 ], [ 24.1442073, 35.420605799683017 ], [ 24.144178104603057, 35.420602393038031 ], [ 24.144178104603057, 35.424232905026685 ], [ 24.1443994, 35.42453759968334 ] ] ] } },
{ "type": "Feature", "properties": { "osm_id": 1446931037, "name": null, "label": "building:yes", "building": "yes", "landuse": null, "amenity": null, "leisure": null, "natural": null, "shop": null }, "geometry": { "type": "Polygon", "coordinates": [ [ [ 24.1466689, 35.433463599684089 ], [ 24.1467926, 35.433449399684079 ], [ 24.146786, 35.433411299684074 ], [ 24.1466623, 35.433425499684077 ], [ 24.1466689, 35.433463599684089 ] ] ] } },
{ "type": "Feature", "properties": { "osm_id": 1225671280, "name": null, "label": "building:yes", "building": "yes", "landuse": null, "amenity": null, "leisure": null, "natural": null, "shop": null }, "geometry": { "type": "Polygon", "coordinates": [ [ [ 24.1535378, 35.431017799683872 ], [ 24.1537228, 35.431013799683896 ], [ 24.1537198, 35.430924499683869 ], [ 24.1535349, 35.430928599683874 ], [ 24.1535378, 35.431017799683872 ] ] ] } },
{ "type": "Feature", "properties": { "osm_id": 1367352557, "name": null, "label": "building:yes", "building": "yes", "landuse": null, "amenity": null, "leisure": null, "natural": null, "shop": null }, "geometry": { "type": "Polygon", "coordinates": [ [ [ 24.1557707, 35.42979909968377 ], [ 24.1558792, 35.429728999683775 ], [ 24.1558137, 35.429663699683765 ], [ 24.1557004, 35.429737799683778 ], [ 24.1557707, 35.42979909968377 ] ] ] } },
{ "type": "Feature", "properties": { "osm_id": 1367352556, "name": null, "label": "building:yes", "building": "yes", "landuse": null, "amenity": null, "leisure": null, "natural": null, "shop": null }, "geometry": { "type": "Polygon", "coordinates": [ [ [ 24.1553438, 35.429825299683777 ], [ 24.1554483, 35.429786299683776 ], [ 24.1554347, 35.42976169968378 ], [ 24.1554581, 35.429751299683772 ], [ 24.1554288, 35.429697999683782 ], [ 24.1552989, 35.42975049968377 ], [ 24.1553438, 35.429825299683777 ] ] ] } },
{ "type": "Feature", "properties": { "osm_id": 1225663195, "name": "Ταβέρνα Δροσοσταλιά", "label": "amenity:restaurant;building:yes", "building": "yes", "landuse": null, "amenity": "restaurant", "leisure": null, "natural": null, "shop": null }, "geometry": { "type": "Polygon", "coordinates": [ [ [ 24.1552906, 35.429558899683755 ], [ 24.1555394, 35.42947149968375 ], [ 24.1554826, 35.42936409968376 ], [ 24.1552338, 35.429451599683745 ], [ 24.1552906, 35.429558899683755 ] ] ] } },
{ "type": "Feature", "properties": { "osm_id": 1225666849, "name": null, "label": "building:yes", "building": "yes", "landuse": null, "amenity": null, "leisure": null, "natural": null, "shop": null }, "geometry": { "type": "Polygon", "coordinates": [ [ [ 24.1557576, 35.429255599683728 ], [ 24.1559286, 35.429236399683731 ], [ 24.155904, 35.429110599683717 ], [ 24.1558106, 35.429132199683728 ], [ 24.1558136, 35.429146699683727 ], [ 24.1557389, 35.429157099683728 ], [ 24.1557576, 35.429255599683728 ] ] ] } },
{ "type": "Feature", "properties": { "osm_id": 1225663193, "name": "Εκκλησία Άγιος Νικόλαος", "label": "amenity:place_of_worship;building:yes", "building": "yes", "landuse": null, "amenity": "place_of_worship", "leisure": null, "natural": null, "shop": null }, "geometry": { "type": "Polygon", "coordinates": [ [ [ 24.1555147, 35.429132799683728 ], [ 24.155735, 35.428971199683708 ], [ 24.1556094, 35.428857599683695 ], [ 24.1553892, 35.429019199683715 ], [ 24.1555147, 35.429132799683728 ] ] ] } },
{ "type": "Feature", "properties": { "osm_id": 1225663194, "name": null, "label": "building:yes", "building": "yes", "landuse": null, "amenity": null, "leisure": null, "natural": null, "shop": null }, "geometry": { "type": "Polygon", "coordinates": [ [ [ 24.1550314, 35.429354399683746 ], [ 24.1551707, 35.429282599683738 ], [ 24.1550862, 35.429173599683722 ], [ 24.1549469, 35.42924539968373 ], [ 24.1550314, 35.429354399683746 ] ] ] } },
{ "type": "Feature", "properties": { "osm_id": 1311531284, "name": null, "label": "leisure:swimming_pool", "building": null, "landuse": null, "amenity": null, "leisure": "swimming_pool", "natural": null, "shop": null }, "geometry": { "type": "Polygon", "coordinates": [ [ [ 24.1551247, 35.426848699683539 ], [ 24.1551317, 35.426845299683535 ], [ 24.1551519, 35.426864699683541 ], [ 24.1551763, 35.426850999683531 ], [ 24.1551798, 35.426832799683538 ], [ 24.155177, 35.426824299683538 ], [ 24.1552063, 35.426806099683525 ], [ 24.1551798, 35.42677429968353 ], [ 24.1550975, 35.42681749968353 ], [ 24.1551247, 35.426848699683539 ] ] ] } },
{ "type": "Feature", "properties": { "osm_id": 1068085612, "name": null, "label": "amenity:parking", "building": null, "landuse": null, "amenity": "parking", "leisure": null, "natural": null, "shop": null }, "geometry": { "type": "Polygon", "coordinates": [ [ [ 24.1511592, 35.416922099682729 ], [ 24.1517077, 35.417021499682726 ], [ 24.1517546, 35.416981099682737 ], [ 24.1511478, 35.416856499682716 ], [ 24.1511592, 35.416922099682729 ] ] ] } },
{ "type": "Feature", "properties": { "osm_id": 531350558, "name": null, "label": "landuse:orchard", "building": null, "landuse": "orchard", "amenity": null, "leisure": null, "natural": null, "shop": null }, "geometry": { "type": "Polygon", "coordinates": [ [ [ 24.1479653, 35.41438879968252 ], [ 24.1481263, 35.414782199682556 ], [ 24.1494025, 35.414695199682548 ], [ 24.1496605, 35.414607399682538 ], [ 24.1498423, 35.414467899682528 ], [ 24.1496492, 35.413820799682483 ], [ 24.149049, 35.413619299682466 ], [ 24.1483618, 35.413619699682449 ], [ 24.1480614, 35.413654699682461 ], [ 24.1477722, 35.413750499682472 ], [ 24.1479653, 35.41438879968252 ] ] ] } },
{ "type": "Feature", "properties": { "osm_id": 1151284774, "name": null, "label": "natural:wood", "building": null, "landuse": null, "amenity": null, "leisure": null, "natural": "wood", "shop": null }, "geometry": { "type": "Polygon", "coordinates": [ [ [ 24.146402, 35.412530699682378 ], [ 24.1464909, 35.412641999682386 ], [ 24.1465545, 35.412745499682394 ], [ 24.1465672, 35.412823199682386 ], [ 24.1465577, 35.412916399682409 ], [ 24.1466371, 35.412973299682399 ], [ 24.1467387, 35.413022499682405 ], [ 24.1468086, 35.413071699682419 ], [ 24.1469102, 35.413009599682411 ], [ 24.1469357, 35.412926699682401 ], [ 24.1469325, 35.412828399682397 ], [ 24.1469357, 35.412755899682388 ], [ 24.1470564, 35.412771399682391 ], [ 24.1471421, 35.412732599682386 ], [ 24.1471866, 35.412657499682375 ], [ 24.1472025, 35.412577299682376 ], [ 24.1472755, 35.412522899682365 ], [ 24.1473168, 35.412442599682372 ], [ 24.1472851, 35.412411599682358 ], [ 24.147212, 35.412447799682369 ], [ 24.1471516, 35.412377899682362 ], [ 24.1471326, 35.412305399682353 ], [ 24.1470595, 35.412245899682347 ], [ 24.1469769, 35.412235499682353 ], [ 24.1469293, 35.412289899682357 ], [ 24.1469134, 35.412388299682362 ], [ 24.1464592, 35.41236499968236 ], [ 24.1463639, 35.412424499682366 ], [ 24.146402, 35.412530699682378 ] ] ] } },
{ "type": "Feature", "properties": { "osm_id": 531350557, "name": null, "label": "landuse:orchard", "building": null, "landuse": "orchard", "amenity": null, "leisure": null, "natural": null, "shop": null }, "geometry": { "type": "Polygon", "coordinates": [ [ [ 24.1482657, 35.412648699682372 ], [ 24.1495205, 35.412719099682384 ], [ 24.1495205, 35.412316899682359 ], [ 24.1490377, 35.412290699682352 ], [ 24.1486198, 35.412167799682344 ], [ 24.1483301, 35.412124099682337 ], [ 24.1482652, 35.412386799682366 ], [ 24.1482657, 35.412648699682372 ] ] ] } },
{ "type": "Feature", "properties": { "osm_id": 1311531292, "name": null, "label": "leisure:swimming_pool", "building": null, "landuse": null, "amenity": null, "leisure": "swimming_pool", "natural": null, "shop": null }, "geometry": { "type": "Polygon", "coordinates": [ [ [ 24.1655846, 35.423909299683302 ], [ 24.1655972, 35.423899299683292 ], [ 24.1655969, 35.423891499683293 ], [ 24.1655919, 35.423887799683307 ], [ 24.1655846, 35.423884999683295 ], [ 24.16557, 35.423894999683299 ], [ 24.1655846, 35.423909299683302 ] ] ] } },
{ "type": "Feature", "properties": { "osm_id": 1311531291, "name": null, "label": "leisure:swimming_pool", "building": null, "landuse": null, "amenity": null, "leisure": "swimming_pool", "natural": null, "shop": null }, "geometry": { "type": "Polygon", "coordinates": [ [ [ 24.165534, 35.423961799683291 ], [ 24.1655808, 35.423912499683297 ], [ 24.1655651, 35.423898399683296 ], [ 24.1655099, 35.423925899683304 ], [ 24.165534, 35.423961799683291 ] ] ] } },
{ "type": "Feature", "properties": { "osm_id": 1311531839, "name": null, "label": "leisure:swimming_pool", "building": null, "landuse": null, "amenity": null, "leisure": "swimming_pool", "natural": null, "shop": null }, "geometry": { "type": "Polygon", "coordinates": [ [ [ 24.1695601, 35.424492299683337 ], [ 24.1696137, 35.424476199683355 ], [ 24.1695657, 35.42439039968334 ], [ 24.1695196, 35.424404899683338 ], [ 24.1695601, 35.424492299683337 ] ] ] } },
{ "type": "Feature", "properties": { "osm_id": 819052630, "name": null, "label": "amenity:parking", "building": null, "landuse": null, "amenity": "parking", "leisure": null, "natural": null, "shop": null }, "geometry": { "type": "Polygon", "coordinates": [ [ [ 24.1678437, 35.429353799683746 ], [ 24.1684314, 35.428897199683703 ], [ 24.1684156, 35.428885499683709 ], [ 24.1682787, 35.428968799683709 ], [ 24.1681291, 35.429087599683719 ], [ 24.1679546, 35.429219199683729 ], [ 24.1678192, 35.429342799683752 ], [ 24.1678437, 35.429353799683746 ] ] ] } },
{ "type": "Feature", "properties": { "osm_id": 1311531290, "name": null, "label": "leisure:swimming_pool", "building": null, "landuse": null, "amenity": null, "leisure": "swimming_pool", "natural": null, "shop": null }, "geometry": { "type": "Polygon", "coordinates": [ [ [ 24.1631845, 35.424597299683356 ], [ 24.1632871, 35.424575899683347 ], [ 24.1632751, 35.424538499683351 ], [ 24.1631703, 35.424558999683349 ], [ 24.1631845, 35.424597299683356 ] ] ] } },
{ "type": "Feature", "properties": { "osm_id": 1068085611, "name": null, "label": "amenity:parking", "building": null, "landuse": null, "amenity": "parking", "leisure": null, "natural": null, "shop": null }, "geometry": { "type": "Polygon", "coordinates": [ [ [ 24.1636348, 35.422005699683133 ], [ 24.1643563, 35.422247299683157 ], [ 24.1644126, 35.422187199683158 ], [ 24.1634068, 35.421812299683126 ], [ 24.1633773, 35.421866899683131 ], [ 24.1636348, 35.422005699683133 ] ] ] } },
{ "type": "Feature", "properties": { "osm_id": 1311531289, "name": null, "label": "leisure:swimming_pool", "building": null, "landuse": null, "amenity": null, "leisure": "swimming_pool", "natural": null, "shop": null }, "geometry": { "type": "Polygon", "coordinates": [ [ [ 24.159944, 35.425788799683453 ], [ 24.1599789, 35.425778299683451 ], [ 24.1599529, 35.42572349968345 ], [ 24.1599189, 35.425732699683444 ], [ 24.159944, 35.425788799683453 ] ] ] } },
{ "type": "Feature", "properties": { "osm_id": 1311531288, "name": null, "label": "leisure:swimming_pool", "building": null, "landuse": null, "amenity": null, "leisure": "swimming_pool", "natural": null, "shop": null }, "geometry": { "type": "Polygon", "coordinates": [ [ [ 24.1594024, 35.424655099683356 ], [ 24.1594512, 35.424645399683364 ], [ 24.1594665, 35.42468459968336 ], [ 24.1595167, 35.424669799683357 ], [ 24.1594895, 35.424597699683346 ], [ 24.1593898, 35.424623299683354 ], [ 24.1594024, 35.424655099683356 ] ] ] } },
{ "type": "Feature", "properties": { "osm_id": 1311531287, "name": null, "label": "leisure:swimming_pool", "building": null, "landuse": null, "amenity": null, "leisure": "swimming_pool", "natural": null, "shop": null }, "geometry": { "type": "Polygon", "coordinates": [ [ [ 24.1595959, 35.425032899683394 ], [ 24.1596043, 35.425039699683396 ], [ 24.1596175, 35.425045399683391 ], [ 24.1596294, 35.42504649968339 ], [ 24.1596412, 35.425106199683398 ], [ 24.1596907, 35.425101099683388 ], [ 24.1596803, 35.425021499683389 ], [ 24.1596468, 35.425022699683396 ], [ 24.1596322, 35.425011899683383 ], [ 24.1596175, 35.425007299683386 ], [ 24.1596029, 35.425010699683391 ], [ 24.1595959, 35.425019299683399 ], [ 24.1595959, 35.425032899683394 ] ] ] } },
{ "type": "Feature", "properties": { "osm_id": 1311531286, "name": null, "label": "leisure:swimming_pool", "building": null, "landuse": null, "amenity": null, "leisure": "swimming_pool", "natural": null, "shop": null }, "geometry": { "type": "Polygon", "coordinates": [ [ [ 24.1587048, 35.42589339968346 ], [ 24.1587693, 35.42582749968345 ], [ 24.1587376, 35.425808899683453 ], [ 24.1586742, 35.425868499683453 ], [ 24.1587048, 35.42589339968346 ] ] ] } },
{ "type": "Feature", "properties": { "osm_id": 1311531285, "name": null, "label": "leisure:swimming_pool", "building": null, "landuse": null, "amenity": null, "leisure": "swimming_pool", "natural": null, "shop": null }, "geometry": { "type": "Polygon", "coordinates": [ [ [ 24.1565212, 35.425804799683455 ], [ 24.15661, 35.425780999683454 ], [ 24.1565973, 35.425748999683456 ], [ 24.156506, 35.425766599683456 ], [ 24.1565212, 35.425804799683455 ] ] ] } },
{ "type": "Feature", "properties": { "osm_id": 1225665310, "name": null, "label": "amenity:restaurant;building:yes", "building": "yes", "landuse": null, "amenity": "restaurant", "leisure": null, "natural": null, "shop": null }, "geometry": { "type": "Polygon", "coordinates": [ [ [ 24.1559247, 35.429834799683796 ], [ 24.1559247, 35.429889199683785 ], [ 24.1559689, 35.429926899683785 ], [ 24.1560977, 35.429850799683777 ], [ 24.1559758, 35.429724999683771 ], [ 24.1558844, 35.429789499683771 ], [ 24.1559247, 35.429834799683796 ] ] ] } },
{ "type": "Feature", "properties": { "osm_id": 1225665311, "name": "Αγίου Ιωάννη του Θεολόγου", "label": "amenity:place_of_worship;building:yes", "building": "yes", "landuse": null, "amenity": "place_of_worship", "leisure": null, "natural": null, "shop": null }, "geometry": { "type": "Polygon", "coordinates": [ [ [ 24.1560072, 35.429982199683785 ], [ 24.1561508, 35.429952899683798 ], [ 24.1561342, 35.429898899683785 ], [ 24.1559906, 35.429928199683793 ], [ 24.1560072, 35.429982199683785 ] ] ] } },
{ "type": "Feature", "properties": { "osm_id": 1225666850, "name": "Καραβελακης", "label": "shop:convenience;building:yes", "building": "yes", "landuse": null, "amenity": null, "leisure": null, "natural": null, "shop": "convenience" }, "geometry": { "type": "Polygon", "coordinates": [ [ [ 24.156116, 35.429739099683772 ], [ 24.1562257, 35.429658699683763 ], [ 24.1561766, 35.429614199683769 ], [ 24.1560669, 35.429694599683771 ], [ 24.156116, 35.429739099683772 ] ] ] } },
{ "type": "Feature", "properties": { "osm_id": 100031553, "name": null, "label": "landuse:residential", "building": null, "landuse": "residential", "amenity": null, "leisure": null, "natural": null, "shop": null }, "geometry": { "type": "Polygon", "coordinates": [ [ [ 24.1555655, 35.430055499683803 ], [ 24.1561755, 35.431087799683873 ], [ 24.1565618, 35.432635699684006 ], [ 24.158877, 35.433166699684051 ], [ 24.1599905, 35.43161199968393 ], [ 24.1603345, 35.429983399683792 ], [ 24.1608332, 35.429131899683732 ], [ 24.1610189, 35.428872499683706 ], [ 24.1605282, 35.428256399683647 ], [ 24.1603292, 35.427910599683621 ], [ 24.1603292, 35.427294499683569 ], [ 24.1601568, 35.427013499683547 ], [ 24.1594936, 35.426645999683515 ], [ 24.1586978, 35.42699189968355 ], [ 24.1579019, 35.427262099683574 ], [ 24.156867, 35.427495799683598 ], [ 24.1571261, 35.428734399683691 ], [ 24.1558543, 35.42865319968368 ], [ 24.1534827, 35.427361199683567 ], [ 24.1532582, 35.428063399683637 ], [ 24.1555655, 35.430055499683803 ] ] ] } },
{ "type": "Feature", "properties": { "osm_id": 1225671284, "name": "Κτήμα Ρωξανη", "label": "amenity:events_venue;building:yes", "building": "yes", "landuse": null, "amenity": "events_venue", "leisure": null, "natural": null, "shop": null }, "geometry": { "type": "Polygon", "coordinates": [ [ [ 24.1588344, 35.42916029968373 ], [ 24.1589281, 35.429150199683725 ], [ 24.1589135, 35.429060399683721 ], [ 24.1588198, 35.429070499683718 ], [ 24.1588344, 35.42916029968373 ] ] ] } },
{ "type": "Feature", "properties": { "osm_id": 1225671286, "name": null, "label": "building:yes", "building": "yes", "landuse": null, "amenity": null, "leisure": null, "natural": null, "shop": null }, "geometry": { "type": "Polygon", "coordinates": [ [ [ 24.159143, 35.429187899683733 ], [ 24.1592526, 35.429151299683738 ], [ 24.1592169, 35.42908039968372 ], [ 24.1591073, 35.429117099683722 ], [ 24.159143, 35.429187899683733 ] ] ] } },
{ "type": "Feature", "properties": { "osm_id": 1311531283, "name": null, "label": "leisure:swimming_pool", "building": null, "landuse": null, "amenity": null, "leisure": "swimming_pool", "natural": null, "shop": null }, "geometry": { "type": "Polygon", "coordinates": [ [ [ 24.1591757, 35.429467599683747 ], [ 24.1591927, 35.429472299683752 ], [ 24.1592113, 35.429464399683752 ], [ 24.1592647, 35.429423399683749 ], [ 24.1592299, 35.429395699683752 ], [ 24.1591716, 35.42943929968375 ], [ 24.1591676, 35.429455799683751 ], [ 24.1591757, 35.429467599683747 ] ] ] } },
{ "type": "Feature", "properties": { "osm_id": 1225671285, "name": null, "label": "building:yes", "building": "yes", "landuse": null, "amenity": null, "leisure": null, "natural": null, "shop": null }, "geometry": { "type": "Polygon", "coordinates": [ [ [ 24.1591268, 35.429027099683715 ], [ 24.1592401, 35.428977799683707 ], [ 24.159188, 35.428898399683703 ], [ 24.1590747, 35.42894759968371 ], [ 24.1591268, 35.429027099683715 ] ] ] } },
{ "type": "Feature", "properties": { "osm_id": 1225664082, "name": null, "label": "landuse:cemetery", "building": null, "landuse": "cemetery", "amenity": null, "leisure": null, "natural": null, "shop": null }, "geometry": { "type": "Polygon", "coordinates": [ [ [ 24.1588283, 35.43310459968405 ], [ 24.1589028, 35.432952299684032 ], [ 24.1588578, 35.432492599684004 ], [ 24.1587176, 35.432343099683976 ], [ 24.1586085, 35.432283899683981 ], [ 24.1585445, 35.432292399684002 ], [ 24.1586241, 35.432647699684019 ], [ 24.1584804, 35.43302289968404 ], [ 24.1588283, 35.43310459968405 ] ] ] } },
{ "type": "Feature", "properties": { "osm_id": 1225664081, "name": null, "label": "amenity:place_of_worship;building:yes", "building": "yes", "landuse": null, "amenity": "place_of_worship", "leisure": null, "natural": null, "shop": null }, "geometry": { "type": "Polygon", "coordinates": [ [ [ 24.1587823, 35.433023999684039 ], [ 24.1588333, 35.432924299684046 ], [ 24.1586695, 35.432881799684026 ], [ 24.1586327, 35.432987199684042 ], [ 24.1587823, 35.433023999684039 ] ] ] } },
{ "type": "Feature", "properties": { "osm_id": 1225671277, "name": "του Μιχάλη", "label": "amenity:cafe;building:yes", "building": "yes", "landuse": null, "amenity": "cafe", "leisure": null, "natural": null, "shop": null }, "geometry": { "type": "Polygon", "coordinates": [ [ [ 24.1563055, 35.430092999683801 ], [ 24.1563637, 35.430061199683799 ], [ 24.1563265, 35.430016099683804 ], [ 24.1562683, 35.4300478996838 ], [ 24.1563055, 35.430092999683801 ] ] ] } },
{ "type": "Feature", "properties": { "osm_id": 1225671278, "name": "Κρεοπωλείον Γαλακτοκομικά \"Ο Κουτσούπης\"", "label": "shop:butcher;building:yes", "building": "yes", "landuse": null, "amenity": null, "leisure": null, "natural": null, "shop": "butcher" }, "geometry": { "type": "Polygon", "coordinates": [ [ [ 24.1560292, 35.430142899683815 ], [ 24.1561186, 35.430123299683807 ], [ 24.1560956, 35.430053799683805 ], [ 24.1560062, 35.4300734996838 ], [ 24.1560292, 35.430142899683815 ] ] ] } },
{ "type": "Feature", "properties": { "osm_id": 1225671279, "name": null, "label": "amenity:parking", "building": null, "landuse": null, "amenity": "parking", "leisure": null, "natural": null, "shop": null }, "geometry": { "type": "Polygon", "coordinates": [ [ [ 24.1560024, 35.430622699683845 ], [ 24.1563561, 35.430529199683846 ], [ 24.1563014, 35.430381399683824 ], [ 24.1559089, 35.430492999683835 ], [ 24.1558639, 35.430580399683841 ], [ 24.1560024, 35.430622699683845 ] ] ] } },
{ "type": "Feature", "properties": { "osm_id": 1225671281, "name": null, "label": "building:yes", "building": "yes", "landuse": null, "amenity": null, "leisure": null, "natural": null, "shop": null }, "geometry": { "type": "Polygon", "coordinates": [ [ [ 24.1577699, 35.434406799684155 ], [ 24.1579094, 35.43430669968415 ], [ 24.157862, 35.434262899684136 ], [ 24.1577225, 35.434362999684147 ], [ 24.1577699, 35.434406799684155 ] ] ] } },
{ "type": "Feature", "properties": { "osm_id": 1225671282, "name": null, "label": "building:yes", "building": "yes", "landuse": null, "amenity": null, "leisure": null, "natural": null, "shop": null }, "geometry": { "type": "Polygon", "coordinates": [ [ [ 24.1579035, 35.434205699684142 ], [ 24.1579555, 35.434174399684139 ], [ 24.1579117, 35.434125999684142 ], [ 24.1578596, 35.434157299684138 ], [ 24.1579035, 35.434205699684142 ] ] ] } },
{ "type": "Feature", "properties": { "osm_id": 819052626, "name": null, "label": "amenity:parking", "building": null, "landuse": null, "amenity": "parking", "leisure": null, "natural": null, "shop": null }, "geometry": { "type": "Polygon", "coordinates": [ [ [ 24.1661892, 35.434469199684159 ], [ 24.1661841, 35.434321099684148 ], [ 24.1661699, 35.434128099684131 ], [ 24.1661367, 35.433964099684118 ], [ 24.1661222, 35.433845799684121 ], [ 24.1660657, 35.433556999684093 ], [ 24.1660159, 35.433298399684048 ], [ 24.1659781, 35.433118999684055 ], [ 24.1659188, 35.432889399684029 ], [ 24.165922, 35.433162999684058 ], [ 24.1659676, 35.433536499684102 ], [ 24.1660162, 35.433840799684113 ], [ 24.166086, 35.434137699684129 ], [ 24.1661285, 35.43440739968414 ], [ 24.166146843511441, 35.434496202276001 ], [ 24.166187892960956, 35.434496202276001 ], [ 24.1661892, 35.434469199684159 ] ] ] } }
]
}
