{
"type": "FeatureCollection",
"name": "patch_37104_features",
"crs": { "type": "name", "properties": { "name": "urn:ogc:def:crs:OGC:1.3:CRS84" } },
"features": [
{ "type": "Feature", "properties": { "@type": "way", "@id": 27785441, "boundary": null, "ele": null, "highway": null, "intermittent": null, "leaf_type": null, "leisure": null, "lit": null, "name": null, "name:de": null, "name:el": null, "name:en": null, "natural": null, "smoothness": null, "source": null, "waterway": "stream", "width": "1", "wikidata": null, "wikipedia": null, "label": "waterway:stream" }, "geometry": { "type": "LineString", "coordinates": [ [ 20.9497624, 39.7119951 ], [ 20.9507871, 39.7119229 ], [ 20.9512702, 39.712136 ], [ 20.9521214, 39.7121857 ], [ 20.952217306751404, 39.712218398271958 ] ] } },
{ "type": "Feature", "properties": { "@type": "way", "@id": 867307215, "boundary": null, "ele": null, "highway": null, "intermittent": "yes", "leaf_type": null, "leisure": null, "lit": null, "name": null, "name:de": null, "name:el": null, "name:en": null, "natural": null, "smoothness": null, "source": null, "waterway": "stream", "width": null, "wikidata": null, "wikipedia": null, "label": "waterway:stream" }, "geometry": { "type": "LineString", "coordinates": [ [ 20.9301226, 39.7190354 ], [ 20.9303545, 39.7190407 ], [ 20.9306138, 39.7191299 ], [ 20.9309003, 39.7194028 ], [ 20.9311118, 39.7197176 ], [ 20.9312619, 39.7203106 ], [ 20.9313778, 39.7205677 ], [ 20.9315552, 39.7207618 ], [ 20.9317053, 39.7209665 ], [ 20.9319714, 39.7211711 ], [ 20.9324216, 39.721339 ], [ 20.932715, 39.7214965 ], [ 20.9329128, 39.7217326 ], [ 20.9329732, 39.721919 ], [ 20.9328446, 39.7222101 ], [ 20.9328446, 39.7223203 ], [ 20.9329401, 39.7225144 ], [ 20.9329469, 39.7227873 ], [ 20.9330083, 39.7229919 ], [ 20.9331652, 39.7232123 ], [ 20.9331789, 39.723354 ], [ 20.9331789, 39.7234956 ], [ 20.9332607, 39.7236111 ], [ 20.9334176, 39.7236583 ], [ 20.9337792, 39.7236845 ], [ 20.9340453, 39.7238052 ], [ 20.9342295, 39.7239626 ], [ 20.9344137, 39.7241043 ], [ 20.9346115, 39.7242813 ], [ 20.9348571, 39.7244086 ], [ 20.935246, 39.724566 ], [ 20.9354916, 39.7247025 ], [ 20.9356212, 39.7248284 ], [ 20.9356485, 39.7249281 ], [ 20.9355802, 39.7251065 ], [ 20.9355802, 39.7252272 ], [ 20.9358395, 39.7254895 ], [ 20.935854764782942, 39.725524732164054 ] ] } },
{ "type": "Feature", "properties": { "@type": "way", "@id": 136655941, "boundary": null, "ele": null, "highway": null, "intermittent": null, "leaf_type": "broadleaved", "leisure": null, "lit": null, "name": null, "name:de": null, "name:el": null, "name:en": null, "natural": "wood", "smoothness": null, "source": "http://geodata.gov.gr/", "waterway": null, "width": null, "wikidata": null, "wikipedia": null, "label": "natural:wood" }, "geometry": { "type": "MultiPolygon", "coordinates": [ [ [ [ 20.952011, 39.706683 ], [ 20.951456, 39.706523 ], [ 20.950802, 39.70647 ], [ 20.950247, 39.706311 ], [ 20.949708, 39.70579 ], [ 20.9492, 39.705632 ], [ 20.948637, 39.705653 ], [ 20.947689, 39.705918 ], [ 20.947071, 39.706119 ], [ 20.946416, 39.706101 ], [ 20.94548, 39.706077 ], [ 20.945245, 39.706107 ], [ 20.944206, 39.706296 ], [ 20.943816, 39.706648 ], [ 20.943795, 39.707118 ], [ 20.944103, 39.70756 ], [ 20.944923, 39.708088 ], [ 20.946062, 39.708805 ], [ 20.945764, 39.709195 ], [ 20.944864, 39.709425 ], [ 20.94393, 39.709364 ], [ 20.943002, 39.709159 ], [ 20.942171, 39.708884 ], [ 20.941471, 39.708829 ], [ 20.941282, 39.70886 ], [ 20.941168, 39.709328 ], [ 20.940957, 39.709865 ], [ 20.940576, 39.709999 ], [ 20.939924, 39.70991 ], [ 20.938897, 39.709846 ], [ 20.938474, 39.709872 ], [ 20.938226, 39.710191 ], [ 20.938255, 39.710589 ], [ 20.938649, 39.711215 ], [ 20.939473, 39.711634 ], [ 20.940077, 39.711759 ], [ 20.940703, 39.712427 ], [ 20.940395, 39.713033 ], [ 20.93911, 39.713506 ], [ 20.938224, 39.71341 ], [ 20.937919, 39.712896 ], [ 20.937794, 39.712531 ], [ 20.937536, 39.712017 ], [ 20.937259, 39.711938 ], [ 20.936884, 39.711928 ], [ 20.93632, 39.711985 ], [ 20.935815, 39.711755 ], [ 20.935923, 39.711432 ], [ 20.936568, 39.710617 ], [ 20.936785, 39.709935 ], [ 20.936666, 39.709462 ], [ 20.936299, 39.709271 ], [ 20.93547, 39.709041 ], [ 20.933367, 39.710374 ], [ 20.932851, 39.710929 ], [ 20.932259, 39.711549 ], [ 20.931407, 39.712154 ], [ 20.930452, 39.712537 ], [ 20.93036, 39.713642 ], [ 20.931376, 39.714515 ], [ 20.931954, 39.714531 ], [ 20.932887, 39.714667 ], [ 20.933535, 39.71474 ], [ 20.934742, 39.715218 ], [ 20.935571, 39.716078 ], [ 20.935104, 39.716847 ], [ 20.934867, 39.717287 ], [ 20.935428, 39.717692 ], [ 20.936939, 39.717844 ], [ 20.938094, 39.717875 ], [ 20.939458, 39.718078 ], [ 20.940163, 39.718487 ], [ 20.9402082, 39.7192401 ], [ 20.939105, 39.71952 ], [ 20.936778, 39.719849 ], [ 20.935625, 39.719763 ], [ 20.934913, 39.719521 ], [ 20.933715, 39.718819 ], [ 20.932973, 39.717628 ], [ 20.93188, 39.716203 ], [ 20.930543, 39.715386 ], [ 20.929813, 39.715535 ], [ 20.928867, 39.715677 ], [ 20.928511, 39.715556 ], [ 20.927964, 39.714872 ], [ 20.927702, 39.714251 ], [ 20.927516, 39.713251 ], [ 20.926612, 39.713353 ], [ 20.925373, 39.713636 ], [ 20.924821, 39.714214 ], [ 20.925772, 39.714839 ], [ 20.926165, 39.715164 ], [ 20.926342, 39.716679 ], [ 20.926533, 39.71788 ], [ 20.927408, 39.718343 ], [ 20.928562, 39.718059 ], [ 20.928761, 39.717246 ], [ 20.929104, 39.716847 ], [ 20.929759, 39.71677 ], [ 20.930144, 39.717283 ], [ 20.930691, 39.717801 ], [ 20.931396, 39.718449 ], [ 20.932086, 39.719411 ], [ 20.932221, 39.720043 ], [ 20.93276, 39.72075 ], [ 20.933285, 39.72177 ], [ 20.9329732, 39.721919 ], [ 20.932536, 39.722128 ], [ 20.932053, 39.721989 ], [ 20.931576, 39.721725 ], [ 20.930785, 39.721201 ], [ 20.930145, 39.720932 ], [ 20.92909, 39.720841 ], [ 20.928849, 39.720772 ], [ 20.927476, 39.720484 ], [ 20.926923, 39.720092 ], [ 20.926539, 39.719578 ], [ 20.926143, 39.719316 ], [ 20.925818, 39.719308 ], [ 20.92513, 39.720107 ], [ 20.924715, 39.720836 ], [ 20.924646, 39.721137 ], [ 20.924199, 39.721125 ], [ 20.923874, 39.7209 ], [ 20.923442, 39.720543 ], [ 20.922436, 39.720517 ], [ 20.922371711254797, 39.720534946328165 ], [ 20.922371711254797, 39.725524732164054 ], [ 20.933371706045953, 39.725524732164054 ], [ 20.933949, 39.725185 ], [ 20.934052, 39.724685 ], [ 20.9346115, 39.7242813 ], [ 20.934641, 39.72426 ], [ 20.935211, 39.724275 ], [ 20.935786, 39.724164 ], [ 20.936384, 39.723551 ], [ 20.93754, 39.723204 ], [ 20.939086, 39.723245 ], [ 20.940287, 39.723717 ], [ 20.941505, 39.723812 ], [ 20.941994, 39.723825 ], [ 20.942154, 39.723892 ], [ 20.94377, 39.724186 ], [ 20.944626, 39.72509 ], [ 20.945045911749368, 39.725524732164054 ], [ 20.952217306751404, 39.725524732164054 ], [ 20.952217306751404, 39.714683110020196 ], [ 20.950796, 39.715027 ], [ 20.950119, 39.715624 ], [ 20.949418, 39.716777 ], [ 20.949309, 39.717612 ], [ 20.949426, 39.718229 ], [ 20.948543, 39.718596 ], [ 20.948179, 39.718643 ], [ 20.946947, 39.718722 ], [ 20.945633, 39.719022 ], [ 20.945558, 39.719076 ], [ 20.94561, 39.719524 ], [ 20.945817, 39.719753 ], [ 20.945506, 39.720247 ], [ 20.944635, 39.720336 ], [ 20.943798, 39.719644 ], [ 20.94328, 39.71829 ], [ 20.943317, 39.717454 ], [ 20.943488, 39.716845 ], [ 20.943498, 39.716622 ], [ 20.943737, 39.716125 ], [ 20.944401, 39.715808 ], [ 20.946236, 39.715187 ], [ 20.94697, 39.714927 ], [ 20.947574, 39.714329 ], [ 20.947392, 39.713542 ], [ 20.947352, 39.712816 ], [ 20.947384, 39.712091 ], [ 20.947406, 39.711589 ], [ 20.947747, 39.710426 ], [ 20.948953, 39.709285 ], [ 20.950409, 39.709045 ], [ 20.950698, 39.709052 ], [ 20.950733, 39.70989 ], [ 20.949686, 39.7107 ], [ 20.949285, 39.711583 ], [ 20.949415, 39.711921 ], [ 20.949988, 39.712048 ], [ 20.95167, 39.71159 ], [ 20.952217306751404, 39.711021828181828 ], [ 20.952217306751404, 39.706999912272117 ], [ 20.952011, 39.706683 ] ] ], [ [ [ 20.952066, 39.704369 ], [ 20.951724, 39.704685 ], [ 20.951622, 39.704864 ], [ 20.951798, 39.705121 ], [ 20.952217306751404, 39.705308440463618 ], [ 20.952217306751404, 39.704315279745828 ], [ 20.952066, 39.704369 ] ] ] ] } },
{ "type": "Feature", "properties": { "@type": "way", "@id": 1231313282, "boundary": null, "ele": null, "highway": null, "intermittent": null, "leaf_type": null, "leisure": null, "lit": null, "name": null, "name:de": null, "name:el": null, "name:en": null, "natural": "scree", "smoothness": null, "source": null, "waterway": null, "width": null, "wikidata": null, "wikipedia": null, "label": "natural:scree" }, "geometry": { "type": "MultiPolygon", "coordinates": [ [ [ [ 20.9224415, 39.7082236 ], [ 20.9225956, 39.7082308 ], [ 20.9227287, 39.7082721 ], [ 20.9227964, 39.7083027 ], [ 20.9228922, 39.7083476 ], [ 20.9230323, 39.7083853 ], [ 20.9231303, 39.7084356 ], [ 20.9232074, 39.7084697 ], [ 20.9233241, 39.7084877 ], [ 20.9234199, 39.7085236 ], [ 20.9234759, 39.708529 ], [ 20.9235063, 39.7085218 ], [ 20.9235623, 39.7085506 ], [ 20.9236183, 39.7085847 ], [ 20.923581, 39.7085344 ], [ 20.9235086, 39.7084733 ], [ 20.9233241, 39.7083889 ], [ 20.9231443, 39.7082847 ], [ 20.9229879, 39.7081608 ], [ 20.9228385, 39.7080117 ], [ 20.9226143, 39.7078356 ], [ 20.9226166, 39.7078051 ], [ 20.9228151, 39.707929 ], [ 20.9229902, 39.7080242 ], [ 20.9231373, 39.7080979 ], [ 20.9232284, 39.7080997 ], [ 20.9233451, 39.7081105 ], [ 20.9234409, 39.7081554 ], [ 20.9233685, 39.7080602 ], [ 20.9232424, 39.70792 ], [ 20.9230603, 39.7078105 ], [ 20.9227217, 39.7076416 ], [ 20.922682, 39.7075662 ], [ 20.9225583, 39.7074925 ], [ 20.9225139, 39.7074548 ], [ 20.9225629, 39.7074476 ], [ 20.9226703, 39.7075069 ], [ 20.9228244, 39.7075931 ], [ 20.9230439, 39.7076542 ], [ 20.9231467, 39.7076757 ], [ 20.9232144, 39.7077206 ], [ 20.9232284, 39.7077512 ], [ 20.9232704, 39.7077799 ], [ 20.9232494, 39.7076398 ], [ 20.9232004, 39.7075733 ], [ 20.9231817, 39.707471 ], [ 20.9230416, 39.7071782 ], [ 20.9227567, 39.7068081 ], [ 20.9224859, 39.7064812 ], [ 20.922371711254797, 39.706311802351671 ], [ 20.922371711254797, 39.708208383911689 ], [ 20.9224415, 39.7082236 ] ] ], [ [ [ 20.9225349, 39.708644 ], [ 20.9228174, 39.7087859 ], [ 20.9229786, 39.7088757 ], [ 20.9229435, 39.70882 ], [ 20.9228244, 39.7087464 ], [ 20.9228361, 39.7087014 ], [ 20.9228898, 39.7086745 ], [ 20.9228992, 39.7086278 ], [ 20.9229575, 39.7086386 ], [ 20.9230836, 39.7086242 ], [ 20.9229295, 39.7085955 ], [ 20.9228805, 39.7085955 ], [ 20.9227217, 39.7085649 ], [ 20.922612, 39.7085236 ], [ 20.922371711254797, 39.708384032345492 ], [ 20.922371711254797, 39.708539508374592 ], [ 20.9225349, 39.708644 ] ] ], [ [ [ 20.9223785, 39.7095134 ], [ 20.9224742, 39.7095727 ], [ 20.922633, 39.7096355 ], [ 20.9227567, 39.7097379 ], [ 20.9228828, 39.7097541 ], [ 20.923079, 39.7097325 ], [ 20.9232844, 39.709684 ], [ 20.9234572, 39.7095942 ], [ 20.9235973, 39.7095349 ], [ 20.9237351, 39.709499 ], [ 20.9239079, 39.7095295 ], [ 20.9239663, 39.7095619 ], [ 20.9238168, 39.7096194 ], [ 20.9237421, 39.7096625 ], [ 20.9238939, 39.709675 ], [ 20.9239943, 39.709693 ], [ 20.9238098, 39.7096894 ], [ 20.9237398, 39.7097092 ], [ 20.9237795, 39.7097559 ], [ 20.9239172, 39.7098601 ], [ 20.9240036, 39.7099193 ], [ 20.9241811, 39.7100307 ], [ 20.9242932, 39.7101511 ], [ 20.924501, 39.7102247 ], [ 20.9246761, 39.7102373 ], [ 20.9248839, 39.7102229 ], [ 20.9249003, 39.7102391 ], [ 20.9248746, 39.7102624 ], [ 20.9247952, 39.7102732 ], [ 20.9246714, 39.710284 ], [ 20.9245267, 39.7103019 ], [ 20.9243725, 39.7103073 ], [ 20.9243422, 39.7103522 ], [ 20.9243188, 39.71039 ], [ 20.9241974, 39.7104367 ], [ 20.9241577, 39.710478 ], [ 20.924111, 39.7105301 ], [ 20.9240386, 39.7105858 ], [ 20.9239499, 39.7106271 ], [ 20.9237841, 39.7106828 ], [ 20.92402, 39.7106468 ], [ 20.9240503, 39.7106953 ], [ 20.9240994, 39.7106846 ], [ 20.9242698, 39.7106379 ], [ 20.9243912, 39.7106127 ], [ 20.9244823, 39.7106019 ], [ 20.924494, 39.7106325 ], [ 20.9244403, 39.7107205 ], [ 20.9244216, 39.7107834 ], [ 20.9245197, 39.7106756 ], [ 20.9246037, 39.7105786 ], [ 20.9246831, 39.7104888 ], [ 20.9248185, 39.7103989 ], [ 20.9249983, 39.7103145 ], [ 20.9251174, 39.7103109 ], [ 20.9251338, 39.7103307 ], [ 20.9250474, 39.7103756 ], [ 20.924947, 39.7104385 ], [ 20.9248979, 39.7105247 ], [ 20.9248419, 39.7106109 ], [ 20.9247695, 39.7106917 ], [ 20.9247368, 39.7107564 ], [ 20.9248139, 39.7107708 ], [ 20.9248769, 39.7107474 ], [ 20.9248676, 39.7108714 ], [ 20.9249376, 39.7108588 ], [ 20.9249376, 39.710778 ], [ 20.9249843, 39.7107097 ], [ 20.9250614, 39.7106612 ], [ 20.9250801, 39.7105786 ], [ 20.9251664, 39.7104744 ], [ 20.9252715, 39.7104277 ], [ 20.9253813, 39.7104151 ], [ 20.9255167, 39.7104331 ], [ 20.9256638, 39.7104528 ], [ 20.9256661, 39.7104995 ], [ 20.9255938, 39.7105983 ], [ 20.9255961, 39.710654 ], [ 20.9257175, 39.7106953 ], [ 20.9258669, 39.7106989 ], [ 20.926007, 39.7106666 ], [ 20.9260724, 39.710584 ], [ 20.9261051, 39.7104995 ], [ 20.9261565, 39.7103936 ], [ 20.9262452, 39.7103576 ], [ 20.926425, 39.7103487 ], [ 20.9265254, 39.7103918 ], [ 20.9266445, 39.710451 ], [ 20.9267589, 39.7104636 ], [ 20.9267379, 39.7104403 ], [ 20.9266889, 39.7103864 ], [ 20.9265628, 39.7103343 ], [ 20.926474, 39.7103073 ], [ 20.9263947, 39.7102552 ], [ 20.9262709, 39.7102337 ], [ 20.9261542, 39.7102229 ], [ 20.9261635, 39.7101924 ], [ 20.9262289, 39.7101295 ], [ 20.9260397, 39.7099894 ], [ 20.9258646, 39.7099768 ], [ 20.9257245, 39.7099822 ], [ 20.9256311, 39.710002 ], [ 20.925533, 39.7099948 ], [ 20.9254817, 39.7100092 ], [ 20.925491, 39.7100684 ], [ 20.9255867, 39.7101349 ], [ 20.9257549, 39.7101888 ], [ 20.9259907, 39.7102445 ], [ 20.9261308, 39.7102445 ], [ 20.9262779, 39.7102588 ], [ 20.9262943, 39.710284 ], [ 20.9262242, 39.7103307 ], [ 20.9260491, 39.7103702 ], [ 20.9258903, 39.7104205 ], [ 20.9256311, 39.7104223 ], [ 20.9254933, 39.7103469 ], [ 20.9253999, 39.710257 ], [ 20.9253112, 39.7102409 ], [ 20.9252248, 39.7101978 ], [ 20.9251548, 39.7101439 ], [ 20.9250871, 39.7100936 ], [ 20.9250427, 39.7100271 ], [ 20.9248933, 39.7099157 ], [ 20.9247905, 39.7098637 ], [ 20.9246691, 39.7097541 ], [ 20.9244683, 39.7095637 ], [ 20.9244076, 39.7094325 ], [ 20.9244426, 39.7093751 ], [ 20.9243375, 39.709226 ], [ 20.9242675, 39.7091397 ], [ 20.9242838, 39.7092493 ], [ 20.9242791, 39.709314 ], [ 20.9242628, 39.7093697 ], [ 20.9241601, 39.7093607 ], [ 20.92402, 39.7093302 ], [ 20.9238659, 39.7092691 ], [ 20.923658, 39.7092134 ], [ 20.9234526, 39.7092278 ], [ 20.9233241, 39.7092978 ], [ 20.9232728, 39.7093266 ], [ 20.9231187, 39.7093409 ], [ 20.9229575, 39.7093032 ], [ 20.9228128, 39.7092332 ], [ 20.9226283, 39.7090912 ], [ 20.9224905, 39.7089835 ], [ 20.9224158, 39.7088487 ], [ 20.922371711254797, 39.708775321769082 ], [ 20.922371711254797, 39.709512354300863 ], [ 20.9223785, 39.7095134 ] ] ] ] } },
{ "type": "Feature", "properties": { "@type": "node", "@id": 347260309, "boundary": null, "ele": "1612", "highway": null, "intermittent": null, "leaf_type": null, "leisure": null, "lit": null, "name": null, "name:de": null, "name:el": null, "name:en": null, "natural": "peak", "smoothness": null, "source": null, "waterway": null, "width": null, "wikidata": null, "wikipedia": null, "label": "natural:peak" }, "geometry": { "type": "Point", "coordinates": [ 20.9282132, 39.7049515 ] } },
{ "type": "Feature", "properties": { "@type": "way", "@id": 137321318, "boundary": "national_park", "ele": null, "highway": null, "intermittent": null, "leaf_type": null, "leisure": "nature_reserve", "lit": null, "name": "Εθνικό Πάρκο Πίνδου", "name:de": "Nationalpark Pindos", "name:el": "Εθνικό Πάρκο Πίνδου", "name:en": "Pindos National Park", "natural": null, "smoothness": null, "source": "http://geodata.gov.gr/", "waterway": null, "width": null, "wikidata": "Q1989158", "wikipedia": "el:Εθνικός Δρυμός Πίνδου", "label": "leisure:nature_reserve" }, "geometry": { "type": "Polygon", "coordinates": [ [ [ 20.928075, 39.70537 ], [ 20.926799, 39.705581 ], [ 20.926458, 39.705931 ], [ 20.924612, 39.70606 ], [ 20.923808, 39.70624 ], [ 20.922371711254797, 39.706562462354739 ], [ 20.922371711254797, 39.724384646199233 ], [ 20.922807, 39.724315 ], [ 20.923265, 39.72362 ], [ 20.924619, 39.723373 ], [ 20.925549, 39.721654 ], [ 20.92713, 39.720424 ], [ 20.928721, 39.720325 ], [ 20.928096, 39.719271 ], [ 20.928796, 39.71863 ], [ 20.930082, 39.718523 ], [ 20.930482, 39.717779 ], [ 20.930937, 39.717131 ], [ 20.932296, 39.718157 ], [ 20.932814, 39.717464 ], [ 20.93412, 39.718299 ], [ 20.935192, 39.717527 ], [ 20.934626, 39.716522 ], [ 20.933917, 39.715985 ], [ 20.934327, 39.715006 ], [ 20.935765, 39.71561 ], [ 20.9364377, 39.7150389 ], [ 20.93655, 39.714405 ], [ 20.937303, 39.713954 ], [ 20.937748, 39.713541 ], [ 20.939694, 39.71232 ], [ 20.941238, 39.710523 ], [ 20.940999, 39.709008 ], [ 20.943105, 39.70831 ], [ 20.944708, 39.706561 ], [ 20.945631, 39.704983 ], [ 20.94620895291493, 39.702442380001521 ], [ 20.930176907639396, 39.702442380001521 ], [ 20.928075, 39.70537 ] ] ] } },
{ "type": "Feature", "properties": { "@type": "way", "@id": 1231313283, "boundary": null, "ele": null, "highway": null, "intermittent": null, "leaf_type": null, "leisure": null, "lit": null, "name": null, "name:de": null, "name:el": null, "name:en": null, "natural": "scree", "smoothness": null, "source": null, "waterway": null, "width": null, "wikidata": null, "wikipedia": null, "label": "natural:scree" }, "geometry": { "type": "Polygon", "coordinates": [ [ [ 20.923959, 39.7073234 ], [ 20.9239929, 39.7074301 ], [ 20.9240546, 39.7074265 ], [ 20.9241763, 39.7072795 ], [ 20.9241824, 39.7071871 ], [ 20.9241994, 39.7071136 ], [ 20.92413, 39.7070852 ], [ 20.9241038, 39.7070081 ], [ 20.9241608, 39.7069595 ], [ 20.9241547, 39.7067723 ], [ 20.9241701, 39.7066964 ], [ 20.9241994, 39.7066953 ], [ 20.9242671, 39.7066336 ], [ 20.9242856, 39.7065341 ], [ 20.9242733, 39.7063587 ], [ 20.9242964, 39.706271 ], [ 20.924281, 39.7058668 ], [ 20.9242625, 39.7058087 ], [ 20.9242333, 39.7061987 ], [ 20.9242071, 39.7062887 ], [ 20.9241793, 39.7063895 ], [ 20.9241531, 39.7063847 ], [ 20.924147, 39.7063267 ], [ 20.9241408, 39.706284 ], [ 20.9240869, 39.7062639 ], [ 20.9240607, 39.7063729 ], [ 20.9240145, 39.7064879 ], [ 20.9239914, 39.7065862 ], [ 20.9239775, 39.7066787 ], [ 20.9239606, 39.7067166 ], [ 20.9239821, 39.7067818 ], [ 20.9240268, 39.706783 ], [ 20.9240715, 39.7067225 ], [ 20.9240715, 39.7066905 ], [ 20.92411, 39.706668 ], [ 20.9241285, 39.7067332 ], [ 20.9240854, 39.7069193 ], [ 20.9240438, 39.7069667 ], [ 20.9239899, 39.7069726 ], [ 20.9239606, 39.7070579 ], [ 20.9239544, 39.707167 ], [ 20.923959, 39.7073234 ] ] ] } },
{ "type": "Feature", "properties": { "@type": "way", "@id": 1231313284, "boundary": null, "ele": null, "highway": null, "intermittent": null, "leaf_type": null, "leisure": null, "lit": null, "name": null, "name:de": null, "name:el": null, "name:en": null, "natural": "scree", "smoothness": null, "source": null, "waterway": null, "width": null, "wikidata": null, "wikipedia": null, "label": "natural:scree" }, "geometry": { "type": "Polygon", "coordinates": [ [ [ 20.9243053, 39.7073151 ], [ 20.924352, 39.7074103 ], [ 20.9243823, 39.7074373 ], [ 20.9244547, 39.7074391 ], [ 20.9245364, 39.7074624 ], [ 20.9246298, 39.7075163 ], [ 20.9246929, 39.7075576 ], [ 20.9247536, 39.7076924 ], [ 20.9248423, 39.7078073 ], [ 20.9249404, 39.7078504 ], [ 20.9250128, 39.7078612 ], [ 20.9250501, 39.7079079 ], [ 20.9250595, 39.7079852 ], [ 20.9250945, 39.7080516 ], [ 20.9251505, 39.7080588 ], [ 20.9251552, 39.7079923 ], [ 20.9252112, 39.7079528 ], [ 20.9251972, 39.7078989 ], [ 20.9252346, 39.7078792 ], [ 20.9252836, 39.7078864 ], [ 20.925363, 39.7078307 ], [ 20.9252696, 39.707748 ], [ 20.9252813, 39.7076331 ], [ 20.9253046, 39.7075666 ], [ 20.9252836, 39.7075109 ], [ 20.9252159, 39.7075037 ], [ 20.9251552, 39.7075253 ], [ 20.9251132, 39.7075648 ], [ 20.9250805, 39.7075774 ], [ 20.9250221, 39.7075415 ], [ 20.9250034, 39.7075109 ], [ 20.9249941, 39.7074409 ], [ 20.9250104, 39.7073151 ], [ 20.9249777, 39.7072109 ], [ 20.924868, 39.7070942 ], [ 20.9248049, 39.7070367 ], [ 20.9247746, 39.7069576 ], [ 20.9247652, 39.7068984 ], [ 20.9247512, 39.7068588 ], [ 20.9247466, 39.7067996 ], [ 20.9247652, 39.7067313 ], [ 20.9247886, 39.7066777 ], [ 20.9248435, 39.706613 ], [ 20.924861, 39.7065439 ], [ 20.9248983, 39.7064846 ], [ 20.9249357, 39.7064127 ], [ 20.9250034, 39.706305 ], [ 20.925077, 39.7062098 ], [ 20.9252708, 39.705943 ], [ 20.9253046, 39.7058747 ], [ 20.9250766, 39.7061678 ], [ 20.924917, 39.7063948 ], [ 20.9248419, 39.7064969 ], [ 20.9247668, 39.7065588 ], [ 20.924685, 39.7066341 ], [ 20.9246421, 39.7067445 ], [ 20.9245562, 39.7067848 ], [ 20.9245281, 39.706858 ], [ 20.9244905, 39.7068921 ], [ 20.9244677, 39.7068941 ], [ 20.924453, 39.706889 ], [ 20.9244449, 39.7068714 ], [ 20.9244489, 39.7068415 ], [ 20.9244704, 39.706825 ], [ 20.924461, 39.7068013 ], [ 20.9244731, 39.706761 ], [ 20.924465, 39.7067352 ], [ 20.9244436, 39.7067383 ], [ 20.9243966, 39.7067713 ], [ 20.9243765, 39.7068209 ], [ 20.9243779, 39.7068477 ], [ 20.9243658, 39.706922 ], [ 20.9243269, 39.7069674 ], [ 20.9242652, 39.7070458 ], [ 20.9242719, 39.7071067 ], [ 20.9242585, 39.7071428 ], [ 20.9243053, 39.7073151 ] ] ] } },
{ "type": "Feature", "properties": { "@type": "way", "@id": 1231313285, "boundary": null, "ele": null, "highway": null, "intermittent": null, "leaf_type": null, "leisure": null, "lit": null, "name": null, "name:de": null, "name:el": null, "name:en": null, "natural": "scree", "smoothness": null, "source": null, "waterway": null, "width": null, "wikidata": null, "wikipedia": null, "label": "natural:scree" }, "geometry": { "type": "Polygon", "coordinates": [ [ [ 20.92509, 39.7084039 ], [ 20.9250993, 39.7084596 ], [ 20.925083, 39.7085206 ], [ 20.925132, 39.7085566 ], [ 20.9252534, 39.7086985 ], [ 20.9253258, 39.7087146 ], [ 20.9253889, 39.7086643 ], [ 20.9253959, 39.7086122 ], [ 20.9254099, 39.7085512 ], [ 20.9253025, 39.7085368 ], [ 20.9252604, 39.7084685 ], [ 20.9252067, 39.7084003 ], [ 20.9252067, 39.7083248 ], [ 20.9251927, 39.7082117 ], [ 20.9251694, 39.708138 ], [ 20.9251203, 39.7081434 ], [ 20.925111, 39.7082458 ], [ 20.9250666, 39.7083356 ], [ 20.92509, 39.7084039 ] ] ] } },
{ "type": "Feature", "properties": { "@type": "way", "@id": 1231313286, "boundary": null, "ele": null, "highway": null, "intermittent": null, "leaf_type": null, "leisure": null, "lit": null, "name": null, "name:de": null, "name:el": null, "name:en": null, "natural": "scree", "smoothness": null, "source": null, "waterway": null, "width": null, "wikidata": null, "wikipedia": null, "label": "natural:scree" }, "geometry": { "type": "Polygon", "coordinates": [ [ [ 20.9262318, 39.7077859 ], [ 20.9262972, 39.7077769 ], [ 20.9262925, 39.7077554 ], [ 20.9262972, 39.7077177 ], [ 20.9263509, 39.7076871 ], [ 20.9263205, 39.7076332 ], [ 20.9263415, 39.7075865 ], [ 20.9264139, 39.7075668 ], [ 20.9264023, 39.7076189 ], [ 20.9263742, 39.7076692 ], [ 20.92647, 39.7076638 ], [ 20.9265283, 39.7074141 ], [ 20.9266404, 39.7072416 ], [ 20.9267081, 39.7071967 ], [ 20.9267735, 39.707141 ], [ 20.9268366, 39.7070997 ], [ 20.926923, 39.7069524 ], [ 20.9269043, 39.7069201 ], [ 20.926965, 39.7068895 ], [ 20.9270444, 39.7067979 ], [ 20.9271004, 39.7067854 ], [ 20.9271378, 39.706744 ], [ 20.9271751, 39.7066542 ], [ 20.9271565, 39.7065806 ], [ 20.9271891, 39.7064117 ], [ 20.9270561, 39.7063506 ], [ 20.9269627, 39.7065105 ], [ 20.9268903, 39.7065141 ], [ 20.9268949, 39.7065518 ], [ 20.9268272, 39.7066309 ], [ 20.9267618, 39.7066758 ], [ 20.9267455, 39.7066542 ], [ 20.9267385, 39.7066093 ], [ 20.9267221, 39.7065518 ], [ 20.9266684, 39.7065411 ], [ 20.9266778, 39.7064908 ], [ 20.9266264, 39.7064584 ], [ 20.9265844, 39.706383 ], [ 20.9265143, 39.7063973 ], [ 20.9265097, 39.7064351 ], [ 20.9265353, 39.706568 ], [ 20.9265774, 39.7067117 ], [ 20.9266171, 39.7067189 ], [ 20.9266451, 39.7067889 ], [ 20.9266754, 39.7068357 ], [ 20.9266498, 39.7068895 ], [ 20.9267151, 39.7069758 ], [ 20.9266568, 39.7070351 ], [ 20.9266661, 39.7070854 ], [ 20.9266124, 39.707177 ], [ 20.926561, 39.7072883 ], [ 20.9264957, 39.7073979 ], [ 20.9264419, 39.7074446 ], [ 20.9264209, 39.7074159 ], [ 20.926456, 39.7073225 ], [ 20.9264396, 39.7072794 ], [ 20.9264069, 39.7072416 ], [ 20.9264279, 39.7071895 ], [ 20.9263859, 39.7071716 ], [ 20.9263322, 39.7072273 ], [ 20.9263135, 39.7072937 ], [ 20.9263135, 39.707335 ], [ 20.9262972, 39.7073961 ], [ 20.9262645, 39.7074446 ], [ 20.9262481, 39.7074913 ], [ 20.9262411, 39.7075668 ], [ 20.9262178, 39.7075937 ], [ 20.9262131, 39.7076853 ], [ 20.9261781, 39.7077356 ], [ 20.9262318, 39.7077859 ] ] ] } },
{ "type": "Feature", "properties": { "@type": "way", "@id": 1231313287, "boundary": null, "ele": null, "highway": null, "intermittent": null, "leaf_type": null, "leisure": null, "lit": null, "name": null, "name:de": null, "name:el": null, "name:en": null, "natural": "scree", "smoothness": null, "source": null, "waterway": null, "width": null, "wikidata": null, "wikipedia": null, "label": "natural:scree" }, "geometry": { "type": "Polygon", "coordinates": [ [ [ 20.926162, 39.7093014 ], [ 20.926246, 39.7093966 ], [ 20.9263815, 39.7094936 ], [ 20.9265169, 39.7095385 ], [ 20.926608, 39.7096445 ], [ 20.9267037, 39.7097972 ], [ 20.9267527, 39.7099337 ], [ 20.9267994, 39.7100163 ], [ 20.9268788, 39.7101726 ], [ 20.9269582, 39.7103792 ], [ 20.9269886, 39.7104744 ], [ 20.9270073, 39.7104366 ], [ 20.9269886, 39.710354 ], [ 20.9269442, 39.7102858 ], [ 20.9269115, 39.7101492 ], [ 20.9268672, 39.7100684 ], [ 20.9268415, 39.7099822 ], [ 20.9267971, 39.70986 ], [ 20.9267527, 39.7097487 ], [ 20.9267271, 39.7096696 ], [ 20.9266593, 39.7095565 ], [ 20.9266266, 39.7094882 ], [ 20.9266383, 39.7093176 ], [ 20.9266243, 39.7092906 ], [ 20.9266033, 39.7093355 ], [ 20.926601, 39.7094397 ], [ 20.9265986, 39.7094738 ], [ 20.9265426, 39.7093858 ], [ 20.9264632, 39.7092565 ], [ 20.9264679, 39.70919 ], [ 20.9264305, 39.7090786 ], [ 20.9263908, 39.7089924 ], [ 20.9264025, 39.7089134 ], [ 20.9265496, 39.7088649 ], [ 20.9265659, 39.7087787 ], [ 20.9265729, 39.7087248 ], [ 20.9264609, 39.7087086 ], [ 20.9264936, 39.7086655 ], [ 20.9265986, 39.7086296 ], [ 20.9265893, 39.7085451 ], [ 20.9265403, 39.7084607 ], [ 20.9265496, 39.7083709 ], [ 20.9264982, 39.708308 ], [ 20.9266126, 39.7082937 ], [ 20.9266453, 39.7083601 ], [ 20.926629, 39.7084374 ], [ 20.9266687, 39.7084877 ], [ 20.9266897, 39.7084014 ], [ 20.926671, 39.7083422 ], [ 20.926664, 39.7082631 ], [ 20.9266243, 39.708202 ], [ 20.9266827, 39.7080673 ], [ 20.9266337, 39.7079955 ], [ 20.9265963, 39.7079559 ], [ 20.9265519, 39.7079631 ], [ 20.9265566, 39.7080188 ], [ 20.9265006, 39.708044 ], [ 20.9264702, 39.7079865 ], [ 20.9265099, 39.7079236 ], [ 20.9265029, 39.7078769 ], [ 20.9264889, 39.707832 ], [ 20.9264282, 39.7078805 ], [ 20.9264118, 39.7078266 ], [ 20.9263651, 39.7078015 ], [ 20.9263301, 39.7078553 ], [ 20.9262834, 39.7079541 ], [ 20.9263044, 39.7081805 ], [ 20.9262554, 39.7082631 ], [ 20.926148, 39.7084122 ], [ 20.9261456, 39.7086224 ], [ 20.9261573, 39.7088361 ], [ 20.926155, 39.7089763 ], [ 20.9261246, 39.7091487 ], [ 20.926162, 39.7093014 ] ] ] } },
{ "type": "Feature", "properties": { "@type": "way", "@id": 1231313288, "boundary": null, "ele": null, "highway": null, "intermittent": null, "leaf_type": null, "leisure": null, "lit": null, "name": null, "name:de": null, "name:el": null, "name:en": null, "natural": "scree", "smoothness": null, "source": null, "waterway": null, "width": null, "wikidata": null, "wikipedia": null, "label": "natural:scree" }, "geometry": { "type": "Polygon", "coordinates": [ [ [ 20.9280693, 39.7105907 ], [ 20.928112, 39.7105219 ], [ 20.9281262, 39.7104375 ], [ 20.928175, 39.7102983 ], [ 20.9282015, 39.7101717 ], [ 20.9282543, 39.7100606 ], [ 20.928297, 39.7100028 ], [ 20.9283397, 39.7098089 ], [ 20.9283478, 39.7096415 ], [ 20.92836, 39.7095587 ], [ 20.928362, 39.7095039 ], [ 20.9283702, 39.7094304 ], [ 20.9283478, 39.7093866 ], [ 20.9283661, 39.7093194 ], [ 20.928362, 39.7092193 ], [ 20.9283844, 39.7090473 ], [ 20.9283925, 39.7088987 ], [ 20.9283722, 39.7087392 ], [ 20.9283803, 39.708636 ], [ 20.9283986, 39.7085344 ], [ 20.928419, 39.7083295 ], [ 20.9284434, 39.7080934 ], [ 20.9284373, 39.7078682 ], [ 20.9284149, 39.7077165 ], [ 20.9284149, 39.7075805 ], [ 20.9284413, 39.7074632 ], [ 20.9285369, 39.7072943 ], [ 20.9285694, 39.7072349 ], [ 20.9285226, 39.7072693 ], [ 20.9284271, 39.7074194 ], [ 20.9283986, 39.707446 ], [ 20.9283966, 39.7073146 ], [ 20.9284108, 39.7072302 ], [ 20.9284047, 39.7070785 ], [ 20.9283966, 39.7069581 ], [ 20.9283356, 39.706833 ], [ 20.9282462, 39.7066406 ], [ 20.9282015, 39.706492 ], [ 20.928171, 39.706467 ], [ 20.9282198, 39.7066187 ], [ 20.9282482, 39.7067376 ], [ 20.928297, 39.7068767 ], [ 20.9283458, 39.7069518 ], [ 20.9283641, 39.7070785 ], [ 20.9283661, 39.7072755 ], [ 20.9283498, 39.7073068 ], [ 20.9283458, 39.7074382 ], [ 20.9283438, 39.7074866 ], [ 20.9282604, 39.7075523 ], [ 20.9282767, 39.707618 ], [ 20.9282645, 39.7078526 ], [ 20.9282807, 39.7079527 ], [ 20.9282645, 39.708023 ], [ 20.9282848, 39.7081028 ], [ 20.9283072, 39.7082967 ], [ 20.9283356, 39.7085688 ], [ 20.9283214, 39.7089394 ], [ 20.9283194, 39.7091724 ], [ 20.9282787, 39.7094492 ], [ 20.9283377, 39.709518 ], [ 20.9283255, 39.7096322 ], [ 20.9283194, 39.7098026 ], [ 20.9282787, 39.7099965 ], [ 20.9282096, 39.7100888 ], [ 20.9281527, 39.7102342 ], [ 20.9280653, 39.7104782 ], [ 20.9280388, 39.7105954 ], [ 20.9280693, 39.7105907 ] ] ] } },
{ "type": "Feature", "properties": { "@type": "way", "@id": 1231315081, "boundary": null, "ele": null, "highway": null, "intermittent": null, "leaf_type": null, "leisure": null, "lit": null, "name": null, "name:de": null, "name:el": null, "name:en": null, "natural": "scree", "smoothness": null, "source": null, "waterway": null, "width": null, "wikidata": null, "wikipedia": null, "label": "natural:scree" }, "geometry": { "type": "Polygon", "coordinates": [ [ [ 20.9287313, 39.7045957 ], [ 20.928834, 39.7046093 ], [ 20.9289826, 39.704544 ], [ 20.9291029, 39.7045794 ], [ 20.929202, 39.7044814 ], [ 20.9293684, 39.7045168 ], [ 20.9295383, 39.7045467 ], [ 20.929694, 39.7045739 ], [ 20.9298462, 39.7044786 ], [ 20.9298462, 39.7044024 ], [ 20.92997, 39.7043098 ], [ 20.9299417, 39.7040811 ], [ 20.9301045, 39.703915 ], [ 20.9302956, 39.703885 ], [ 20.9304655, 39.7038932 ], [ 20.9306496, 39.7038878 ], [ 20.9308017, 39.7038878 ], [ 20.9308619, 39.7038306 ], [ 20.9310106, 39.7038388 ], [ 20.9310424, 39.703787 ], [ 20.9309008, 39.7037271 ], [ 20.9310247, 39.7036754 ], [ 20.9309185, 39.703591 ], [ 20.9307628, 39.7035501 ], [ 20.9305505, 39.7035855 ], [ 20.9305682, 39.7035474 ], [ 20.930731, 39.703512 ], [ 20.9307982, 39.7033704 ], [ 20.9309115, 39.7032724 ], [ 20.9308725, 39.7032207 ], [ 20.9307664, 39.7031989 ], [ 20.9307133, 39.7031907 ], [ 20.930646, 39.7032669 ], [ 20.9304478, 39.7034058 ], [ 20.9303452, 39.7033786 ], [ 20.9303098, 39.703433 ], [ 20.9301116, 39.7034358 ], [ 20.9300019, 39.7034412 ], [ 20.9299523, 39.7034984 ], [ 20.9299877, 39.7036046 ], [ 20.9300373, 39.7037135 ], [ 20.930016, 39.7037952 ], [ 20.9300231, 39.703836 ], [ 20.9299453, 39.703787 ], [ 20.9298957, 39.7036808 ], [ 20.9298709, 39.7035991 ], [ 20.9297895, 39.7035529 ], [ 20.9296621, 39.7035665 ], [ 20.9295772, 39.7036128 ], [ 20.929517, 39.7036073 ], [ 20.9294038, 39.7036536 ], [ 20.9293117, 39.703787 ], [ 20.9292303, 39.7038524 ], [ 20.9290251, 39.7038823 ], [ 20.9289507, 39.7039204 ], [ 20.9289614, 39.7040021 ], [ 20.9288906, 39.7040702 ], [ 20.9288906, 39.7041519 ], [ 20.9287986, 39.7042445 ], [ 20.9286818, 39.7043561 ], [ 20.9285968, 39.7044323 ], [ 20.9285933, 39.7045304 ], [ 20.9287313, 39.7045957 ] ] ] } },
{ "type": "Feature", "properties": { "@type": "way", "@id": 1231315084, "boundary": null, "ele": null, "highway": null, "intermittent": null, "leaf_type": null, "leisure": null, "lit": null, "name": null, "name:de": null, "name:el": null, "name:en": null, "natural": "scree", "smoothness": null, "source": null, "waterway": null, "width": null, "wikidata": null, "wikipedia": null, "label": "natural:scree" }, "geometry": { "type": "Polygon", "coordinates": [ [ [ 20.943124, 39.7024446 ], [ 20.9432127, 39.702459 ], [ 20.943253429255531, 39.702442380001521 ], [ 20.943126264133639, 39.702442380001521 ], [ 20.943124, 39.7024446 ] ] ] } }
]
}
