{
"type": "FeatureCollection",
"name": "patch_92055_linestring",
"crs": { "type": "name", "properties": { "name": "urn:ogc:def:crs:OGC:1.3:CRS84" } },
"features": [
{ "type": "Feature", "properties": { "@type": "way", "@id": 376837102, "access": null, "addr:city": null, "addr:housenumber": null, "addr:postcode": null, "addr:street": null, "addr:street:en": null, "amenity": null, "area": null, "authentication:app": null, "authentication:membership_card": null, "backrest": null, "barrier": null, "bench": null, "bicycle": null, "bin": null, "branch": null, "brand": null, "brand:el": null, "brand:en": null, "brand:wikidata": null, "brand:wikipedia": null, "brewery": null, "building": null, "building:levels": null, "bus": null, "button_operated": null, "capacity": null, "castle_type": null, "colour": null, "compressed_air": null, "contact:facebook": null, "contact:phone": null, "contact:website": null, "covered": null, "created_by": null, "crossing": null, "crossing:markings": null, "crossing_ref": null, "cuisine": null, "denomination": null, "description": null, "destination:backward": null, "destination:forward": null, "education": null, "ele": null, "email": null, "emergency": null, "entrance": null, "fax": null, "fee": null, "female": null, "foot": null, "fuel:diesel": null, "fuel:diesel_B": null, "fuel:e10": null, "fuel:e5": null, "fuel:gasoline": null, "fuel:heating_oil": null, "fuel:octane_95": null, "fuel:unleaded": null, "handrail": null, "healthcare": null, "highway": null, "historic": null, "historic:civilization": null, "image": null, "incline": null, "industrial": null, "int_name": null, "intermittent": null, "internet_access": null, "junction": null, "kerb": null, "landuse": null, "lane_markings": null, "lanes": null, "layer": null, "leaf_cycle": null, "leaf_type": null, "leisure": null, "lit": null, "location": null, "male": null, "manufacturer": null, "maxheight": null, "maxspeed": null, "maxspeed:type": null, "motorcar": null, "name": null, "name1": null, "name:de": null, "name:el": null, "name:en": null, "name:ru": null, "natural": "coastline", "noexit": null, "noname": null, "note": null, "oneway": null, "opening_hours": null, "operator": null, "operator:type": null, "operator:wikidata": null, "outdoor_seating": null, "parcel_locker:type": null, "parcel_mail_in": null, "parcel_pickup": null, "parking": null, "parking:fee": null, "payment:app": null, "payment:apple_pay": null, "payment:cards": null, "payment:cash": null, "payment:coins": null, "payment:contactless": null, "payment:credit_cards": null, "payment:debit_cards": null, "payment:electronic_purses": null, "payment:google_pay": null, "payment:maestro": null, "payment:mastercard": null, "payment:mastercard_contactless": null, "payment:visa": null, "payment:visa_debit": null, "payment:visa_electron": null, "phone": null, "place": null, "public_transport": null, "ramp": null, "ref": null, "ref:EU:EVSE": null, "ref:GR:IDRO": null, "reg_ref": null, "religion": null, "seasonal": null, "self_service": null, "service": null, "shelter": null, "shop": null, "short_name": null, "short_name:el": null, "short_name:en": null, "sidewalk": null, "sidewalk:both:surface": null, "sidewalk:right:surface": null, "smoothness": null, "socket:type2": null, "socket:type2:output": null, "socket:type2_combo": null, "socket:type2_combo:output": null, "source": null, "source:maxspeed": null, "source:ref": null, "sport": null, "start_date": null, "step_count": null, "surface": null, "tactile_paving": null, "theatre:type": null, "tourism": null, "tracktype": null, "traffic_calming": null, "traffic_signals": null, "traffic_signals:direction": null, "waterway": null, "website": null, "wheelchair": null, "width": null, "wikidata": null, "wikipedia": null, "zone:traffic": null, "label": "natural:coastline" }, "geometry": { "type": "MultiLineString", "coordinates": [ [ [ 24.0353206, 35.5193885 ], [ 24.0353689, 35.5193579 ], [ 24.0353716, 35.5193164 ], [ 24.0354225, 35.5193164 ], [ 24.0354573, 35.5192896 ], [ 24.0355218, 35.5193099 ], [ 24.0355272, 35.5193754 ], [ 24.0355728, 35.5194452 ], [ 24.0356479, 35.519467 ], [ 24.0357095, 35.5195238 ], [ 24.035695163205098, 35.519534523691348 ] ], [ [ 24.03541886800738, 35.519534523691348 ], [ 24.0354091, 35.5195282 ], [ 24.0353206, 35.5193885 ] ] ] } },
{ "type": "Feature", "properties": { "@type": "way", "@id": 376838141, "access": null, "addr:city": null, "addr:housenumber": null, "addr:postcode": null, "addr:street": null, "addr:street:en": null, "amenity": null, "area": null, "authentication:app": null, "authentication:membership_card": null, "backrest": null, "barrier": null, "bench": null, "bicycle": null, "bin": null, "branch": null, "brand": null, "brand:el": null, "brand:en": null, "brand:wikidata": null, "brand:wikipedia": null, "brewery": null, "building": null, "building:levels": null, "bus": null, "button_operated": null, "capacity": null, "castle_type": null, "colour": null, "compressed_air": null, "contact:facebook": null, "contact:phone": null, "contact:website": null, "covered": null, "created_by": null, "crossing": null, "crossing:markings": null, "crossing_ref": null, "cuisine": null, "denomination": null, "description": null, "destination:backward": null, "destination:forward": null, "education": null, "ele": null, "email": null, "emergency": null, "entrance": null, "fax": null, "fee": null, "female": null, "foot": null, "fuel:diesel": null, "fuel:diesel_B": null, "fuel:e10": null, "fuel:e5": null, "fuel:gasoline": null, "fuel:heating_oil": null, "fuel:octane_95": null, "fuel:unleaded": null, "handrail": null, "healthcare": null, "highway": null, "historic": null, "historic:civilization": null, "image": null, "incline": null, "industrial": null, "int_name": null, "intermittent": null, "internet_access": null, "junction": null, "kerb": null, "landuse": null, "lane_markings": null, "lanes": null, "layer": null, "leaf_cycle": null, "leaf_type": null, "leisure": null, "lit": null, "location": null, "male": null, "manufacturer": null, "maxheight": null, "maxspeed": null, "maxspeed:type": null, "motorcar": null, "name": null, "name1": null, "name:de": null, "name:el": null, "name:en": null, "name:ru": null, "natural": "coastline", "noexit": null, "noname": null, "note": null, "oneway": null, "opening_hours": null, "operator": null, "operator:type": null, "operator:wikidata": null, "outdoor_seating": null, "parcel_locker:type": null, "parcel_mail_in": null, "parcel_pickup": null, "parking": null, "parking:fee": null, "payment:app": null, "payment:apple_pay": null, "payment:cards": null, "payment:cash": null, "payment:coins": null, "payment:contactless": null, "payment:credit_cards": null, "payment:debit_cards": null, "payment:electronic_purses": null, "payment:google_pay": null, "payment:maestro": null, "payment:mastercard": null, "payment:mastercard_contactless": null, "payment:visa": null, "payment:visa_debit": null, "payment:visa_electron": null, "phone": null, "place": null, "public_transport": null, "ramp": null, "ref": null, "ref:EU:EVSE": null, "ref:GR:IDRO": null, "reg_ref": null, "religion": null, "seasonal": null, "self_service": null, "service": null, "shelter": null, "shop": null, "short_name": null, "short_name:el": null, "short_name:en": null, "sidewalk": null, "sidewalk:both:surface": null, "sidewalk:right:surface": null, "smoothness": null, "socket:type2": null, "socket:type2:output": null, "socket:type2_combo": null, "socket:type2_combo:output": null, "source": null, "source:maxspeed": null, "source:ref": null, "sport": null, "start_date": null, "step_count": null, "surface": null, "tactile_paving": null, "theatre:type": null, "tourism": null, "tracktype": null, "traffic_calming": null, "traffic_signals": null, "traffic_signals:direction": null, "waterway": null, "website": null, "wheelchair": null, "width": null, "wikidata": null, "wikipedia": null, "zone:traffic": null, "label": "natural:coastline" }, "geometry": { "type": "MultiLineString", "coordinates": [ [ [ 24.033054680649734, 35.517628344902832 ], [ 24.0330595, 35.5176572 ], [ 24.033054680649734, 35.517661262728723 ] ], [ [ 24.033054680649734, 35.517782702526155 ], [ 24.0331239, 35.5178559 ], [ 24.033054680649734, 35.517945606686702 ] ] ] } },
{ "type": "Feature", "properties": { "@type": "way", "@id": 1486267247, "access": null, "addr:city": null, "addr:housenumber": null, "addr:postcode": null, "addr:street": null, "addr:street:en": null, "amenity": null, "area": null, "authentication:app": null, "authentication:membership_card": null, "backrest": null, "barrier": null, "bench": null, "bicycle": null, "bin": null, "branch": null, "brand": null, "brand:el": null, "brand:en": null, "brand:wikidata": null, "brand:wikipedia": null, "brewery": null, "building": null, "building:levels": null, "bus": null, "button_operated": null, "capacity": null, "castle_type": null, "colour": null, "compressed_air": null, "contact:facebook": null, "contact:phone": null, "contact:website": null, "covered": null, "created_by": null, "crossing": null, "crossing:markings": null, "crossing_ref": null, "cuisine": null, "denomination": null, "description": null, "destination:backward": null, "destination:forward": null, "education": null, "ele": null, "email": null, "emergency": null, "entrance": null, "fax": null, "fee": null, "female": null, "foot": null, "fuel:diesel": null, "fuel:diesel_B": null, "fuel:e10": null, "fuel:e5": null, "fuel:gasoline": null, "fuel:heating_oil": null, "fuel:octane_95": null, "fuel:unleaded": null, "handrail": null, "healthcare": null, "highway": null, "historic": null, "historic:civilization": null, "image": null, "incline": null, "industrial": null, "int_name": null, "intermittent": null, "internet_access": null, "junction": null, "kerb": null, "landuse": null, "lane_markings": null, "lanes": null, "layer": null, "leaf_cycle": null, "leaf_type": null, "leisure": "track", "lit": null, "location": null, "male": null, "manufacturer": null, "maxheight": null, "maxspeed": null, "maxspeed:type": null, "motorcar": null, "name": null, "name1": null, "name:de": null, "name:el": null, "name:en": null, "name:ru": null, "natural": null, "noexit": null, "noname": null, "note": null, "oneway": null, "opening_hours": null, "operator": null, "operator:type": null, "operator:wikidata": null, "outdoor_seating": null, "parcel_locker:type": null, "parcel_mail_in": null, "parcel_pickup": null, "parking": null, "parking:fee": null, "payment:app": null, "payment:apple_pay": null, "payment:cards": null, "payment:cash": null, "payment:coins": null, "payment:contactless": null, "payment:credit_cards": null, "payment:debit_cards": null, "payment:electronic_purses": null, "payment:google_pay": null, "payment:maestro": null, "payment:mastercard": null, "payment:mastercard_contactless": null, "payment:visa": null, "payment:visa_debit": null, "payment:visa_electron": null, "phone": null, "place": null, "public_transport": null, "ramp": null, "ref": null, "ref:EU:EVSE": null, "ref:GR:IDRO": null, "reg_ref": null, "religion": null, "seasonal": null, "self_service": null, "service": null, "shelter": null, "shop": null, "short_name": null, "short_name:el": null, "short_name:en": null, "sidewalk": null, "sidewalk:both:surface": null, "sidewalk:right:surface": null, "smoothness": null, "socket:type2": null, "socket:type2:output": null, "socket:type2_combo": null, "socket:type2_combo:output": null, "source": null, "source:maxspeed": null, "source:ref": null, "sport": null, "start_date": null, "step_count": null, "surface": null, "tactile_paving": null, "theatre:type": null, "tourism": null, "tracktype": null, "traffic_calming": null, "traffic_signals": null, "traffic_signals:direction": null, "waterway": null, "website": null, "wheelchair": null, "width": null, "wikidata": null, "wikipedia": null, "zone:traffic": null, "label": "leisure:track" }, "geometry": { "type": "MultiLineString", "coordinates": [ [ [ 24.0378179, 35.5029398 ], [ 24.037824, 35.5022944 ] ], [ [ 24.037824, 35.5022944 ], [ 24.0378308, 35.501572 ], [ 24.0380075, 35.5014422 ], [ 24.0381884, 35.5014142 ], [ 24.038365, 35.5014949 ], [ 24.0384469, 35.5016351 ], [ 24.038434, 35.5022839 ], [ 24.0383133, 35.5024137 ], [ 24.0381496, 35.5024453 ], [ 24.0379902, 35.5024277 ], [ 24.037824, 35.5022944 ] ] ] } }
]
}
