{
"type": "FeatureCollection",
"name": "patch_21010_point",
"crs": { "type": "name", "properties": { "name": "urn:ogc:def:crs:OGC:1.3:CRS84" } },
"features": [
{ "type": "Feature", "properties": { "@type": "node", "@id": 1443409845, "access": null, "addr:city": null, "addr:country": null, "addr:housenumber": null, "addr:milestone": null, "addr:postcode": null, "addr:street": null, "alt_name": null, "amenity": "fuel", "area": null, "authentication:app": null, "authentication:membership_card": null, "barrier": null, "brand": "BP", "brand:el": null, "brand:en": null, "brand:wikidata": "Q152057", "brand:wikipedia": null, "bridge": null, "building": null, "bus": null, "cables": null, "capacity": null, "check_date:surface": null, "circuits": null, "club": null, "colour": null, "construction": null, "construction:railway": null, "contact:phone": null, "contact:website": null, "covered": null, "crossing:bell": null, "crossing:light": null, "cuisine": null, "denomination": null, "description": null, "destination": null, "destination:lanes:backward": null, "destination:lang:el-Latn": null, "direction": null, "distance": null, "education": null, "electrified": null, "embankment": null, "emergency": null, "fast_food": null, "fee": null, "fee:conditional": null, "fee:icom_member": null, "fee:note": null, "fee:note:2": null, "ford": null, "frequency": null, "gauge": null, "healthcare": null, "highway": null, "historic": null, "int_name": null, "intermittent": null, "junction": null, "landuse": null, "lane_markings": null, "lanes": null, "lastcheck": null, "layer": null, "leaf_type": null, "leisure": null, "level": null, "line_attachment": null, "lit": null, "location": null, "location:transition": null, "man_made": null, "manufacturer": null, "maxspeed": null, "motorcar": null, "name": "BP", "name:el": null, "name:en": null, "natural": null, "noexit": null, "note": null, "official_name": null, "old_ref": null, "oneway": null, "opening_hours": null, "operator": "ΜΕΞΙΑΣ ΙΕΡΟΘΕΟΣ", "operator:type": null, "operator:wikidata": null, "outdoor_seating": null, "parcel_locker:type": null, "parcel_mail_in": null, "parcel_pickup": null, "parking": null, "parking:fee": null, "payment:app": null, "payment:website": null, "phone": null, "place": null, "postal_code": null, "power": null, "public_transport": null, "railway": null, "ref": null, "ref:EU:EVSE": null, "ref:GR:IDRO": null, "reg_ref": null, "religion": null, "service": null, "shop": null, "smoking": null, "smoothness": null, "socket:type2": null, "socket:type2:output": null, "source": null, "source:old_ref": null, "source:ref": null, "source:reg_ref": null, "sport": null, "stop": null, "substation": null, "surface": null, "tourism": null, "tracktype": null, "trade": null, "train": null, "tunnel": null, "usage": null, "voltage": null, "waterway": null, "website": null, "wheelchair": null, "wikidata": null, "wikipedia": null, "label": "amenity:fuel" }, "geometry": { "type": "Point", "coordinates": [ 23.3603412, 37.999247 ] } },
{ "type": "Feature", "properties": { "@type": "node", "@id": 1756575094, "access": null, "addr:city": null, "addr:country": null, "addr:housenumber": null, "addr:milestone": null, "addr:postcode": null, "addr:street": null, "alt_name": null, "amenity": "pharmacy", "area": null, "authentication:app": null, "authentication:membership_card": null, "barrier": null, "brand": null, "brand:el": null, "brand:en": null, "brand:wikidata": null, "brand:wikipedia": null, "bridge": null, "building": null, "bus": null, "cables": null, "capacity": null, "check_date:surface": null, "circuits": null, "club": null, "colour": null, "construction": null, "construction:railway": null, "contact:phone": null, "contact:website": null, "covered": null, "crossing:bell": null, "crossing:light": null, "cuisine": null, "denomination": null, "description": null, "destination": null, "destination:lanes:backward": null, "destination:lang:el-Latn": null, "direction": null, "distance": null, "education": null, "electrified": null, "embankment": null, "emergency": null, "fast_food": null, "fee": null, "fee:conditional": null, "fee:icom_member": null, "fee:note": null, "fee:note:2": null, "ford": null, "frequency": null, "gauge": null, "healthcare": "pharmacy", "highway": null, "historic": null, "int_name": null, "intermittent": null, "junction": null, "landuse": null, "lane_markings": null, "lanes": null, "lastcheck": null, "layer": null, "leaf_type": null, "leisure": null, "level": null, "line_attachment": null, "lit": null, "location": null, "location:transition": null, "man_made": null, "manufacturer": null, "maxspeed": null, "motorcar": null, "name": null, "name:el": null, "name:en": null, "natural": null, "noexit": null, "note": null, "official_name": null, "old_ref": null, "oneway": null, "opening_hours": null, "operator": null, "operator:type": null, "operator:wikidata": null, "outdoor_seating": null, "parcel_locker:type": null, "parcel_mail_in": null, "parcel_pickup": null, "parking": null, "parking:fee": null, "payment:app": null, "payment:website": null, "phone": null, "place": null, "postal_code": null, "power": null, "public_transport": null, "railway": null, "ref": null, "ref:EU:EVSE": null, "ref:GR:IDRO": null, "reg_ref": null, "religion": null, "service": null, "shop": null, "smoking": null, "smoothness": null, "socket:type2": null, "socket:type2:output": null, "source": null, "source:old_ref": null, "source:ref": null, "source:reg_ref": null, "sport": null, "stop": null, "substation": null, "surface": null, "tourism": null, "tracktype": null, "trade": null, "train": null, "tunnel": null, "usage": null, "voltage": null, "waterway": null, "website": null, "wheelchair": null, "wikidata": null, "wikipedia": null, "label": "amenity:pharmacy" }, "geometry": { "type": "Point", "coordinates": [ 23.3466366, 37.9992677 ] } },
{ "type": "Feature", "properties": { "@type": "node", "@id": 1756616768, "access": null, "addr:city": null, "addr:country": null, "addr:housenumber": null, "addr:milestone": null, "addr:postcode": null, "addr:street": null, "alt_name": null, "amenity": null, "area": null, "authentication:app": null, "authentication:membership_card": null, "barrier": null, "brand": null, "brand:el": null, "brand:en": null, "brand:wikidata": null, "brand:wikipedia": null, "bridge": null, "building": null, "bus": null, "cables": null, "capacity": null, "check_date:surface": null, "circuits": null, "club": null, "colour": null, "construction": null, "construction:railway": null, "contact:phone": null, "contact:website": null, "covered": null, "crossing:bell": null, "crossing:light": null, "cuisine": null, "denomination": null, "description": null, "destination": null, "destination:lanes:backward": null, "destination:lang:el-Latn": null, "direction": null, "distance": null, "education": null, "electrified": null, "embankment": null, "emergency": null, "fast_food": null, "fee": null, "fee:conditional": null, "fee:icom_member": null, "fee:note": null, "fee:note:2": null, "ford": null, "frequency": null, "gauge": null, "healthcare": null, "highway": null, "historic": null, "int_name": null, "intermittent": null, "junction": null, "landuse": null, "lane_markings": null, "lanes": null, "lastcheck": null, "layer": null, "leaf_type": null, "leisure": null, "level": null, "line_attachment": null, "lit": null, "location": null, "location:transition": null, "man_made": null, "manufacturer": null, "maxspeed": null, "motorcar": null, "name": null, "name:el": null, "name:en": null, "natural": null, "noexit": null, "note": null, "official_name": null, "old_ref": null, "oneway": null, "opening_hours": null, "operator": null, "operator:type": null, "operator:wikidata": null, "outdoor_seating": null, "parcel_locker:type": null, "parcel_mail_in": null, "parcel_pickup": null, "parking": null, "parking:fee": null, "payment:app": null, "payment:website": null, "phone": null, "place": null, "postal_code": null, "power": null, "public_transport": null, "railway": null, "ref": null, "ref:EU:EVSE": null, "ref:GR:IDRO": null, "reg_ref": null, "religion": null, "service": null, "shop": "hairdresser", "smoking": null, "smoothness": null, "socket:type2": null, "socket:type2:output": null, "source": null, "source:old_ref": null, "source:ref": null, "source:reg_ref": null, "sport": null, "stop": null, "substation": null, "surface": null, "tourism": null, "tracktype": null, "trade": null, "train": null, "tunnel": null, "usage": null, "voltage": null, "waterway": null, "website": null, "wheelchair": null, "wikidata": null, "wikipedia": null, "label": "shop:hairdresser" }, "geometry": { "type": "Point", "coordinates": [ 23.3386041, 37.9969202 ] } },
{ "type": "Feature", "properties": { "@type": "node", "@id": 1756616815, "access": null, "addr:city": null, "addr:country": null, "addr:housenumber": null, "addr:milestone": null, "addr:postcode": null, "addr:street": null, "alt_name": null, "amenity": null, "area": null, "authentication:app": null, "authentication:membership_card": null, "barrier": null, "brand": null, "brand:el": null, "brand:en": null, "brand:wikidata": null, "brand:wikipedia": null, "bridge": null, "building": null, "bus": null, "cables": null, "capacity": null, "check_date:surface": null, "circuits": null, "club": null, "colour": null, "construction": null, "construction:railway": null, "contact:phone": null, "contact:website": null, "covered": null, "crossing:bell": null, "crossing:light": null, "cuisine": null, "denomination": null, "description": null, "destination": null, "destination:lanes:backward": null, "destination:lang:el-Latn": null, "direction": null, "distance": null, "education": null, "electrified": null, "embankment": null, "emergency": null, "fast_food": null, "fee": null, "fee:conditional": null, "fee:icom_member": null, "fee:note": null, "fee:note:2": null, "ford": null, "frequency": null, "gauge": null, "healthcare": null, "highway": null, "historic": null, "int_name": null, "intermittent": null, "junction": null, "landuse": null, "lane_markings": null, "lanes": null, "lastcheck": null, "layer": null, "leaf_type": null, "leisure": null, "level": null, "line_attachment": null, "lit": null, "location": null, "location:transition": null, "man_made": null, "manufacturer": null, "maxspeed": null, "motorcar": null, "name": null, "name:el": null, "name:en": null, "natural": null, "noexit": null, "note": null, "official_name": null, "old_ref": null, "oneway": null, "opening_hours": null, "operator": null, "operator:type": null, "operator:wikidata": null, "outdoor_seating": null, "parcel_locker:type": null, "parcel_mail_in": null, "parcel_pickup": null, "parking": null, "parking:fee": null, "payment:app": null, "payment:website": null, "phone": null, "place": null, "postal_code": null, "power": null, "public_transport": null, "railway": null, "ref": null, "ref:EU:EVSE": null, "ref:GR:IDRO": null, "reg_ref": null, "religion": null, "service": null, "shop": "bakery", "smoking": null, "smoothness": null, "socket:type2": null, "socket:type2:output": null, "source": null, "source:old_ref": null, "source:ref": null, "source:reg_ref": null, "sport": null, "stop": null, "substation": null, "surface": null, "tourism": null, "tracktype": null, "trade": null, "train": null, "tunnel": null, "usage": null, "voltage": null, "waterway": null, "website": null, "wheelchair": null, "wikidata": null, "wikipedia": null, "label": "shop:bakery" }, "geometry": { "type": "Point", "coordinates": [ 23.3384378, 37.9978481 ] } },
{ "type": "Feature", "properties": { "@type": "node", "@id": 1756622104, "access": null, "addr:city": null, "addr:country": null, "addr:housenumber": null, "addr:milestone": null, "addr:postcode": null, "addr:street": null, "alt_name": null, "amenity": null, "area": null, "authentication:app": null, "authentication:membership_card": null, "barrier": null, "brand": null, "brand:el": null, "brand:en": null, "brand:wikidata": null, "brand:wikipedia": null, "bridge": null, "building": null, "bus": null, "cables": null, "capacity": null, "check_date:surface": null, "circuits": null, "club": null, "colour": null, "construction": null, "construction:railway": null, "contact:phone": null, "contact:website": null, "covered": null, "crossing:bell": null, "crossing:light": null, "cuisine": null, "denomination": null, "description": null, "destination": null, "destination:lanes:backward": null, "destination:lang:el-Latn": null, "direction": null, "distance": null, "education": null, "electrified": null, "embankment": null, "emergency": null, "fast_food": null, "fee": null, "fee:conditional": null, "fee:icom_member": null, "fee:note": null, "fee:note:2": null, "ford": null, "frequency": null, "gauge": null, "healthcare": null, "highway": null, "historic": null, "int_name": null, "intermittent": null, "junction": null, "landuse": null, "lane_markings": null, "lanes": null, "lastcheck": null, "layer": null, "leaf_type": null, "leisure": null, "level": null, "line_attachment": null, "lit": null, "location": null, "location:transition": null, "man_made": null, "manufacturer": null, "maxspeed": null, "motorcar": null, "name": null, "name:el": null, "name:en": null, "natural": null, "noexit": null, "note": null, "official_name": null, "old_ref": null, "oneway": null, "opening_hours": null, "operator": null, "operator:type": null, "operator:wikidata": null, "outdoor_seating": null, "parcel_locker:type": null, "parcel_mail_in": null, "parcel_pickup": null, "parking": null, "parking:fee": null, "payment:app": null, "payment:website": null, "phone": null, "place": null, "postal_code": null, "power": null, "public_transport": null, "railway": null, "ref": null, "ref:EU:EVSE": null, "ref:GR:IDRO": null, "reg_ref": null, "religion": null, "service": null, "shop": "florist", "smoking": null, "smoothness": null, "socket:type2": null, "socket:type2:output": null, "source": null, "source:old_ref": null, "source:ref": null, "source:reg_ref": null, "sport": null, "stop": null, "substation": null, "surface": null, "tourism": null, "tracktype": null, "trade": null, "train": null, "tunnel": null, "usage": null, "voltage": null, "waterway": null, "website": null, "wheelchair": null, "wikidata": null, "wikipedia": null, "label": "shop:florist" }, "geometry": { "type": "Point", "coordinates": [ 23.3379148, 37.996973 ] } },
{ "type": "Feature", "properties": { "@type": "node", "@id": 1756651520, "access": null, "addr:city": null, "addr:country": null, "addr:housenumber": null, "addr:milestone": null, "addr:postcode": null, "addr:street": null, "alt_name": null, "amenity": null, "area": null, "authentication:app": null, "authentication:membership_card": null, "barrier": null, "brand": null, "brand:el": null, "brand:en": null, "brand:wikidata": null, "brand:wikipedia": null, "bridge": null, "building": null, "bus": null, "cables": null, "capacity": null, "check_date:surface": null, "circuits": null, "club": null, "colour": null, "construction": null, "construction:railway": null, "contact:phone": null, "contact:website": null, "covered": null, "crossing:bell": null, "crossing:light": null, "cuisine": null, "denomination": null, "description": null, "destination": null, "destination:lanes:backward": null, "destination:lang:el-Latn": null, "direction": null, "distance": null, "education": null, "electrified": null, "embankment": null, "emergency": null, "fast_food": null, "fee": null, "fee:conditional": null, "fee:icom_member": null, "fee:note": null, "fee:note:2": null, "ford": null, "frequency": null, "gauge": null, "healthcare": null, "highway": null, "historic": null, "int_name": null, "intermittent": null, "junction": null, "landuse": "cemetery", "lane_markings": null, "lanes": null, "lastcheck": null, "layer": null, "leaf_type": null, "leisure": null, "level": null, "line_attachment": null, "lit": null, "location": null, "location:transition": null, "man_made": null, "manufacturer": null, "maxspeed": null, "motorcar": null, "name": "Κοιμητήριο Μεγάρων", "name:el": null, "name:en": null, "natural": null, "noexit": null, "note": null, "official_name": null, "old_ref": null, "oneway": null, "opening_hours": null, "operator": null, "operator:type": null, "operator:wikidata": null, "outdoor_seating": null, "parcel_locker:type": null, "parcel_mail_in": null, "parcel_pickup": null, "parking": null, "parking:fee": null, "payment:app": null, "payment:website": null, "phone": null, "place": null, "postal_code": null, "power": null, "public_transport": null, "railway": null, "ref": null, "ref:EU:EVSE": null, "ref:GR:IDRO": null, "reg_ref": null, "religion": null, "service": null, "shop": null, "smoking": null, "smoothness": null, "socket:type2": null, "socket:type2:output": null, "source": null, "source:old_ref": null, "source:ref": null, "source:reg_ref": null, "sport": null, "stop": null, "substation": null, "surface": null, "tourism": null, "tracktype": null, "trade": null, "train": null, "tunnel": null, "usage": null, "voltage": null, "waterway": null, "website": null, "wheelchair": null, "wikidata": null, "wikipedia": null, "label": "landuse:cemetery" }, "geometry": { "type": "Point", "coordinates": [ 23.3517616, 37.9973167 ] } },
{ "type": "Feature", "properties": { "@type": "node", "@id": 1756651543, "access": null, "addr:city": null, "addr:country": null, "addr:housenumber": null, "addr:milestone": null, "addr:postcode": null, "addr:street": null, "alt_name": null, "amenity": "pharmacy", "area": null, "authentication:app": null, "authentication:membership_card": null, "barrier": null, "brand": null, "brand:el": null, "brand:en": null, "brand:wikidata": null, "brand:wikipedia": null, "bridge": null, "building": null, "bus": null, "cables": null, "capacity": null, "check_date:surface": null, "circuits": null, "club": null, "colour": null, "construction": null, "construction:railway": null, "contact:phone": null, "contact:website": null, "covered": null, "crossing:bell": null, "crossing:light": null, "cuisine": null, "denomination": null, "description": null, "destination": null, "destination:lanes:backward": null, "destination:lang:el-Latn": null, "direction": null, "distance": null, "education": null, "electrified": null, "embankment": null, "emergency": null, "fast_food": null, "fee": null, "fee:conditional": null, "fee:icom_member": null, "fee:note": null, "fee:note:2": null, "ford": null, "frequency": null, "gauge": null, "healthcare": "pharmacy", "highway": null, "historic": null, "int_name": null, "intermittent": null, "junction": null, "landuse": null, "lane_markings": null, "lanes": null, "lastcheck": null, "layer": null, "leaf_type": null, "leisure": null, "level": null, "line_attachment": null, "lit": null, "location": null, "location:transition": null, "man_made": null, "manufacturer": null, "maxspeed": null, "motorcar": null, "name": null, "name:el": null, "name:en": null, "natural": null, "noexit": null, "note": null, "official_name": null, "old_ref": null, "oneway": null, "opening_hours": null, "operator": null, "operator:type": null, "operator:wikidata": null, "outdoor_seating": null, "parcel_locker:type": null, "parcel_mail_in": null, "parcel_pickup": null, "parking": null, "parking:fee": null, "payment:app": null, "payment:website": null, "phone": null, "place": null, "postal_code": null, "power": null, "public_transport": null, "railway": null, "ref": null, "ref:EU:EVSE": null, "ref:GR:IDRO": null, "reg_ref": null, "religion": null, "service": null, "shop": null, "smoking": null, "smoothness": null, "socket:type2": null, "socket:type2:output": null, "source": null, "source:old_ref": null, "source:ref": null, "source:reg_ref": null, "sport": null, "stop": null, "substation": null, "surface": null, "tourism": null, "tracktype": null, "trade": null, "train": null, "tunnel": null, "usage": null, "voltage": null, "waterway": null, "website": null, "wheelchair": null, "wikidata": null, "wikipedia": null, "label": "amenity:pharmacy" }, "geometry": { "type": "Point", "coordinates": [ 23.3438371, 37.9976304 ] } },
{ "type": "Feature", "properties": { "@type": "node", "@id": 3019066513, "access": null, "addr:city": "Μέγαρα", "addr:country": null, "addr:housenumber": null, "addr:milestone": null, "addr:postcode": "19100", "addr:street": "Σωτηρος και Αγίας Λαύρας", "alt_name": null, "amenity": "cafe", "area": null, "authentication:app": null, "authentication:membership_card": null, "barrier": null, "brand": null, "brand:el": null, "brand:en": null, "brand:wikidata": null, "brand:wikipedia": null, "bridge": null, "building": null, "bus": null, "cables": null, "capacity": null, "check_date:surface": null, "circuits": null, "club": null, "colour": null, "construction": null, "construction:railway": null, "contact:phone": null, "contact:website": null, "covered": null, "crossing:bell": null, "crossing:light": null, "cuisine": null, "denomination": null, "description": null, "destination": null, "destination:lanes:backward": null, "destination:lang:el-Latn": null, "direction": null, "distance": null, "education": null, "electrified": null, "embankment": null, "emergency": null, "fast_food": null, "fee": null, "fee:conditional": null, "fee:icom_member": null, "fee:note": null, "fee:note:2": null, "ford": null, "frequency": null, "gauge": null, "healthcare": null, "highway": null, "historic": null, "int_name": null, "intermittent": null, "junction": null, "landuse": null, "lane_markings": null, "lanes": null, "lastcheck": null, "layer": null, "leaf_type": null, "leisure": null, "level": null, "line_attachment": null, "lit": null, "location": null, "location:transition": null, "man_made": null, "manufacturer": null, "maxspeed": null, "motorcar": null, "name": "Σταματης", "name:el": null, "name:en": null, "natural": null, "noexit": null, "note": null, "official_name": null, "old_ref": null, "oneway": null, "opening_hours": "Mo-Su 06:00-24:00", "operator": null, "operator:type": null, "operator:wikidata": null, "outdoor_seating": null, "parcel_locker:type": null, "parcel_mail_in": null, "parcel_pickup": null, "parking": null, "parking:fee": null, "payment:app": null, "payment:website": null, "phone": null, "place": null, "postal_code": null, "power": null, "public_transport": null, "railway": null, "ref": null, "ref:EU:EVSE": null, "ref:GR:IDRO": null, "reg_ref": null, "religion": null, "service": null, "shop": null, "smoking": "outside", "smoothness": null, "socket:type2": null, "socket:type2:output": null, "source": null, "source:old_ref": null, "source:ref": null, "source:reg_ref": null, "sport": null, "stop": null, "substation": null, "surface": null, "tourism": null, "tracktype": null, "trade": null, "train": null, "tunnel": null, "usage": null, "voltage": null, "waterway": null, "website": null, "wheelchair": null, "wikidata": null, "wikipedia": null, "label": "amenity:cafe" }, "geometry": { "type": "Point", "coordinates": [ 23.3433192, 38.0022121 ] } },
{ "type": "Feature", "properties": { "@type": "node", "@id": 4361816906, "access": null, "addr:city": null, "addr:country": null, "addr:housenumber": null, "addr:milestone": null, "addr:postcode": null, "addr:street": null, "alt_name": null, "amenity": null, "area": null, "authentication:app": null, "authentication:membership_card": null, "barrier": null, "brand": "Lidl", "brand:el": null, "brand:en": null, "brand:wikidata": "Q151954", "brand:wikipedia": "en:Lidl", "bridge": null, "building": null, "bus": null, "cables": null, "capacity": null, "check_date:surface": null, "circuits": null, "club": null, "colour": null, "construction": null, "construction:railway": null, "contact:phone": null, "contact:website": null, "covered": null, "crossing:bell": null, "crossing:light": null, "cuisine": null, "denomination": null, "description": null, "destination": null, "destination:lanes:backward": null, "destination:lang:el-Latn": null, "direction": null, "distance": null, "education": null, "electrified": null, "embankment": null, "emergency": null, "fast_food": null, "fee": null, "fee:conditional": null, "fee:icom_member": null, "fee:note": null, "fee:note:2": null, "ford": null, "frequency": null, "gauge": null, "healthcare": null, "highway": null, "historic": null, "int_name": null, "intermittent": null, "junction": null, "landuse": null, "lane_markings": null, "lanes": null, "lastcheck": "2016-08-23T00:00:00", "layer": null, "leaf_type": null, "leisure": null, "level": "0", "line_attachment": null, "lit": null, "location": null, "location:transition": null, "man_made": null, "manufacturer": null, "maxspeed": null, "motorcar": null, "name": "Lidl", "name:el": null, "name:en": null, "natural": null, "noexit": null, "note": null, "official_name": null, "old_ref": null, "oneway": null, "opening_hours": "Mo-Fr 08:00-21:00;Sa 08:00-20:00", "operator": null, "operator:type": null, "operator:wikidata": null, "outdoor_seating": null, "parcel_locker:type": null, "parcel_mail_in": null, "parcel_pickup": null, "parking": null, "parking:fee": null, "payment:app": null, "payment:website": null, "phone": null, "place": null, "postal_code": null, "power": null, "public_transport": null, "railway": null, "ref": null, "ref:EU:EVSE": null, "ref:GR:IDRO": null, "reg_ref": null, "religion": null, "service": null, "shop": "supermarket", "smoking": null, "smoothness": null, "socket:type2": null, "socket:type2:output": null, "source": null, "source:old_ref": null, "source:ref": null, "source:reg_ref": null, "sport": null, "stop": null, "substation": null, "surface": null, "tourism": null, "tracktype": null, "trade": null, "train": null, "tunnel": null, "usage": null, "voltage": null, "waterway": null, "website": null, "wheelchair": "yes", "wikidata": null, "wikipedia": null, "label": "shop:supermarket" }, "geometry": { "type": "Point", "coordinates": [ 23.3547079, 37.9994256 ] } },
{ "type": "Feature", "properties": { "@type": "node", "@id": 7951548546, "access": null, "addr:city": null, "addr:country": null, "addr:housenumber": null, "addr:milestone": null, "addr:postcode": null, "addr:street": null, "alt_name": null, "amenity": "water_point", "area": null, "authentication:app": null, "authentication:membership_card": null, "barrier": null, "brand": null, "brand:el": null, "brand:en": null, "brand:wikidata": null, "brand:wikipedia": null, "bridge": null, "building": null, "bus": null, "cables": null, "capacity": null, "check_date:surface": null, "circuits": null, "club": null, "colour": null, "construction": null, "construction:railway": null, "contact:phone": null, "contact:website": null, "covered": null, "crossing:bell": null, "crossing:light": null, "cuisine": null, "denomination": null, "description": null, "destination": null, "destination:lanes:backward": null, "destination:lang:el-Latn": null, "direction": null, "distance": null, "education": null, "electrified": null, "embankment": null, "emergency": null, "fast_food": null, "fee": null, "fee:conditional": null, "fee:icom_member": null, "fee:note": null, "fee:note:2": null, "ford": null, "frequency": null, "gauge": null, "healthcare": null, "highway": null, "historic": null, "int_name": null, "intermittent": null, "junction": null, "landuse": null, "lane_markings": null, "lanes": null, "lastcheck": null, "layer": null, "leaf_type": null, "leisure": null, "level": null, "line_attachment": null, "lit": null, "location": null, "location:transition": null, "man_made": null, "manufacturer": null, "maxspeed": null, "motorcar": null, "name": null, "name:el": null, "name:en": null, "natural": null, "noexit": null, "note": null, "official_name": null, "old_ref": null, "oneway": null, "opening_hours": null, "operator": null, "operator:type": null, "operator:wikidata": null, "outdoor_seating": null, "parcel_locker:type": null, "parcel_mail_in": null, "parcel_pickup": null, "parking": null, "parking:fee": null, "payment:app": null, "payment:website": null, "phone": null, "place": null, "postal_code": null, "power": null, "public_transport": null, "railway": null, "ref": null, "ref:EU:EVSE": null, "ref:GR:IDRO": null, "reg_ref": null, "religion": null, "service": null, "shop": null, "smoking": null, "smoothness": null, "socket:type2": null, "socket:type2:output": null, "source": null, "source:old_ref": null, "source:ref": null, "source:reg_ref": null, "sport": null, "stop": null, "substation": null, "surface": null, "tourism": null, "tracktype": null, "trade": null, "train": null, "tunnel": null, "usage": null, "voltage": null, "waterway": null, "website": null, "wheelchair": null, "wikidata": null, "wikipedia": null, "label": "amenity:water_point" }, "geometry": { "type": "Point", "coordinates": [ 23.3502767, 37.9977353 ] } },
{ "type": "Feature", "properties": { "@type": "node", "@id": 9382319572, "access": null, "addr:city": "Μέγαρα", "addr:country": null, "addr:housenumber": "1", "addr:milestone": null, "addr:postcode": null, "addr:street": "Καραϊσκάκη", "alt_name": null, "amenity": "fuel", "area": null, "authentication:app": null, "authentication:membership_card": null, "barrier": null, "brand": "EKO", "brand:el": null, "brand:en": null, "brand:wikidata": "Q31283948", "brand:wikipedia": "el:Ελληνικά Πετρέλαια", "bridge": null, "building": null, "bus": null, "cables": null, "capacity": null, "check_date:surface": null, "circuits": null, "club": null, "colour": null, "construction": null, "construction:railway": null, "contact:phone": null, "contact:website": null, "covered": null, "crossing:bell": null, "crossing:light": null, "cuisine": null, "denomination": null, "description": null, "destination": null, "destination:lanes:backward": null, "destination:lang:el-Latn": null, "direction": null, "distance": null, "education": null, "electrified": null, "embankment": null, "emergency": null, "fast_food": null, "fee": null, "fee:conditional": null, "fee:icom_member": null, "fee:note": null, "fee:note:2": null, "ford": null, "frequency": null, "gauge": null, "healthcare": null, "highway": null, "historic": null, "int_name": null, "intermittent": null, "junction": null, "landuse": null, "lane_markings": null, "lanes": null, "lastcheck": null, "layer": null, "leaf_type": null, "leisure": null, "level": null, "line_attachment": null, "lit": null, "location": null, "location:transition": null, "man_made": null, "manufacturer": null, "maxspeed": null, "motorcar": null, "name": "EKO", "name:el": null, "name:en": null, "natural": null, "noexit": null, "note": null, "official_name": null, "old_ref": null, "oneway": null, "opening_hours": null, "operator": "ΡΟΥΣΣΗΣ ΙΩΑ. ΑΝΕΣΤΗΣ", "operator:type": null, "operator:wikidata": null, "outdoor_seating": null, "parcel_locker:type": null, "parcel_mail_in": null, "parcel_pickup": null, "parking": null, "parking:fee": null, "payment:app": null, "payment:website": null, "phone": null, "place": null, "postal_code": null, "power": null, "public_transport": null, "railway": null, "ref": null, "ref:EU:EVSE": null, "ref:GR:IDRO": null, "reg_ref": null, "religion": null, "service": null, "shop": null, "smoking": null, "smoothness": null, "socket:type2": null, "socket:type2:output": null, "source": null, "source:old_ref": null, "source:ref": null, "source:reg_ref": null, "sport": null, "stop": null, "substation": null, "surface": null, "tourism": null, "tracktype": null, "trade": null, "train": null, "tunnel": null, "usage": null, "voltage": null, "waterway": null, "website": null, "wheelchair": null, "wikidata": null, "wikipedia": null, "label": "amenity:fuel" }, "geometry": { "type": "Point", "coordinates": [ 23.339441, 38.0033226 ] } },
{ "type": "Feature", "properties": { "@type": "node", "@id": 9727013573, "access": null, "addr:city": null, "addr:country": null, "addr:housenumber": null, "addr:milestone": null, "addr:postcode": null, "addr:street": null, "alt_name": null, "amenity": null, "area": null, "authentication:app": null, "authentication:membership_card": null, "barrier": null, "brand": null, "brand:el": null, "brand:en": null, "brand:wikidata": null, "brand:wikipedia": null, "bridge": null, "building": null, "bus": null, "cables": null, "capacity": null, "check_date:surface": null, "circuits": null, "club": null, "colour": null, "construction": null, "construction:railway": null, "contact:phone": null, "contact:website": null, "covered": null, "crossing:bell": null, "crossing:light": null, "cuisine": null, "denomination": null, "description": null, "destination": null, "destination:lanes:backward": null, "destination:lang:el-Latn": null, "direction": null, "distance": null, "education": null, "electrified": null, "embankment": null, "emergency": null, "fast_food": null, "fee": null, "fee:conditional": null, "fee:icom_member": null, "fee:note": null, "fee:note:2": null, "ford": null, "frequency": null, "gauge": null, "healthcare": null, "highway": null, "historic": null, "int_name": null, "intermittent": null, "junction": null, "landuse": null, "lane_markings": null, "lanes": null, "lastcheck": null, "layer": null, "leaf_type": null, "leisure": null, "level": null, "line_attachment": null, "lit": null, "location": null, "location:transition": null, "man_made": null, "manufacturer": null, "maxspeed": null, "motorcar": null, "name": "Smart Key", "name:el": null, "name:en": null, "natural": null, "noexit": null, "note": null, "official_name": null, "old_ref": null, "oneway": null, "opening_hours": null, "operator": null, "operator:type": null, "operator:wikidata": null, "outdoor_seating": null, "parcel_locker:type": null, "parcel_mail_in": null, "parcel_pickup": null, "parking": null, "parking:fee": null, "payment:app": null, "payment:website": null, "phone": null, "place": null, "postal_code": null, "power": null, "public_transport": null, "railway": null, "ref": null, "ref:EU:EVSE": null, "ref:GR:IDRO": null, "reg_ref": null, "religion": null, "service": null, "shop": "locksmith", "smoking": null, "smoothness": null, "socket:type2": null, "socket:type2:output": null, "source": null, "source:old_ref": null, "source:ref": null, "source:reg_ref": null, "sport": null, "stop": null, "substation": null, "surface": null, "tourism": null, "tracktype": null, "trade": null, "train": null, "tunnel": null, "usage": null, "voltage": null, "waterway": null, "website": null, "wheelchair": null, "wikidata": null, "wikipedia": null, "label": "shop:locksmith" }, "geometry": { "type": "Point", "coordinates": [ 23.3434122, 38.0039896 ] } },
{ "type": "Feature", "properties": { "@type": "node", "@id": 9727013574, "access": null, "addr:city": null, "addr:country": null, "addr:housenumber": null, "addr:milestone": null, "addr:postcode": null, "addr:street": null, "alt_name": null, "amenity": null, "area": null, "authentication:app": null, "authentication:membership_card": null, "barrier": null, "brand": null, "brand:el": null, "brand:en": null, "brand:wikidata": null, "brand:wikipedia": null, "bridge": null, "building": null, "bus": null, "cables": null, "capacity": null, "check_date:surface": null, "circuits": null, "club": null, "colour": null, "construction": null, "construction:railway": null, "contact:phone": null, "contact:website": null, "covered": null, "crossing:bell": null, "crossing:light": null, "cuisine": null, "denomination": null, "description": null, "destination": null, "destination:lanes:backward": null, "destination:lang:el-Latn": null, "direction": null, "distance": null, "education": null, "electrified": null, "embankment": null, "emergency": null, "fast_food": null, "fee": null, "fee:conditional": null, "fee:icom_member": null, "fee:note": null, "fee:note:2": null, "ford": null, "frequency": null, "gauge": null, "healthcare": null, "highway": null, "historic": null, "int_name": null, "intermittent": null, "junction": null, "landuse": null, "lane_markings": null, "lanes": null, "lastcheck": null, "layer": null, "leaf_type": null, "leisure": null, "level": null, "line_attachment": null, "lit": null, "location": null, "location:transition": null, "man_made": null, "manufacturer": null, "maxspeed": null, "motorcar": null, "name": "Χατζης", "name:el": null, "name:en": null, "natural": null, "noexit": null, "note": null, "official_name": null, "old_ref": null, "oneway": null, "opening_hours": null, "operator": null, "operator:type": null, "operator:wikidata": null, "outdoor_seating": null, "parcel_locker:type": null, "parcel_mail_in": null, "parcel_pickup": null, "parking": null, "parking:fee": null, "payment:app": null, "payment:website": null, "phone": null, "place": null, "postal_code": null, "power": null, "public_transport": null, "railway": null, "ref": null, "ref:EU:EVSE": null, "ref:GR:IDRO": null, "reg_ref": null, "religion": null, "service": null, "shop": "lighting", "smoking": null, "smoothness": null, "socket:type2": null, "socket:type2:output": null, "source": null, "source:old_ref": null, "source:ref": null, "source:reg_ref": null, "sport": null, "stop": null, "substation": null, "surface": null, "tourism": null, "tracktype": null, "trade": null, "train": null, "tunnel": null, "usage": null, "voltage": null, "waterway": null, "website": null, "wheelchair": null, "wikidata": null, "wikipedia": null, "label": "shop:lighting" }, "geometry": { "type": "Point", "coordinates": [ 23.3423796, 38.0040795 ] } },
{ "type": "Feature", "properties": { "@type": "node", "@id": 9727036454, "access": null, "addr:city": null, "addr:country": null, "addr:housenumber": null, "addr:milestone": null, "addr:postcode": null, "addr:street": null, "alt_name": null, "amenity": null, "area": null, "authentication:app": null, "authentication:membership_card": null, "barrier": null, "brand": null, "brand:el": null, "brand:en": null, "brand:wikidata": null, "brand:wikipedia": null, "bridge": null, "building": null, "bus": null, "cables": null, "capacity": null, "check_date:surface": null, "circuits": null, "club": null, "colour": null, "construction": null, "construction:railway": null, "contact:phone": null, "contact:website": null, "covered": null, "crossing:bell": null, "crossing:light": null, "cuisine": null, "denomination": null, "description": null, "destination": null, "destination:lanes:backward": null, "destination:lang:el-Latn": null, "direction": null, "distance": null, "education": null, "electrified": null, "embankment": null, "emergency": null, "fast_food": null, "fee": null, "fee:conditional": null, "fee:icom_member": null, "fee:note": null, "fee:note:2": null, "ford": null, "frequency": null, "gauge": null, "healthcare": null, "highway": null, "historic": null, "int_name": null, "intermittent": null, "junction": null, "landuse": null, "lane_markings": null, "lanes": null, "lastcheck": null, "layer": null, "leaf_type": null, "leisure": null, "level": null, "line_attachment": null, "lit": null, "location": null, "location:transition": null, "man_made": null, "manufacturer": null, "maxspeed": null, "motorcar": null, "name": "Κοστερνης", "name:el": null, "name:en": null, "natural": null, "noexit": null, "note": null, "official_name": null, "old_ref": null, "oneway": null, "opening_hours": null, "operator": null, "operator:type": null, "operator:wikidata": null, "outdoor_seating": null, "parcel_locker:type": null, "parcel_mail_in": null, "parcel_pickup": null, "parking": null, "parking:fee": null, "payment:app": null, "payment:website": null, "phone": null, "place": null, "postal_code": null, "power": null, "public_transport": null, "railway": null, "ref": null, "ref:EU:EVSE": null, "ref:GR:IDRO": null, "reg_ref": null, "religion": null, "service": null, "shop": "greengrocer", "smoking": null, "smoothness": null, "socket:type2": null, "socket:type2:output": null, "source": null, "source:old_ref": null, "source:ref": null, "source:reg_ref": null, "sport": null, "stop": null, "substation": null, "surface": null, "tourism": null, "tracktype": null, "trade": null, "train": null, "tunnel": null, "usage": null, "voltage": null, "waterway": null, "website": null, "wheelchair": null, "wikidata": null, "wikipedia": null, "label": "shop:greengrocer" }, "geometry": { "type": "Point", "coordinates": [ 23.3427928, 38.0040271 ] } },
{ "type": "Feature", "properties": { "@type": "node", "@id": 9727036458, "access": null, "addr:city": null, "addr:country": null, "addr:housenumber": null, "addr:milestone": null, "addr:postcode": null, "addr:street": null, "alt_name": null, "amenity": null, "area": null, "authentication:app": null, "authentication:membership_card": null, "barrier": null, "brand": null, "brand:el": null, "brand:en": null, "brand:wikidata": null, "brand:wikipedia": null, "bridge": null, "building": null, "bus": null, "cables": null, "capacity": null, "check_date:surface": null, "circuits": null, "club": null, "colour": null, "construction": null, "construction:railway": null, "contact:phone": null, "contact:website": null, "covered": null, "crossing:bell": null, "crossing:light": null, "cuisine": null, "denomination": null, "description": null, "destination": null, "destination:lanes:backward": null, "destination:lang:el-Latn": null, "direction": null, "distance": null, "education": null, "electrified": null, "embankment": null, "emergency": null, "fast_food": null, "fee": null, "fee:conditional": null, "fee:icom_member": null, "fee:note": null, "fee:note:2": null, "ford": null, "frequency": null, "gauge": null, "healthcare": null, "highway": null, "historic": null, "int_name": null, "intermittent": null, "junction": null, "landuse": null, "lane_markings": null, "lanes": null, "lastcheck": null, "layer": null, "leaf_type": null, "leisure": null, "level": null, "line_attachment": null, "lit": null, "location": null, "location:transition": null, "man_made": null, "manufacturer": null, "maxspeed": null, "motorcar": null, "name": null, "name:el": null, "name:en": null, "natural": null, "noexit": null, "note": null, "official_name": null, "old_ref": null, "oneway": null, "opening_hours": null, "operator": null, "operator:type": null, "operator:wikidata": null, "outdoor_seating": null, "parcel_locker:type": null, "parcel_mail_in": null, "parcel_pickup": null, "parking": null, "parking:fee": null, "payment:app": null, "payment:website": null, "phone": null, "place": null, "postal_code": null, "power": null, "public_transport": null, "railway": null, "ref": null, "ref:EU:EVSE": null, "ref:GR:IDRO": null, "reg_ref": null, "religion": null, "service": null, "shop": "trade", "smoking": null, "smoothness": null, "socket:type2": null, "socket:type2:output": null, "source": null, "source:old_ref": null, "source:ref": null, "source:reg_ref": null, "sport": null, "stop": null, "substation": null, "surface": null, "tourism": null, "tracktype": null, "trade": "agricultural_supplies", "train": null, "tunnel": null, "usage": null, "voltage": null, "waterway": null, "website": null, "wheelchair": null, "wikidata": null, "wikipedia": null, "label": "shop:trade" }, "geometry": { "type": "Point", "coordinates": [ 23.3438786, 38.0038419 ] } },
{ "type": "Feature", "properties": { "@type": "node", "@id": 9727036460, "access": null, "addr:city": null, "addr:country": null, "addr:housenumber": null, "addr:milestone": null, "addr:postcode": null, "addr:street": null, "alt_name": null, "amenity": "cafe", "area": null, "authentication:app": null, "authentication:membership_card": null, "barrier": null, "brand": null, "brand:el": null, "brand:en": null, "brand:wikidata": null, "brand:wikipedia": null, "bridge": null, "building": null, "bus": null, "cables": null, "capacity": null, "check_date:surface": null, "circuits": null, "club": null, "colour": null, "construction": null, "construction:railway": null, "contact:phone": null, "contact:website": null, "covered": null, "crossing:bell": null, "crossing:light": null, "cuisine": "ice_cream", "denomination": null, "description": null, "destination": null, "destination:lanes:backward": null, "destination:lang:el-Latn": null, "direction": null, "distance": null, "education": null, "electrified": null, "embankment": null, "emergency": null, "fast_food": null, "fee": null, "fee:conditional": null, "fee:icom_member": null, "fee:note": null, "fee:note:2": null, "ford": null, "frequency": null, "gauge": null, "healthcare": null, "highway": null, "historic": null, "int_name": null, "intermittent": null, "junction": null, "landuse": null, "lane_markings": null, "lanes": null, "lastcheck": null, "layer": null, "leaf_type": null, "leisure": null, "level": null, "line_attachment": null, "lit": null, "location": null, "location:transition": null, "man_made": null, "manufacturer": null, "maxspeed": null, "motorcar": null, "name": "Nut Cap", "name:el": null, "name:en": null, "natural": null, "noexit": null, "note": null, "official_name": null, "old_ref": null, "oneway": null, "opening_hours": null, "operator": null, "operator:type": null, "operator:wikidata": null, "outdoor_seating": null, "parcel_locker:type": null, "parcel_mail_in": null, "parcel_pickup": null, "parking": null, "parking:fee": null, "payment:app": null, "payment:website": null, "phone": null, "place": null, "postal_code": null, "power": null, "public_transport": null, "railway": null, "ref": null, "ref:EU:EVSE": null, "ref:GR:IDRO": null, "reg_ref": null, "religion": null, "service": null, "shop": null, "smoking": null, "smoothness": null, "socket:type2": null, "socket:type2:output": null, "source": null, "source:old_ref": null, "source:ref": null, "source:reg_ref": null, "sport": null, "stop": null, "substation": null, "surface": null, "tourism": null, "tracktype": null, "trade": null, "train": null, "tunnel": null, "usage": null, "voltage": null, "waterway": null, "website": null, "wheelchair": null, "wikidata": null, "wikipedia": null, "label": "amenity:cafe" }, "geometry": { "type": "Point", "coordinates": [ 23.3431174, 38.004007 ] } },
{ "type": "Feature", "properties": { "@type": "node", "@id": 9727049492, "access": null, "addr:city": null, "addr:country": null, "addr:housenumber": null, "addr:milestone": null, "addr:postcode": null, "addr:street": null, "alt_name": null, "amenity": "pharmacy", "area": null, "authentication:app": null, "authentication:membership_card": null, "barrier": null, "brand": null, "brand:el": null, "brand:en": null, "brand:wikidata": null, "brand:wikipedia": null, "bridge": null, "building": null, "bus": null, "cables": null, "capacity": null, "check_date:surface": null, "circuits": null, "club": null, "colour": null, "construction": null, "construction:railway": null, "contact:phone": null, "contact:website": null, "covered": null, "crossing:bell": null, "crossing:light": null, "cuisine": null, "denomination": null, "description": null, "destination": null, "destination:lanes:backward": null, "destination:lang:el-Latn": null, "direction": null, "distance": null, "education": null, "electrified": null, "embankment": null, "emergency": null, "fast_food": null, "fee": null, "fee:conditional": null, "fee:icom_member": null, "fee:note": null, "fee:note:2": null, "ford": null, "frequency": null, "gauge": null, "healthcare": "pharmacy", "highway": null, "historic": null, "int_name": "A. Varnavas", "intermittent": null, "junction": null, "landuse": null, "lane_markings": null, "lanes": null, "lastcheck": null, "layer": null, "leaf_type": null, "leisure": null, "level": null, "line_attachment": null, "lit": null, "location": null, "location:transition": null, "man_made": null, "manufacturer": null, "maxspeed": null, "motorcar": null, "name": "Α. Βαρναβας", "name:el": null, "name:en": null, "natural": null, "noexit": null, "note": null, "official_name": null, "old_ref": null, "oneway": null, "opening_hours": null, "operator": null, "operator:type": null, "operator:wikidata": null, "outdoor_seating": null, "parcel_locker:type": null, "parcel_mail_in": null, "parcel_pickup": null, "parking": null, "parking:fee": null, "payment:app": null, "payment:website": null, "phone": null, "place": null, "postal_code": null, "power": null, "public_transport": null, "railway": null, "ref": null, "ref:EU:EVSE": null, "ref:GR:IDRO": null, "reg_ref": null, "religion": null, "service": null, "shop": null, "smoking": null, "smoothness": null, "socket:type2": null, "socket:type2:output": null, "source": null, "source:old_ref": null, "source:ref": null, "source:reg_ref": null, "sport": null, "stop": null, "substation": null, "surface": null, "tourism": null, "tracktype": null, "trade": null, "train": null, "tunnel": null, "usage": null, "voltage": null, "waterway": null, "website": null, "wheelchair": null, "wikidata": null, "wikipedia": null, "label": "amenity:pharmacy" }, "geometry": { "type": "Point", "coordinates": [ 23.3383544, 38.0053835 ] } },
{ "type": "Feature", "properties": { "@type": "node", "@id": 9727049494, "access": null, "addr:city": "Μέγαρα", "addr:country": null, "addr:housenumber": null, "addr:milestone": null, "addr:postcode": "19100", "addr:street": null, "alt_name": null, "amenity": null, "area": null, "authentication:app": null, "authentication:membership_card": null, "barrier": null, "brand": "My market", "brand:el": null, "brand:en": null, "brand:wikidata": null, "brand:wikipedia": null, "bridge": null, "building": null, "bus": null, "cables": null, "capacity": null, "check_date:surface": null, "circuits": null, "club": null, "colour": null, "construction": null, "construction:railway": null, "contact:phone": null, "contact:website": null, "covered": null, "crossing:bell": null, "crossing:light": null, "cuisine": null, "denomination": null, "description": null, "destination": null, "destination:lanes:backward": null, "destination:lang:el-Latn": null, "direction": null, "distance": null, "education": null, "electrified": null, "embankment": null, "emergency": null, "fast_food": null, "fee": null, "fee:conditional": null, "fee:icom_member": null, "fee:note": null, "fee:note:2": null, "ford": null, "frequency": null, "gauge": null, "healthcare": null, "highway": null, "historic": null, "int_name": null, "intermittent": null, "junction": null, "landuse": null, "lane_markings": null, "lanes": null, "lastcheck": null, "layer": null, "leaf_type": null, "leisure": null, "level": null, "line_attachment": null, "lit": null, "location": null, "location:transition": null, "man_made": null, "manufacturer": null, "maxspeed": null, "motorcar": null, "name": "My market", "name:el": null, "name:en": null, "natural": null, "noexit": null, "note": null, "official_name": null, "old_ref": null, "oneway": null, "opening_hours": null, "operator": null, "operator:type": null, "operator:wikidata": null, "outdoor_seating": null, "parcel_locker:type": null, "parcel_mail_in": null, "parcel_pickup": null, "parking": null, "parking:fee": null, "payment:app": null, "payment:website": null, "phone": null, "place": null, "postal_code": null, "power": null, "public_transport": null, "railway": null, "ref": null, "ref:EU:EVSE": null, "ref:GR:IDRO": null, "reg_ref": null, "religion": null, "service": null, "shop": "supermarket", "smoking": null, "smoothness": null, "socket:type2": null, "socket:type2:output": null, "source": null, "source:old_ref": null, "source:ref": null, "source:reg_ref": null, "sport": null, "stop": null, "substation": null, "surface": null, "tourism": null, "tracktype": null, "trade": null, "train": null, "tunnel": null, "usage": null, "voltage": null, "waterway": null, "website": null, "wheelchair": null, "wikidata": null, "wikipedia": null, "label": "shop:supermarket" }, "geometry": { "type": "Point", "coordinates": [ 23.3394236, 38.0046884 ] } },
{ "type": "Feature", "properties": { "@type": "node", "@id": 9727061558, "access": null, "addr:city": "Μέγαρα", "addr:country": null, "addr:housenumber": null, "addr:milestone": null, "addr:postcode": "19100", "addr:street": "Μεγάρων - Αλεποχωρίου", "alt_name": null, "amenity": "cafe", "area": null, "authentication:app": null, "authentication:membership_card": null, "barrier": null, "brand": null, "brand:el": null, "brand:en": null, "brand:wikidata": null, "brand:wikipedia": null, "bridge": null, "building": null, "bus": null, "cables": null, "capacity": null, "check_date:surface": null, "circuits": null, "club": null, "colour": null, "construction": null, "construction:railway": null, "contact:phone": null, "contact:website": null, "covered": null, "crossing:bell": null, "crossing:light": null, "cuisine": null, "denomination": null, "description": null, "destination": null, "destination:lanes:backward": null, "destination:lang:el-Latn": null, "direction": null, "distance": null, "education": null, "electrified": null, "embankment": null, "emergency": null, "fast_food": null, "fee": null, "fee:conditional": null, "fee:icom_member": null, "fee:note": null, "fee:note:2": null, "ford": null, "frequency": null, "gauge": null, "healthcare": null, "highway": null, "historic": null, "int_name": null, "intermittent": null, "junction": null, "landuse": null, "lane_markings": null, "lanes": null, "lastcheck": null, "layer": null, "leaf_type": null, "leisure": null, "level": null, "line_attachment": null, "lit": null, "location": null, "location:transition": null, "man_made": null, "manufacturer": null, "maxspeed": null, "motorcar": null, "name": "All", "name:el": null, "name:en": null, "natural": null, "noexit": null, "note": null, "official_name": null, "old_ref": null, "oneway": null, "opening_hours": null, "operator": null, "operator:type": null, "operator:wikidata": null, "outdoor_seating": "yes", "parcel_locker:type": null, "parcel_mail_in": null, "parcel_pickup": null, "parking": null, "parking:fee": null, "payment:app": null, "payment:website": null, "phone": null, "place": null, "postal_code": null, "power": null, "public_transport": null, "railway": null, "ref": null, "ref:EU:EVSE": null, "ref:GR:IDRO": null, "reg_ref": null, "religion": null, "service": null, "shop": null, "smoking": null, "smoothness": null, "socket:type2": null, "socket:type2:output": null, "source": null, "source:old_ref": null, "source:ref": null, "source:reg_ref": null, "sport": null, "stop": null, "substation": null, "surface": null, "tourism": null, "tracktype": null, "trade": null, "train": null, "tunnel": null, "usage": null, "voltage": null, "waterway": null, "website": null, "wheelchair": null, "wikidata": null, "wikipedia": null, "label": "amenity:cafe" }, "geometry": { "type": "Point", "coordinates": [ 23.3388274, 38.0049198 ] } },
{ "type": "Feature", "properties": { "@type": "node", "@id": 10311838583, "access": null, "addr:city": "Μέγαρα", "addr:country": null, "addr:housenumber": null, "addr:milestone": null, "addr:postcode": "19100", "addr:street": "Μεγάρων - Αλεποχωρίου", "alt_name": null, "amenity": "restaurant", "area": null, "authentication:app": null, "authentication:membership_card": null, "barrier": null, "brand": null, "brand:el": null, "brand:en": null, "brand:wikidata": null, "brand:wikipedia": null, "bridge": null, "building": null, "bus": null, "cables": null, "capacity": null, "check_date:surface": null, "circuits": null, "club": null, "colour": null, "construction": null, "construction:railway": null, "contact:phone": null, "contact:website": null, "covered": null, "crossing:bell": null, "crossing:light": null, "cuisine": "greek", "denomination": null, "description": null, "destination": null, "destination:lanes:backward": null, "destination:lang:el-Latn": null, "direction": null, "distance": null, "education": null, "electrified": null, "embankment": null, "emergency": null, "fast_food": null, "fee": null, "fee:conditional": null, "fee:icom_member": null, "fee:note": null, "fee:note:2": null, "ford": null, "frequency": null, "gauge": null, "healthcare": null, "highway": null, "historic": null, "int_name": null, "intermittent": null, "junction": null, "landuse": null, "lane_markings": null, "lanes": null, "lastcheck": null, "layer": null, "leaf_type": null, "leisure": null, "level": null, "line_attachment": null, "lit": null, "location": null, "location:transition": null, "man_made": null, "manufacturer": null, "maxspeed": null, "motorcar": null, "name": "Food Station", "name:el": null, "name:en": null, "natural": null, "noexit": null, "note": null, "official_name": null, "old_ref": null, "oneway": null, "opening_hours": "Tu-Su 19:00-00:00", "operator": null, "operator:type": null, "operator:wikidata": null, "outdoor_seating": null, "parcel_locker:type": null, "parcel_mail_in": null, "parcel_pickup": null, "parking": null, "parking:fee": null, "payment:app": null, "payment:website": null, "phone": "+302296110287", "place": null, "postal_code": null, "power": null, "public_transport": null, "railway": null, "ref": null, "ref:EU:EVSE": null, "ref:GR:IDRO": null, "reg_ref": null, "religion": null, "service": null, "shop": null, "smoking": null, "smoothness": null, "socket:type2": null, "socket:type2:output": null, "source": null, "source:old_ref": null, "source:ref": null, "source:reg_ref": null, "sport": null, "stop": null, "substation": null, "surface": null, "tourism": null, "tracktype": null, "trade": null, "train": null, "tunnel": null, "usage": null, "voltage": null, "waterway": null, "website": null, "wheelchair": null, "wikidata": null, "wikipedia": null, "label": "amenity:restaurant" }, "geometry": { "type": "Point", "coordinates": [ 23.3389217, 38.0049002 ] } },
{ "type": "Feature", "properties": { "@type": "node", "@id": 13247243516, "access": "yes", "addr:city": "Μέγαρα", "addr:country": null, "addr:housenumber": "13", "addr:milestone": null, "addr:postcode": "19100", "addr:street": "Αγίας Βαρβάρας", "alt_name": null, "amenity": "charging_station", "area": null, "authentication:app": "yes", "authentication:membership_card": "yes", "barrier": null, "brand": "nrg incharge", "brand:el": null, "brand:en": null, "brand:wikidata": null, "brand:wikipedia": null, "bridge": null, "building": null, "bus": null, "cables": null, "capacity": "2", "check_date:surface": null, "circuits": null, "club": null, "colour": null, "construction": null, "construction:railway": null, "contact:phone": "+30 2188818102", "contact:website": "https://www.nrgincharge.gr/", "covered": "no", "crossing:bell": null, "crossing:light": null, "cuisine": null, "denomination": null, "description": null, "destination": null, "destination:lanes:backward": null, "destination:lang:el-Latn": null, "direction": null, "distance": null, "education": null, "electrified": null, "embankment": null, "emergency": null, "fast_food": null, "fee": "yes", "fee:conditional": null, "fee:icom_member": null, "fee:note": null, "fee:note:2": null, "ford": null, "frequency": null, "gauge": null, "healthcare": null, "highway": null, "historic": null, "int_name": null, "intermittent": null, "junction": null, "landuse": null, "lane_markings": null, "lanes": null, "lastcheck": null, "layer": null, "leaf_type": null, "leisure": null, "level": null, "line_attachment": null, "lit": null, "location": null, "location:transition": null, "man_made": null, "manufacturer": null, "maxspeed": null, "motorcar": "yes", "name": "nrg - My Market Μέγαρα Αλεποχώρι", "name:el": "nrg - My Market Μέγαρα Αλεποχώρι", "name:en": "nrg - My Market Megara Alepochori", "natural": null, "noexit": null, "note": null, "official_name": null, "old_ref": null, "oneway": null, "opening_hours": "24/7", "operator": "My Market", "operator:type": null, "operator:wikidata": null, "outdoor_seating": null, "parcel_locker:type": null, "parcel_mail_in": null, "parcel_pickup": null, "parking": null, "parking:fee": "no", "payment:app": "yes", "payment:website": "yes", "phone": null, "place": null, "postal_code": null, "power": null, "public_transport": null, "railway": null, "ref": "#421;#422", "ref:EU:EVSE": "GR*NRG*E421*1;GR*NRG*E422*1", "ref:GR:IDRO": "GR-NRG-S281", "reg_ref": null, "religion": null, "service": null, "shop": null, "smoking": null, "smoothness": null, "socket:type2": "2", "socket:type2:output": "22", "source": null, "source:old_ref": null, "source:ref": null, "source:reg_ref": null, "sport": null, "stop": null, "substation": null, "surface": null, "tourism": null, "tracktype": null, "trade": null, "train": null, "tunnel": null, "usage": null, "voltage": null, "waterway": null, "website": null, "wheelchair": null, "wikidata": null, "wikipedia": null, "label": "amenity:charging_station" }, "geometry": { "type": "Point", "coordinates": [ 23.3392122, 38.0048876 ] } },
{ "type": "Feature", "properties": { "@type": "node", "@id": 13247263069, "access": "yes", "addr:city": "Μέγαρα", "addr:country": null, "addr:housenumber": null, "addr:milestone": null, "addr:postcode": "19100", "addr:street": "Αθηνών - Κορίνθου", "alt_name": null, "amenity": "charging_station", "area": null, "authentication:app": "yes", "authentication:membership_card": null, "barrier": null, "brand": "DEI Blue", "brand:el": null, "brand:en": null, "brand:wikidata": null, "brand:wikipedia": null, "bridge": null, "building": null, "bus": null, "cables": null, "capacity": "4", "check_date:surface": null, "circuits": null, "club": null, "colour": null, "construction": null, "construction:railway": null, "contact:phone": "+30 2112110900", "contact:website": "https://www.deiblue.gr/", "covered": "no", "crossing:bell": null, "crossing:light": null, "cuisine": null, "denomination": null, "description": null, "destination": null, "destination:lanes:backward": null, "destination:lang:el-Latn": null, "direction": null, "distance": null, "education": null, "electrified": null, "embankment": null, "emergency": null, "fast_food": null, "fee": "yes", "fee:conditional": null, "fee:icom_member": null, "fee:note": null, "fee:note:2": null, "ford": null, "frequency": null, "gauge": null, "healthcare": null, "highway": null, "historic": null, "int_name": "DΕΙ blue - Sklavenitis Megara", "intermittent": null, "junction": null, "landuse": null, "lane_markings": null, "lanes": null, "lastcheck": null, "layer": null, "leaf_type": null, "leisure": null, "level": null, "line_attachment": null, "lit": null, "location": null, "location:transition": null, "man_made": null, "manufacturer": "Phoenix Contact", "maxspeed": null, "motorcar": "yes", "name": "DΕΙ blue - Σκλαβενίτης Μέγαρα", "name:el": "DΕΙ blue - Σκλαβενίτης Μέγαρα", "name:en": "DΕΙ blue - Sklavenitis Megara", "natural": null, "noexit": null, "note": null, "official_name": null, "old_ref": null, "oneway": null, "opening_hours": "24/7", "operator": "Σκλαβενίτης", "operator:type": null, "operator:wikidata": "Q7536037", "outdoor_seating": null, "parcel_locker:type": null, "parcel_mail_in": null, "parcel_pickup": null, "parking": null, "parking:fee": "no", "payment:app": "yes", "payment:website": null, "phone": null, "place": null, "postal_code": null, "power": null, "public_transport": null, "railway": null, "ref": null, "ref:EU:EVSE": "GR*PPC*E0002000832*1;GR*PPC*E0002000832*2;GR*PPC*E0002000857*1;GR*PPC*E0002000857*2", "ref:GR:IDRO": "GR-PPC-Scs38794-L", "reg_ref": null, "religion": null, "service": null, "shop": null, "smoking": null, "smoothness": null, "socket:type2": "4", "socket:type2:output": "22", "source": null, "source:old_ref": null, "source:ref": null, "source:reg_ref": null, "sport": null, "stop": null, "substation": null, "surface": null, "tourism": null, "tracktype": null, "trade": null, "train": null, "tunnel": null, "usage": null, "voltage": null, "waterway": null, "website": null, "wheelchair": null, "wikidata": null, "wikipedia": null, "label": "amenity:charging_station" }, "geometry": { "type": "Point", "coordinates": [ 23.3535554, 37.999069 ] } }
]
}
