{
"type": "FeatureCollection",
"name": "patch_21010_linestring",
"crs": { "type": "name", "properties": { "name": "urn:ogc:def:crs:OGC:1.3:CRS84" } },
"features": [
{ "type": "Feature", "properties": { "@type": "way", "@id": 135518533, "access": null, "addr:city": null, "addr:country": null, "addr:housenumber": null, "addr:milestone": null, "addr:postcode": null, "addr:street": null, "alt_name": null, "amenity": null, "area": null, "authentication:app": null, "authentication:membership_card": null, "barrier": null, "brand": null, "brand:el": null, "brand:en": null, "brand:wikidata": null, "brand:wikipedia": null, "bridge": null, "building": null, "bus": null, "cables": null, "capacity": null, "check_date:surface": null, "circuits": null, "club": null, "colour": null, "construction": null, "construction:railway": null, "contact:phone": null, "contact:website": null, "covered": null, "crossing:bell": null, "crossing:light": null, "cuisine": null, "denomination": null, "description": null, "destination": null, "destination:lanes:backward": null, "destination:lang:el-Latn": null, "direction": null, "distance": null, "education": null, "electrified": null, "embankment": null, "emergency": null, "fast_food": null, "fee": null, "fee:conditional": null, "fee:icom_member": null, "fee:note": null, "fee:note:2": null, "ford": null, "frequency": null, "gauge": null, "healthcare": null, "highway": null, "historic": null, "int_name": null, "intermittent": "yes", "junction": null, "landuse": null, "lane_markings": null, "lanes": null, "lastcheck": null, "layer": null, "leaf_type": null, "leisure": null, "level": null, "line_attachment": null, "lit": null, "location": null, "location:transition": null, "man_made": null, "manufacturer": null, "maxspeed": null, "motorcar": null, "name": null, "name:el": null, "name:en": null, "natural": null, "noexit": null, "note": null, "official_name": null, "old_ref": null, "oneway": null, "opening_hours": null, "operator": null, "operator:type": null, "operator:wikidata": null, "outdoor_seating": null, "parcel_locker:type": null, "parcel_mail_in": null, "parcel_pickup": null, "parking": null, "parking:fee": null, "payment:app": null, "payment:website": null, "phone": null, "place": null, "postal_code": null, "power": null, "public_transport": null, "railway": null, "ref": null, "ref:EU:EVSE": null, "ref:GR:IDRO": null, "reg_ref": null, "religion": null, "service": null, "shop": null, "smoking": null, "smoothness": null, "socket:type2": null, "socket:type2:output": null, "source": "DigitalGlobal Standard Image 07-12-17", "source:old_ref": null, "source:ref": null, "source:reg_ref": null, "sport": null, "stop": null, "substation": null, "surface": null, "tourism": null, "tracktype": null, "trade": null, "train": null, "tunnel": null, "usage": null, "voltage": null, "waterway": "stream", "website": null, "wheelchair": null, "wikidata": null, "wikipedia": null, "label": "waterway:stream" }, "geometry": { "type": "LineString", "coordinates": [ [ 23.365222937027227, 38.019322676406276 ], [ 23.3653375, 38.0190547 ], [ 23.3655014, 38.0188629 ], [ 23.3657964, 38.0186305 ], [ 23.3660913, 38.018435 ], [ 23.3663582, 38.0181289 ], [ 23.3665783, 38.0179186 ], [ 23.3668358, 38.0177674 ], [ 23.3672338, 38.0175682 ], [ 23.3675287, 38.0173764 ], [ 23.3677348, 38.0171587 ], [ 23.367784392289959, 38.017054998650181 ] ] } },
{ "type": "Feature", "properties": { "@type": "way", "@id": 404299564, "access": null, "addr:city": null, "addr:country": null, "addr:housenumber": null, "addr:milestone": null, "addr:postcode": null, "addr:street": null, "alt_name": null, "amenity": null, "area": null, "authentication:app": null, "authentication:membership_card": null, "barrier": null, "brand": null, "brand:el": null, "brand:en": null, "brand:wikidata": null, "brand:wikipedia": null, "bridge": null, "building": null, "bus": null, "cables": null, "capacity": null, "check_date:surface": null, "circuits": null, "club": null, "colour": null, "construction": null, "construction:railway": null, "contact:phone": null, "contact:website": null, "covered": null, "crossing:bell": null, "crossing:light": null, "cuisine": null, "denomination": null, "description": null, "destination": null, "destination:lanes:backward": null, "destination:lang:el-Latn": null, "direction": null, "distance": null, "education": null, "electrified": null, "embankment": null, "emergency": null, "fast_food": null, "fee": null, "fee:conditional": null, "fee:icom_member": null, "fee:note": null, "fee:note:2": null, "ford": null, "frequency": null, "gauge": null, "healthcare": null, "highway": null, "historic": null, "int_name": null, "intermittent": null, "junction": null, "landuse": null, "lane_markings": null, "lanes": null, "lastcheck": null, "layer": null, "leaf_type": null, "leisure": null, "level": null, "line_attachment": null, "lit": null, "location": null, "location:transition": null, "man_made": null, "manufacturer": null, "maxspeed": null, "motorcar": null, "name": null, "name:el": null, "name:en": null, "natural": null, "noexit": null, "note": null, "official_name": null, "old_ref": null, "oneway": null, "opening_hours": null, "operator": null, "operator:type": null, "operator:wikidata": null, "outdoor_seating": null, "parcel_locker:type": null, "parcel_mail_in": null, "parcel_pickup": null, "parking": null, "parking:fee": null, "payment:app": null, "payment:website": null, "phone": null, "place": null, "postal_code": null, "power": null, "public_transport": null, "railway": null, "ref": null, "ref:EU:EVSE": null, "ref:GR:IDRO": null, "reg_ref": null, "religion": null, "service": null, "shop": null, "smoking": null, "smoothness": null, "socket:type2": null, "socket:type2:output": null, "source": "Bing", "source:old_ref": null, "source:ref": null, "source:reg_ref": null, "sport": null, "stop": null, "substation": null, "surface": null, "tourism": null, "tracktype": null, "trade": null, "train": null, "tunnel": null, "usage": null, "voltage": null, "waterway": "stream", "website": null, "wheelchair": null, "wikidata": null, "wikipedia": null, "label": "waterway:stream" }, "geometry": { "type": "LineString", "coordinates": [ [ 23.3412728, 38.0037793 ], [ 23.3418481, 38.0038339 ], [ 23.3428806, 38.0037261 ], [ 23.3436546, 38.0036549 ], [ 23.3441807, 38.0035483 ], [ 23.3443593, 38.0034938 ], [ 23.3445346, 38.0034298 ], [ 23.3446717, 38.0033603 ], [ 23.3449314, 38.0032025 ], [ 23.3453396, 38.0029707 ] ] } },
{ "type": "Feature", "properties": { "@type": "way", "@id": 404299566, "access": null, "addr:city": null, "addr:country": null, "addr:housenumber": null, "addr:milestone": null, "addr:postcode": null, "addr:street": null, "alt_name": null, "amenity": null, "area": null, "authentication:app": null, "authentication:membership_card": null, "barrier": null, "brand": null, "brand:el": null, "brand:en": null, "brand:wikidata": null, "brand:wikipedia": null, "bridge": null, "building": null, "bus": null, "cables": null, "capacity": null, "check_date:surface": null, "circuits": null, "club": null, "colour": null, "construction": null, "construction:railway": null, "contact:phone": null, "contact:website": null, "covered": null, "crossing:bell": null, "crossing:light": null, "cuisine": null, "denomination": null, "description": null, "destination": null, "destination:lanes:backward": null, "destination:lang:el-Latn": null, "direction": null, "distance": null, "education": null, "electrified": null, "embankment": null, "emergency": null, "fast_food": null, "fee": null, "fee:conditional": null, "fee:icom_member": null, "fee:note": null, "fee:note:2": null, "ford": null, "frequency": null, "gauge": null, "healthcare": null, "highway": null, "historic": null, "int_name": null, "intermittent": null, "junction": null, "landuse": null, "lane_markings": null, "lanes": null, "lastcheck": null, "layer": "-1", "leaf_type": null, "leisure": null, "level": null, "line_attachment": null, "lit": null, "location": null, "location:transition": null, "man_made": null, "manufacturer": null, "maxspeed": null, "motorcar": null, "name": null, "name:el": null, "name:en": null, "natural": null, "noexit": null, "note": null, "official_name": null, "old_ref": null, "oneway": null, "opening_hours": null, "operator": null, "operator:type": null, "operator:wikidata": null, "outdoor_seating": null, "parcel_locker:type": null, "parcel_mail_in": null, "parcel_pickup": null, "parking": null, "parking:fee": null, "payment:app": null, "payment:website": null, "phone": null, "place": null, "postal_code": null, "power": null, "public_transport": null, "railway": null, "ref": null, "ref:EU:EVSE": null, "ref:GR:IDRO": null, "reg_ref": null, "religion": null, "service": null, "shop": null, "smoking": null, "smoothness": null, "socket:type2": null, "socket:type2:output": null, "source": "Bing", "source:old_ref": null, "source:ref": null, "source:reg_ref": null, "sport": null, "stop": null, "substation": null, "surface": null, "tourism": null, "tracktype": null, "trade": null, "train": null, "tunnel": "yes", "usage": null, "voltage": null, "waterway": "stream", "website": null, "wheelchair": null, "wikidata": null, "wikipedia": null, "label": "waterway:stream" }, "geometry": { "type": "LineString", "coordinates": [ [ 23.3392118, 38.0036717 ], [ 23.3394901, 38.003668 ], [ 23.3400893, 38.0036998 ], [ 23.3406472, 38.0037209 ], [ 23.3412728, 38.0037793 ] ] } },
{ "type": "Feature", "properties": { "@type": "way", "@id": 545121667, "access": null, "addr:city": null, "addr:country": null, "addr:housenumber": null, "addr:milestone": null, "addr:postcode": null, "addr:street": null, "alt_name": null, "amenity": null, "area": null, "authentication:app": null, "authentication:membership_card": null, "barrier": null, "brand": null, "brand:el": null, "brand:en": null, "brand:wikidata": null, "brand:wikipedia": null, "bridge": null, "building": null, "bus": null, "cables": null, "capacity": null, "check_date:surface": null, "circuits": null, "club": null, "colour": null, "construction": null, "construction:railway": null, "contact:phone": null, "contact:website": null, "covered": null, "crossing:bell": null, "crossing:light": null, "cuisine": null, "denomination": null, "description": null, "destination": null, "destination:lanes:backward": null, "destination:lang:el-Latn": null, "direction": null, "distance": null, "education": null, "electrified": null, "embankment": null, "emergency": null, "fast_food": null, "fee": null, "fee:conditional": null, "fee:icom_member": null, "fee:note": null, "fee:note:2": null, "ford": null, "frequency": null, "gauge": null, "healthcare": null, "highway": null, "historic": null, "int_name": null, "intermittent": null, "junction": null, "landuse": null, "lane_markings": null, "lanes": null, "lastcheck": null, "layer": null, "leaf_type": null, "leisure": null, "level": null, "line_attachment": null, "lit": null, "location": null, "location:transition": null, "man_made": null, "manufacturer": null, "maxspeed": null, "motorcar": null, "name": null, "name:el": null, "name:en": null, "natural": null, "noexit": null, "note": null, "official_name": null, "old_ref": null, "oneway": null, "opening_hours": null, "operator": null, "operator:type": null, "operator:wikidata": null, "outdoor_seating": null, "parcel_locker:type": null, "parcel_mail_in": null, "parcel_pickup": null, "parking": null, "parking:fee": null, "payment:app": null, "payment:website": null, "phone": null, "place": null, "postal_code": null, "power": null, "public_transport": null, "railway": null, "ref": null, "ref:EU:EVSE": null, "ref:GR:IDRO": null, "reg_ref": null, "religion": null, "service": null, "shop": null, "smoking": null, "smoothness": null, "socket:type2": null, "socket:type2:output": null, "source": "DigitalGlobal Standard Image 06-12-17", "source:old_ref": null, "source:ref": null, "source:reg_ref": null, "sport": null, "stop": null, "substation": null, "surface": null, "tourism": null, "tracktype": null, "trade": null, "train": null, "tunnel": null, "usage": null, "voltage": null, "waterway": "stream", "website": null, "wheelchair": null, "wikidata": null, "wikipedia": null, "label": "waterway:stream" }, "geometry": { "type": "LineString", "coordinates": [ [ 23.3578944, 37.9983257 ], [ 23.3579689, 37.9981178 ], [ 23.3580118, 37.9979995 ], [ 23.3579957, 37.9979255 ], [ 23.3580141, 37.9978095 ], [ 23.3580199, 37.997731 ], [ 23.3580118, 37.9976571 ], [ 23.357918, 37.9975831 ], [ 23.3578509, 37.9974922 ], [ 23.3578201, 37.9974108 ], [ 23.3578616, 37.9973907 ], [ 23.3579501, 37.9973125 ], [ 23.3579831, 37.997171 ], [ 23.35802, 37.9969233 ], [ 23.358018279554276, 37.996852462517424 ] ] } },
{ "type": "Feature", "properties": { "@type": "way", "@id": 545121670, "access": null, "addr:city": null, "addr:country": null, "addr:housenumber": null, "addr:milestone": null, "addr:postcode": null, "addr:street": null, "alt_name": null, "amenity": null, "area": null, "authentication:app": null, "authentication:membership_card": null, "barrier": null, "brand": null, "brand:el": null, "brand:en": null, "brand:wikidata": null, "brand:wikipedia": null, "bridge": null, "building": null, "bus": null, "cables": null, "capacity": null, "check_date:surface": null, "circuits": null, "club": null, "colour": null, "construction": null, "construction:railway": null, "contact:phone": null, "contact:website": null, "covered": null, "crossing:bell": null, "crossing:light": null, "cuisine": null, "denomination": null, "description": null, "destination": null, "destination:lanes:backward": null, "destination:lang:el-Latn": null, "direction": null, "distance": null, "education": null, "electrified": null, "embankment": null, "emergency": null, "fast_food": null, "fee": null, "fee:conditional": null, "fee:icom_member": null, "fee:note": null, "fee:note:2": null, "ford": null, "frequency": null, "gauge": null, "healthcare": null, "highway": null, "historic": null, "int_name": null, "intermittent": null, "junction": null, "landuse": null, "lane_markings": null, "lanes": null, "lastcheck": null, "layer": "-1", "leaf_type": null, "leisure": null, "level": null, "line_attachment": null, "lit": null, "location": null, "location:transition": null, "man_made": null, "manufacturer": null, "maxspeed": null, "motorcar": null, "name": null, "name:el": null, "name:en": null, "natural": null, "noexit": null, "note": null, "official_name": null, "old_ref": null, "oneway": null, "opening_hours": null, "operator": null, "operator:type": null, "operator:wikidata": null, "outdoor_seating": null, "parcel_locker:type": null, "parcel_mail_in": null, "parcel_pickup": null, "parking": null, "parking:fee": null, "payment:app": null, "payment:website": null, "phone": null, "place": null, "postal_code": null, "power": null, "public_transport": null, "railway": null, "ref": null, "ref:EU:EVSE": null, "ref:GR:IDRO": null, "reg_ref": null, "religion": null, "service": null, "shop": null, "smoking": null, "smoothness": null, "socket:type2": null, "socket:type2:output": null, "source": "DigitalGlobal Standard Image 06-12-17", "source:old_ref": null, "source:ref": null, "source:reg_ref": null, "sport": null, "stop": null, "substation": null, "surface": null, "tourism": null, "tracktype": null, "trade": null, "train": null, "tunnel": "culvert", "usage": null, "voltage": null, "waterway": "stream", "website": null, "wheelchair": null, "wikidata": null, "wikipedia": null, "label": "waterway:stream" }, "geometry": { "type": "LineString", "coordinates": [ [ 23.3578429, 37.9984413 ], [ 23.3578944, 37.9983257 ] ] } },
{ "type": "Feature", "properties": { "@type": "way", "@id": 585729655, "access": null, "addr:city": null, "addr:country": null, "addr:housenumber": null, "addr:milestone": null, "addr:postcode": null, "addr:street": null, "alt_name": null, "amenity": null, "area": null, "authentication:app": null, "authentication:membership_card": null, "barrier": null, "brand": null, "brand:el": null, "brand:en": null, "brand:wikidata": null, "brand:wikipedia": null, "bridge": null, "building": null, "bus": null, "cables": null, "capacity": null, "check_date:surface": null, "circuits": null, "club": null, "colour": null, "construction": null, "construction:railway": null, "contact:phone": null, "contact:website": null, "covered": null, "crossing:bell": null, "crossing:light": null, "cuisine": null, "denomination": null, "description": null, "destination": null, "destination:lanes:backward": null, "destination:lang:el-Latn": null, "direction": null, "distance": null, "education": null, "electrified": null, "embankment": null, "emergency": null, "fast_food": null, "fee": null, "fee:conditional": null, "fee:icom_member": null, "fee:note": null, "fee:note:2": null, "ford": null, "frequency": null, "gauge": null, "healthcare": null, "highway": null, "historic": null, "int_name": null, "intermittent": null, "junction": null, "landuse": null, "lane_markings": null, "lanes": null, "lastcheck": null, "layer": "-1", "leaf_type": null, "leisure": null, "level": null, "line_attachment": null, "lit": null, "location": null, "location:transition": null, "man_made": null, "manufacturer": null, "maxspeed": null, "motorcar": null, "name": null, "name:el": null, "name:en": null, "natural": null, "noexit": null, "note": null, "official_name": null, "old_ref": null, "oneway": null, "opening_hours": null, "operator": null, "operator:type": null, "operator:wikidata": null, "outdoor_seating": null, "parcel_locker:type": null, "parcel_mail_in": null, "parcel_pickup": null, "parking": null, "parking:fee": null, "payment:app": null, "payment:website": null, "phone": null, "place": null, "postal_code": null, "power": null, "public_transport": null, "railway": null, "ref": null, "ref:EU:EVSE": null, "ref:GR:IDRO": null, "reg_ref": null, "religion": null, "service": null, "shop": null, "smoking": null, "smoothness": null, "socket:type2": null, "socket:type2:output": null, "source": "Bing", "source:old_ref": null, "source:ref": null, "source:reg_ref": null, "sport": null, "stop": null, "substation": null, "surface": null, "tourism": null, "tracktype": null, "trade": null, "train": null, "tunnel": "yes", "usage": null, "voltage": null, "waterway": "stream", "website": null, "wheelchair": null, "wikidata": null, "wikipedia": null, "label": "waterway:stream" }, "geometry": { "type": "LineString", "coordinates": [ [ 23.3453396, 38.0029707 ], [ 23.3454839, 38.0028893 ], [ 23.3456985, 38.0027967 ] ] } },
{ "type": "Feature", "properties": { "@type": "way", "@id": 585729657, "access": null, "addr:city": null, "addr:country": null, "addr:housenumber": null, "addr:milestone": null, "addr:postcode": null, "addr:street": null, "alt_name": null, "amenity": null, "area": null, "authentication:app": null, "authentication:membership_card": null, "barrier": null, "brand": null, "brand:el": null, "brand:en": null, "brand:wikidata": null, "brand:wikipedia": null, "bridge": null, "building": null, "bus": null, "cables": null, "capacity": null, "check_date:surface": null, "circuits": null, "club": null, "colour": null, "construction": null, "construction:railway": null, "contact:phone": null, "contact:website": null, "covered": null, "crossing:bell": null, "crossing:light": null, "cuisine": null, "denomination": null, "description": null, "destination": null, "destination:lanes:backward": null, "destination:lang:el-Latn": null, "direction": null, "distance": null, "education": null, "electrified": null, "embankment": null, "emergency": null, "fast_food": null, "fee": null, "fee:conditional": null, "fee:icom_member": null, "fee:note": null, "fee:note:2": null, "ford": null, "frequency": null, "gauge": null, "healthcare": null, "highway": null, "historic": null, "int_name": null, "intermittent": null, "junction": null, "landuse": null, "lane_markings": null, "lanes": null, "lastcheck": null, "layer": null, "leaf_type": null, "leisure": null, "level": null, "line_attachment": null, "lit": null, "location": null, "location:transition": null, "man_made": null, "manufacturer": null, "maxspeed": null, "motorcar": null, "name": null, "name:el": null, "name:en": null, "natural": null, "noexit": null, "note": null, "official_name": null, "old_ref": null, "oneway": null, "opening_hours": null, "operator": null, "operator:type": null, "operator:wikidata": null, "outdoor_seating": null, "parcel_locker:type": null, "parcel_mail_in": null, "parcel_pickup": null, "parking": null, "parking:fee": null, "payment:app": null, "payment:website": null, "phone": null, "place": null, "postal_code": null, "power": null, "public_transport": null, "railway": null, "ref": null, "ref:EU:EVSE": null, "ref:GR:IDRO": null, "reg_ref": null, "religion": null, "service": null, "shop": null, "smoking": null, "smoothness": null, "socket:type2": null, "socket:type2:output": null, "source": "Bing", "source:old_ref": null, "source:ref": null, "source:reg_ref": null, "sport": null, "stop": null, "substation": null, "surface": null, "tourism": null, "tracktype": null, "trade": null, "train": null, "tunnel": null, "usage": null, "voltage": null, "waterway": "stream", "website": null, "wheelchair": null, "wikidata": null, "wikipedia": null, "label": "waterway:stream" }, "geometry": { "type": "LineString", "coordinates": [ [ 23.337910588687794, 38.004120599355254 ], [ 23.3379441, 38.0040951 ], [ 23.3382316, 38.0039357 ], [ 23.3384432, 38.0038657 ], [ 23.3386186, 38.0038133 ], [ 23.3388111, 38.0037566 ], [ 23.3390018, 38.0037059 ], [ 23.3391373, 38.0036829 ], [ 23.3392118, 38.0036717 ] ] } },
{ "type": "Feature", "properties": { "@type": "way", "@id": 585729661, "access": null, "addr:city": null, "addr:country": null, "addr:housenumber": null, "addr:milestone": null, "addr:postcode": null, "addr:street": null, "alt_name": null, "amenity": null, "area": null, "authentication:app": null, "authentication:membership_card": null, "barrier": null, "brand": null, "brand:el": null, "brand:en": null, "brand:wikidata": null, "brand:wikipedia": null, "bridge": null, "building": null, "bus": null, "cables": null, "capacity": null, "check_date:surface": null, "circuits": null, "club": null, "colour": null, "construction": null, "construction:railway": null, "contact:phone": null, "contact:website": null, "covered": null, "crossing:bell": null, "crossing:light": null, "cuisine": null, "denomination": null, "description": null, "destination": null, "destination:lanes:backward": null, "destination:lang:el-Latn": null, "direction": null, "distance": null, "education": null, "electrified": null, "embankment": null, "emergency": null, "fast_food": null, "fee": null, "fee:conditional": null, "fee:icom_member": null, "fee:note": null, "fee:note:2": null, "ford": null, "frequency": null, "gauge": null, "healthcare": null, "highway": null, "historic": null, "int_name": null, "intermittent": null, "junction": null, "landuse": null, "lane_markings": null, "lanes": null, "lastcheck": null, "layer": null, "leaf_type": null, "leisure": null, "level": null, "line_attachment": null, "lit": null, "location": null, "location:transition": null, "man_made": null, "manufacturer": null, "maxspeed": null, "motorcar": null, "name": null, "name:el": null, "name:en": null, "natural": null, "noexit": null, "note": null, "official_name": null, "old_ref": null, "oneway": null, "opening_hours": null, "operator": null, "operator:type": null, "operator:wikidata": null, "outdoor_seating": null, "parcel_locker:type": null, "parcel_mail_in": null, "parcel_pickup": null, "parking": null, "parking:fee": null, "payment:app": null, "payment:website": null, "phone": null, "place": null, "postal_code": null, "power": null, "public_transport": null, "railway": null, "ref": null, "ref:EU:EVSE": null, "ref:GR:IDRO": null, "reg_ref": null, "religion": null, "service": null, "shop": null, "smoking": null, "smoothness": null, "socket:type2": null, "socket:type2:output": null, "source": "Bing", "source:old_ref": null, "source:ref": null, "source:reg_ref": null, "sport": null, "stop": null, "substation": null, "surface": null, "tourism": null, "tracktype": null, "trade": null, "train": null, "tunnel": null, "usage": null, "voltage": null, "waterway": "stream", "website": null, "wheelchair": null, "wikidata": null, "wikipedia": null, "label": "waterway:stream" }, "geometry": { "type": "LineString", "coordinates": [ [ 23.3456985, 38.0027967 ], [ 23.3461116, 38.0026446 ], [ 23.3463208, 38.00256 ], [ 23.3465246, 38.002467 ], [ 23.3466963, 38.0023698 ], [ 23.346868, 38.0022514 ], [ 23.3470074, 38.0021331 ], [ 23.3471308, 38.0020528 ], [ 23.3473347, 38.0019429 ], [ 23.3476082, 38.0017949 ], [ 23.3478979, 38.0016723 ], [ 23.3480039, 38.0016296 ], [ 23.3482091, 38.0015075 ], [ 23.3485524, 38.0013299 ], [ 23.3487503, 38.0012192 ], [ 23.3489284, 38.0011192 ], [ 23.3492176, 38.0009453 ], [ 23.3495394, 38.0007128 ], [ 23.3496621, 38.0006394 ], [ 23.3500349, 38.0004851 ], [ 23.3503649, 38.0003773 ], [ 23.3507779, 38.0002653 ], [ 23.3512312, 38.0001723 ], [ 23.3514377, 38.00013 ], [ 23.3517355, 38.0000793 ] ] } },
{ "type": "Feature", "properties": { "@type": "way", "@id": 585730260, "access": null, "addr:city": null, "addr:country": null, "addr:housenumber": null, "addr:milestone": null, "addr:postcode": null, "addr:street": null, "alt_name": null, "amenity": null, "area": null, "authentication:app": null, "authentication:membership_card": null, "barrier": null, "brand": null, "brand:el": null, "brand:en": null, "brand:wikidata": null, "brand:wikipedia": null, "bridge": null, "building": null, "bus": null, "cables": null, "capacity": null, "check_date:surface": null, "circuits": null, "club": null, "colour": null, "construction": null, "construction:railway": null, "contact:phone": null, "contact:website": null, "covered": null, "crossing:bell": null, "crossing:light": null, "cuisine": null, "denomination": null, "description": null, "destination": null, "destination:lanes:backward": null, "destination:lang:el-Latn": null, "direction": null, "distance": null, "education": null, "electrified": null, "embankment": null, "emergency": null, "fast_food": null, "fee": null, "fee:conditional": null, "fee:icom_member": null, "fee:note": null, "fee:note:2": null, "ford": null, "frequency": null, "gauge": null, "healthcare": null, "highway": null, "historic": null, "int_name": null, "intermittent": null, "junction": null, "landuse": null, "lane_markings": null, "lanes": null, "lastcheck": null, "layer": "-1", "leaf_type": null, "leisure": null, "level": null, "line_attachment": null, "lit": null, "location": null, "location:transition": null, "man_made": null, "manufacturer": null, "maxspeed": null, "motorcar": null, "name": null, "name:el": null, "name:en": null, "natural": null, "noexit": null, "note": null, "official_name": null, "old_ref": null, "oneway": null, "opening_hours": null, "operator": null, "operator:type": null, "operator:wikidata": null, "outdoor_seating": null, "parcel_locker:type": null, "parcel_mail_in": null, "parcel_pickup": null, "parking": null, "parking:fee": null, "payment:app": null, "payment:website": null, "phone": null, "place": null, "postal_code": null, "power": null, "public_transport": null, "railway": null, "ref": null, "ref:EU:EVSE": null, "ref:GR:IDRO": null, "reg_ref": null, "religion": null, "service": null, "shop": null, "smoking": null, "smoothness": null, "socket:type2": null, "socket:type2:output": null, "source": "Bing", "source:old_ref": null, "source:ref": null, "source:reg_ref": null, "sport": null, "stop": null, "substation": null, "surface": null, "tourism": null, "tracktype": null, "trade": null, "train": null, "tunnel": "yes", "usage": null, "voltage": null, "waterway": "stream", "website": null, "wheelchair": null, "wikidata": null, "wikipedia": null, "label": "waterway:stream" }, "geometry": { "type": "LineString", "coordinates": [ [ 23.3517355, 38.0000793 ], [ 23.3518884, 38.0000561 ] ] } },
{ "type": "Feature", "properties": { "@type": "way", "@id": 585730261, "access": null, "addr:city": null, "addr:country": null, "addr:housenumber": null, "addr:milestone": null, "addr:postcode": null, "addr:street": null, "alt_name": null, "amenity": null, "area": null, "authentication:app": null, "authentication:membership_card": null, "barrier": null, "brand": null, "brand:el": null, "brand:en": null, "brand:wikidata": null, "brand:wikipedia": null, "bridge": null, "building": null, "bus": null, "cables": null, "capacity": null, "check_date:surface": null, "circuits": null, "club": null, "colour": null, "construction": null, "construction:railway": null, "contact:phone": null, "contact:website": null, "covered": null, "crossing:bell": null, "crossing:light": null, "cuisine": null, "denomination": null, "description": null, "destination": null, "destination:lanes:backward": null, "destination:lang:el-Latn": null, "direction": null, "distance": null, "education": null, "electrified": null, "embankment": null, "emergency": null, "fast_food": null, "fee": null, "fee:conditional": null, "fee:icom_member": null, "fee:note": null, "fee:note:2": null, "ford": null, "frequency": null, "gauge": null, "healthcare": null, "highway": null, "historic": null, "int_name": null, "intermittent": null, "junction": null, "landuse": null, "lane_markings": null, "lanes": null, "lastcheck": null, "layer": null, "leaf_type": null, "leisure": null, "level": null, "line_attachment": null, "lit": null, "location": null, "location:transition": null, "man_made": null, "manufacturer": null, "maxspeed": null, "motorcar": null, "name": null, "name:el": null, "name:en": null, "natural": null, "noexit": null, "note": null, "official_name": null, "old_ref": null, "oneway": null, "opening_hours": null, "operator": null, "operator:type": null, "operator:wikidata": null, "outdoor_seating": null, "parcel_locker:type": null, "parcel_mail_in": null, "parcel_pickup": null, "parking": null, "parking:fee": null, "payment:app": null, "payment:website": null, "phone": null, "place": null, "postal_code": null, "power": null, "public_transport": null, "railway": null, "ref": null, "ref:EU:EVSE": null, "ref:GR:IDRO": null, "reg_ref": null, "religion": null, "service": null, "shop": null, "smoking": null, "smoothness": null, "socket:type2": null, "socket:type2:output": null, "source": "Bing", "source:old_ref": null, "source:ref": null, "source:reg_ref": null, "sport": null, "stop": null, "substation": null, "surface": null, "tourism": null, "tracktype": null, "trade": null, "train": null, "tunnel": null, "usage": null, "voltage": null, "waterway": "stream", "website": null, "wheelchair": null, "wikidata": null, "wikipedia": null, "label": "waterway:stream" }, "geometry": { "type": "LineString", "coordinates": [ [ 23.3518884, 38.0000561 ], [ 23.3522585, 38.000037 ], [ 23.3525696, 38.0000074 ], [ 23.3530337, 38.0000265 ], [ 23.3534789, 38.0000878 ], [ 23.353959, 38.0000835 ], [ 23.3542433, 38.0000159 ], [ 23.3545035, 37.999925 ], [ 23.3549675, 37.9997623 ], [ 23.3552572, 37.999627 ], [ 23.3553135, 37.9996059 ], [ 23.3555576, 37.9995171 ], [ 23.3558956, 37.9993142 ], [ 23.3561423, 37.9991218 ], [ 23.3563918, 37.998957 ], [ 23.3567673, 37.9987836 ], [ 23.3568692, 37.9987308 ], [ 23.3570623, 37.9986188 ], [ 23.3573225, 37.9985554 ], [ 23.3575612, 37.9985046 ], [ 23.3577839, 37.9984751 ], [ 23.3578429, 37.9984413 ] ] } },
{ "type": "Feature", "properties": { "@type": "way", "@id": 852433816, "access": null, "addr:city": null, "addr:country": null, "addr:housenumber": null, "addr:milestone": null, "addr:postcode": null, "addr:street": null, "alt_name": null, "amenity": null, "area": null, "authentication:app": null, "authentication:membership_card": null, "barrier": null, "brand": null, "brand:el": null, "brand:en": null, "brand:wikidata": null, "brand:wikipedia": null, "bridge": null, "building": null, "bus": null, "cables": null, "capacity": null, "check_date:surface": null, "circuits": null, "club": null, "colour": null, "construction": null, "construction:railway": null, "contact:phone": null, "contact:website": null, "covered": null, "crossing:bell": null, "crossing:light": null, "cuisine": null, "denomination": null, "description": null, "destination": null, "destination:lanes:backward": null, "destination:lang:el-Latn": null, "direction": null, "distance": null, "education": null, "electrified": null, "embankment": null, "emergency": null, "fast_food": null, "fee": null, "fee:conditional": null, "fee:icom_member": null, "fee:note": null, "fee:note:2": null, "ford": null, "frequency": null, "gauge": null, "healthcare": null, "highway": null, "historic": null, "int_name": null, "intermittent": "yes", "junction": null, "landuse": null, "lane_markings": null, "lanes": null, "lastcheck": null, "layer": null, "leaf_type": null, "leisure": null, "level": null, "line_attachment": null, "lit": null, "location": null, "location:transition": null, "man_made": null, "manufacturer": null, "maxspeed": null, "motorcar": null, "name": null, "name:el": null, "name:en": null, "natural": null, "noexit": null, "note": null, "official_name": null, "old_ref": null, "oneway": null, "opening_hours": null, "operator": null, "operator:type": null, "operator:wikidata": null, "outdoor_seating": null, "parcel_locker:type": null, "parcel_mail_in": null, "parcel_pickup": null, "parking": null, "parking:fee": null, "payment:app": null, "payment:website": null, "phone": null, "place": null, "postal_code": null, "power": null, "public_transport": null, "railway": null, "ref": null, "ref:EU:EVSE": null, "ref:GR:IDRO": null, "reg_ref": null, "religion": null, "service": null, "shop": null, "smoking": null, "smoothness": null, "socket:type2": null, "socket:type2:output": null, "source": null, "source:old_ref": null, "source:ref": null, "source:reg_ref": null, "sport": null, "stop": null, "substation": null, "surface": null, "tourism": null, "tracktype": null, "trade": null, "train": null, "tunnel": null, "usage": null, "voltage": null, "waterway": "stream", "website": null, "wheelchair": null, "wikidata": null, "wikipedia": null, "label": "waterway:stream" }, "geometry": { "type": "LineString", "coordinates": [ [ 23.3503078, 37.9977111 ], [ 23.350466, 37.9975166 ], [ 23.3504986, 37.9974724 ], [ 23.3506025, 37.9972917 ], [ 23.3506241, 37.9972493 ], [ 23.3506516, 37.997213 ], [ 23.3506895, 37.9971767 ], [ 23.3507566, 37.9971173 ] ] } },
{ "type": "Feature", "properties": { "@type": "way", "@id": 852433843, "access": null, "addr:city": null, "addr:country": null, "addr:housenumber": null, "addr:milestone": null, "addr:postcode": null, "addr:street": null, "alt_name": null, "amenity": null, "area": null, "authentication:app": null, "authentication:membership_card": null, "barrier": "fence", "brand": null, "brand:el": null, "brand:en": null, "brand:wikidata": null, "brand:wikipedia": null, "bridge": null, "building": null, "bus": null, "cables": null, "capacity": null, "check_date:surface": null, "circuits": null, "club": null, "colour": null, "construction": null, "construction:railway": null, "contact:phone": null, "contact:website": null, "covered": null, "crossing:bell": null, "crossing:light": null, "cuisine": null, "denomination": null, "description": null, "destination": null, "destination:lanes:backward": null, "destination:lang:el-Latn": null, "direction": null, "distance": null, "education": null, "electrified": null, "embankment": null, "emergency": null, "fast_food": null, "fee": null, "fee:conditional": null, "fee:icom_member": null, "fee:note": null, "fee:note:2": null, "ford": null, "frequency": null, "gauge": null, "healthcare": null, "highway": null, "historic": null, "int_name": null, "intermittent": null, "junction": null, "landuse": null, "lane_markings": null, "lanes": null, "lastcheck": null, "layer": null, "leaf_type": null, "leisure": "pitch", "level": null, "line_attachment": null, "lit": null, "location": null, "location:transition": null, "man_made": null, "manufacturer": null, "maxspeed": null, "motorcar": null, "name": null, "name:el": null, "name:en": null, "natural": null, "noexit": null, "note": null, "official_name": null, "old_ref": null, "oneway": null, "opening_hours": null, "operator": null, "operator:type": null, "operator:wikidata": null, "outdoor_seating": null, "parcel_locker:type": null, "parcel_mail_in": null, "parcel_pickup": null, "parking": null, "parking:fee": null, "payment:app": null, "payment:website": null, "phone": null, "place": null, "postal_code": null, "power": null, "public_transport": null, "railway": null, "ref": null, "ref:EU:EVSE": null, "ref:GR:IDRO": null, "reg_ref": null, "religion": null, "service": null, "shop": null, "smoking": null, "smoothness": null, "socket:type2": null, "socket:type2:output": null, "source": null, "source:old_ref": null, "source:ref": null, "source:reg_ref": null, "sport": "basketball", "stop": null, "substation": null, "surface": null, "tourism": null, "tracktype": null, "trade": null, "train": null, "tunnel": null, "usage": null, "voltage": null, "waterway": null, "website": null, "wheelchair": null, "wikidata": null, "wikipedia": null, "label": "sport:basketball;leisure:pitch" }, "geometry": { "type": "LineString", "coordinates": [ [ 23.3508254, 37.9972017 ], [ 23.3510702, 37.997333 ], [ 23.3511757, 37.9972109 ], [ 23.3509309, 37.9970796 ], [ 23.3508254, 37.9972017 ] ] } }
]
}
