{
"type": "FeatureCollection",
"name": "patch_68412_multipolygon",
"crs": { "type": "name", "properties": { "name": "urn:ogc:def:crs:OGC:1.3:CRS84" } },
"features": [
{ "type": "Feature", "properties": { "element": "way", "id": 374838511, "landuse": null, "natural": "heath", "scrub": null, "label": "natural:heath" }, "geometry": { "type": "MultiPolygon", "coordinates": [ [ [ [ 21.0911575, 40.4970925 ], [ 21.0911398, 40.4969647 ], [ 21.0908779, 40.4968988 ], [ 21.0906992, 40.496853 ], [ 21.0906337, 40.4968019 ], [ 21.0905719, 40.4968145 ], [ 21.0906622, 40.4970392 ], [ 21.090732540580287, 40.497259396599162 ], [ 21.091192786709538, 40.497259396599162 ], [ 21.0911575, 40.4970925 ] ] ], [ [ [ 21.0959576, 40.4947816 ], [ 21.0956063, 40.4948285 ], [ 21.0955601, 40.494798 ], [ 21.0954276, 40.4948018 ], [ 21.0952609, 40.494842 ], [ 21.0951743, 40.4948368 ], [ 21.0951153, 40.4948593 ], [ 21.0950375, 40.4948929 ], [ 21.0948712, 40.4950275 ], [ 21.0946613, 40.4951521 ], [ 21.0945145, 40.495249 ], [ 21.0944331, 40.4954347 ], [ 21.0944012, 40.49558 ], [ 21.0943481, 40.4956729 ], [ 21.0942189, 40.495763 ], [ 21.0940738, 40.495798 ], [ 21.0938526, 40.4958639 ], [ 21.0936491, 40.4959501 ], [ 21.0932457, 40.496164 ], [ 21.0931005, 40.4962273 ], [ 21.0930209, 40.4962165 ], [ 21.0928581, 40.4960052 ], [ 21.0925219, 40.4960954 ], [ 21.0922529, 40.4961479 ], [ 21.0921414, 40.4962031 ], [ 21.0918441, 40.4963632 ], [ 21.0918141, 40.4965031 ], [ 21.0917309, 40.496635 ], [ 21.0915681, 40.4967131 ], [ 21.0913575, 40.496783 ], [ 21.0913281, 40.496783 ], [ 21.0910779, 40.496783 ], [ 21.0909009, 40.4967978 ], [ 21.0910425, 40.496853 ], [ 21.0911947, 40.4969001 ], [ 21.0913327, 40.4968974 ], [ 21.091607, 40.496927 ], [ 21.0916796, 40.4969539 ], [ 21.0917503, 40.4971544 ], [ 21.0918919, 40.4971867 ], [ 21.0919804, 40.4972285 ], [ 21.091996519964781, 40.497259396599162 ], [ 21.095179057833583, 40.497259396599162 ], [ 21.0951858, 40.4972084 ], [ 21.0951344, 40.4971214 ], [ 21.0951344, 40.4970433 ], [ 21.0951321, 40.4969545 ], [ 21.0950854, 40.4969332 ], [ 21.0949383, 40.4969421 ], [ 21.0944269, 40.4970699 ], [ 21.0941934, 40.4970806 ], [ 21.0938852, 40.4971108 ], [ 21.0936096, 40.4971623 ], [ 21.0934789, 40.4971836 ], [ 21.0934182, 40.4971321 ], [ 21.0933645, 40.4970522 ], [ 21.0933691, 40.4970043 ], [ 21.0933738, 40.4969492 ], [ 21.0933972, 40.4969101 ], [ 21.0933943, 40.4967896 ], [ 21.0931952, 40.4967662 ], [ 21.0930326, 40.4966967 ], [ 21.0931708, 40.4966116 ], [ 21.0933131, 40.496556 ], [ 21.0934615, 40.4965282 ], [ 21.09362, 40.496505 ], [ 21.0937237, 40.4964942 ], [ 21.0938924, 40.4964339 ], [ 21.0941323, 40.4963504 ], [ 21.0942238, 40.4963288 ], [ 21.0944169, 40.4963179 ], [ 21.0945978, 40.4963458 ], [ 21.0946811, 40.4963643 ], [ 21.0947401, 40.4963349 ], [ 21.0946567, 40.4962236 ], [ 21.0945958, 40.4961355 ], [ 21.0945836, 40.4959145 ], [ 21.0946262, 40.4957274 ], [ 21.0946872, 40.4956084 ], [ 21.0947889, 40.4955636 ], [ 21.0949291, 40.4955729 ], [ 21.0951141, 40.4956115 ], [ 21.0952706, 40.4956532 ], [ 21.095452, 40.4956654 ], [ 21.0956364, 40.4956512 ], [ 21.0956901, 40.4956992 ], [ 21.0959166, 40.4957879 ], [ 21.0960824, 40.4958696 ], [ 21.096120586464679, 40.495811508975834 ], [ 21.096120586464679, 40.495732361743109 ], [ 21.0959491, 40.4955745 ], [ 21.0958177, 40.4954522 ], [ 21.096120586464679, 40.495344748624802 ], [ 21.096120586464679, 40.494719387673172 ], [ 21.0959576, 40.4947816 ] ] ] ] } }
]
}
