{
"type": "FeatureCollection",
"name": "patch_6593_features",
"crs": { "type": "name", "properties": { "name": "urn:ogc:def:crs:OGC:1.3:CRS84" } },
"features": [
{ "type": "Feature", "properties": { "@type": "way", "@id": 139150421, "boundary": "protected_area", "cables": null, "circuits": null, "date": null, "frequency": null, "highway": null, "info": null, "lanes": null, "leisure": "nature_reserve", "line_attachment": null, "maxspeed": null, "name": "Κρανέα-Λουτρό-Βαλανίδα", "natural": null, "oneway": null, "power": null, "protect_class": "4", "protection_title": "Wildlife Refugee", "ref": null, "source": "http://geodata.gov.gr/", "source:ref": null, "surface": null, "tracktype": null, "type": null, "voltage": null, "label": "leisure:nature_reserve" }, "geometry": { "type": "Polygon", "coordinates": [ [ [ 21.995815, 39.9203458 ], [ 21.9952839, 39.9203547 ], [ 21.9946331, 39.9203524 ], [ 21.9938363, 39.9203566 ], [ 21.9933035, 39.9201312 ], [ 21.9927428, 39.9201395 ], [ 21.9924775, 39.9201349 ], [ 21.9922408, 39.9201398 ], [ 21.9920048, 39.92037 ], [ 21.9918587, 39.9206017 ], [ 21.9915047, 39.9208298 ], [ 21.9908573, 39.921287 ], [ 21.9902958, 39.9215205 ], [ 21.9896754, 39.9215188 ], [ 21.9892622, 39.9215206 ], [ 21.9888785, 39.921523 ], [ 21.9884947, 39.9217595 ], [ 21.9882893, 39.9219812 ], [ 21.9882309, 39.9222144 ], [ 21.988201, 39.9222732 ], [ 21.9879075, 39.9226683 ], [ 21.9874947, 39.9229043 ], [ 21.986935, 39.9233631 ], [ 21.9865817, 39.9235912 ], [ 21.9861096, 39.9238172 ], [ 21.985638, 39.9240522 ], [ 21.9854019, 39.9240481 ], [ 21.9849014, 39.9242827 ], [ 21.9844289, 39.9245087 ], [ 21.9838086, 39.9245159 ], [ 21.9833081, 39.9247505 ], [ 21.9826011, 39.9256661 ], [ 21.9823956, 39.9258877 ], [ 21.9821611, 39.9263521 ], [ 21.9817189, 39.9268038 ], [ 21.9812465, 39.9270389 ], [ 21.9807459, 39.9272644 ], [ 21.979949, 39.9272685 ], [ 21.9792106, 39.9275079 ], [ 21.978296, 39.9277352 ], [ 21.9776174, 39.9279666 ], [ 21.976408, 39.9284319 ], [ 21.975927420006304, 39.928848765705581 ], [ 21.995974248365332, 39.928848765705581 ], [ 21.995974248365332, 39.920288263611944 ], [ 21.995815, 39.9203458 ] ] ] } },
{ "type": "Feature", "properties": { "@type": "way", "@id": 1446723832, "boundary": null, "cables": null, "circuits": null, "date": null, "frequency": null, "highway": null, "info": null, "lanes": null, "leisure": null, "line_attachment": null, "maxspeed": null, "name": null, "natural": "grassland", "oneway": null, "power": null, "protect_class": null, "protection_title": null, "ref": null, "source": null, "source:ref": null, "surface": null, "tracktype": null, "type": null, "voltage": null, "label": "natural:grassland" }, "geometry": { "type": "Polygon", "coordinates": [ [ [ 21.9938877, 39.9174215 ], [ 21.9940372, 39.9175225 ], [ 21.9942151, 39.9175525 ], [ 21.9943717, 39.9174898 ], [ 21.9944251, 39.9174352 ], [ 21.9942827, 39.9173369 ], [ 21.9942507, 39.9172304 ], [ 21.9942792, 39.9171185 ], [ 21.9940478, 39.9171185 ], [ 21.9938948, 39.9171649 ], [ 21.9938201, 39.917255 ], [ 21.9938877, 39.9174215 ] ] ] } }
]
}
