{
"type": "FeatureCollection",
"name": "patch_69432_polygon",
"crs": { "type": "name", "properties": { "name": "urn:ogc:def:crs:OGC:1.3:CRS84" } },
"features": [
{ "type": "Feature", "properties": { "osm_id": 405341182, "name": null, "label": "building:yes", "building": "yes", "landuse": null, "natural": null, "water": null }, "geometry": { "type": "Polygon", "coordinates": [ [ [ 20.8759063, 39.186639000152915 ], [ 20.8760332, 39.18653590015289 ], [ 20.8759818, 39.186497900152887 ], [ 20.8760051, 39.186478900152885 ], [ 20.8759309, 39.18642410015287 ], [ 20.8758666, 39.186476300152883 ], [ 20.8759129, 39.186510600152886 ], [ 20.8758754, 39.186541100152901 ], [ 20.8758527, 39.186524300152882 ], [ 20.8758043, 39.186563500152893 ], [ 20.8759063, 39.186639000152915 ] ] ] } },
{ "type": "Feature", "properties": { "osm_id": 1290283029, "name": null, "label": "landuse:orchard", "building": null, "landuse": "orchard", "natural": null, "water": null }, "geometry": { "type": "Polygon", "coordinates": [ [ [ 20.8625022, 39.187654000153046 ], [ 20.8624913, 39.188123100153106 ], [ 20.8642152, 39.188133200153125 ], [ 20.8642064, 39.187654000153046 ], [ 20.8641496, 39.187626900153042 ], [ 20.8639879, 39.187618400153042 ], [ 20.8635641, 39.187601500153043 ], [ 20.8631446, 39.187374600153014 ], [ 20.8628365, 39.18733230015301 ], [ 20.8626115, 39.187252700152989 ], [ 20.8622728, 39.18715950015298 ], [ 20.8619626, 39.187012200152957 ], [ 20.8618883, 39.186968200152947 ], [ 20.8616327, 39.186961400152953 ], [ 20.8616108, 39.187645500153046 ], [ 20.8625022, 39.187654000153046 ] ] ] } },
{ "type": "Feature", "properties": { "osm_id": -12559793, "name": null, "label": "natural:wood", "building": null, "landuse": null, "natural": "wood", "water": null }, "geometry": { "type": "Polygon", "coordinates": [ [ [ 20.877093, 39.192344000153724 ], [ 20.875566, 39.191918000153656 ], [ 20.874440097745818, 39.192850892485495 ], [ 20.877426307385502, 39.192850892485495 ], [ 20.877426307385502, 39.192342087891156 ], [ 20.877093, 39.192344000153724 ] ] ] } },
{ "type": "Feature", "properties": { "osm_id": 928545436, "name": null, "label": "natural:wood", "building": null, "landuse": null, "natural": "wood", "water": null }, "geometry": { "type": "Polygon", "coordinates": [ [ [ 20.8500583, 39.192804000153806 ], [ 20.8500488, 39.192635400153769 ], [ 20.8501056, 39.192510800153755 ], [ 20.8502001, 39.192342200153725 ], [ 20.8502758, 39.192056300153681 ], [ 20.850342, 39.191821700153639 ], [ 20.8504669, 39.191564300153615 ], [ 20.8505123, 39.191359800153585 ], [ 20.8505596, 39.191176600153554 ], [ 20.8506731, 39.190978600153535 ], [ 20.8506825, 39.190802700153498 ], [ 20.8507771, 39.190604700153472 ], [ 20.8509001, 39.190399500153447 ], [ 20.8509285, 39.190245500153416 ], [ 20.8509285, 39.190076900153386 ], [ 20.8510325, 39.190032900153383 ], [ 20.8510987, 39.189908300153384 ], [ 20.851146, 39.189769000153355 ], [ 20.8509663, 39.189813000153357 ], [ 20.850815, 39.189937600153371 ], [ 20.8505974, 39.190135600153411 ], [ 20.8503609, 39.190267500153425 ], [ 20.8501529, 39.190436100153455 ], [ 20.8498785, 39.190634100153481 ], [ 20.8496799, 39.19078070015351 ], [ 20.8495002, 39.190934600153511 ], [ 20.8493394, 39.191169200153553 ], [ 20.8491124, 39.191381800153593 ], [ 20.8488854, 39.191565100153618 ], [ 20.8485827, 39.191851000153662 ], [ 20.8483084, 39.192100200153682 ], [ 20.8481949, 39.192327500153716 ], [ 20.8481949, 39.192496100153747 ], [ 20.8482233, 39.19270870015378 ], [ 20.8482233, 39.192850892485495 ], [ 20.850074222511346, 39.192850892485495 ], [ 20.8500583, 39.192804000153806 ] ] ] } },
{ "type": "Feature", "properties": { "osm_id": 928545440, "name": null, "label": "natural:wood", "building": null, "landuse": null, "natural": "wood", "water": null }, "geometry": { "type": "Polygon", "coordinates": [ [ [ 20.8514273, 39.192756000153793 ], [ 20.8515073, 39.19262310015376 ], [ 20.851553, 39.192375100153733 ], [ 20.8516559, 39.192144700153698 ], [ 20.8517931, 39.191932100153664 ], [ 20.8517931, 39.191684000153636 ], [ 20.8519188, 39.191418300153586 ], [ 20.852056, 39.191205600153559 ], [ 20.852056, 39.190966400153528 ], [ 20.8522389, 39.190798100153501 ], [ 20.8523875, 39.190682900153483 ], [ 20.852639, 39.190691800153488 ], [ 20.852639, 39.190532300153471 ], [ 20.8525132, 39.190408300153436 ], [ 20.8522846, 39.190452600153442 ], [ 20.8520674, 39.190470300153457 ], [ 20.8518731, 39.190558900153469 ], [ 20.8517931, 39.190736100153501 ], [ 20.8516788, 39.190957600153524 ], [ 20.8516788, 39.191205600153559 ], [ 20.8516102, 39.191427100153589 ], [ 20.8514959, 39.191657500153624 ], [ 20.8513816, 39.191861200153653 ], [ 20.8512558, 39.19188780015368 ], [ 20.8511758, 39.191692900153633 ], [ 20.8510615, 39.191542300153607 ], [ 20.8510501, 39.191409400153582 ], [ 20.8511872, 39.191249900153572 ], [ 20.8512444, 39.191046200153544 ], [ 20.8513816, 39.190931000153526 ], [ 20.8514159, 39.190762700153499 ], [ 20.851233, 39.190833500153502 ], [ 20.8510729, 39.190869000153526 ], [ 20.8509929, 39.19100190015353 ], [ 20.8510043, 39.191161300153553 ], [ 20.8508329, 39.191258800153584 ], [ 20.8507529, 39.191427100153589 ], [ 20.85065, 39.191577700153616 ], [ 20.8505928, 39.191763800153637 ], [ 20.8505928, 39.191967500153673 ], [ 20.8506843, 39.192127000153697 ], [ 20.8508214, 39.192277600153709 ], [ 20.8509815, 39.192401600153737 ], [ 20.8510729, 39.192543400153752 ], [ 20.8510729, 39.19276490015379 ], [ 20.8509015, 39.192694000153779 ], [ 20.8508443, 39.192543400153752 ], [ 20.8506957, 39.192428200153742 ], [ 20.8506728, 39.192632000153779 ], [ 20.8506614, 39.192826900153797 ], [ 20.850670512617107, 39.192850892485495 ], [ 20.8514273, 39.192850892485495 ], [ 20.8514273, 39.192756000153793 ] ] ] } },
{ "type": "Feature", "properties": { "osm_id": 1290283028, "name": null, "label": "landuse:farmland", "building": null, "landuse": "farmland", "natural": null, "water": null }, "geometry": { "type": "Polygon", "coordinates": [ [ [ 20.8612203, 39.188508000153178 ], [ 20.8613378, 39.188552200153168 ], [ 20.8614925, 39.188568400153187 ], [ 20.8615938, 39.188556700153185 ], [ 20.8616508, 39.188573800153186 ], [ 20.8617194, 39.188557600153182 ], [ 20.8617974, 39.188580200153176 ], [ 20.8618753, 39.188610800153178 ], [ 20.8620254, 39.188609000153193 ], [ 20.8620999, 39.188592800153188 ], [ 20.8621674, 39.188603600153179 ], [ 20.862193, 39.18862520015319 ], [ 20.8622907, 39.18863160015318 ], [ 20.8623617, 39.188646900153188 ], [ 20.8624198, 39.18865320015319 ], [ 20.8624443, 39.188634300153183 ], [ 20.8624512, 39.188322200153138 ], [ 20.8624268, 39.188087800153113 ], [ 20.8623954, 39.188003000153095 ], [ 20.8623745, 39.187966000153097 ], [ 20.8623209, 39.187948900153103 ], [ 20.8619661, 39.187947100153096 ], [ 20.8618311, 39.187944400153093 ], [ 20.8616578, 39.187943500153089 ], [ 20.8615053, 39.187947100153096 ], [ 20.8614367, 39.187932700153084 ], [ 20.8613285, 39.187930900153077 ], [ 20.8612343, 39.187931800153102 ], [ 20.8612052, 39.187939000153094 ], [ 20.8611703, 39.187948900153103 ], [ 20.8611551, 39.188057100153102 ], [ 20.861154, 39.188431400153156 ], [ 20.8612203, 39.188508000153178 ] ] ] } },
{ "type": "Feature", "properties": { "osm_id": 1290283030, "name": null, "label": "building:farm_auxiliary", "building": "farm_auxiliary", "landuse": null, "natural": null, "water": null }, "geometry": { "type": "Polygon", "coordinates": [ [ [ 20.8613585, 39.187380600153006 ], [ 20.8614913, 39.187379900153012 ], [ 20.8614904, 39.187289900152997 ], [ 20.8615389, 39.187289600153001 ], [ 20.8615382, 39.18721970015298 ], [ 20.8613569, 39.187220700152977 ], [ 20.8613585, 39.187380600153006 ] ] ] } },
{ "type": "Feature", "properties": { "osm_id": -12559836, "name": null, "label": "natural:wood", "building": null, "landuse": null, "natural": "wood", "water": null }, "geometry": { "type": "Polygon", "coordinates": [ [ [ 20.8479584, 39.192672000153763 ], [ 20.8479868, 39.192393500153727 ], [ 20.8480341, 39.192136900153706 ], [ 20.8481571, 39.191990300153677 ], [ 20.8483462, 39.191807000153645 ], [ 20.8485354, 39.191660400153637 ], [ 20.848734, 39.191513800153615 ], [ 20.8489327, 39.191323200153576 ], [ 20.8491218, 39.191147200153559 ], [ 20.8493299, 39.190920000153518 ], [ 20.8495475, 39.190641400153467 ], [ 20.849765, 39.190502100153466 ], [ 20.8500299, 39.190311500153435 ], [ 20.8502853, 39.190150200153411 ], [ 20.8505028, 39.189974300153388 ], [ 20.8506825, 39.189791000153356 ], [ 20.850815, 39.18957110015333 ], [ 20.8510231, 39.189387800153291 ], [ 20.8511933, 39.189116500153247 ], [ 20.851373, 39.188955300153232 ], [ 20.8515055, 39.188779300153207 ], [ 20.8514392, 39.188676700153195 ], [ 20.8512879, 39.188618000153191 ], [ 20.8511082, 39.188537400153187 ], [ 20.8508623, 39.188552000153173 ], [ 20.8507298, 39.188669300153194 ], [ 20.8506258, 39.188830600153224 ], [ 20.8504461, 39.188845300153218 ], [ 20.8502096, 39.188838000153211 ], [ 20.8499353, 39.188874600153234 ], [ 20.8496894, 39.188977200153232 ], [ 20.8494056, 39.188969900153232 ], [ 20.849311, 39.188903900153221 ], [ 20.8493772, 39.188801300153209 ], [ 20.8493962, 39.1886400001532 ], [ 20.8492732, 39.188537400153187 ], [ 20.8490746, 39.188552000153173 ], [ 20.8488286, 39.188566700153174 ], [ 20.8486395, 39.188684000153202 ], [ 20.8486395, 39.188808600153216 ], [ 20.8487151, 39.188947900153238 ], [ 20.8487568, 39.189134300153249 ], [ 20.848511, 39.189009000153234 ], [ 20.847831483141963, 39.188785308418346 ], [ 20.847831483141963, 39.192850892485495 ], [ 20.8479584, 39.192850892485495 ], [ 20.8479584, 39.192672000153763 ] ] ] } },
{ "type": "Feature", "properties": { "osm_id": 136531503, "name": null, "label": "natural:wood", "building": null, "landuse": null, "natural": "wood", "water": null }, "geometry": { "type": "Polygon", "coordinates": [ [ [ 20.858159, 39.178193000151694 ], [ 20.858318, 39.178525000151737 ], [ 20.858547, 39.178956000151793 ], [ 20.858927, 39.179313000151836 ], [ 20.859145, 39.179435000151869 ], [ 20.859461, 39.179579000151882 ], [ 20.85963, 39.179680000151897 ], [ 20.859623, 39.179834000151921 ], [ 20.859558, 39.180179000151966 ], [ 20.859424, 39.180407000152009 ], [ 20.859414, 39.180638000152037 ], [ 20.859527, 39.180873000152069 ], [ 20.859747, 39.180956000152086 ], [ 20.860061, 39.181138000152103 ], [ 20.860547, 39.181344000152137 ], [ 20.860848, 39.181275000152127 ], [ 20.861212, 39.180880000152065 ], [ 20.861183, 39.180416000152007 ], [ 20.861055, 39.179969000151942 ], [ 20.861053, 39.179448000151858 ], [ 20.861217, 39.179105000151814 ], [ 20.861342, 39.179089000151812 ], [ 20.86201, 39.179107000151816 ], [ 20.862478, 39.179178000151836 ], [ 20.862986, 39.179442000151873 ], [ 20.862974, 39.179712000151909 ], [ 20.862783, 39.180112000151944 ], [ 20.862892, 39.18044300015201 ], [ 20.863159, 39.180585000152035 ], [ 20.863358, 39.180571000152021 ], [ 20.863643, 39.18028900015198 ], [ 20.863897, 39.180142000151953 ], [ 20.864243, 39.180170000151961 ], [ 20.864437, 39.18027200015198 ], [ 20.864426, 39.180503000152022 ], [ 20.864339, 39.180790000152058 ], [ 20.864422, 39.181159000152107 ], [ 20.86461, 39.181396000152148 ], [ 20.865049, 39.181562000152176 ], [ 20.865347, 39.181531000152177 ], [ 20.865534, 39.181228000152117 ], [ 20.865474, 39.180917000152078 ], [ 20.865436, 39.180646000152038 ], [ 20.865638, 39.180575000152018 ], [ 20.866134, 39.18056900015204 ], [ 20.866627, 39.180621000152037 ], [ 20.866671, 39.180757000152049 ], [ 20.866709, 39.181009000152095 ], [ 20.866899, 39.181187000152114 ], [ 20.867196, 39.181215000152122 ], [ 20.8675, 39.181068000152102 ], [ 20.867533, 39.180876000152068 ], [ 20.867642, 39.180648000152033 ], [ 20.868042, 39.180581000152024 ], [ 20.868305, 39.180801000152066 ], [ 20.868768, 39.18096700015208 ], [ 20.869362, 39.180983000152089 ], [ 20.869885, 39.18094000015207 ], [ 20.870341, 39.180720000152043 ], [ 20.870556, 39.180340000151993 ], [ 20.870654, 39.179803000151914 ], [ 20.87084, 39.179519000151878 ], [ 20.87139, 39.179418000151863 ], [ 20.871638, 39.179405000151874 ], [ 20.871846, 39.179179000151827 ], [ 20.871884, 39.178891000151786 ], [ 20.871896, 39.178621000151743 ], [ 20.871879, 39.178447000151721 ], [ 20.871708, 39.178384000151695 ], [ 20.871363, 39.178356000151716 ], [ 20.870918, 39.178325000151695 ], [ 20.870695, 39.178319000151703 ], [ 20.870242, 39.178218000151695 ], [ 20.869724, 39.178428000151712 ], [ 20.869764, 39.178641000151742 ], [ 20.870068, 39.179035000151799 ], [ 20.86986, 39.17926100015184 ], [ 20.869611, 39.179293000151851 ], [ 20.869314, 39.17928500015185 ], [ 20.869025, 39.179084000151825 ], [ 20.868777, 39.178537000151735 ], [ 20.868744, 39.178170000151674 ], [ 20.86856, 39.177837000151641 ], [ 20.868219, 39.177693000151606 ], [ 20.867921, 39.177723000151616 ], [ 20.867706, 39.17810300015168 ], [ 20.867558, 39.178639000151747 ], [ 20.867423, 39.178886000151785 ], [ 20.867174, 39.178918000151789 ], [ 20.866541, 39.178651000151746 ], [ 20.865991, 39.178192000151689 ], [ 20.865926, 39.177997000151663 ], [ 20.866131, 39.177849000151639 ], [ 20.866681, 39.177728000151617 ], [ 20.866749, 39.177325000151555 ], [ 20.866645, 39.176879000151501 ], [ 20.866203, 39.176230000151392 ], [ 20.865746, 39.175909000151343 ], [ 20.864874, 39.176001000151366 ], [ 20.864289, 39.176352000151425 ], [ 20.863611, 39.176546000151454 ], [ 20.863042, 39.176512000151448 ], [ 20.862022, 39.176040000151374 ], [ 20.861664, 39.175741000151319 ], [ 20.86129, 39.175789000151347 ], [ 20.860886, 39.175952000151362 ], [ 20.860435, 39.176075000151386 ], [ 20.860143, 39.175951000151358 ], [ 20.859945, 39.175386000151292 ], [ 20.859386, 39.175140000151245 ], [ 20.858427, 39.175002000151224 ], [ 20.85823, 39.175494000151289 ], [ 20.858558, 39.175928000151352 ], [ 20.858698, 39.17612400015139 ], [ 20.858909, 39.17638100015143 ], [ 20.858997, 39.176634000151452 ], [ 20.858834, 39.176957000151504 ], [ 20.858499, 39.177238000151554 ], [ 20.858265, 39.177502000151577 ], [ 20.858153, 39.177788000151622 ], [ 20.858159, 39.178193000151694 ] ] ] } },
{ "type": "Feature", "properties": { "osm_id": 136531551, "name": null, "label": "natural:wood", "building": null, "landuse": null, "natural": "wood", "water": null }, "geometry": { "type": "Polygon", "coordinates": [ [ [ 20.866006, 39.170052000150513 ], [ 20.86592, 39.170320000150546 ], [ 20.865638, 39.170524000150586 ], [ 20.865382, 39.170710000150592 ], [ 20.86495, 39.170949000150635 ], [ 20.864151, 39.170988000150651 ], [ 20.863274, 39.170750000150605 ], [ 20.861812, 39.170809000150619 ], [ 20.860622, 39.170738000150614 ], [ 20.859794, 39.170104000150516 ], [ 20.859142, 39.170166000150523 ], [ 20.858955, 39.17097400015065 ], [ 20.859315, 39.171657000150752 ], [ 20.860337, 39.17171400015075 ], [ 20.860916, 39.171756000150758 ], [ 20.861291, 39.171766000150754 ], [ 20.86238, 39.171849000150765 ], [ 20.862842, 39.172207000150813 ], [ 20.863224, 39.172828000150922 ], [ 20.86358, 39.173290000150985 ], [ 20.863755, 39.173959000151072 ], [ 20.864239, 39.174584000151171 ], [ 20.864571, 39.174805000151196 ], [ 20.864946, 39.174815000151206 ], [ 20.865071, 39.174314000151128 ], [ 20.865104, 39.173570000151017 ], [ 20.865249, 39.173388000151007 ], [ 20.865853, 39.173617000151019 ], [ 20.865791, 39.174253000151111 ], [ 20.865534, 39.17464500015118 ], [ 20.865383, 39.174987000151226 ], [ 20.865473, 39.17525500015126 ], [ 20.865808, 39.175397000151278 ], [ 20.866352, 39.175465000151291 ], [ 20.866761, 39.175476000151292 ], [ 20.867489, 39.175230000151252 ], [ 20.867587, 39.174568000151169 ], [ 20.867446, 39.173899000151067 ], [ 20.867493, 39.17360800015102 ], [ 20.867833, 39.173644000151036 ], [ 20.868499, 39.174034000151089 ], [ 20.868558, 39.17424800015111 ], [ 20.868538, 39.174699000151179 ], [ 20.868285, 39.175173000151247 ], [ 20.868963, 39.175236000151251 ], [ 20.869907, 39.17560300015132 ], [ 20.870615, 39.175721000151327 ], [ 20.871087, 39.17567500015133 ], [ 20.871323, 39.175470000151286 ], [ 20.871412, 39.175216000151252 ], [ 20.871422, 39.17476900015118 ], [ 20.871203, 39.174115000151097 ], [ 20.87055, 39.173762000151051 ], [ 20.869934, 39.173128000150953 ], [ 20.869517, 39.172480000150863 ], [ 20.868794, 39.172294000150835 ], [ 20.867587, 39.172409000150843 ], [ 20.867053, 39.172144000150816 ], [ 20.866897, 39.171754000150749 ], [ 20.866939, 39.171369000150705 ], [ 20.866806, 39.17101900015065 ], [ 20.867022, 39.170619000150602 ], [ 20.867087, 39.170274000150542 ], [ 20.867294, 39.170067000150517 ], [ 20.867519, 39.169848000150488 ], [ 20.867523684775115, 39.169747661554027 ], [ 20.865860247450755, 39.169747661554027 ], [ 20.866006, 39.170052000150513 ] ] ] } },
{ "type": "Feature", "properties": { "osm_id": 1297669570, "name": null, "label": "landuse:commercial", "building": null, "landuse": "commercial", "natural": null, "water": null }, "geometry": { "type": "Polygon", "coordinates": [ [ [ 20.8704401, 39.169777400150473 ], [ 20.8706461, 39.17011680015051 ], [ 20.8708586, 39.169990400150496 ], [ 20.8709143, 39.17004690015051 ], [ 20.8711911, 39.169885600150479 ], [ 20.871325557980697, 39.169747661554027 ], [ 20.870429780247665, 39.169747661554027 ], [ 20.8704401, 39.169777400150473 ] ] ] } },
{ "type": "Feature", "properties": { "osm_id": 1297669582, "name": null, "label": "landuse:orchard", "building": null, "landuse": "orchard", "natural": null, "water": null }, "geometry": { "type": "Polygon", "coordinates": [ [ [ 20.8735544, 39.169895300150486 ], [ 20.873524, 39.169958100150495 ], [ 20.8735375, 39.170013000150497 ], [ 20.8735795, 39.170057600150507 ], [ 20.8738436, 39.170161000150529 ], [ 20.874214417723561, 39.169747661554027 ], [ 20.873672952244181, 39.169747661554027 ], [ 20.8735544, 39.169895300150486 ] ] ] } },
{ "type": "Feature", "properties": { "osm_id": 1297669578, "name": null, "label": "natural:scrub", "building": null, "landuse": null, "natural": "scrub", "water": null }, "geometry": { "type": "Polygon", "coordinates": [ [ [ 20.8769506, 39.169904300150492 ], [ 20.8769997, 39.170194900150527 ], [ 20.8769962, 39.170471900150574 ], [ 20.8772064, 39.170762500150616 ], [ 20.8774025, 39.170656600150608 ], [ 20.877426307385502, 39.170629432965015 ], [ 20.877426307385502, 39.169747661554027 ], [ 20.8768610411901, 39.169747661554027 ], [ 20.8769506, 39.169904300150492 ] ] ] } },
{ "type": "Feature", "properties": { "osm_id": 1297669580, "name": null, "label": "landuse:brownfield", "building": null, "landuse": "brownfield", "natural": null, "water": null }, "geometry": { "type": "Polygon", "coordinates": [ [ [ 20.8758361, 39.169891300150489 ], [ 20.875042, 39.170588300150591 ], [ 20.8754131, 39.170873400150612 ], [ 20.8756357, 39.171095700150666 ], [ 20.87576, 39.171405200150716 ], [ 20.8764097, 39.171132000150664 ], [ 20.8772064, 39.170762500150616 ], [ 20.8769962, 39.170471900150574 ], [ 20.8769997, 39.170194900150527 ], [ 20.8769506, 39.169904300150492 ], [ 20.8768610411901, 39.169747661554027 ], [ 20.875999758518372, 39.169747661554027 ], [ 20.8758361, 39.169891300150489 ] ] ] } },
{ "type": "Feature", "properties": { "osm_id": 1297669581, "name": null, "label": "landuse:farmland", "building": null, "landuse": "farmland", "natural": null, "water": null }, "geometry": { "type": "MultiPolygon", "coordinates": [ [ [ [ 20.8758361, 39.169891300150489 ], [ 20.875999758518372, 39.169747661554027 ], [ 20.875649473788094, 39.169747661554027 ], [ 20.8758361, 39.169891300150489 ] ] ], [ [ [ 20.8728696, 39.169772400150471 ], [ 20.873325, 39.169960700150497 ], [ 20.8735795, 39.170057600150507 ], [ 20.8737095, 39.170107100150517 ], [ 20.8738436, 39.170161000150529 ], [ 20.8745495, 39.170444500150559 ], [ 20.875224898307568, 39.169747661554027 ], [ 20.872826052221043, 39.169747661554027 ], [ 20.8728696, 39.169772400150471 ] ] ] ] } },
{ "type": "Feature", "properties": { "osm_id": 1297669579, "name": null, "label": "landuse:farmland", "building": null, "landuse": "farmland", "natural": null, "water": null }, "geometry": { "type": "Polygon", "coordinates": [ [ [ 20.8774025, 39.170656600150608 ], [ 20.8772064, 39.170762500150616 ], [ 20.8764097, 39.171132000150664 ], [ 20.87576, 39.171405200150716 ], [ 20.8759274, 39.171691900150755 ], [ 20.8761048, 39.172027000150806 ], [ 20.8763272, 39.172300200150836 ], [ 20.8766046, 39.172356400150832 ], [ 20.876827, 39.172534600150875 ], [ 20.8770769, 39.172664400150886 ], [ 20.877426307385502, 39.172842955755861 ], [ 20.877426307385502, 39.170629432965015 ], [ 20.8774025, 39.170656600150608 ] ] ] } },
{ "type": "Feature", "properties": { "osm_id": 1290283056, "name": null, "label": "building:yes", "building": "yes", "landuse": null, "natural": null, "water": null }, "geometry": { "type": "Polygon", "coordinates": [ [ [ 20.8579234, 39.184263300152566 ], [ 20.8579303, 39.184210400152551 ], [ 20.8578868, 39.184207000152554 ], [ 20.8578958, 39.184138300152547 ], [ 20.8577632, 39.184128000152548 ], [ 20.8577565, 39.184127400152548 ], [ 20.8577407, 39.184249100152549 ], [ 20.8579234, 39.184263300152566 ] ] ] } },
{ "type": "Feature", "properties": { "osm_id": 1290283055, "name": null, "label": "building:sty", "building": "sty", "landuse": null, "natural": null, "water": null }, "geometry": { "type": "Polygon", "coordinates": [ [ [ 20.8578958, 39.184138300152547 ], [ 20.8579855, 39.183596200152451 ], [ 20.8578507, 39.183583200152462 ], [ 20.8577632, 39.184128000152548 ], [ 20.8578958, 39.184138300152547 ] ] ] } },
{ "type": "Feature", "properties": { "osm_id": 1290283054, "name": null, "label": "building:sty", "building": "sty", "landuse": null, "natural": null, "water": null }, "geometry": { "type": "Polygon", "coordinates": [ [ [ 20.8581657, 39.184194400152556 ], [ 20.858259, 39.183612100152466 ], [ 20.8581069, 39.183597400152465 ], [ 20.8580138, 39.184179700152562 ], [ 20.8581657, 39.184194400152556 ] ] ] } },
{ "type": "Feature", "properties": { "osm_id": 1290283040, "name": null, "label": "building:yes", "building": "yes", "landuse": null, "natural": null, "water": null }, "geometry": { "type": "Polygon", "coordinates": [ [ [ 20.8580654, 39.184311900152565 ], [ 20.8580729, 39.184322400152574 ], [ 20.8580845, 39.184330400152568 ], [ 20.8580989, 39.184334800152563 ], [ 20.8581144, 39.18433520015256 ], [ 20.8581292, 39.184331600152568 ], [ 20.8581415, 39.184324300152575 ], [ 20.8581499, 39.184314200152571 ], [ 20.8581534, 39.184302500152562 ], [ 20.8581519, 39.18429140015256 ], [ 20.8581461, 39.184281200152576 ], [ 20.8581364, 39.184273000152551 ], [ 20.8581239, 39.184267500152565 ], [ 20.8581098, 39.184265400152562 ], [ 20.8580955, 39.184266800152557 ], [ 20.8580825, 39.184271600152563 ], [ 20.8580721, 39.184279200152567 ], [ 20.8580654, 39.184289100152554 ], [ 20.8580629, 39.184300100152576 ], [ 20.8580654, 39.184311900152565 ] ] ] } },
{ "type": "Feature", "properties": { "osm_id": 1290283050, "name": null, "label": "landuse:farmyard", "building": null, "landuse": "farmyard", "natural": null, "water": null }, "geometry": { "type": "Polygon", "coordinates": [ [ [ 20.856392, 39.185172100152698 ], [ 20.8573613, 39.185199300152689 ], [ 20.8573582, 39.186286800152857 ], [ 20.8587676, 39.186346100152861 ], [ 20.8588154, 39.186126200152827 ], [ 20.8589015, 39.185604700152759 ], [ 20.8589557, 39.185392100152725 ], [ 20.8589876, 39.18527100015271 ], [ 20.8590673, 39.184554200152604 ], [ 20.8591151, 39.184203200152552 ], [ 20.8591853, 39.183849800152515 ], [ 20.8592044, 39.183659500152473 ], [ 20.8592204, 39.183454300152441 ], [ 20.8580182, 39.183402400152445 ], [ 20.8579353, 39.183380200152435 ], [ 20.8576292, 39.183449400152455 ], [ 20.857288, 39.183617500152472 ], [ 20.8568862, 39.183923900152507 ], [ 20.856494, 39.184319400152575 ], [ 20.8556299, 39.185112800152687 ], [ 20.856392, 39.185172100152698 ] ] ] } },
{ "type": "Feature", "properties": { "osm_id": -17687243, "name": null, "label": "landuse:farmyard", "building": null, "landuse": "farmyard", "natural": null, "water": null }, "geometry": { "type": "Polygon", "coordinates": [ [ [ 20.856392, 39.185172100152698 ], [ 20.8573613, 39.185199300152689 ], [ 20.8573582, 39.186286800152857 ], [ 20.8587676, 39.186346100152861 ], [ 20.8588154, 39.186126200152827 ], [ 20.8589015, 39.185604700152759 ], [ 20.8589557, 39.185392100152725 ], [ 20.8589876, 39.18527100015271 ], [ 20.8590673, 39.184554200152604 ], [ 20.8591151, 39.184203200152552 ], [ 20.8591853, 39.183849800152515 ], [ 20.8592044, 39.183659500152473 ], [ 20.8592204, 39.183454300152441 ], [ 20.8580182, 39.183402400152445 ], [ 20.8579353, 39.183380200152435 ], [ 20.8576292, 39.183449400152455 ], [ 20.857288, 39.183617500152472 ], [ 20.8568862, 39.183923900152507 ], [ 20.856494, 39.184319400152575 ], [ 20.8556299, 39.185112800152687 ], [ 20.856392, 39.185172100152698 ] ], [ [ 20.8574785, 39.185010400152677 ], [ 20.8575247, 39.184991000152664 ], [ 20.8575986, 39.184989900152672 ], [ 20.8577622, 39.184996100152667 ], [ 20.8580856, 39.18501650015267 ], [ 20.858818, 39.185028800152658 ], [ 20.8588734, 39.185050300152675 ], [ 20.8588695, 39.185090200152679 ], [ 20.858884, 39.185159700152688 ], [ 20.8588259, 39.185187400152707 ], [ 20.8576276, 39.185146400152689 ], [ 20.8575154, 39.18512800015268 ], [ 20.8574904, 39.185101400152682 ], [ 20.8574494, 39.185058500152671 ], [ 20.8574785, 39.185010400152677 ] ], [ [ 20.8582444, 39.184917400152656 ], [ 20.8582441, 39.184858100152645 ], [ 20.8585062, 39.184857200152649 ], [ 20.8585068, 39.184945100152646 ], [ 20.858216, 39.184946100152658 ], [ 20.8582158, 39.18491750015265 ], [ 20.8582444, 39.184917400152656 ] ] ] } },
{ "type": "Feature", "properties": { "osm_id": 1290283060, "name": null, "label": "building:farm_auxiliary", "building": "farm_auxiliary", "landuse": null, "natural": null, "water": null }, "geometry": { "type": "Polygon", "coordinates": [ [ [ 20.8576563, 39.186190000152862 ], [ 20.8576953, 39.1852744001527 ], [ 20.8575203, 39.185269900152704 ], [ 20.8574811, 39.186185500152853 ], [ 20.8576563, 39.186190000152862 ] ] ] } },
{ "type": "Feature", "properties": { "osm_id": 1290283061, "name": null, "label": "building:farm_auxiliary", "building": "farm_auxiliary", "landuse": null, "natural": null, "water": null }, "geometry": { "type": "Polygon", "coordinates": [ [ [ 20.8580599, 39.186198800152845 ], [ 20.8580989, 39.185283300152712 ], [ 20.857924, 39.185278800152702 ], [ 20.8578848, 39.186194300152842 ], [ 20.8580599, 39.186198800152845 ] ] ] } },
{ "type": "Feature", "properties": { "osm_id": 1290283062, "name": null, "label": "building:farm_auxiliary", "building": "farm_auxiliary", "landuse": null, "natural": null, "water": null }, "geometry": { "type": "Polygon", "coordinates": [ [ [ 20.858411, 39.186204300152845 ], [ 20.85845, 39.185288700152711 ], [ 20.8582751, 39.185284200152694 ], [ 20.8582359, 39.186199800152842 ], [ 20.858411, 39.186204300152845 ] ] ] } },
{ "type": "Feature", "properties": { "osm_id": 1290283045, "name": null, "label": "water:wastewater;natural:water", "building": null, "landuse": null, "natural": "water", "water": "wastewater" }, "geometry": { "type": "Polygon", "coordinates": [ [ [ 20.858216, 39.184946100152658 ], [ 20.8585068, 39.184945100152646 ], [ 20.8585062, 39.184857200152649 ], [ 20.8582441, 39.184858100152645 ], [ 20.8582444, 39.184917400152656 ], [ 20.8582158, 39.18491750015265 ], [ 20.858216, 39.184946100152658 ] ] ] } },
{ "type": "Feature", "properties": { "osm_id": 1290283039, "name": null, "label": "building:farm_auxiliary", "building": "farm_auxiliary", "landuse": null, "natural": null, "water": null }, "geometry": { "type": "Polygon", "coordinates": [ [ [ 20.8582579, 39.184526200152611 ], [ 20.858255, 39.184580800152595 ], [ 20.8583945, 39.184585200152611 ], [ 20.858405, 39.184384300152573 ], [ 20.8582651, 39.184379900152585 ], [ 20.8582627, 39.184426800152593 ], [ 20.8581497, 39.184423300152588 ], [ 20.8581446, 39.184522600152604 ], [ 20.8582579, 39.184526200152611 ] ] ] } },
{ "type": "Feature", "properties": { "osm_id": 1290283041, "name": null, "label": "building:yes", "building": "yes", "landuse": null, "natural": null, "water": null }, "geometry": { "type": "Polygon", "coordinates": [ [ [ 20.858195, 39.184320500152559 ], [ 20.8582025, 39.184331000152575 ], [ 20.8582142, 39.184339000152562 ], [ 20.8582286, 39.184343400152585 ], [ 20.858244, 39.184343800152575 ], [ 20.8582588, 39.184340100152568 ], [ 20.8582711, 39.184332800152575 ], [ 20.8582795, 39.184322800152579 ], [ 20.858283, 39.184311100152563 ], [ 20.8582816, 39.184300000152568 ], [ 20.8582757, 39.184289800152563 ], [ 20.858266, 39.184281600152566 ], [ 20.8582535, 39.184276100152566 ], [ 20.8582394, 39.18427400015257 ], [ 20.8582251, 39.184275400152565 ], [ 20.8582122, 39.18428010015257 ], [ 20.8582018, 39.184287800152568 ], [ 20.858195, 39.184297700152577 ], [ 20.8581926, 39.184308600152569 ], [ 20.858195, 39.184320500152559 ] ] ] } },
{ "type": "Feature", "properties": { "osm_id": 1290283042, "name": null, "label": "building:yes", "building": "yes", "landuse": null, "natural": null, "water": null }, "geometry": { "type": "Polygon", "coordinates": [ [ [ 20.8582989, 39.184304900152576 ], [ 20.8583064, 39.18431540015257 ], [ 20.8583181, 39.184323400152572 ], [ 20.8583325, 39.184327800152573 ], [ 20.858348, 39.184328200152571 ], [ 20.8583627, 39.184324600152571 ], [ 20.858375, 39.184317300152564 ], [ 20.8583834, 39.18430720015256 ], [ 20.8583869, 39.184295500152558 ], [ 20.8583855, 39.184284400152571 ], [ 20.8583796, 39.184274200152565 ], [ 20.8583699, 39.184266000152554 ], [ 20.8583574, 39.184260500152561 ], [ 20.8583433, 39.184258400152551 ], [ 20.858329, 39.184259800152546 ], [ 20.8583161, 39.184264600152559 ], [ 20.8583057, 39.184272200152549 ], [ 20.8582989, 39.184282100152544 ], [ 20.8582965, 39.184293100152559 ], [ 20.8582989, 39.184304900152576 ] ] ] } },
{ "type": "Feature", "properties": { "osm_id": 1290283057, "name": null, "label": "building:sty", "building": "sty", "landuse": null, "natural": null, "water": null }, "geometry": { "type": "Polygon", "coordinates": [ [ [ 20.8582482, 39.184174700152539 ], [ 20.858244, 39.184200300152561 ], [ 20.8583804, 39.184213800152548 ], [ 20.8584785, 39.183617300152477 ], [ 20.8583417, 39.183603800152468 ], [ 20.8582793, 39.18398310015251 ], [ 20.8582481, 39.183980000152516 ], [ 20.8582165, 39.184171600152546 ], [ 20.8582482, 39.184174700152539 ] ] ] } },
{ "type": "Feature", "properties": { "osm_id": 1290283053, "name": null, "label": "building:sty", "building": "sty", "landuse": null, "natural": null, "water": null }, "geometry": { "type": "Polygon", "coordinates": [ [ [ 20.8586054, 39.184217700152544 ], [ 20.8587073, 39.183602200152471 ], [ 20.8585565, 39.183587200152459 ], [ 20.8584544, 39.184202600152538 ], [ 20.8586054, 39.184217700152544 ] ] ] } },
{ "type": "Feature", "properties": { "osm_id": 1290283052, "name": null, "label": "building:sty", "building": "sty", "landuse": null, "natural": null, "water": null }, "geometry": { "type": "Polygon", "coordinates": [ [ [ 20.8588319, 39.184224300152557 ], [ 20.8589339, 39.183608800152463 ], [ 20.858783, 39.183593800152458 ], [ 20.858681, 39.184209200152544 ], [ 20.8588319, 39.184224300152557 ] ] ] } },
{ "type": "Feature", "properties": { "osm_id": 1290283058, "name": null, "label": "building:yes", "building": "yes", "landuse": null, "natural": null, "water": null }, "geometry": { "type": "Polygon", "coordinates": [ [ [ 20.8587746, 39.184498600152601 ], [ 20.858869, 39.184491800152593 ], [ 20.8588605, 39.184420700152593 ], [ 20.8587662, 39.18442750015258 ], [ 20.8587746, 39.184498600152601 ] ] ] } },
{ "type": "Feature", "properties": { "osm_id": 1290289216, "name": null, "label": "building:farm_auxiliary", "building": "farm_auxiliary", "landuse": null, "natural": null, "water": null }, "geometry": { "type": "Polygon", "coordinates": [ [ [ 20.8582549, 39.173675700151037 ], [ 20.8583282, 39.173570300151013 ], [ 20.8580971, 39.173473700151014 ], [ 20.8580237, 39.173579100151024 ], [ 20.8582549, 39.173675700151037 ] ] ] } },
{ "type": "Feature", "properties": { "osm_id": 1290289218, "name": null, "label": "building:farm_auxiliary", "building": "farm_auxiliary", "landuse": null, "natural": null, "water": null }, "geometry": { "type": "Polygon", "coordinates": [ [ [ 20.8582189, 39.174026700151082 ], [ 20.8584625, 39.173689200151038 ], [ 20.8583279, 39.173630800151024 ], [ 20.8580844, 39.173968300151074 ], [ 20.8582189, 39.174026700151082 ] ] ] } },
{ "type": "Feature", "properties": { "osm_id": 1290289195, "name": null, "label": "building:greenhouse", "building": "greenhouse", "landuse": null, "natural": null, "water": null }, "geometry": { "type": "Polygon", "coordinates": [ [ [ 20.857938, 39.175096700151229 ], [ 20.8579713, 39.175050500151229 ], [ 20.8578401, 39.174993600151225 ], [ 20.8578068, 39.175039800151232 ], [ 20.857938, 39.175096700151229 ] ] ] } },
{ "type": "Feature", "properties": { "osm_id": 1290289209, "name": null, "label": "building:farm_auxiliary", "building": "farm_auxiliary", "landuse": null, "natural": null, "water": null }, "geometry": { "type": "Polygon", "coordinates": [ [ [ 20.8575182, 39.174733900151189 ], [ 20.8575596, 39.174630200151178 ], [ 20.8574727, 39.174609400151169 ], [ 20.8574314, 39.174713100151187 ], [ 20.8575182, 39.174733900151189 ] ] ] } },
{ "type": "Feature", "properties": { "osm_id": 1290289208, "name": null, "label": "building:roof", "building": "roof", "landuse": null, "natural": null, "water": null }, "geometry": { "type": "Polygon", "coordinates": [ [ [ 20.8575477, 39.174593300151159 ], [ 20.8575939, 39.174544200151168 ], [ 20.8574059, 39.174437900151148 ], [ 20.8573597, 39.174486900151152 ], [ 20.8575477, 39.174593300151159 ] ] ] } },
{ "type": "Feature", "properties": { "osm_id": 1290289205, "name": null, "label": "building:yes", "building": "yes", "landuse": null, "natural": null, "water": null }, "geometry": { "type": "Polygon", "coordinates": [ [ [ 20.8574295, 39.174339600151129 ], [ 20.857432, 39.17434420015114 ], [ 20.8574362, 39.174348000151134 ], [ 20.8574418, 39.174350500151128 ], [ 20.857448, 39.174351600151134 ], [ 20.8574544, 39.174351100151121 ], [ 20.8574603, 39.17434910015114 ], [ 20.8574651, 39.17434580015113 ], [ 20.8574684, 39.174341500151122 ], [ 20.8574697, 39.174336700151123 ], [ 20.8574689, 39.174331200151116 ], [ 20.8574657, 39.174326300151129 ], [ 20.8574606, 39.174322600151136 ], [ 20.8574541, 39.174320400151124 ], [ 20.857447, 39.174320100151128 ], [ 20.8574403, 39.174321600151117 ], [ 20.8574346, 39.174324800151126 ], [ 20.8574306, 39.17432940015113 ], [ 20.8574289, 39.174334700151121 ], [ 20.8574295, 39.174339600151129 ] ] ] } },
{ "type": "Feature", "properties": { "osm_id": 1290289204, "name": null, "label": "building:yes", "building": "yes", "landuse": null, "natural": null, "water": null }, "geometry": { "type": "Polygon", "coordinates": [ [ [ 20.8574019, 39.174371500151132 ], [ 20.8574044, 39.174376100151129 ], [ 20.8574086, 39.174379800151129 ], [ 20.8574141, 39.174382400151138 ], [ 20.8574204, 39.17438350015113 ], [ 20.8574268, 39.174383000151145 ], [ 20.8574327, 39.174381000151115 ], [ 20.8574375, 39.17437770015114 ], [ 20.8574407, 39.17437340015114 ], [ 20.8574421, 39.174368500151139 ], [ 20.8574412, 39.17436310015114 ], [ 20.8574381, 39.174358200151126 ], [ 20.8574329, 39.174354400151124 ], [ 20.8574265, 39.174352200151134 ], [ 20.8574194, 39.17435190015113 ], [ 20.8574126, 39.174353400151126 ], [ 20.8574069, 39.174356700151122 ], [ 20.857403, 39.174361200151139 ], [ 20.8574013, 39.174366500151137 ], [ 20.8574019, 39.174371500151132 ] ] ] } },
{ "type": "Feature", "properties": { "osm_id": 1290289206, "name": null, "label": "building:yes", "building": "yes", "landuse": null, "natural": null, "water": null }, "geometry": { "type": "Polygon", "coordinates": [ [ [ 20.8573788, 39.174404300151146 ], [ 20.8573813, 39.174408900151143 ], [ 20.8573856, 39.174412700151152 ], [ 20.8573911, 39.174415200151138 ], [ 20.8573974, 39.174416300151137 ], [ 20.8574038, 39.174415800151145 ], [ 20.8574096, 39.174413800151143 ], [ 20.8574144, 39.17441050015114 ], [ 20.8574177, 39.17440620015114 ], [ 20.857419, 39.17440140015114 ], [ 20.8574182, 39.17439590015114 ], [ 20.857415, 39.17439100015114 ], [ 20.8574099, 39.174387300151139 ], [ 20.8574034, 39.174385100151135 ], [ 20.8573964, 39.174384800151131 ], [ 20.8573896, 39.174386300151149 ], [ 20.8573839, 39.174389500151129 ], [ 20.85738, 39.174394100151133 ], [ 20.8573782, 39.174399400151131 ], [ 20.8573788, 39.174404300151146 ] ] ] } },
{ "type": "Feature", "properties": { "osm_id": 1290289212, "name": null, "label": "building:sty", "building": "sty", "landuse": null, "natural": null, "water": null }, "geometry": { "type": "Polygon", "coordinates": [ [ [ 20.8576689, 39.174336900151125 ], [ 20.8577389, 39.174240100151117 ], [ 20.8571412, 39.173979900151075 ], [ 20.8570711, 39.174076800151092 ], [ 20.8576689, 39.174336900151125 ] ] ] } },
{ "type": "Feature", "properties": { "osm_id": 1290289213, "name": null, "label": "building:sty", "building": "sty", "landuse": null, "natural": null, "water": null }, "geometry": { "type": "Polygon", "coordinates": [ [ [ 20.8577846, 39.174172000151103 ], [ 20.8578546, 39.174075200151087 ], [ 20.8572569, 39.173815000151045 ], [ 20.8571868, 39.173911800151068 ], [ 20.8577846, 39.174172000151103 ] ] ] } },
{ "type": "Feature", "properties": { "osm_id": 1290289194, "name": "Κωνσταντίνος Τσεβρενίδης & ΣΙΑ Ο.Ε.", "label": "landuse:farmyard", "building": null, "landuse": "farmyard", "natural": null, "water": null }, "geometry": { "type": "Polygon", "coordinates": [ [ [ 20.8569912, 39.174264500151118 ], [ 20.8571969, 39.174375800151132 ], [ 20.8573725, 39.174589600151165 ], [ 20.8574349, 39.174839600151202 ], [ 20.8575524, 39.17508420015124 ], [ 20.8575476, 39.175160400151242 ], [ 20.8575565, 39.175235800151256 ], [ 20.8576167, 39.175313700151257 ], [ 20.8576799, 39.175357600151266 ], [ 20.857732, 39.175369100151272 ], [ 20.8577939, 39.175336500151275 ], [ 20.8583119, 39.174894600151205 ], [ 20.8588621, 39.174256700151112 ], [ 20.8588373, 39.173822500151054 ], [ 20.8587877, 39.173672700151037 ], [ 20.8586985, 39.173492100150995 ], [ 20.8585845, 39.173390300150984 ], [ 20.8578385, 39.173203900150959 ], [ 20.8575635, 39.173211600150964 ], [ 20.8574296, 39.173286500151001 ], [ 20.8570058, 39.17379570015104 ], [ 20.856742, 39.174121200151092 ], [ 20.8569912, 39.174264500151118 ] ] ] } },
{ "type": "Feature", "properties": { "osm_id": 1290289207, "name": null, "label": "building:farm_auxiliary", "building": "farm_auxiliary", "landuse": null, "natural": null, "water": null }, "geometry": { "type": "Polygon", "coordinates": [ [ [ 20.8575939, 39.174544200151168 ], [ 20.8576386, 39.174500600151163 ], [ 20.8577389, 39.174556300151167 ], [ 20.8577895, 39.174501500151145 ], [ 20.8574961, 39.174338600151131 ], [ 20.8574059, 39.174437900151148 ], [ 20.8575939, 39.174544200151168 ] ] ] } },
{ "type": "Feature", "properties": { "osm_id": 1290289202, "name": null, "label": "building:yes", "building": "yes", "landuse": null, "natural": null, "water": null }, "geometry": { "type": "Polygon", "coordinates": [ [ [ 20.8576653, 39.1747634001512 ], [ 20.8576701, 39.174772800151203 ], [ 20.8576784, 39.174780400151199 ], [ 20.8576894, 39.17478570015119 ], [ 20.857702, 39.174788100151183 ], [ 20.857716, 39.174787000151198 ], [ 20.8577287, 39.174782400151194 ], [ 20.8577387, 39.174774700151197 ], [ 20.8577447, 39.174764800151202 ], [ 20.857746, 39.174753900151181 ], [ 20.8577425, 39.174743400151186 ], [ 20.8577346, 39.174734300151187 ], [ 20.8577232, 39.174727900151183 ], [ 20.8577097, 39.17472490015119 ], [ 20.8576968, 39.174725400151182 ], [ 20.8576847, 39.174728900151187 ], [ 20.8576747, 39.17473530015117 ], [ 20.8576677, 39.174743700151183 ], [ 20.8576644, 39.174753400151197 ], [ 20.8576653, 39.1747634001512 ] ] ] } },
{ "type": "Feature", "properties": { "osm_id": 1290289201, "name": null, "label": "building:yes", "building": "yes", "landuse": null, "natural": null, "water": null }, "geometry": { "type": "Polygon", "coordinates": [ [ [ 20.8577004, 39.174697200151179 ], [ 20.8577052, 39.174706500151174 ], [ 20.8577136, 39.174714200151179 ], [ 20.8577246, 39.174719500151191 ], [ 20.8577371, 39.174721800151183 ], [ 20.8577512, 39.174720800151185 ], [ 20.8577639, 39.17471610015118 ], [ 20.8577738, 39.174708400151182 ], [ 20.8577798, 39.174698600151181 ], [ 20.8577812, 39.174687700151175 ], [ 20.8577777, 39.174677100151179 ], [ 20.8577698, 39.174668100151166 ], [ 20.8577584, 39.174661700151177 ], [ 20.8577449, 39.174658600151176 ], [ 20.8577319, 39.174659100151182 ], [ 20.8577198, 39.174662700151167 ], [ 20.8577098, 39.174669000151177 ], [ 20.8577028, 39.174677500151184 ], [ 20.8576996, 39.174687200151176 ], [ 20.8577004, 39.174697200151179 ] ] ] } },
{ "type": "Feature", "properties": { "osm_id": 1290289198, "name": null, "label": "building:yes", "building": "yes", "landuse": null, "natural": null, "water": null }, "geometry": { "type": "Polygon", "coordinates": [ [ [ 20.8578231, 39.174726400151187 ], [ 20.8578327, 39.174737100151184 ], [ 20.8578463, 39.17474470015118 ], [ 20.8578624, 39.174748300151187 ], [ 20.857878, 39.174747700151187 ], [ 20.8578926, 39.174743400151186 ], [ 20.8579046, 39.174735700151182 ], [ 20.857913, 39.174725400151182 ], [ 20.8579167, 39.174713700151194 ], [ 20.8579155, 39.174701600151188 ], [ 20.8579095, 39.174690400151185 ], [ 20.8578993, 39.174681300151185 ], [ 20.8578859, 39.174675100151184 ], [ 20.8578706, 39.174672400151181 ], [ 20.8578539, 39.174673900151184 ], [ 20.8578389, 39.174679700151181 ], [ 20.8578272, 39.174689000151183 ], [ 20.8578202, 39.174700900151173 ], [ 20.8578188, 39.174713800151174 ], [ 20.8578231, 39.174726400151187 ] ] ] } },
{ "type": "Feature", "properties": { "osm_id": 1290289200, "name": null, "label": "building:yes", "building": "yes", "landuse": null, "natural": null, "water": null }, "geometry": { "type": "Polygon", "coordinates": [ [ [ 20.8578162, 39.174555600151159 ], [ 20.857821, 39.174564900151168 ], [ 20.8578294, 39.174572600151158 ], [ 20.8578404, 39.174577900151171 ], [ 20.857853, 39.174580200151162 ], [ 20.857867, 39.174579200151172 ], [ 20.8578797, 39.174574500151159 ], [ 20.8578897, 39.174566800151162 ], [ 20.8578957, 39.174557000151154 ], [ 20.857897, 39.174546100151161 ], [ 20.8578935, 39.174535500151151 ], [ 20.8578856, 39.17452650015116 ], [ 20.8578742, 39.174520100151149 ], [ 20.8578607, 39.174517000151162 ], [ 20.8578478, 39.174517500151154 ], [ 20.8578357, 39.174521100151168 ], [ 20.8578256, 39.174527400151149 ], [ 20.8578186, 39.174535900151163 ], [ 20.8578154, 39.174545600151163 ], [ 20.8578162, 39.174555600151159 ] ] ] } },
{ "type": "Feature", "properties": { "osm_id": 1290289199, "name": null, "label": "building:yes", "building": "yes", "landuse": null, "natural": null, "water": null }, "geometry": { "type": "Polygon", "coordinates": [ [ [ 20.8577555, 39.174643900151175 ], [ 20.857765, 39.174654600151172 ], [ 20.8577786, 39.174662200151168 ], [ 20.8577947, 39.174665800151175 ], [ 20.8578103, 39.174665200151175 ], [ 20.8578249, 39.174660900151174 ], [ 20.857837, 39.174653200151184 ], [ 20.8578453, 39.174642900151177 ], [ 20.8578491, 39.174631200151175 ], [ 20.8578479, 39.174619100151183 ], [ 20.8578419, 39.174607900151173 ], [ 20.8578316, 39.174598800151166 ], [ 20.8578182, 39.174592600151158 ], [ 20.8578029, 39.174590000151163 ], [ 20.8577863, 39.174591400151165 ], [ 20.8577712, 39.174597200151176 ], [ 20.8577595, 39.174606500151171 ], [ 20.8577526, 39.174618400151182 ], [ 20.8577512, 39.174631300151169 ], [ 20.8577555, 39.174643900151175 ] ] ] } },
{ "type": "Feature", "properties": { "osm_id": 1290289219, "name": null, "label": "building:farm_auxiliary", "building": "farm_auxiliary", "landuse": null, "natural": null, "water": null }, "geometry": { "type": "Polygon", "coordinates": [ [ [ 20.8578958, 39.174514500151155 ], [ 20.85794, 39.174456600151139 ], [ 20.8579104, 39.174442900151149 ], [ 20.8577765, 39.174381500151142 ], [ 20.8577323, 39.17443940015113 ], [ 20.8578958, 39.174514500151155 ] ] ] } },
{ "type": "Feature", "properties": { "osm_id": 1290289197, "name": null, "label": "building:yes", "building": "yes", "landuse": null, "natural": null, "water": null }, "geometry": { "type": "Polygon", "coordinates": [ [ [ 20.8578771, 39.174634200151175 ], [ 20.8578866, 39.174644900151172 ], [ 20.8579002, 39.174652500151169 ], [ 20.8579163, 39.174656100151175 ], [ 20.8579319, 39.174655500151175 ], [ 20.8579465, 39.174651100151166 ], [ 20.8579585, 39.174643400151162 ], [ 20.8579669, 39.17463320015117 ], [ 20.8579706, 39.174621400151175 ], [ 20.8579695, 39.174609300151168 ], [ 20.8579634, 39.174598200151159 ], [ 20.8579532, 39.174589000151158 ], [ 20.8579398, 39.174582800151171 ], [ 20.8579245, 39.174580200151162 ], [ 20.8579078, 39.174581700151172 ], [ 20.8578928, 39.174587400151161 ], [ 20.8578811, 39.174596800151157 ], [ 20.8578741, 39.17460860015116 ], [ 20.8578727, 39.174621600151177 ], [ 20.8578771, 39.174634200151175 ] ] ] } },
{ "type": "Feature", "properties": { "osm_id": 1290289196, "name": null, "label": "building:farm_auxiliary", "building": "farm_auxiliary", "landuse": null, "natural": null, "water": null }, "geometry": { "type": "Polygon", "coordinates": [ [ [ 20.8579142, 39.1748577001512 ], [ 20.8580408, 39.174751800151178 ], [ 20.8579576, 39.174692100151184 ], [ 20.8578311, 39.174798100151186 ], [ 20.8579142, 39.1748577001512 ] ] ] } },
{ "type": "Feature", "properties": { "osm_id": 1290289217, "name": null, "label": "building:farm_auxiliary", "building": "farm_auxiliary", "landuse": null, "natural": null, "water": null }, "geometry": { "type": "Polygon", "coordinates": [ [ [ 20.8579104, 39.174442900151149 ], [ 20.8582189, 39.174026700151082 ], [ 20.8580844, 39.173968300151074 ], [ 20.8577765, 39.174381500151142 ], [ 20.8579104, 39.174442900151149 ] ] ] } },
{ "type": "Feature", "properties": { "osm_id": 1290289214, "name": null, "label": "building:sty", "building": "sty", "landuse": null, "natural": null, "water": null }, "geometry": { "type": "Polygon", "coordinates": [ [ [ 20.8579029, 39.174006100151075 ], [ 20.857973, 39.173909300151053 ], [ 20.8573753, 39.173649100151032 ], [ 20.8573051, 39.173746000151041 ], [ 20.8579029, 39.174006100151075 ] ] ] } },
{ "type": "Feature", "properties": { "osm_id": 1290289215, "name": null, "label": "building:sty", "building": "sty", "landuse": null, "natural": null, "water": null }, "geometry": { "type": "Polygon", "coordinates": [ [ [ 20.858105, 39.173869100151073 ], [ 20.858218, 39.173701200151037 ], [ 20.8577231, 39.173501000150999 ], [ 20.8577002, 39.173535100151014 ], [ 20.8575078, 39.173457300151014 ], [ 20.8574177, 39.173591100151015 ], [ 20.858105, 39.173869100151073 ] ] ] } },
{ "type": "Feature", "properties": { "osm_id": 1290289211, "name": null, "label": "water:wastewater;natural:water", "building": null, "landuse": null, "natural": "water", "water": "wastewater" }, "geometry": { "type": "Polygon", "coordinates": [ [ [ 20.8579785, 39.173587000151009 ], [ 20.8580651, 39.173466900151006 ], [ 20.8578247, 39.173362700150989 ], [ 20.857738, 39.173482800151014 ], [ 20.8579785, 39.173587000151009 ] ] ] } },
{ "type": "Feature", "properties": { "osm_id": 590534569, "name": null, "label": "water:reservoir;natural:water", "building": null, "landuse": null, "natural": "water", "water": "reservoir" }, "geometry": { "type": "Polygon", "coordinates": [ [ [ 20.8494434, 39.176118800151386 ], [ 20.8495018, 39.176098800151365 ], [ 20.8494364, 39.175963100151357 ], [ 20.849371, 39.175984800151362 ], [ 20.8494434, 39.176118800151386 ] ] ] } }
]
}
