{
"type": "FeatureCollection",
"name": "patch_87270_features",
"crs": { "type": "name", "properties": { "name": "urn:ogc:def:crs:OGC:1.3:CRS84" } },
"features": [
{ "type": "Feature", "properties": { "@type": "way", "@id": 489655207, "addr:postcode": null, "amenity": null, "boat": "no", "denomination": null, "ford": null, "highway": null, "intermittent": "yes", "lanes": null, "leaf_type": null, "name": null, "natural": null, "religion": null, "sidewalk": null, "smoothness": null, "source": null, "surface": null, "tracktype": null, "waterway": "drain", "wikidata": null, "wikipedia": null, "label": "waterway:drain" }, "geometry": { "type": "LineString", "coordinates": [ [ 22.7393223, 37.2679052 ], [ 22.7392767, 37.2677861 ], [ 22.7391806, 37.2676734 ], [ 22.7392579, 37.2675295 ], [ 22.7394295, 37.2673929 ], [ 22.739687, 37.2672222 ], [ 22.7399, 37.2671445 ], [ 22.7401162, 37.2670343 ], [ 22.7403613, 37.2667859 ], [ 22.740481, 37.2665733 ], [ 22.7405115, 37.2663846 ], [ 22.7406296, 37.2661882 ], [ 22.7407599, 37.2659756 ], [ 22.7408656, 37.2659064 ], [ 22.7409943, 37.2658467 ], [ 22.7410587, 37.2657442 ], [ 22.7410496, 37.265617 ], [ 22.7410373, 37.2654368 ], [ 22.741114, 37.265173 ], [ 22.7411982, 37.2649757 ], [ 22.7413393, 37.2646948 ], [ 22.7414358, 37.2642935 ], [ 22.7414358, 37.2640971 ], [ 22.7415646, 37.2638495 ], [ 22.741629, 37.2636616 ], [ 22.7416703, 37.2634217 ], [ 22.7416273, 37.2631997 ], [ 22.7416381, 37.2630119 ], [ 22.7417041, 37.2627139 ], [ 22.741681, 37.2624654 ], [ 22.7416381, 37.2623288 ], [ 22.741681, 37.262158 ], [ 22.741681, 37.2620384 ], [ 22.7417684, 37.2618941 ], [ 22.7419165, 37.2617746 ] ] } },
{ "type": "Feature", "properties": { "@type": "way", "@id": 489655955, "addr:postcode": null, "amenity": null, "boat": "no", "denomination": null, "ford": null, "highway": null, "intermittent": "yes", "lanes": null, "leaf_type": null, "name": null, "natural": null, "religion": null, "sidewalk": null, "smoothness": null, "source": null, "surface": null, "tracktype": null, "waterway": "stream", "wikidata": null, "wikipedia": null, "label": "waterway:stream" }, "geometry": { "type": "LineString", "coordinates": [ [ 22.7452336, 37.2636526 ], [ 22.7449517, 37.2636283 ], [ 22.7446545, 37.2635933 ], [ 22.7442881, 37.2634815 ], [ 22.7441057, 37.2634303 ], [ 22.743882, 37.2633457 ], [ 22.7436352, 37.2632262 ], [ 22.7435371, 37.2630972 ], [ 22.7435172, 37.2629273 ], [ 22.7434207, 37.2627822 ], [ 22.7432474, 37.262713 ], [ 22.7430543, 37.262602 ], [ 22.742895, 37.2624577 ], [ 22.7427233, 37.2622357 ], [ 22.7426482, 37.2621247 ], [ 22.7424856, 37.2620384 ], [ 22.7423033, 37.2620043 ], [ 22.7420994, 37.261936 ], [ 22.7419723, 37.2618685 ], [ 22.7419165, 37.2617746 ], [ 22.7417899, 37.2616465 ], [ 22.7417255, 37.261527 ], [ 22.7416917, 37.2613383 ], [ 22.7416397, 37.261211 ], [ 22.7415002, 37.2610915 ], [ 22.7412947, 37.260954 ], [ 22.7411891, 37.2608524 ], [ 22.7411445, 37.2606295 ], [ 22.7411231, 37.2604929 ], [ 22.7410802, 37.2603819 ], [ 22.7409407, 37.2602538 ], [ 22.7408227, 37.2601172 ], [ 22.740769, 37.259972 ], [ 22.7407905, 37.2597756 ], [ 22.7408441, 37.2596048 ], [ 22.7409622, 37.2594341 ], [ 22.74093, 37.2593316 ], [ 22.7408012, 37.2592206 ], [ 22.7405974, 37.2591266 ], [ 22.7403721, 37.2590669 ], [ 22.7400287, 37.2590156 ], [ 22.7399107, 37.2589473 ], [ 22.7397729, 37.2588713 ], [ 22.7397085, 37.2587518 ], [ 22.7397927, 37.2585887 ], [ 22.7398785, 37.2584691 ], [ 22.7398571, 37.2583923 ], [ 22.7397283, 37.2583325 ], [ 22.739503, 37.2583325 ], [ 22.7393206, 37.2583667 ], [ 22.7390953, 37.2583496 ], [ 22.7388808, 37.2582642 ], [ 22.7386984, 37.2581361 ], [ 22.7386018, 37.2579739 ], [ 22.7385267, 37.2577945 ], [ 22.7383658, 37.2576921 ], [ 22.7381941, 37.2576408 ], [ 22.7380546, 37.2575298 ], [ 22.7378186, 37.2574188 ], [ 22.737552, 37.2573428 ], [ 22.7373358, 37.2572822 ] ] } },
{ "type": "Feature", "properties": { "@type": "way", "@id": 489655957, "addr:postcode": null, "amenity": null, "boat": "no", "denomination": null, "ford": null, "highway": null, "intermittent": "yes", "lanes": null, "leaf_type": null, "name": null, "natural": null, "religion": null, "sidewalk": null, "smoothness": null, "source": null, "surface": null, "tracktype": null, "waterway": "drain", "wikidata": null, "wikipedia": null, "label": "waterway:drain" }, "geometry": { "type": "LineString", "coordinates": [ [ 22.754862602111096, 37.26177960864117 ], [ 22.7548453, 37.2617994 ], [ 22.7547932, 37.2619368 ], [ 22.7545878, 37.2620982 ], [ 22.7544161, 37.2622178 ], [ 22.7542445, 37.2623288 ], [ 22.7540191, 37.2623629 ], [ 22.7538582, 37.2622775 ], [ 22.7536866, 37.262158 ], [ 22.7535578, 37.2621494 ], [ 22.7533754, 37.2623031 ], [ 22.7531716, 37.2624483 ], [ 22.7530321, 37.2625422 ], [ 22.7529892, 37.262713 ], [ 22.752839, 37.2627813 ], [ 22.7525386, 37.2627813 ], [ 22.7523133, 37.2628411 ], [ 22.7521325, 37.2629359 ], [ 22.7519715, 37.2630298 ], [ 22.7517232, 37.2630375 ], [ 22.7514871, 37.2630033 ], [ 22.7512189, 37.2630033 ], [ 22.7510043, 37.2629777 ], [ 22.7508327, 37.2629094 ], [ 22.7505752, 37.2629862 ], [ 22.7503837, 37.26297 ], [ 22.7502227, 37.262859 ], [ 22.7500924, 37.2627728 ], [ 22.74991, 37.2626618 ], [ 22.7496632, 37.2625849 ], [ 22.7494916, 37.2625422 ], [ 22.749277, 37.2625678 ], [ 22.7491375, 37.2626618 ], [ 22.7490748, 37.2627992 ], [ 22.7490732, 37.2630289 ], [ 22.7490748, 37.2631493 ], [ 22.7489766, 37.2632509 ], [ 22.7486456, 37.2633799 ], [ 22.7483329, 37.2634729 ], [ 22.7479912, 37.2635763 ], [ 22.74768, 37.2636787 ], [ 22.7474333, 37.2637385 ], [ 22.7472509, 37.2638068 ], [ 22.7470041, 37.2638153 ], [ 22.7467573, 37.2637983 ], [ 22.7465519, 37.2637974 ], [ 22.7462853, 37.2638068 ], [ 22.7460798, 37.263806 ], [ 22.7457451, 37.2637206 ], [ 22.7455208, 37.2637218 ], [ 22.7452336, 37.2636526 ] ] } },
{ "type": "Feature", "properties": { "@type": "way", "@id": 489656546, "addr:postcode": null, "amenity": null, "boat": "no", "denomination": null, "ford": null, "highway": null, "intermittent": "yes", "lanes": null, "leaf_type": null, "name": null, "natural": null, "religion": null, "sidewalk": null, "smoothness": null, "source": null, "surface": null, "tracktype": null, "waterway": "drain", "wikidata": null, "wikipedia": null, "label": "waterway:drain" }, "geometry": { "type": "LineString", "coordinates": [ [ 22.73825227054671, 37.256342587222989 ], [ 22.7381083, 37.2564624 ], [ 22.7379366, 37.2566673 ], [ 22.7378079, 37.256804 ], [ 22.7376255, 37.2569235 ], [ 22.7374876, 37.2571293 ], [ 22.7374216, 37.2572224 ], [ 22.7373358, 37.2572822 ] ] } },
{ "type": "Feature", "properties": { "@type": "way", "@id": 489657396, "addr:postcode": null, "amenity": null, "boat": "no", "denomination": null, "ford": null, "highway": null, "intermittent": null, "lanes": null, "leaf_type": null, "name": null, "natural": null, "religion": null, "sidewalk": null, "smoothness": null, "source": null, "surface": null, "tracktype": null, "waterway": "stream", "wikidata": null, "wikipedia": null, "label": "waterway:stream" }, "geometry": { "type": "LineString", "coordinates": [ [ 22.7373358, 37.2572822 ], [ 22.7370365, 37.2572151 ], [ 22.7368637, 37.2571882 ], [ 22.7366937, 37.2571891 ], [ 22.7364668, 37.2571712 ], [ 22.7361787, 37.2571635 ], [ 22.7359856, 37.2571379 ], [ 22.7359212, 37.2570525 ], [ 22.7359089, 37.2569406 ], [ 22.7359518, 37.2568637 ], [ 22.7360392, 37.2567877 ], [ 22.7362415, 37.256599 ], [ 22.7363611, 37.2564718 ], [ 22.7364255, 37.2563864 ], [ 22.736418572064544, 37.256342587222989 ] ] } },
{ "type": "Feature", "properties": { "@type": "way", "@id": 689202352, "addr:postcode": null, "amenity": null, "boat": null, "denomination": null, "ford": null, "highway": null, "intermittent": "yes", "lanes": null, "leaf_type": null, "name": null, "natural": "valley", "religion": null, "sidewalk": null, "smoothness": null, "source": "Bing (2019-05-10)", "surface": null, "tracktype": null, "waterway": "drain", "wikidata": null, "wikipedia": null, "label": "waterway:drain" }, "geometry": { "type": "LineString", "coordinates": [ [ 22.748961, 37.2762114 ], [ 22.7488088, 37.2762283 ], [ 22.7486708, 37.2762086 ], [ 22.7485363, 37.2762086 ], [ 22.748423, 37.276186 ], [ 22.7483098, 37.2761325 ], [ 22.7481576, 37.2760931 ], [ 22.748016, 37.2760649 ], [ 22.7478532, 37.2759945 ], [ 22.7476798, 37.2759579 ], [ 22.7474922, 37.2759213 ], [ 22.747379, 37.2759213 ], [ 22.7472693, 37.2759579 ], [ 22.7471277, 37.276017 ], [ 22.7469967, 37.2760508 ], [ 22.7468658, 37.2760227 ], [ 22.7467915, 37.2759748 ], [ 22.7466924, 37.2759269 ], [ 22.7466004, 37.2758875 ], [ 22.7464942, 37.2758565 ], [ 22.7463561, 37.2758565 ], [ 22.7461898, 37.2758819 ], [ 22.7460589, 37.2758678 ], [ 22.7459279, 37.2758622 ], [ 22.7457828, 37.275834 ], [ 22.7456625, 37.275834 ], [ 22.7456058, 37.2757946 ], [ 22.7455457, 37.2757213 ], [ 22.7454501, 37.2756369 ], [ 22.7453333, 37.2755552 ], [ 22.7452307, 37.2755045 ], [ 22.7450962, 37.2755158 ], [ 22.7449829, 37.2755158 ], [ 22.7448414, 37.2755355 ], [ 22.7447246, 37.2755777 ], [ 22.7445901, 37.2755833 ], [ 22.7443919, 37.2756087 ], [ 22.7442539, 37.2756538 ], [ 22.7441406, 37.2756847 ], [ 22.743992, 37.275696 ], [ 22.743861, 37.275696 ], [ 22.7437584, 37.2756847 ], [ 22.7436664, 37.2757044 ], [ 22.7436239, 37.2757382 ], [ 22.7435213, 37.275772 ], [ 22.7433761, 37.275772 ], [ 22.7432558, 37.2757805 ], [ 22.7431496, 37.2758284 ], [ 22.7430151, 37.2758199 ], [ 22.742909, 37.2758227 ], [ 22.7427886, 37.2758424 ], [ 22.7426612, 37.2758593 ], [ 22.7425303, 37.2758791 ], [ 22.7424135, 37.275865 ], [ 22.7423144, 37.275865 ], [ 22.7422224, 37.2758762 ], [ 22.7420985, 37.2758537 ], [ 22.7419923, 37.2758537 ], [ 22.7418755, 37.2758171 ], [ 22.7417658, 37.2757861 ], [ 22.741649, 37.275772 ], [ 22.741511, 37.2757777 ], [ 22.7413871, 37.2757749 ], [ 22.7412668, 37.2757439 ], [ 22.7411712, 37.2757044 ], [ 22.7410474, 37.2756988 ], [ 22.7409199, 37.2757016 ], [ 22.7407324, 37.2757467 ], [ 22.740605, 37.2757495 ], [ 22.7405023, 37.2757777 ], [ 22.7404032, 37.2757861 ], [ 22.7403183, 37.2758199 ], [ 22.7402581, 37.275865 ], [ 22.7401767, 37.2759016 ], [ 22.7401272, 37.2759382 ], [ 22.7400422, 37.2759438 ], [ 22.7399219, 37.2759438 ], [ 22.7397945, 37.2759551 ], [ 22.7396352, 37.2759917 ], [ 22.7395007, 37.2759889 ], [ 22.7393698, 37.2760227 ], [ 22.7392247, 37.276048 ], [ 22.739115, 37.2760452 ], [ 22.7389875, 37.2760339 ], [ 22.7388672, 37.276048 ], [ 22.7387363, 37.2761072 ], [ 22.7386088, 37.2761325 ], [ 22.7384991, 37.276186 ], [ 22.738354, 37.2762564 ], [ 22.7382408, 37.2763184 ], [ 22.7381098, 37.2763663 ], [ 22.7379859, 37.2763775 ], [ 22.7378727, 37.2763719 ], [ 22.7377948, 37.2763944 ], [ 22.7376851, 37.2764902 ], [ 22.7375789, 37.2765437 ], [ 22.7375506, 37.2766225 ], [ 22.7374975, 37.2767042 ], [ 22.7373914, 37.2767352 ], [ 22.737264, 37.276738 ], [ 22.7371649, 37.2767577 ], [ 22.7370091, 37.2767549 ], [ 22.7368853, 37.2767127 ], [ 22.7367614, 37.2766873 ], [ 22.7366446, 37.2766676 ], [ 22.7365172, 37.2766282 ], [ 22.7363969, 37.2765859 ], [ 22.7362836, 37.2765859 ], [ 22.7361491, 37.2765775 ], [ 22.7359686, 37.2765437 ], [ 22.7358093, 37.2764986 ], [ 22.7357102, 37.2764395 ], [ 22.7355722, 37.2763916 ], [ 22.7354519, 37.2763325 ], [ 22.735328, 37.2762564 ], [ 22.7351617, 37.2761945 ], [ 22.7350378, 37.2761635 ], [ 22.7349529, 37.2761072 ], [ 22.7348325, 37.2761044 ], [ 22.7347299, 37.2761269 ], [ 22.7345919, 37.2761494 ], [ 22.7344821, 37.2761663 ], [ 22.7343264, 37.2761917 ], [ 22.7341884, 37.2762423 ], [ 22.7340504, 37.2762818 ], [ 22.7339371, 37.2763268 ], [ 22.7338097, 37.2763381 ], [ 22.7336575, 37.2763325 ], [ 22.7335655, 37.2763015 ], [ 22.7334841, 37.2762705 ], [ 22.7334027, 37.2762114 ], [ 22.7333036, 37.2761522 ], [ 22.7332116, 37.2760959 ], [ 22.7331302, 37.2760649 ], [ 22.7330275, 37.2760368 ], [ 22.7329355, 37.2760452 ], [ 22.7328754, 37.2761015 ], [ 22.7328754, 37.2761579 ], [ 22.7328258, 37.2762592 ], [ 22.7328116, 37.2763972 ], [ 22.7327621, 37.2764789 ], [ 22.7326736, 37.2765212 ], [ 22.7325674, 37.2765352 ], [ 22.7325037, 37.2765831 ], [ 22.7323692, 37.2766282 ], [ 22.7322277, 37.2767098 ], [ 22.7321427, 37.2767464 ], [ 22.7320543, 37.276738 ], [ 22.7319587, 37.2767549 ], [ 22.7318313, 37.276738 ], [ 22.7317322, 37.2766958 ], [ 22.7316756, 37.2766394 ], [ 22.7315835, 37.2766028 ], [ 22.731488, 37.2765944 ], [ 22.7314314, 37.276631 ], [ 22.7313783, 37.2766986 ], [ 22.7312898, 37.2767464 ], [ 22.7312438, 37.2768253 ], [ 22.7311765, 37.2768788 ], [ 22.7310881, 37.2769126 ], [ 22.7310067, 37.2769858 ], [ 22.7308863, 37.2770281 ], [ 22.7307058, 37.2770478 ], [ 22.7305784, 37.277014 ], [ 22.7304864, 37.2769717 ], [ 22.7304404, 37.2769013 ], [ 22.7304015, 37.2768732 ], [ 22.7303342, 37.2768704 ], [ 22.7302408, 37.2768531 ], [ 22.7302141, 37.2768521 ], [ 22.7301409, 37.2768539 ], [ 22.7300474, 37.2768918 ], [ 22.7299742, 37.2769598 ], [ 22.7299376, 37.2770407 ], [ 22.7299376, 37.2771054 ], [ 22.7299051, 37.2771927 ], [ 22.7299132, 37.2772768 ], [ 22.7299579, 37.2773512 ], [ 22.7299416, 37.2774127 ], [ 22.7298522, 37.2774709 ], [ 22.7297262, 37.2774935 ], [ 22.7296083, 37.2775259 ], [ 22.7294213, 37.2775841 ], [ 22.729283, 37.2776294 ], [ 22.7291692, 37.2776359 ], [ 22.7290594, 37.2776715 ], [ 22.7289619, 37.2777232 ], [ 22.7288399, 37.2777329 ], [ 22.7287098, 37.2777394 ], [ 22.7286163, 37.277775 ], [ 22.7285675, 37.2778494 ], [ 22.7285838, 37.2779206 ], [ 22.7286122, 37.2779755 ], [ 22.7286976, 37.27805 ], [ 22.7287464, 37.2781502 ], [ 22.7288358, 37.2782052 ], [ 22.7288724, 37.2782667 ], [ 22.7288724, 37.2783605 ], [ 22.7288196, 37.2784252 ], [ 22.7287139, 37.2784802 ], [ 22.7286448, 37.2785352 ], [ 22.7285065, 37.278574 ], [ 22.7283764, 37.2786193 ], [ 22.7283236, 37.2786743 ], [ 22.7282789, 37.2787681 ], [ 22.7282138, 37.2788619 ], [ 22.7281163, 37.278959 ], [ 22.728090618729411, 37.278983482390636 ] ] } },
{ "type": "Feature", "properties": { "@type": "way", "@id": 689202353, "addr:postcode": null, "amenity": null, "boat": null, "denomination": null, "ford": null, "highway": null, "intermittent": "yes", "lanes": null, "leaf_type": null, "name": null, "natural": null, "religion": null, "sidewalk": null, "smoothness": null, "source": "Bing (2019-05-10)", "surface": null, "tracktype": null, "waterway": "drain", "wikidata": null, "wikipedia": null, "label": "waterway:drain" }, "geometry": { "type": "LineString", "coordinates": [ [ 22.7291525, 37.2685428 ], [ 22.7290269, 37.2685484 ], [ 22.7288928, 37.2685355 ], [ 22.7287789, 37.2685193 ], [ 22.7286366, 37.2685193 ], [ 22.7285269, 37.2685322 ], [ 22.7284049, 37.2685322 ], [ 22.7283033, 37.2685613 ], [ 22.728222, 37.2686002 ], [ 22.7281244, 37.2686358 ], [ 22.7280227, 37.2686584 ], [ 22.7279414, 37.2687037 ], [ 22.7278927, 37.2687458 ], [ 22.727787, 37.2687619 ], [ 22.7276812, 37.2687975 ], [ 22.7275837, 37.2688719 ], [ 22.7275064, 37.2689302 ], [ 22.7273845, 37.2689852 ], [ 22.7272788, 37.2690046 ], [ 22.7271446, 37.2690208 ], [ 22.7270633, 37.2690563 ], [ 22.7269576, 37.2690952 ], [ 22.7268397, 37.2690919 ], [ 22.7267096, 37.2690919 ], [ 22.7265592, 37.2691016 ], [ 22.7263966, 37.2690919 ], [ 22.7262665, 37.2690822 ], [ 22.726173, 37.2690402 ], [ 22.7261038, 37.2690078 ], [ 22.72599, 37.2689787 ], [ 22.7258762, 37.2689852 ], [ 22.7257461, 37.2689625 ], [ 22.725677, 37.2689075 ], [ 22.7255713, 37.2688655 ], [ 22.725471713548441, 37.26883611383397 ] ] } },
{ "type": "Feature", "properties": { "@type": "node", "@id": 1637994254, "addr:postcode": "22006", "amenity": "monastery", "boat": null, "denomination": "greek_orthodox", "ford": null, "highway": null, "intermittent": null, "lanes": null, "leaf_type": null, "name": "Μονή Αγίου Νικολάου Καρυάς", "natural": null, "religion": "christian", "sidewalk": null, "smoothness": null, "source": "geodata.gov.gr", "surface": null, "tracktype": null, "waterway": null, "wikidata": "Q28106507", "wikipedia": "el:Μονή Καρυάς Αρκαδίας", "label": "amenity:monastery" }, "geometry": { "type": "Point", "coordinates": [ 22.7492381, 37.2681427 ] } },
{ "type": "Feature", "properties": { "@type": "way", "@id": 135416856, "addr:postcode": null, "amenity": null, "boat": null, "denomination": null, "ford": null, "highway": null, "intermittent": null, "lanes": null, "leaf_type": "broadleaved", "name": null, "natural": "wood", "religion": null, "sidewalk": null, "smoothness": null, "source": "http://geodata.gov.gr/", "surface": null, "tracktype": null, "waterway": null, "wikidata": null, "wikipedia": null, "label": "natural:wood" }, "geometry": { "type": "Polygon", "coordinates": [ [ [ 22.737893, 37.257401 ], [ 22.738689, 37.258219 ], [ 22.739996, 37.2588 ], [ 22.740778, 37.260508 ], [ 22.74178, 37.261166 ], [ 22.741829, 37.261183 ], [ 22.742102, 37.261067 ], [ 22.742627, 37.260994 ], [ 22.743051, 37.261077 ], [ 22.743246, 37.261184 ], [ 22.743799, 37.261425 ], [ 22.744319, 37.261667 ], [ 22.745137, 37.261701 ], [ 22.745926, 37.261553 ], [ 22.746193, 37.261241 ], [ 22.746561, 37.260774 ], [ 22.747155, 37.260545 ], [ 22.74781, 37.260499 ], [ 22.748468, 37.260349 ], [ 22.74929, 37.260175 ], [ 22.749715, 37.260179 ], [ 22.749999, 37.260279 ], [ 22.750079, 37.260253 ], [ 22.75185, 37.259682 ], [ 22.750482, 37.258978 ], [ 22.750007, 37.258665 ], [ 22.749247, 37.258042 ], [ 22.750036, 37.256897 ], [ 22.750808, 37.256751 ], [ 22.7506448113094, 37.256342587222989 ], [ 22.736872886611511, 37.256342587222989 ], [ 22.737893, 37.257401 ] ] ] } }
]
}
