{
"type": "FeatureCollection",
"name": "patch_83550_polygon",
"crs": { "type": "name", "properties": { "name": "urn:ogc:def:crs:OGC:1.3:CRS84" } },
"features": [
{ "type": "Feature", "properties": { "osm_id": 526528725, "name": null, "label": "building:detached", "building": "detached", "amenity": null, "natural": null, "landuse": null, "water": null }, "geometry": { "type": "Polygon", "coordinates": [ [ [ 24.8113205, 37.861066899962545 ], [ 24.8113547, 37.861019999962522 ], [ 24.8113103, 37.860999799962528 ], [ 24.8112761, 37.861046699962529 ], [ 24.8113205, 37.861066899962545 ] ] ] } },
{ "type": "Feature", "properties": { "osm_id": 660359869, "name": null, "label": "amenity:place_of_worship;building:yes", "building": "yes", "amenity": "place_of_worship", "natural": null, "landuse": null, "water": null }, "geometry": { "type": "Polygon", "coordinates": [ [ [ 24.8128532, 37.854894999961672 ], [ 24.8129386, 37.854879299961681 ], [ 24.8129445, 37.854862099961672 ], [ 24.8129425, 37.854843299961672 ], [ 24.8129207, 37.854832299961657 ], [ 24.8128393, 37.854849499961666 ], [ 24.8128532, 37.854894999961672 ] ] ] } },
{ "type": "Feature", "properties": { "osm_id": 1489072710, "name": null, "label": "natural:wood", "building": null, "amenity": null, "natural": "wood", "landuse": null, "water": null }, "geometry": { "type": "Polygon", "coordinates": [ [ [ 24.8104639, 37.854933299961672 ], [ 24.810655, 37.855324599961733 ], [ 24.8109665, 37.855687799961792 ], [ 24.8111364, 37.856000799961826 ], [ 24.8110727, 37.856358499961878 ], [ 24.8110656, 37.856587599961898 ], [ 24.8112001, 37.85678879996194 ], [ 24.811377, 37.856554099961905 ], [ 24.8115115, 37.856330499961878 ], [ 24.8117947, 37.856174099961841 ], [ 24.8119433, 37.855989599961838 ], [ 24.8123326, 37.855922599961822 ], [ 24.8127715, 37.855754899961795 ], [ 24.8129201, 37.855788399961796 ], [ 24.8128564, 37.855933699961817 ], [ 24.8125804, 37.856095799961842 ], [ 24.8121698, 37.856576499961911 ], [ 24.8120424, 37.856894999961945 ], [ 24.8118584, 37.857213599961995 ], [ 24.8118442, 37.858046299962112 ], [ 24.8118442, 37.858705699962194 ], [ 24.8119504, 37.858906899962236 ], [ 24.8120707, 37.858588399962187 ], [ 24.812184, 37.858102199962111 ], [ 24.8121061, 37.857649499962058 ], [ 24.8122406, 37.857241499962001 ], [ 24.8123609, 37.856922999961952 ], [ 24.8125308, 37.85680559996193 ], [ 24.8127078, 37.856799999961943 ], [ 24.8127786, 37.856950899961959 ], [ 24.8129414, 37.857017999961961 ], [ 24.8130475, 37.856906199961955 ], [ 24.812998, 37.856593199961914 ], [ 24.8131254, 37.856302599961872 ], [ 24.813267, 37.856034299961834 ], [ 24.8135926, 37.855749299961801 ], [ 24.8139677, 37.855631999961773 ], [ 24.8142792, 37.855570499961757 ], [ 24.8146543, 37.855391599961727 ], [ 24.8151498, 37.855318999961746 ], [ 24.8156099, 37.855352499961747 ], [ 24.815801, 37.855363699961742 ], [ 24.8160134, 37.855251899961729 ], [ 24.8161479, 37.855162499961708 ], [ 24.8163956, 37.854882999961674 ], [ 24.8169194, 37.854653899961647 ], [ 24.8169548, 37.854508599961633 ], [ 24.8167991, 37.854497399961602 ], [ 24.8165301, 37.854497399961602 ], [ 24.8162824, 37.854424799961606 ], [ 24.8163036, 37.854279399961584 ], [ 24.8164593, 37.854122999961568 ], [ 24.8164169, 37.853994399961536 ], [ 24.8161974, 37.85406149996156 ], [ 24.8158789, 37.854284999961585 ], [ 24.8156878, 37.854363299961605 ], [ 24.8153763, 37.854379999961608 ], [ 24.8151711, 37.854620399961647 ], [ 24.8148879, 37.854692999961649 ], [ 24.8145482, 37.854620399961647 ], [ 24.8143995, 37.854441499961609 ], [ 24.8143995, 37.85420119996158 ], [ 24.8145411, 37.854022399961558 ], [ 24.8145057, 37.85391059996153 ], [ 24.8143641, 37.853899399961549 ], [ 24.8141872, 37.854117399961559 ], [ 24.8140244, 37.854447099961625 ], [ 24.8138757, 37.854687399961648 ], [ 24.8137129, 37.854715399961655 ], [ 24.813536, 37.854916599961676 ], [ 24.8131891, 37.855128999961714 ], [ 24.8129201, 37.855212799961727 ], [ 24.8127219, 37.855385999961754 ], [ 24.8124742, 37.855548099961773 ], [ 24.8121274, 37.855598399961785 ], [ 24.8118301, 37.855531399961762 ], [ 24.8116106, 37.85536929996173 ], [ 24.8114195, 37.855112199961695 ], [ 24.8113275, 37.854877499961667 ], [ 24.8113204, 37.854715399961655 ], [ 24.8114832, 37.854525399961624 ], [ 24.8115398, 37.854290599961587 ], [ 24.8117734, 37.854178799961581 ], [ 24.8119716, 37.854094999961561 ], [ 24.8118867, 37.853899399961549 ], [ 24.8118938, 37.853586399961486 ], [ 24.8119645, 37.853251099961454 ], [ 24.8118867, 37.85316719996144 ], [ 24.811731, 37.853239899961437 ], [ 24.8114761, 37.853659099961504 ], [ 24.8112001, 37.854072699961556 ], [ 24.8108603, 37.854324199961596 ], [ 24.8106267, 37.854379999961608 ], [ 24.8104498, 37.854575699961629 ], [ 24.8104639, 37.854933299961672 ] ] ] } },
{ "type": "Feature", "properties": { "osm_id": 528411489, "name": null, "label": "amenity:place_of_worship;building:yes", "building": "yes", "amenity": "place_of_worship", "natural": null, "landuse": null, "water": null }, "geometry": { "type": "Polygon", "coordinates": [ [ [ 24.817989, 37.85999059996238 ], [ 24.8180576, 37.859970599962381 ], [ 24.8180445, 37.859933999962387 ], [ 24.8179733, 37.859948099962367 ], [ 24.817989, 37.85999059996238 ] ] ] } },
{ "type": "Feature", "properties": { "osm_id": 528411488, "name": null, "label": "amenity:place_of_worship;building:yes", "building": "yes", "amenity": "place_of_worship", "natural": null, "landuse": null, "water": null }, "geometry": { "type": "Polygon", "coordinates": [ [ [ 24.817809, 37.859111699962263 ], [ 24.8178269, 37.859056199962247 ], [ 24.8177816, 37.859047099962261 ], [ 24.8177637, 37.859102599962263 ], [ 24.817809, 37.859111699962263 ] ] ] } },
{ "type": "Feature", "properties": { "osm_id": 526528729, "name": null, "label": "building:detached", "building": "detached", "amenity": null, "natural": null, "landuse": null, "water": null }, "geometry": { "type": "Polygon", "coordinates": [ [ [ 24.812818, 37.861520599962596 ], [ 24.8129308, 37.861467699962596 ], [ 24.8128686, 37.861384999962581 ], [ 24.8127558, 37.861437899962581 ], [ 24.812818, 37.861520599962596 ] ] ] } },
{ "type": "Feature", "properties": { "osm_id": 526528727, "name": null, "label": "building:detached", "building": "detached", "amenity": null, "natural": null, "landuse": null, "water": null }, "geometry": { "type": "Polygon", "coordinates": [ [ [ 24.8115702, 37.861416299962592 ], [ 24.8116348, 37.861365299962586 ], [ 24.8116564, 37.861382299962578 ], [ 24.8116962, 37.861350899962581 ], [ 24.8116675, 37.861328199962571 ], [ 24.8116901, 37.861310299962568 ], [ 24.8116393, 37.861270199962568 ], [ 24.8116028, 37.861298999962564 ], [ 24.8115664, 37.861270199962568 ], [ 24.8114758, 37.861341799962567 ], [ 24.8115702, 37.861416299962592 ] ] ] } },
{ "type": "Feature", "properties": { "osm_id": 526528726, "name": null, "label": "building:detached", "building": "detached", "amenity": null, "natural": null, "landuse": null, "water": null }, "geometry": { "type": "Polygon", "coordinates": [ [ [ 24.8114068, 37.861190599962548 ], [ 24.8114973, 37.861105299962539 ], [ 24.8114417, 37.861068599962543 ], [ 24.8113513, 37.861153799962551 ], [ 24.8114068, 37.861190599962548 ] ] ] } },
{ "type": "Feature", "properties": { "osm_id": 526528728, "name": null, "label": "building:detached", "building": "detached", "amenity": null, "natural": null, "landuse": null, "water": null }, "geometry": { "type": "Polygon", "coordinates": [ [ [ 24.8127201, 37.861266699962556 ], [ 24.8128573, 37.861194699962553 ], [ 24.8127469, 37.861063799962523 ], [ 24.812677, 37.861100499962539 ], [ 24.8127298, 37.861163199962547 ], [ 24.8126626, 37.861198499962548 ], [ 24.8127201, 37.861266699962556 ] ] ] } },
{ "type": "Feature", "properties": { "osm_id": 902643838, "name": null, "label": "natural:wood", "building": null, "amenity": null, "natural": "wood", "landuse": null, "water": null }, "geometry": { "type": "Polygon", "coordinates": [ [ [ 24.8131896, 37.849171299960879 ], [ 24.813416, 37.849068799960861 ], [ 24.8137475, 37.849069699960864 ], [ 24.8140061, 37.848992599960859 ], [ 24.8143601, 37.848992599960859 ], [ 24.8146809, 37.849061199960872 ], [ 24.8149921, 37.849044299960873 ], [ 24.8151004, 37.848907899960842 ], [ 24.8153043, 37.848780799960828 ], [ 24.8154008, 37.848568999960797 ], [ 24.8155071, 37.848383499960761 ], [ 24.8155071, 37.84818009996075 ], [ 24.8155178, 37.847917499960708 ], [ 24.8154223, 37.847696399960675 ], [ 24.8151648, 37.847891199960692 ], [ 24.814917, 37.848163199960744 ], [ 24.8146702, 37.848213999960734 ], [ 24.814402, 37.848374999960754 ], [ 24.8142196, 37.848654599960817 ], [ 24.8138763, 37.848849399960841 ], [ 24.8135769, 37.848848599960824 ], [ 24.8134911, 37.84870449996081 ], [ 24.813534, 37.848399599960779 ], [ 24.8137583, 37.848120799960732 ], [ 24.8137593, 37.847899699960706 ], [ 24.8137583, 37.847654899960673 ], [ 24.8134686, 37.847790399960687 ], [ 24.8133827, 37.84804459996073 ], [ 24.8131263, 37.848407999960777 ], [ 24.8131263, 37.848636799960801 ], [ 24.8129547, 37.848882499960837 ], [ 24.8128678, 37.849205199960885 ], [ 24.8131896, 37.849171299960879 ] ] ] } },
{ "type": "Feature", "properties": { "osm_id": 902644473, "name": null, "label": "natural:wood", "building": null, "amenity": null, "natural": "wood", "landuse": null, "water": null }, "geometry": { "type": "Polygon", "coordinates": [ [ [ 24.8145522, 37.846595899960519 ], [ 24.8148848, 37.846595899960519 ], [ 24.8151863, 37.846755999960536 ], [ 24.8153579, 37.846925399960561 ], [ 24.815389, 37.847197399960592 ], [ 24.8156261, 37.847425299960648 ], [ 24.8157871, 37.847535399960655 ], [ 24.8162044, 37.847536299960666 ], [ 24.8163975, 37.847409199960637 ], [ 24.816698, 37.847299099960622 ], [ 24.8168385, 37.847171099960612 ], [ 24.8170531, 37.84720499996061 ], [ 24.8173213, 37.847289699960619 ], [ 24.8175466, 37.847289699960619 ], [ 24.8175455, 37.847163499960594 ], [ 24.8172891, 37.847077899960595 ], [ 24.8171496, 37.846942399960568 ], [ 24.8169136, 37.846705199960546 ], [ 24.8166347, 37.846654299960534 ], [ 24.8164201, 37.846806799960547 ], [ 24.8161197, 37.846840699960552 ], [ 24.8159051, 37.84687459996055 ], [ 24.8155618, 37.846747499960536 ], [ 24.815389, 37.846536599960523 ], [ 24.8151219, 37.846484899960515 ], [ 24.8143269, 37.846528099960516 ], [ 24.8145522, 37.846595899960519 ] ] ] } },
{ "type": "Feature", "properties": { "osm_id": 1039900772, "name": null, "label": "landuse:residential", "building": null, "amenity": null, "natural": null, "landuse": "residential", "water": null }, "geometry": { "type": "Polygon", "coordinates": [ [ [ 24.80713035858281, 37.843996008675795 ], [ 24.805789336094087, 37.843996008675795 ], [ 24.805789336094087, 37.844675030316452 ], [ 24.80713035858281, 37.843996008675795 ] ] ] } },
{ "type": "Feature", "properties": { "osm_id": -12130426, "name": null, "label": "natural:wood", "building": null, "amenity": null, "natural": "wood", "landuse": null, "water": null }, "geometry": { "type": "MultiPolygon", "coordinates": [ [ [ [ 24.8328518, 37.84403359996017 ], [ 24.8328518, 37.844244399960189 ], [ 24.8329382, 37.844355899960199 ], [ 24.8330324, 37.84452329996023 ], [ 24.8330324, 37.84472779996026 ], [ 24.8329539, 37.844826999960269 ], [ 24.8328597, 37.844740199960263 ], [ 24.8326791, 37.844659699960253 ], [ 24.8324986, 37.84452329996023 ], [ 24.8322867, 37.844424099960221 ], [ 24.8320826, 37.844293999960207 ], [ 24.8319335, 37.844250599960191 ], [ 24.8316352, 37.844163799960185 ], [ 24.8317765, 37.844337299960195 ], [ 24.8319649, 37.844442699960226 ], [ 24.8321532, 37.844622499960252 ], [ 24.8323495, 37.844733999960269 ], [ 24.8325143, 37.844820799960267 ], [ 24.8327341, 37.844938599960287 ], [ 24.8329382, 37.845074899960309 ], [ 24.8331187, 37.845093499960321 ], [ 24.8331187, 37.845217499960334 ], [ 24.8331972, 37.845397299960347 ], [ 24.8333699, 37.845533599960369 ], [ 24.8335739, 37.845651399960381 ], [ 24.8336053, 37.845837299960422 ], [ 24.8337623, 37.845998499960437 ], [ 24.8339821, 37.846147199960456 ], [ 24.8339821, 37.846302199960476 ], [ 24.8340763, 37.846481899960501 ], [ 24.8339664, 37.846643099960524 ], [ 24.8338958, 37.846773299960553 ], [ 24.8338958, 37.846915799960563 ], [ 24.8338487, 37.847045999960578 ], [ 24.8337356, 37.847102099960594 ], [ 24.8337001, 37.847024999960581 ], [ 24.8335935, 37.846870699960562 ], [ 24.8334337, 37.846828699960568 ], [ 24.8332295, 37.846723499960547 ], [ 24.8330253, 37.846583299960514 ], [ 24.8329366, 37.846520199960509 ], [ 24.8327856, 37.846429099960503 ], [ 24.8326791, 37.846302899960477 ], [ 24.8325459, 37.846183699960456 ], [ 24.8325548, 37.846036499960441 ], [ 24.8325104, 37.845875199960432 ], [ 24.8323595, 37.845798099960405 ], [ 24.8321464, 37.845826199960406 ], [ 24.8319777, 37.845812099960426 ], [ 24.8318268, 37.845882299960422 ], [ 24.8317469, 37.845994399960439 ], [ 24.8316848, 37.846113599960461 ], [ 24.8317469, 37.846274799960476 ], [ 24.8317469, 37.846464099960492 ], [ 24.8316226, 37.846569299960521 ], [ 24.8316226, 37.846695499960539 ], [ 24.8318091, 37.846856699960554 ], [ 24.8318534, 37.847038999960574 ], [ 24.832031, 37.8471651999606 ], [ 24.8322174, 37.847256299960613 ], [ 24.832102, 37.84734749996062 ], [ 24.8319511, 37.847417599960636 ], [ 24.8316581, 37.847431599960643 ], [ 24.8314628, 37.847361499960627 ], [ 24.8311521, 37.847361499960627 ], [ 24.8309834, 37.84735449996063 ], [ 24.8307703, 37.847249299960616 ], [ 24.8306549, 37.847263299960623 ], [ 24.8305217, 37.847326399960629 ], [ 24.8302732, 37.847340399960622 ], [ 24.8300512, 37.847403499960627 ], [ 24.8298115, 37.84734749996062 ], [ 24.8296695, 37.847235299960623 ], [ 24.8295984, 37.847109099960598 ], [ 24.8294653, 37.846968899960565 ], [ 24.8295896, 37.846681499960539 ], [ 24.8298115, 37.846590299960525 ], [ 24.8298115, 37.846436099960499 ], [ 24.8298026, 37.846281899960488 ], [ 24.8298381, 37.846078499960441 ], [ 24.829918, 37.846015499960444 ], [ 24.8299624, 37.846148699960459 ], [ 24.83014, 37.846260799960483 ], [ 24.8301578, 37.846183699960456 ], [ 24.8301578, 37.846043499960452 ], [ 24.8302643, 37.845833199960424 ], [ 24.8302021, 37.84566489996039 ], [ 24.8303708, 37.845643899960379 ], [ 24.8306194, 37.845601799960392 ], [ 24.8307171, 37.845454599960355 ], [ 24.830868, 37.845335399960341 ], [ 24.8310633, 37.845314399960351 ], [ 24.8312142, 37.845216199960333 ], [ 24.8311343, 37.845118099960317 ], [ 24.8309656, 37.84509709996032 ], [ 24.8307437, 37.845132099960317 ], [ 24.8305573, 37.845061999960315 ], [ 24.8304596, 37.844879699960281 ], [ 24.8305217, 37.844725499960255 ], [ 24.8305217, 37.844606299960247 ], [ 24.8305928, 37.844494099960222 ], [ 24.8306017, 37.844339899960211 ], [ 24.8304685, 37.844276799960198 ], [ 24.8303531, 37.844360899960215 ], [ 24.8303353, 37.844501099960233 ], [ 24.8302732, 37.844655399960253 ], [ 24.83014, 37.844837699960273 ], [ 24.8299891, 37.844774599960274 ], [ 24.829918, 37.844655399960253 ], [ 24.829847, 37.844571299960236 ], [ 24.829847, 37.844430999960224 ], [ 24.829776, 37.844297799960209 ], [ 24.8296073, 37.844276799960198 ], [ 24.8295807, 37.844388999960209 ], [ 24.8295629, 37.844571299960236 ], [ 24.829412, 37.844592299960262 ], [ 24.8291723, 37.844718499960258 ], [ 24.8290569, 37.844858699960284 ], [ 24.8290658, 37.845047999960308 ], [ 24.8290303, 37.845188199960326 ], [ 24.8292167, 37.845328399960351 ], [ 24.8292167, 37.845531699960375 ], [ 24.8291989, 37.845784099960412 ], [ 24.8292078, 37.846015499960444 ], [ 24.8291634, 37.846190699960474 ], [ 24.8291634, 37.846429099960503 ], [ 24.8291545, 37.846611299960522 ], [ 24.8290036, 37.846758599960545 ], [ 24.8288083, 37.846884799960563 ], [ 24.8287994, 37.847045999960578 ], [ 24.8289237, 37.8471651999606 ], [ 24.8291013, 37.847235299960623 ], [ 24.8292788, 37.847389499960627 ], [ 24.8294475, 37.847452599960633 ], [ 24.8295629, 37.847634899960667 ], [ 24.829705, 37.847739999960673 ], [ 24.8298648, 37.847796099960682 ], [ 24.8301222, 37.847831199960702 ], [ 24.8303087, 37.847775099960685 ], [ 24.8305395, 37.847824199960691 ], [ 24.8307615, 37.847810099960689 ], [ 24.8309124, 37.847669899960678 ], [ 24.8311698, 37.847683999960672 ], [ 24.8313918, 37.847754099960689 ], [ 24.8315693, 37.847754099960689 ], [ 24.8317647, 37.847754099960689 ], [ 24.8319866, 37.847634899960667 ], [ 24.8321375, 37.847564799960658 ], [ 24.8323151, 37.847466599960633 ], [ 24.8325548, 37.847403499960627 ], [ 24.8328034, 37.847438599960633 ], [ 24.8328744, 37.847291399960618 ], [ 24.8328744, 37.847130099960587 ], [ 24.8328123, 37.846968899960565 ], [ 24.832759, 37.846779599960541 ], [ 24.83283, 37.846751599960541 ], [ 24.8330253, 37.846821699960557 ], [ 24.8332206, 37.847010899960573 ], [ 24.8333893, 37.847052999960582 ], [ 24.833629, 37.84715819996061 ], [ 24.8337267, 37.847242299960612 ], [ 24.8339036, 37.847380699960624 ], [ 24.8340763, 37.84745499996064 ], [ 24.8341548, 37.847597599960665 ], [ 24.834190057344102, 37.847631634674563 ], [ 24.834190057344102, 37.845339567694914 ], [ 24.8340998, 37.845366299960347 ], [ 24.833935, 37.845291899960323 ], [ 24.8339272, 37.845118299960319 ], [ 24.8337937, 37.845000599960301 ], [ 24.8335739, 37.84495099996029 ], [ 24.8334798, 37.844839399960271 ], [ 24.8335582, 37.844752599960266 ], [ 24.8337545, 37.844740199960263 ], [ 24.833833, 37.844610099960235 ], [ 24.8339664, 37.844541899960234 ], [ 24.834092, 37.844405499960224 ], [ 24.8341312, 37.844225799960192 ], [ 24.8340763, 37.844070799960164 ], [ 24.8339036, 37.844008799960164 ], [ 24.8337623, 37.844002599960156 ], [ 24.83375155779715, 37.843996008675795 ], [ 24.832860728650644, 37.843996008675795 ], [ 24.8328518, 37.84403359996017 ] ], [ [ 24.8296023, 37.845081099960311 ], [ 24.8297514, 37.845136899960316 ], [ 24.829979, 37.84521129996034 ], [ 24.8300732, 37.845353899960344 ], [ 24.8300497, 37.845409699960356 ], [ 24.8299476, 37.845384899960358 ], [ 24.8298613, 37.845329099960352 ], [ 24.8297985, 37.845378699960364 ], [ 24.8298534, 37.845452999960358 ], [ 24.8298613, 37.845564599960383 ], [ 24.8297749, 37.84562659996039 ], [ 24.8296808, 37.845620399960389 ], [ 24.8296337, 37.845496399960354 ], [ 24.8296337, 37.845372499960355 ], [ 24.8295316, 37.845267099960331 ], [ 24.8295316, 37.845161699960322 ], [ 24.8296023, 37.845081099960311 ] ] ], [ [ [ 24.8341515, 37.852630499961364 ], [ 24.834190057344102, 37.852569639854536 ], [ 24.834190057344102, 37.848545315747863 ], [ 24.8341286, 37.8485868999608 ], [ 24.8339451, 37.848574899960809 ], [ 24.8337617, 37.848436099960779 ], [ 24.8336088, 37.848436099960779 ], [ 24.8334942, 37.848526599960785 ], [ 24.8335401, 37.84863519996081 ], [ 24.8336929, 37.848707599960811 ], [ 24.8337311, 37.848798199960825 ], [ 24.8338534, 37.848918899960836 ], [ 24.8338534, 37.849033499960861 ], [ 24.8339069, 37.849105999960877 ], [ 24.8337999, 37.849208599960889 ], [ 24.8336394, 37.849250799960892 ], [ 24.8334101, 37.849323199960907 ], [ 24.8333413, 37.849492199960928 ], [ 24.8334789, 37.849540499960931 ], [ 24.8336165, 37.849570699960928 ], [ 24.8337235, 37.849606899960939 ], [ 24.8337159, 37.849715499960951 ], [ 24.8338076, 37.84979999996095 ], [ 24.8339069, 37.849751699960947 ], [ 24.8339375, 37.849649099960949 ], [ 24.8341515, 37.849606899960939 ], [ 24.8340904, 37.849739699960963 ], [ 24.8339451, 37.849860399960981 ], [ 24.8339375, 37.849968999961 ], [ 24.8339834, 37.850077599961011 ], [ 24.8338534, 37.850186299961024 ], [ 24.8337388, 37.850186299961024 ], [ 24.833563, 37.850240599961026 ], [ 24.833456, 37.850258699961032 ], [ 24.8333719, 37.850421599961045 ], [ 24.8332649, 37.850512199961067 ], [ 24.8332649, 37.850614799961072 ], [ 24.8334101, 37.850656999961075 ], [ 24.8335095, 37.850735499961104 ], [ 24.8336471, 37.850801899961105 ], [ 24.8337311, 37.850916499961123 ], [ 24.8337159, 37.851169999961158 ], [ 24.8337159, 37.851393299961202 ], [ 24.8337159, 37.85152609996122 ], [ 24.8336012, 37.851646799961223 ], [ 24.8334789, 37.851646799961223 ], [ 24.8331808, 37.851694999961232 ], [ 24.8329821, 37.85163469996121 ], [ 24.8328063, 37.851610599961226 ], [ 24.8326458, 37.85152609996122 ], [ 24.8324471, 37.85152609996122 ], [ 24.8323248, 37.851586399961228 ], [ 24.8324089, 37.851713199961239 ], [ 24.8325159, 37.851785599961246 ], [ 24.8327146, 37.851839899961263 ], [ 24.8329057, 37.851930399961269 ], [ 24.8330738, 37.851978699961265 ], [ 24.8332038, 37.852111499961289 ], [ 24.8333566, 37.852159699961291 ], [ 24.8334942, 37.852280399961309 ], [ 24.8336088, 37.852443399961324 ], [ 24.8336929, 37.852648599961363 ], [ 24.8337694, 37.852769299961373 ], [ 24.8339146, 37.852871899961393 ], [ 24.8340904, 37.852871899961393 ], [ 24.834190057344102, 37.852896918048309 ], [ 24.834190057344102, 37.852655581538656 ], [ 24.8341515, 37.852630499961364 ] ] ] ] } },
{ "type": "Feature", "properties": { "osm_id": 660360328, "name": null, "label": "water:reservoir;natural:water", "building": null, "amenity": null, "natural": "water", "landuse": null, "water": "reservoir" }, "geometry": { "type": "Polygon", "coordinates": [ [ [ 24.8331428, 37.847870999960698 ], [ 24.8332252, 37.847846099960691 ], [ 24.8332111, 37.847812799960685 ], [ 24.8331288, 37.847834999960703 ], [ 24.8331428, 37.847870999960698 ] ] ] } },
{ "type": "Feature", "properties": { "osm_id": 515540239, "name": null, "label": "amenity:place_of_worship;building:yes", "building": "yes", "amenity": "place_of_worship", "natural": null, "landuse": null, "water": null }, "geometry": { "type": "Polygon", "coordinates": [ [ [ 24.8339903, 37.847743099960688 ], [ 24.8340593, 37.847733299960687 ], [ 24.8340682, 37.847719299960687 ], [ 24.8340611, 37.847702599960677 ], [ 24.8340434, 37.847685799960658 ], [ 24.8339761, 37.847696999960675 ], [ 24.8339903, 37.847743099960688 ] ] ] } },
{ "type": "Feature", "properties": { "osm_id": 660359871, "name": null, "label": "building:yes", "building": "yes", "amenity": null, "natural": null, "landuse": null, "water": null }, "geometry": { "type": "Polygon", "coordinates": [ [ [ 24.8278339, 37.852395599961319 ], [ 24.8279361, 37.852350299961323 ], [ 24.827885, 37.85228799996132 ], [ 24.8277905, 37.852323399961328 ], [ 24.8278339, 37.852395599961319 ] ] ] } },
{ "type": "Feature", "properties": { "osm_id": 660359870, "name": null, "label": "building:yes", "building": "yes", "amenity": null, "natural": null, "landuse": null, "water": null }, "geometry": { "type": "Polygon", "coordinates": [ [ [ 24.8263649, 37.850814199961114 ], [ 24.8263868, 37.850807999961106 ], [ 24.8263987, 37.8507922999611 ], [ 24.8263967, 37.8507734999611 ], [ 24.8263848, 37.850757799961094 ], [ 24.8264046, 37.850720199961096 ], [ 24.8263232, 37.850693599961083 ], [ 24.8263054, 37.850734299961097 ], [ 24.8262875, 37.850727999961101 ], [ 24.8262597, 37.850779799961103 ], [ 24.8263649, 37.850814199961114 ] ] ] } },
{ "type": "Feature", "properties": { "osm_id": 902643837, "name": null, "label": "natural:wood", "building": null, "amenity": null, "natural": "wood", "landuse": null, "water": null }, "geometry": { "type": "Polygon", "coordinates": [ [ [ 24.8168052, 37.852602299961355 ], [ 24.8169876, 37.852458299961341 ], [ 24.8172247, 37.852355799961323 ], [ 24.817332, 37.852152499961299 ], [ 24.8171915, 37.851983899961269 ], [ 24.8170638, 37.851779799961236 ], [ 24.8170638, 37.851542599961221 ], [ 24.8172355, 37.851271499961165 ], [ 24.8175359, 37.851271499961165 ], [ 24.8178256, 37.851212199961161 ], [ 24.8179543, 37.851085099961146 ], [ 24.8179114, 37.850873299961115 ], [ 24.8180723, 37.850712299961089 ], [ 24.8183405, 37.850712299961089 ], [ 24.8187686, 37.850492899961061 ], [ 24.8192954, 37.850492099961052 ], [ 24.8195947, 37.850382799961046 ], [ 24.8199273, 37.85018799996103 ], [ 24.8200357, 37.849983799960988 ], [ 24.8201859, 37.849899099960986 ], [ 24.820261, 37.849695699960947 ], [ 24.8199713, 37.849534799960935 ], [ 24.8195314, 37.849509399960922 ], [ 24.8193276, 37.849729599960973 ], [ 24.8191559, 37.850076999961004 ], [ 24.8187804, 37.850136299961015 ], [ 24.8184371, 37.850271799961043 ], [ 24.8180283, 37.850272699961025 ], [ 24.8177923, 37.850433599961072 ], [ 24.8174168, 37.850586099961077 ], [ 24.8169984, 37.850780999961103 ], [ 24.8168385, 37.851110499961138 ], [ 24.8166872, 37.85141629996118 ], [ 24.8166872, 37.851738299961234 ], [ 24.8167956, 37.851940699961261 ], [ 24.8167731, 37.852271999961303 ], [ 24.8165799, 37.852661599961365 ], [ 24.8168052, 37.852602299961355 ] ] ] } },
{ "type": "Feature", "properties": { "osm_id": 1254127359, "name": "Αγία Αικατερίνη", "label": "amenity:place_of_worship;building:yes", "building": "yes", "amenity": "place_of_worship", "natural": null, "landuse": null, "water": null }, "geometry": { "type": "Polygon", "coordinates": [ [ [ 24.8332926, 37.853317499961456 ], [ 24.8333257, 37.853292699961443 ], [ 24.8332782, 37.853247899961445 ], [ 24.8332426, 37.853276699961448 ], [ 24.8332926, 37.853317499961456 ] ] ] } },
{ "type": "Feature", "properties": { "osm_id": 526528740, "name": null, "label": "building:detached", "building": "detached", "amenity": null, "natural": null, "landuse": null, "water": null }, "geometry": { "type": "Polygon", "coordinates": [ [ [ 24.8139652, 37.863810699962926 ], [ 24.8139589, 37.863868799962916 ], [ 24.8140406, 37.863874299962923 ], [ 24.81406, 37.863695499962908 ], [ 24.813895, 37.863684299962905 ], [ 24.8138819, 37.86380509996291 ], [ 24.8139652, 37.863810699962926 ] ] ] } },
{ "type": "Feature", "properties": { "osm_id": 526528741, "name": null, "label": "building:detached", "building": "detached", "amenity": null, "natural": null, "landuse": null, "water": null }, "geometry": { "type": "Polygon", "coordinates": [ [ [ 24.8139856, 37.864214999962961 ], [ 24.8140896, 37.864213999962971 ], [ 24.8140862, 37.863988199962932 ], [ 24.8139822, 37.863989199962951 ], [ 24.8139856, 37.864214999962961 ] ] ] } },
{ "type": "Feature", "properties": { "osm_id": 526528745, "name": null, "label": "building:detached", "building": "detached", "amenity": null, "natural": null, "landuse": null, "water": null }, "geometry": { "type": "Polygon", "coordinates": [ [ [ 24.8136017, 37.864717399963048 ], [ 24.81368, 37.864712099963029 ], [ 24.8136656, 37.86457939996302 ], [ 24.8135874, 37.864584599963031 ], [ 24.8136017, 37.864717399963048 ] ] ] } },
{ "type": "Feature", "properties": { "osm_id": 526528748, "name": null, "label": "building:detached", "building": "detached", "amenity": null, "natural": null, "landuse": null, "water": null }, "geometry": { "type": "Polygon", "coordinates": [ [ [ 24.8136784, 37.865079899963092 ], [ 24.8138117, 37.86505359996309 ], [ 24.8137744, 37.86493569996307 ], [ 24.813641, 37.864961999963072 ], [ 24.8136784, 37.865079899963092 ] ] ] } },
{ "type": "Feature", "properties": { "osm_id": 526528747, "name": null, "label": "building:detached", "building": "detached", "amenity": null, "natural": null, "landuse": null, "water": null }, "geometry": { "type": "Polygon", "coordinates": [ [ [ 24.8137152, 37.864921599963075 ], [ 24.8137908, 37.864904999963066 ], [ 24.813772, 37.864851399963065 ], [ 24.8136964, 37.864867899963059 ], [ 24.8137152, 37.864921599963075 ] ] ] } },
{ "type": "Feature", "properties": { "osm_id": 526528750, "name": null, "label": "building:farm", "building": "farm", "amenity": null, "natural": null, "landuse": null, "water": null }, "geometry": { "type": "Polygon", "coordinates": [ [ [ 24.8140281, 37.865519099963159 ], [ 24.8140713, 37.865517299963152 ], [ 24.8140724, 37.865595299963168 ], [ 24.8141371, 37.865594399963165 ], [ 24.8141326, 37.865453599963153 ], [ 24.8140236, 37.865461699963134 ], [ 24.8140281, 37.865519099963159 ] ] ] } },
{ "type": "Feature", "properties": { "osm_id": 526528749, "name": null, "label": "building:detached", "building": "detached", "amenity": null, "natural": null, "landuse": null, "water": null }, "geometry": { "type": "Polygon", "coordinates": [ [ [ 24.813421, 37.865415299963146 ], [ 24.8134971, 37.865386599963138 ], [ 24.8134494, 37.865316699963131 ], [ 24.8134131, 37.86533549996313 ], [ 24.8134403, 37.865365099963142 ], [ 24.813404, 37.86537949996314 ], [ 24.813421, 37.865415299963146 ] ] ] } },
{ "type": "Feature", "properties": { "osm_id": 528414139, "name": null, "label": "building:detached", "building": "detached", "amenity": null, "natural": null, "landuse": null, "water": null }, "geometry": { "type": "Polygon", "coordinates": [ [ [ 24.812553, 37.865171699963106 ], [ 24.8126633, 37.865085599963088 ], [ 24.8126162, 37.865047999963096 ], [ 24.8125814, 37.865075099963093 ], [ 24.812503, 37.865012499963086 ], [ 24.8124274, 37.865071499963086 ], [ 24.812553, 37.865171699963106 ] ] ] } },
{ "type": "Feature", "properties": { "osm_id": 528397814, "name": "Αγία Ειρήνη", "label": "amenity:place_of_worship;building:yes", "building": "yes", "amenity": "place_of_worship", "natural": null, "landuse": null, "water": null }, "geometry": { "type": "Polygon", "coordinates": [ [ [ 24.8124548, 37.866135699963237 ], [ 24.8124665, 37.866081899963227 ], [ 24.8123838, 37.866070699963231 ], [ 24.8123721, 37.866124499963234 ], [ 24.8124548, 37.866135699963237 ] ] ] } },
{ "type": "Feature", "properties": { "osm_id": 526528720, "name": null, "label": "building:detached", "building": "detached", "amenity": null, "natural": null, "landuse": null, "water": null }, "geometry": { "type": "Polygon", "coordinates": [ [ [ 24.811428, 37.865863599963191 ], [ 24.8116071, 37.865837699963201 ], [ 24.8115947, 37.865784299963195 ], [ 24.8115277, 37.865793899963201 ], [ 24.8115078, 37.865708099963186 ], [ 24.8114486, 37.865716599963179 ], [ 24.8114295, 37.865634299963183 ], [ 24.8113766, 37.86564189996318 ], [ 24.811428, 37.865863599963191 ] ] ] } },
{ "type": "Feature", "properties": { "osm_id": 526528715, "name": null, "label": "building:detached", "building": "detached", "amenity": null, "natural": null, "landuse": null, "water": null }, "geometry": { "type": "Polygon", "coordinates": [ [ [ 24.8113542, 37.867411999963409 ], [ 24.8113954, 37.86742449996342 ], [ 24.8113954, 37.86744819996342 ], [ 24.8114857, 37.867463199963424 ], [ 24.811492, 37.867403199963412 ], [ 24.8114176, 37.867375699963397 ], [ 24.8114128, 37.867284399963395 ], [ 24.8113542, 37.867281899963395 ], [ 24.8113542, 37.867411999963409 ] ] ] } },
{ "type": "Feature", "properties": { "osm_id": 526528716, "name": null, "label": "building:detached", "building": "detached", "amenity": null, "natural": null, "landuse": null, "water": null }, "geometry": { "type": "Polygon", "coordinates": [ [ [ 24.8108606, 37.866976699963359 ], [ 24.8108412, 37.867023799963363 ], [ 24.8109435, 37.867049899963376 ], [ 24.8109888, 37.866939599963359 ], [ 24.8108502, 37.866904099963342 ], [ 24.8108242, 37.86696739996335 ], [ 24.8108606, 37.866976699963359 ] ] ] } },
{ "type": "Feature", "properties": { "osm_id": 526528717, "name": null, "label": "building:detached", "building": "detached", "amenity": null, "natural": null, "landuse": null, "water": null }, "geometry": { "type": "Polygon", "coordinates": [ [ [ 24.811059, 37.866244299963256 ], [ 24.8111034, 37.86623609996326 ], [ 24.8111149, 37.866275299963263 ], [ 24.8111489, 37.866269099963247 ], [ 24.8111223, 37.866178399963246 ], [ 24.8110439, 37.866192799963251 ], [ 24.811059, 37.866244299963256 ] ] ] } },
{ "type": "Feature", "properties": { "osm_id": 526528719, "name": null, "label": "building:detached", "building": "detached", "amenity": null, "natural": null, "landuse": null, "water": null }, "geometry": { "type": "Polygon", "coordinates": [ [ [ 24.8111729, 37.86575559996318 ], [ 24.8112143, 37.86574189996319 ], [ 24.8112354, 37.865781699963186 ], [ 24.8113286, 37.86575099996319 ], [ 24.8112996, 37.865696299963183 ], [ 24.8112352, 37.865717599963183 ], [ 24.8111765, 37.865606699963166 ], [ 24.8110979, 37.865614099963167 ], [ 24.8111729, 37.86575559996318 ] ] ] } },
{ "type": "Feature", "properties": { "osm_id": 526528718, "name": null, "label": "building:detached", "building": "detached", "amenity": null, "natural": null, "landuse": null, "water": null }, "geometry": { "type": "Polygon", "coordinates": [ [ [ 24.8108211, 37.865907599963201 ], [ 24.8108679, 37.865898699963211 ], [ 24.8108473, 37.865810099963191 ], [ 24.8107949, 37.865814599963208 ], [ 24.8108211, 37.865907599963201 ] ] ] } },
{ "type": "Feature", "properties": { "osm_id": 526528721, "name": null, "label": "building:detached", "building": "detached", "amenity": null, "natural": null, "landuse": null, "water": null }, "geometry": { "type": "Polygon", "coordinates": [ [ [ 24.8116743, 37.864741899963043 ], [ 24.8117717, 37.864692499963034 ], [ 24.8117127, 37.864620199963021 ], [ 24.8116154, 37.864669699963031 ], [ 24.8116743, 37.864741899963043 ] ] ] } },
{ "type": "Feature", "properties": { "osm_id": 526528722, "name": null, "label": "building:detached", "building": "detached", "amenity": null, "natural": null, "landuse": null, "water": null }, "geometry": { "type": "Polygon", "coordinates": [ [ [ 24.8121557, 37.864641899963033 ], [ 24.8122601, 37.864632399963028 ], [ 24.8122469, 37.864542699963017 ], [ 24.8121425, 37.864552199963015 ], [ 24.8121557, 37.864641899963033 ] ] ] } },
{ "type": "Feature", "properties": { "osm_id": 526528723, "name": null, "label": "building:detached", "building": "detached", "amenity": null, "natural": null, "landuse": null, "water": null }, "geometry": { "type": "Polygon", "coordinates": [ [ [ 24.8121651, 37.864216899962983 ], [ 24.8122612, 37.864213899962991 ], [ 24.8122539, 37.864066499962959 ], [ 24.8121578, 37.864069499962952 ], [ 24.8121651, 37.864216899962983 ] ] ] } },
{ "type": "Feature", "properties": { "osm_id": 526528724, "name": null, "label": "building:detached", "building": "detached", "amenity": null, "natural": null, "landuse": null, "water": null }, "geometry": { "type": "Polygon", "coordinates": [ [ [ 24.8121225, 37.863905499962932 ], [ 24.8121225, 37.863961599962927 ], [ 24.8121898, 37.863958699962929 ], [ 24.8121992, 37.86388039996293 ], [ 24.8121225, 37.863782899962914 ], [ 24.8120477, 37.863806599962913 ], [ 24.8121225, 37.863905499962932 ] ] ] } },
{ "type": "Feature", "properties": { "osm_id": 526528743, "name": null, "label": "building:detached", "building": "detached", "amenity": null, "natural": null, "landuse": null, "water": null }, "geometry": { "type": "Polygon", "coordinates": [ [ [ 24.8129797, 37.864613599963043 ], [ 24.8131237, 37.864548799963025 ], [ 24.8130551, 37.864453899963003 ], [ 24.8130008, 37.864478399963019 ], [ 24.8130419, 37.864535299963016 ], [ 24.8129523, 37.864575699963027 ], [ 24.8129797, 37.864613599963043 ] ] ] } },
{ "type": "Feature", "properties": { "osm_id": 526528744, "name": null, "label": "building:detached", "building": "detached", "amenity": null, "natural": null, "landuse": null, "water": null }, "geometry": { "type": "Polygon", "coordinates": [ [ [ 24.8132064, 37.864792599963053 ], [ 24.8132976, 37.864768999963047 ], [ 24.8132712, 37.864705599963031 ], [ 24.81333, 37.864690399963031 ], [ 24.813307, 37.86463519996304 ], [ 24.8131959, 37.864663999963021 ], [ 24.8132319, 37.864750399963057 ], [ 24.8131931, 37.864760499963047 ], [ 24.8132064, 37.864792599963053 ] ] ] } },
{ "type": "Feature", "properties": { "osm_id": 526528746, "name": null, "label": "building:detached", "building": "detached", "amenity": null, "natural": null, "landuse": null, "water": null }, "geometry": { "type": "Polygon", "coordinates": [ [ [ 24.8135565, 37.864880499963064 ], [ 24.8135812, 37.864876499963074 ], [ 24.813589, 37.864906499963055 ], [ 24.8136809, 37.864891599963066 ], [ 24.813661, 37.864815199963068 ], [ 24.8136281, 37.864820599963053 ], [ 24.8136185, 37.864783699963041 ], [ 24.8135349, 37.864797199963057 ], [ 24.8135565, 37.864880499963064 ] ] ] } },
{ "type": "Feature", "properties": { "osm_id": 526528742, "name": null, "label": "building:detached", "building": "detached", "amenity": null, "natural": null, "landuse": null, "water": null }, "geometry": { "type": "Polygon", "coordinates": [ [ [ 24.8133768, 37.864423899963001 ], [ 24.813629, 37.864347199962978 ], [ 24.8135861, 37.864248299962973 ], [ 24.8136682, 37.864226999962973 ], [ 24.813646, 37.86417379996297 ], [ 24.8136307, 37.864136999962966 ], [ 24.813577, 37.864150899962958 ], [ 24.8135895, 37.864180899962967 ], [ 24.8134798, 37.864209399962974 ], [ 24.8135082, 37.864277599962989 ], [ 24.8133347, 37.864322599962989 ], [ 24.8133768, 37.864423899963001 ] ] ] } },
{ "type": "Feature", "properties": { "osm_id": 526511782, "name": null, "label": "landuse:cemetery", "building": null, "amenity": null, "natural": null, "landuse": "cemetery", "water": null }, "geometry": { "type": "Polygon", "coordinates": [ [ [ 24.8247315, 37.867376599963414 ], [ 24.8248669, 37.867357499963404 ], [ 24.8249367, 37.867361799963412 ], [ 24.8249568, 37.867347999963407 ], [ 24.8250292, 37.867353299963419 ], [ 24.8250668, 37.867337399963411 ], [ 24.8250842, 37.867198699963396 ], [ 24.8250896, 37.867049399963363 ], [ 24.8250949, 37.86696579996336 ], [ 24.8250252, 37.866953099963354 ], [ 24.8250118, 37.867037799963363 ], [ 24.8249975, 37.867038699963366 ], [ 24.8249032, 37.86703559996338 ], [ 24.824883, 37.867032499963365 ], [ 24.8248455, 37.867005999963361 ], [ 24.8248039, 37.867002899963374 ], [ 24.8247985, 37.867027199963381 ], [ 24.8247194, 37.867019799963359 ], [ 24.8247127, 37.867235799963396 ], [ 24.8247315, 37.867376599963414 ] ] ] } },
{ "type": "Feature", "properties": { "osm_id": 526511783, "name": null, "label": "amenity:place_of_worship;building:chapel", "building": "chapel", "amenity": "place_of_worship", "natural": null, "landuse": null, "water": null }, "geometry": { "type": "Polygon", "coordinates": [ [ [ 24.8249975, 37.867038699963366 ], [ 24.8249997, 37.866996299963354 ], [ 24.8249054, 37.866993299963355 ], [ 24.8249032, 37.86703559996338 ], [ 24.8249975, 37.867038699963366 ] ] ] } },
{ "type": "Feature", "properties": { "osm_id": 526522595, "name": null, "label": "amenity:parking", "building": null, "amenity": "parking", "natural": null, "landuse": null, "water": null }, "geometry": { "type": "Polygon", "coordinates": [ [ [ 24.8222096, 37.865981599963213 ], [ 24.8222737, 37.866042599963222 ], [ 24.8223532, 37.866009499963226 ], [ 24.8223908, 37.865969299963226 ], [ 24.8223952, 37.865889099963198 ], [ 24.8223289, 37.865897799963214 ], [ 24.8223157, 37.8658193999632 ], [ 24.8222803, 37.865812399963183 ], [ 24.8222693, 37.865749599963181 ], [ 24.822214, 37.865760099963197 ], [ 24.8222118, 37.865866499963197 ], [ 24.8222428, 37.865908299963223 ], [ 24.8222096, 37.86594489996321 ], [ 24.8222096, 37.865981599963213 ] ] ] } },
{ "type": "Feature", "properties": { "osm_id": 526522594, "name": "Άγιος Ιωάννης", "label": "amenity:place_of_worship;building:church", "building": "church", "amenity": "place_of_worship", "natural": null, "landuse": null, "water": null }, "geometry": { "type": "Polygon", "coordinates": [ [ [ 24.8225017, 37.865624299963159 ], [ 24.8225091, 37.865470699963147 ], [ 24.8223846, 37.865466899963153 ], [ 24.8223771, 37.865620599963172 ], [ 24.8225017, 37.865624299963159 ] ] ] } },
{ "type": "Feature", "properties": { "osm_id": 526522596, "name": "Πολιτιστικός Σύλλογος Κατακίλου \"Aγιος Iωάννης\"", "label": "building:yes", "building": "yes", "amenity": null, "natural": null, "landuse": null, "water": null }, "geometry": { "type": "Polygon", "coordinates": [ [ [ 24.8224506, 37.865290899963121 ], [ 24.8224701, 37.865115399963102 ], [ 24.822375, 37.865108899963104 ], [ 24.8223556, 37.865284299963122 ], [ 24.8224506, 37.865290899963121 ] ] ] } },
{ "type": "Feature", "properties": { "osm_id": 526522597, "name": null, "label": "amenity:place_of_worship;building:church", "building": "church", "amenity": "place_of_worship", "natural": null, "landuse": null, "water": null }, "geometry": { "type": "Polygon", "coordinates": [ [ [ 24.8215222, 37.862868199962783 ], [ 24.8216098, 37.862828499962781 ], [ 24.8215687, 37.86277199996276 ], [ 24.8214812, 37.862811699962791 ], [ 24.8215222, 37.862868199962783 ] ] ] } },
{ "type": "Feature", "properties": { "osm_id": 526528731, "name": null, "label": "building:detached", "building": "detached", "amenity": null, "natural": null, "landuse": null, "water": null }, "geometry": { "type": "Polygon", "coordinates": [ [ [ 24.8137086, 37.862052999962671 ], [ 24.8139233, 37.862046499962659 ], [ 24.8139208, 37.861993799962661 ], [ 24.8138826, 37.861994999962668 ], [ 24.8138787, 37.861914399962657 ], [ 24.8137951, 37.861916899962651 ], [ 24.8137982, 37.861980499962662 ], [ 24.8137052, 37.86198329996266 ], [ 24.8137086, 37.862052999962671 ] ] ] } },
{ "type": "Feature", "properties": { "osm_id": 528408167, "name": null, "label": "amenity:place_of_worship;building:yes", "building": "yes", "amenity": "place_of_worship", "natural": null, "landuse": null, "water": null }, "geometry": { "type": "Polygon", "coordinates": [ [ [ 24.8137657, 37.862530499962737 ], [ 24.8138745, 37.862488999962729 ], [ 24.8138442, 37.862439499962733 ], [ 24.8137354, 37.862480999962742 ], [ 24.8137657, 37.862530499962737 ] ] ] } },
{ "type": "Feature", "properties": { "osm_id": 526528738, "name": null, "label": "building:detached", "building": "detached", "amenity": null, "natural": null, "landuse": null, "water": null }, "geometry": { "type": "Polygon", "coordinates": [ [ [ 24.8136318, 37.86318049996283 ], [ 24.8137645, 37.863150099962823 ], [ 24.8137319, 37.863061299962808 ], [ 24.8135992, 37.863091699962808 ], [ 24.8136318, 37.86318049996283 ] ] ] } },
{ "type": "Feature", "properties": { "osm_id": 526528737, "name": null, "label": "building:detached", "building": "detached", "amenity": null, "natural": null, "landuse": null, "water": null }, "geometry": { "type": "Polygon", "coordinates": [ [ [ 24.8138042, 37.863413399962873 ], [ 24.8138545, 37.863408099962875 ], [ 24.8139235, 37.863400899962862 ], [ 24.8139594, 37.863397199962868 ], [ 24.8139501, 37.863225899962835 ], [ 24.8138865, 37.863246499962834 ], [ 24.8138846, 37.863264199962835 ], [ 24.8138397, 37.863265699962838 ], [ 24.8137967, 37.863305599962843 ], [ 24.8138042, 37.863413399962873 ] ] ] } },
{ "type": "Feature", "properties": { "osm_id": 526528739, "name": null, "label": "building:yes", "building": "yes", "amenity": null, "natural": null, "landuse": null, "water": null }, "geometry": { "type": "Polygon", "coordinates": [ [ [ 24.8138584, 37.863450299962864 ], [ 24.813937, 37.863444399962873 ], [ 24.8139235, 37.863400899962862 ], [ 24.8138545, 37.863408099962875 ], [ 24.8138584, 37.863450299962864 ] ] ] } },
{ "type": "Feature", "properties": { "osm_id": 444272909, "name": null, "label": "building:yes", "building": "yes", "amenity": null, "natural": null, "landuse": null, "water": null }, "geometry": { "type": "Polygon", "coordinates": [ [ [ 24.8100674, 37.861873399962647 ], [ 24.8101556, 37.861810899962641 ], [ 24.8100939, 37.861756699962633 ], [ 24.8100057, 37.861819099962638 ], [ 24.8100674, 37.861873399962647 ] ] ] } },
{ "type": "Feature", "properties": { "osm_id": 526528733, "name": null, "label": "building:detached", "building": "detached", "amenity": null, "natural": null, "landuse": null, "water": null }, "geometry": { "type": "Polygon", "coordinates": [ [ [ 24.8132956, 37.862585499962748 ], [ 24.8133457, 37.862485699962733 ], [ 24.8132124, 37.862443999962736 ], [ 24.8131622, 37.862543699962735 ], [ 24.8132956, 37.862585499962748 ] ] ] } },
{ "type": "Feature", "properties": { "osm_id": 526528736, "name": null, "label": "building:detached", "building": "detached", "amenity": null, "natural": null, "landuse": null, "water": null }, "geometry": { "type": "Polygon", "coordinates": [ [ [ 24.8130968, 37.862939799962788 ], [ 24.8131945, 37.862853899962779 ], [ 24.8131543, 37.862825399962773 ], [ 24.8131713, 37.862810399962768 ], [ 24.8131098, 37.862766899962779 ], [ 24.8130668, 37.862804599962772 ], [ 24.8130922, 37.86282259996279 ], [ 24.8130205, 37.862885699962781 ], [ 24.8130968, 37.862939799962788 ] ] ] } },
{ "type": "Feature", "properties": { "osm_id": 526528735, "name": null, "label": "building:detached", "building": "detached", "amenity": null, "natural": null, "landuse": null, "water": null }, "geometry": { "type": "Polygon", "coordinates": [ [ [ 24.8130196, 37.863071999962806 ], [ 24.8130692, 37.863022799962813 ], [ 24.8130195, 37.862991599962804 ], [ 24.8129699, 37.863040699962816 ], [ 24.8130196, 37.863071999962806 ] ] ] } },
{ "type": "Feature", "properties": { "osm_id": 526528730, "name": null, "label": "building:detached", "building": "detached", "amenity": null, "natural": null, "landuse": null, "water": null }, "geometry": { "type": "Polygon", "coordinates": [ [ [ 24.8124849, 37.862196099962688 ], [ 24.8126307, 37.86218389996268 ], [ 24.8126285, 37.862131599962673 ], [ 24.8126705, 37.862131599962673 ], [ 24.8126683, 37.862035699962668 ], [ 24.8124783, 37.862053099962665 ], [ 24.8124849, 37.862196099962688 ] ] ] } },
{ "type": "Feature", "properties": { "osm_id": 526528732, "name": null, "label": "building:detached", "building": "detached", "amenity": null, "natural": null, "landuse": null, "water": null }, "geometry": { "type": "Polygon", "coordinates": [ [ [ 24.8132824, 37.862287599962698 ], [ 24.8134018, 37.862280999962707 ], [ 24.8133954, 37.862208299962688 ], [ 24.813276, 37.862214799962686 ], [ 24.8132824, 37.862287599962698 ] ] ] } },
{ "type": "Feature", "properties": { "osm_id": 526522602, "name": null, "label": "natural:spring", "building": null, "amenity": null, "natural": "spring", "landuse": null, "water": null }, "geometry": { "type": "Polygon", "coordinates": [ [ [ 24.8221933, 37.862637399962757 ], [ 24.8222095, 37.862639899962758 ], [ 24.8222162, 37.862612699962746 ], [ 24.822184, 37.86260779996276 ], [ 24.8221773, 37.862634999962751 ], [ 24.8221933, 37.862637399962757 ] ] ] } }
]
}
