{
"type": "FeatureCollection",
"name": "patch_38221_multipolygon",
"crs": { "type": "name", "properties": { "name": "urn:ogc:def:crs:OGC:1.3:CRS84" } },
"features": [
{ "type": "Feature", "properties": { "element": "relation", "id": 1842786, "amenity": null, "brand": null, "name": null, "operator": null, "board_type": null, "boundary": null, "information": null, "leisure": null, "source": "http://geodata.gov.gr", "tourism": null, "landuse": null, "building": null, "intermittent": null, "waterway": null, "layer": null, "tunnel": null, "natural": "wood", "type": "multipolygon", "leaf_type": "broadleaved", "label": "natural:wood" }, "geometry": { "type": "MultiPolygon", "coordinates": [ [ [ [ 24.0567799, 40.9637424 ], [ 24.0571662, 40.9641474 ], [ 24.0575524, 40.9646173 ], [ 24.0578957, 40.9647794 ], [ 24.0582605, 40.9650386 ], [ 24.0586253, 40.9652168 ], [ 24.0591403, 40.9655895 ], [ 24.0593549, 40.9660432 ], [ 24.0596124, 40.9662862 ], [ 24.06002, 40.9665941 ], [ 24.060299, 40.9670801 ], [ 24.0608569, 40.9673718 ], [ 24.0610399, 40.9676098 ], [ 24.0610286, 40.9681171 ], [ 24.0607711, 40.9682791 ], [ 24.0605565, 40.9685707 ], [ 24.0605136, 40.968911 ], [ 24.0606638, 40.969397 ], [ 24.0608569, 40.9696401 ], [ 24.0611573, 40.9697697 ], [ 24.0613933, 40.9696239 ], [ 24.0616294, 40.9698183 ], [ 24.0620371, 40.9698993 ], [ 24.0625306, 40.9699965 ], [ 24.0628525, 40.9701423 ], [ 24.0630027, 40.9703853 ], [ 24.0632816, 40.9705798 ], [ 24.0634318, 40.9708876 ], [ 24.0635391, 40.9711468 ], [ 24.0637108, 40.9713574 ], [ 24.0640755, 40.9714222 ], [ 24.0645262, 40.9714384 ], [ 24.0648266, 40.9716653 ], [ 24.0650411, 40.9719731 ], [ 24.0652343, 40.9723133 ], [ 24.065599, 40.9726373 ], [ 24.0657922, 40.9728965 ], [ 24.0661355, 40.973172 ], [ 24.0663501, 40.9733988 ], [ 24.0666076, 40.9737066 ], [ 24.066629, 40.9740468 ], [ 24.0668221, 40.9743384 ], [ 24.0668221, 40.9739982 ], [ 24.066908, 40.973739 ], [ 24.066908, 40.9733502 ], [ 24.066908, 40.9730424 ], [ 24.0667792, 40.9727183 ], [ 24.0667148, 40.9723619 ], [ 24.0668436, 40.9718921 ], [ 24.0668436, 40.9713736 ], [ 24.0669723, 40.9709362 ], [ 24.0670796, 40.9705312 ], [ 24.0670796, 40.9701099 ], [ 24.0672513, 40.9697211 ], [ 24.0672513, 40.9692836 ], [ 24.0672727, 40.968911 ], [ 24.0672298, 40.9685707 ], [ 24.0672513, 40.9681657 ], [ 24.0669509, 40.967793 ], [ 24.0667792, 40.967469 ], [ 24.0667792, 40.9671774 ], [ 24.0665432, 40.9670153 ], [ 24.0661784, 40.9670153 ], [ 24.0658565, 40.9670963 ], [ 24.0655561, 40.9670639 ], [ 24.0660282, 40.9668047 ], [ 24.0662642, 40.9663834 ], [ 24.0658136, 40.9662052 ], [ 24.065642, 40.9659136 ], [ 24.0652772, 40.9655409 ], [ 24.0649768, 40.9651034 ], [ 24.0645262, 40.9646821 ], [ 24.0642258, 40.9643581 ], [ 24.0639253, 40.964115 ], [ 24.0635606, 40.9636289 ], [ 24.0633031, 40.9632401 ], [ 24.063124, 40.962387 ], [ 24.063344, 40.96191 ], [ 24.06341467697218, 40.961761868811735 ], [ 24.056694577490205, 40.961761868811735 ], [ 24.056694577490205, 40.963699436809762 ], [ 24.0567799, 40.9637424 ] ] ], [ [ [ 24.074808, 40.961905 ], [ 24.074652, 40.962157 ], [ 24.074375, 40.962517 ], [ 24.07428, 40.962747 ], [ 24.074275, 40.963017 ], [ 24.074514, 40.963183 ], [ 24.074874, 40.9633 ], [ 24.075176, 40.963305 ], [ 24.075477, 40.963327 ], [ 24.075808, 40.963403 ], [ 24.075984, 40.963678 ], [ 24.07613, 40.963907 ], [ 24.076272, 40.964434 ], [ 24.076328, 40.964663 ], [ 24.07638, 40.965144 ], [ 24.076434, 40.965486 ], [ 24.076399, 40.965783 ], [ 24.076332, 40.96617 ], [ 24.076235, 40.96654 ], [ 24.075983, 40.967152 ], [ 24.075853, 40.967656 ], [ 24.076061, 40.967881 ], [ 24.07633, 40.968025 ], [ 24.076814, 40.967934 ], [ 24.07724, 40.967691 ], [ 24.077516, 40.967488 ], [ 24.077732, 40.967169 ], [ 24.078009, 40.966849 ], [ 24.078165, 40.966602 ], [ 24.078352, 40.966282 ], [ 24.078536, 40.966079 ], [ 24.078754, 40.96567 ], [ 24.078971, 40.965328 ], [ 24.079186, 40.965125 ], [ 24.079882, 40.965017 ], [ 24.080454, 40.965093 ], [ 24.081118, 40.965097 ], [ 24.08148, 40.965101 ], [ 24.081932, 40.965128 ], [ 24.082294, 40.965155 ], [ 24.082716, 40.965159 ], [ 24.083138, 40.965163 ], [ 24.0835, 40.965168 ], [ 24.083922, 40.965168 ], [ 24.084253, 40.965266 ], [ 24.084671, 40.965523 ], [ 24.084938, 40.965774 ], [ 24.085021, 40.966184 ], [ 24.085073, 40.96667 ], [ 24.085158, 40.966989 ], [ 24.085334, 40.967286 ], [ 24.08545, 40.967538 ], [ 24.085775, 40.967907 ], [ 24.085952, 40.968118 ], [ 24.086062678159077, 40.968215968705401 ], [ 24.086062678159077, 40.961761868811735 ], [ 24.074873706422682, 40.961761868811735 ], [ 24.074808, 40.961905 ] ] ] ] } }
]
}
