{
"type": "FeatureCollection",
"name": "patch_17731_polygon",
"crs": { "type": "name", "properties": { "name": "urn:ogc:def:crs:OGC:1.3:CRS84" } },
"features": [
{ "type": "Feature", "properties": { "osm_id": 136740198, "name": null, "label": "natural:wood", "natural": "wood", "landuse": null, "building": null, "sport": null, "leisure": null }, "geometry": { "type": "MultiPolygon", "coordinates": [ [ [ [ 23.8175278, 41.011840400393453 ], [ 23.8177156, 41.011510500393442 ], [ 23.8179114, 41.011429600393427 ], [ 23.8176566, 41.011356700393428 ], [ 23.8178095, 41.01087300039336 ], [ 23.8180026, 41.010798100393352 ], [ 23.8180173, 41.010605800393336 ], [ 23.8182534, 41.01046010039331 ], [ 23.818484, 41.010395300393313 ], [ 23.8186168, 41.010553200393311 ], [ 23.818767, 41.010676600393346 ], [ 23.8190004, 41.010769700393347 ], [ 23.8188019, 41.010648300393335 ], [ 23.8187026, 41.01055120039333 ], [ 23.8186839, 41.010425700393313 ], [ 23.8187308, 41.010286000393307 ], [ 23.8188542, 41.010136200393291 ], [ 23.8182695, 41.010302200393298 ], [ 23.8178993, 41.010508700393324 ], [ 23.8177867, 41.010569400393351 ], [ 23.8174594, 41.01072320039335 ], [ 23.817439382358177, 41.010727865873449 ], [ 23.817439382358177, 41.012237730443779 ], [ 23.8175278, 41.011840400393453 ] ] ], [ [ [ 23.8176043, 41.014653600393778 ], [ 23.8180388, 41.014669800393783 ], [ 23.8185431, 41.014928900393826 ], [ 23.8190205, 41.014973400393821 ], [ 23.8193315, 41.015047500393841 ], [ 23.8194791, 41.015082700393833 ], [ 23.8197863, 41.014949100393828 ], [ 23.8196092, 41.014847900393811 ], [ 23.8194429, 41.014783100393799 ], [ 23.8192176, 41.0147953003938 ], [ 23.8189226, 41.014710300393773 ], [ 23.8186973, 41.014516000393769 ], [ 23.8183915, 41.014115300393726 ], [ 23.8182252, 41.013819800393705 ], [ 23.8181179, 41.013471700393659 ], [ 23.8178926, 41.013317900393631 ], [ 23.81756, 41.012896900393578 ], [ 23.817439382358177, 41.012686537117951 ], [ 23.817439382358177, 41.014567043204138 ], [ 23.8176043, 41.014653600393778 ] ] ] ] } },
{ "type": "Feature", "properties": { "osm_id": 478507560, "name": null, "label": "natural:scrub", "natural": "scrub", "landuse": null, "building": null, "sport": null, "leisure": null }, "geometry": { "type": "MultiPolygon", "coordinates": [ [ [ [ 23.817735, 41.018655600394226 ], [ 23.8176063, 41.018546300394213 ], [ 23.817439382358177, 41.0184418196595 ], [ 23.817439382358177, 41.018553236469906 ], [ 23.817735, 41.018655600394226 ] ] ], [ [ [ 23.8174507, 41.019671500394345 ], [ 23.8177404, 41.019590600394331 ], [ 23.8178235, 41.019457000394326 ], [ 23.8180006, 41.019368000394309 ], [ 23.8180998, 41.019339600394304 ], [ 23.8182929, 41.019436800394331 ], [ 23.8184539, 41.01918580039429 ], [ 23.8188669, 41.019193900394285 ], [ 23.8186014, 41.018999700394261 ], [ 23.8190144, 41.018789200394245 ], [ 23.8191271, 41.018655600394226 ], [ 23.8189179, 41.018659700394238 ], [ 23.8186121, 41.018655600394226 ], [ 23.8182849, 41.018643500394234 ], [ 23.8178235, 41.018692100394233 ], [ 23.8174802, 41.018805400394243 ], [ 23.817439382358177, 41.018788127861498 ], [ 23.817439382358177, 41.019676270886784 ], [ 23.8174507, 41.019671500394345 ] ] ] ] } },
{ "type": "Feature", "properties": { "osm_id": 183236524, "name": null, "label": "landuse:forest", "natural": null, "landuse": "forest", "building": null, "sport": null, "leisure": null }, "geometry": { "type": "Polygon", "coordinates": [ [ [ 23.827051, 41.026570900395107 ], [ 23.8262517, 41.026206700395065 ], [ 23.8253598, 41.026074100395064 ], [ 23.8250326, 41.026130800395059 ], [ 23.8248408, 41.026065000395057 ], [ 23.8245337, 41.025790800395029 ], [ 23.8242172, 41.02550750039498 ], [ 23.8239611, 41.025336600394979 ], [ 23.8233482, 41.025062400394951 ], [ 23.8231403, 41.024875200394938 ], [ 23.8230706, 41.024680900394905 ], [ 23.8226937, 41.024362200394854 ], [ 23.8223357, 41.024130500394826 ], [ 23.8221908, 41.024053600394836 ], [ 23.8221948, 41.023872500394809 ], [ 23.8220446, 41.023783500394792 ], [ 23.821814, 41.023771400394814 ], [ 23.8216973, 41.023657000394778 ], [ 23.8216383, 41.023547800394773 ], [ 23.8215887, 41.023403100394759 ], [ 23.8217228, 41.023301900394742 ], [ 23.8223236, 41.023196700394742 ], [ 23.8224684, 41.023127900394719 ], [ 23.8224791, 41.022982200394715 ], [ 23.8223129, 41.022953800394696 ], [ 23.8220178, 41.023034800394704 ], [ 23.8217979, 41.023042900394721 ], [ 23.8214706, 41.023075300394723 ], [ 23.8213043, 41.023136000394729 ], [ 23.8209355, 41.023013500394704 ], [ 23.8206566, 41.022782800394694 ], [ 23.820505, 41.022565300394668 ], [ 23.8202113, 41.022471200394662 ], [ 23.8198519, 41.023013500394704 ], [ 23.8203173, 41.023326200394742 ], [ 23.8210844, 41.02379970039479 ], [ 23.8216745, 41.024200400394832 ], [ 23.8223021, 41.024637400394894 ], [ 23.8218944, 41.025074500394943 ], [ 23.8212561, 41.025803000395022 ], [ 23.8212185, 41.026045800395053 ], [ 23.8212024, 41.026361500395097 ], [ 23.821232434257613, 41.026595525121827 ], [ 23.821652126909065, 41.026595525121827 ], [ 23.8216316, 41.026442400395091 ], [ 23.821649, 41.026230900395063 ], [ 23.8217871, 41.025968900395036 ], [ 23.8220071, 41.025713900395019 ], [ 23.8222445, 41.025425600394975 ], [ 23.822506, 41.024989500394931 ], [ 23.8225489, 41.025264700394963 ], [ 23.822624, 41.025369900394985 ], [ 23.8229351, 41.025539900394989 ], [ 23.8231765, 41.025693700395017 ], [ 23.8234836, 41.025802000395032 ], [ 23.8237197, 41.025943600395038 ], [ 23.8239342, 41.02634020039509 ], [ 23.8240563, 41.026454500395104 ], [ 23.8241917, 41.026522300395108 ], [ 23.8244653, 41.026570900395107 ], [ 23.824737204150001, 41.026595525121827 ], [ 23.824844576825996, 41.026595525121827 ], [ 23.824932, 41.026522300395108 ], [ 23.8250112, 41.026442400395091 ], [ 23.8253437, 41.026478800395104 ], [ 23.8253773, 41.026550700395106 ], [ 23.825372352302836, 41.026595525121827 ], [ 23.827089753013968, 41.026595525121827 ], [ 23.827051, 41.026570900395107 ] ] ] } },
{ "type": "Feature", "properties": { "osm_id": 244531623, "name": null, "label": "landuse:cemetery", "natural": null, "landuse": "cemetery", "building": null, "sport": null, "leisure": null }, "geometry": { "type": "Polygon", "coordinates": [ [ [ 23.8220299, 41.021524500394541 ], [ 23.8222123, 41.02143140039454 ], [ 23.8223517, 41.021585200394561 ], [ 23.8227916, 41.021439500394543 ], [ 23.8226843, 41.021330200394537 ], [ 23.8233066, 41.020613800394443 ], [ 23.8230116, 41.020617900394441 ], [ 23.822738, 41.020597600394446 ], [ 23.8225717, 41.020541000394445 ], [ 23.8221533, 41.020391200394428 ], [ 23.8219065, 41.020561200394447 ], [ 23.8215042, 41.020796000394469 ], [ 23.8220299, 41.021524500394541 ] ] ] } },
{ "type": "Feature", "properties": { "osm_id": 478509028, "name": null, "label": "landuse:orchard", "natural": null, "landuse": "orchard", "building": null, "sport": null, "leisure": null }, "geometry": { "type": "Polygon", "coordinates": [ [ [ 23.8175473, 41.017983800394148 ], [ 23.8181588, 41.017745000394129 ], [ 23.8179872, 41.017514200394118 ], [ 23.817439382358177, 41.017713423711633 ], [ 23.817439382358177, 41.017800584790479 ], [ 23.8175473, 41.017983800394148 ] ] ] } },
{ "type": "Feature", "properties": { "osm_id": -7034542, "name": null, "label": "landuse:farmland", "natural": null, "landuse": "farmland", "building": null, "sport": null, "leisure": null }, "geometry": { "type": "Polygon", "coordinates": [ [ [ 23.8176063, 41.018546300394213 ], [ 23.817735, 41.018655600394226 ], [ 23.817439382358177, 41.018553236469906 ], [ 23.817439382358177, 41.018788127861498 ], [ 23.8174802, 41.018805400394243 ], [ 23.8178235, 41.018692100394233 ], [ 23.8182849, 41.018643500394234 ], [ 23.8186121, 41.018655600394226 ], [ 23.8189179, 41.018659700394238 ], [ 23.8191271, 41.018655600394226 ], [ 23.8190761, 41.018424900394209 ], [ 23.8188294, 41.018319700394187 ], [ 23.8187114, 41.018194200394184 ], [ 23.8186899, 41.017890700394148 ], [ 23.8186899, 41.017587100394117 ], [ 23.818588, 41.017429200394105 ], [ 23.8183037, 41.017158100394063 ], [ 23.8180086, 41.016868700394028 ], [ 23.8177833, 41.016761400394017 ], [ 23.8176894, 41.016585300393999 ], [ 23.8175097, 41.016405200393976 ], [ 23.817439382358177, 41.01638231890248 ], [ 23.817439382358177, 41.016484001938522 ], [ 23.8174454, 41.016482100393986 ], [ 23.8176707, 41.016923300394033 ], [ 23.817439382358177, 41.016980462068588 ], [ 23.817439382358177, 41.017713423711633 ], [ 23.8179872, 41.017514200394118 ], [ 23.8181588, 41.017745000394129 ], [ 23.8175473, 41.017983800394148 ], [ 23.817439382358177, 41.017800584790479 ], [ 23.817439382358177, 41.0184418196595 ], [ 23.8176063, 41.018546300394213 ] ] ] } },
{ "type": "Feature", "properties": { "osm_id": 478509023, "name": null, "label": "landuse:orchard", "natural": null, "landuse": "orchard", "building": null, "sport": null, "leisure": null }, "geometry": { "type": "Polygon", "coordinates": [ [ [ 23.8176707, 41.016923300394033 ], [ 23.8174454, 41.016482100393986 ], [ 23.817439382358177, 41.016484001938522 ], [ 23.817439382358177, 41.016980462068588 ], [ 23.8176707, 41.016923300394033 ] ] ] } },
{ "type": "Feature", "properties": { "osm_id": 478509993, "name": null, "label": "natural:heath", "natural": "heath", "landuse": null, "building": null, "sport": null, "leisure": null }, "geometry": { "type": "Polygon", "coordinates": [ [ [ 23.8175097, 41.016405200393976 ], [ 23.8176894, 41.016585300393999 ], [ 23.8177833, 41.016761400394017 ], [ 23.8180086, 41.016868700394028 ], [ 23.8183037, 41.017158100394063 ], [ 23.818588, 41.017429200394105 ], [ 23.8186899, 41.017587100394117 ], [ 23.8188777, 41.017599200394116 ], [ 23.8186054, 41.017042700394043 ], [ 23.8186698, 41.016969900394038 ], [ 23.8181092, 41.016419400393964 ], [ 23.8176401, 41.015993200393943 ], [ 23.8175567, 41.015917500393925 ], [ 23.817439382358177, 41.015827616203524 ], [ 23.817439382358177, 41.01638231890248 ], [ 23.8175097, 41.016405200393976 ] ] ] } },
{ "type": "Feature", "properties": { "osm_id": 478508238, "name": null, "label": "natural:scrub", "natural": "scrub", "landuse": null, "building": null, "sport": null, "leisure": null }, "geometry": { "type": "Polygon", "coordinates": [ [ [ 23.8186899, 41.017890700394148 ], [ 23.8187114, 41.018194200394184 ], [ 23.8188294, 41.018319700394187 ], [ 23.8190761, 41.018424900394209 ], [ 23.8193229, 41.018445200394211 ], [ 23.8193122, 41.018360200394199 ], [ 23.8190279, 41.018194200394184 ], [ 23.8189313, 41.017999900394159 ], [ 23.8188777, 41.017599200394116 ], [ 23.8186899, 41.017587100394117 ], [ 23.8186899, 41.017890700394148 ] ] ] } },
{ "type": "Feature", "properties": { "osm_id": 478508259, "name": null, "label": "natural:scrub", "natural": "scrub", "landuse": null, "building": null, "sport": null, "leisure": null }, "geometry": { "type": "Polygon", "coordinates": [ [ [ 23.8192424, 41.018056600394168 ], [ 23.8194034, 41.018210400394189 ], [ 23.8194302, 41.018372300394219 ], [ 23.8195375, 41.018372300394219 ], [ 23.8195214, 41.018121400394172 ], [ 23.8193068, 41.017906900394145 ], [ 23.819162, 41.017866400394134 ], [ 23.8191351, 41.017979700394157 ], [ 23.8192424, 41.018056600394168 ] ] ] } },
{ "type": "Feature", "properties": { "osm_id": -6946615, "name": null, "label": "natural:wood", "natural": "wood", "landuse": null, "building": null, "sport": null, "leisure": null }, "geometry": { "type": "Polygon", "coordinates": [ [ [ 23.8212476, 41.01178120039345 ], [ 23.8214782, 41.01209290039349 ], [ 23.8220898, 41.012198200393506 ], [ 23.8227228, 41.01211720039349 ], [ 23.8230393, 41.011922900393479 ], [ 23.8230071, 41.011627400393444 ], [ 23.822814, 41.011433100393411 ], [ 23.8224814, 41.011230700393405 ], [ 23.8219342, 41.011105200393402 ], [ 23.8216284, 41.011125500393391 ], [ 23.8213602, 41.011287400393414 ], [ 23.8212422, 41.011514100393441 ], [ 23.8212476, 41.01178120039345 ] ], [ [ 23.8216016, 41.011554600393431 ], [ 23.8216338, 41.011501900393426 ], [ 23.8218913, 41.011384500393412 ], [ 23.8221542, 41.011489800393434 ], [ 23.8224599, 41.01170030039345 ], [ 23.8224224, 41.011825800393474 ], [ 23.8220147, 41.011963400393491 ], [ 23.8217035, 41.01189050039347 ], [ 23.8215909, 41.011716500393455 ], [ 23.8216016, 41.011554600393431 ] ] ] } },
{ "type": "Feature", "properties": { "osm_id": 1167869102, "name": null, "label": "landuse:orchard", "natural": null, "landuse": "orchard", "building": null, "sport": null, "leisure": null }, "geometry": { "type": "Polygon", "coordinates": [ [ [ 23.8371521, 41.023285700394752 ], [ 23.8375372, 41.023172500394722 ], [ 23.8374768, 41.022964100394709 ], [ 23.8372421, 41.02264030039467 ], [ 23.8368182, 41.022836400394702 ], [ 23.8371521, 41.023285700394752 ] ] ] } },
{ "type": "Feature", "properties": { "osm_id": 1162663741, "name": null, "label": "building:yes", "natural": null, "landuse": null, "building": "yes", "sport": null, "leisure": null }, "geometry": { "type": "Polygon", "coordinates": [ [ [ 23.8325163, 41.024625200394894 ], [ 23.8327315, 41.024531400394878 ], [ 23.832667, 41.02444710039488 ], [ 23.8324518, 41.024540900394875 ], [ 23.8325163, 41.024625200394894 ] ] ] } },
{ "type": "Feature", "properties": { "osm_id": 1162663740, "name": null, "label": "building:yes", "natural": null, "landuse": null, "building": "yes", "sport": null, "leisure": null }, "geometry": { "type": "Polygon", "coordinates": [ [ [ 23.8324316, 41.025268000394959 ], [ 23.8325625, 41.025115400394945 ], [ 23.8324169, 41.025044300394939 ], [ 23.832286, 41.025196900394953 ], [ 23.8324316, 41.025268000394959 ] ] ] } },
{ "type": "Feature", "properties": { "osm_id": 1162663742, "name": null, "label": "building:yes", "natural": null, "landuse": null, "building": "yes", "sport": null, "leisure": null }, "geometry": { "type": "Polygon", "coordinates": [ [ [ 23.8316058, 41.02430100039485 ], [ 23.8317193, 41.024221300394856 ], [ 23.8315896, 41.024116100394849 ], [ 23.8314761, 41.02419580039485 ], [ 23.8316058, 41.02430100039485 ] ] ] } },
{ "type": "Feature", "properties": { "osm_id": 1162663745, "name": null, "label": "building:yes", "natural": null, "landuse": null, "building": "yes", "sport": null, "leisure": null }, "geometry": { "type": "Polygon", "coordinates": [ [ [ 23.8305808, 41.023360800394755 ], [ 23.8306131, 41.023308000394749 ], [ 23.8305123, 41.023272900394737 ], [ 23.8305474, 41.023215600394735 ], [ 23.8304426, 41.023179000394741 ], [ 23.8304023, 41.023244700394741 ], [ 23.8303723, 41.023234300394741 ], [ 23.8303452, 41.023278700394755 ], [ 23.8305808, 41.023360800394755 ] ] ] } },
{ "type": "Feature", "properties": { "osm_id": 1162663743, "name": null, "label": "building:yes", "natural": null, "landuse": null, "building": "yes", "sport": null, "leisure": null }, "geometry": { "type": "Polygon", "coordinates": [ [ [ 23.8293681, 41.023740800394805 ], [ 23.8293628, 41.023825600394808 ], [ 23.8295287, 41.023831500394806 ], [ 23.8295295, 41.023819400394807 ], [ 23.8295937, 41.023821700394798 ], [ 23.8295901, 41.023878300394806 ], [ 23.8298551, 41.02388780039481 ], [ 23.8298746, 41.023578900394767 ], [ 23.8296551, 41.023571000394774 ], [ 23.8296464, 41.023708300394794 ], [ 23.8295421, 41.023704500394793 ], [ 23.8295431, 41.023688400394782 ], [ 23.8293477, 41.0236814003948 ], [ 23.829344, 41.023739900394794 ], [ 23.8293681, 41.023740800394805 ] ] ] } },
{ "type": "Feature", "properties": { "osm_id": 1162663744, "name": null, "label": "building:yes", "natural": null, "landuse": null, "building": "yes", "sport": null, "leisure": null }, "geometry": { "type": "Polygon", "coordinates": [ [ [ 23.8303596, 41.023693800394788 ], [ 23.8304074, 41.023584300394781 ], [ 23.8303591, 41.023572300394768 ], [ 23.8303707, 41.023545600394776 ], [ 23.8303151, 41.023531800394771 ], [ 23.8302919, 41.023584700394771 ], [ 23.8302411, 41.023572100394773 ], [ 23.8302048, 41.023655300394786 ], [ 23.8303596, 41.023693800394788 ] ] ] } },
{ "type": "Feature", "properties": { "osm_id": 183236519, "name": null, "label": "sport:soccer;leisure:sports_centre", "natural": null, "landuse": null, "building": null, "sport": "soccer", "leisure": "sports_centre" }, "geometry": { "type": "Polygon", "coordinates": [ [ [ 23.8310931, 41.026570900395107 ], [ 23.8311306, 41.026512200395103 ], [ 23.8311387, 41.026449500395096 ], [ 23.8311172, 41.026366500395078 ], [ 23.831077, 41.026281500395086 ], [ 23.8310206, 41.026216800395062 ], [ 23.830916, 41.026143900395056 ], [ 23.8307953, 41.026093400395055 ], [ 23.8307149, 41.02607110039505 ], [ 23.8306049, 41.026054900395053 ], [ 23.8304815, 41.026054900395053 ], [ 23.8304064, 41.026065000395057 ], [ 23.8303367, 41.026105500395062 ], [ 23.829779970625943, 41.026595525121827 ], [ 23.831064329767027, 41.026595525121827 ], [ 23.8310931, 41.026570900395107 ] ] ] } },
{ "type": "Feature", "properties": { "osm_id": 1162663739, "name": null, "label": "building:yes", "natural": null, "landuse": null, "building": "yes", "sport": null, "leisure": null }, "geometry": { "type": "Polygon", "coordinates": [ [ [ 23.8309876, 41.025962900395051 ], [ 23.8310997, 41.025869000395041 ], [ 23.8308679, 41.02571160039502 ], [ 23.8307559, 41.025805400395008 ], [ 23.8309876, 41.025962900395051 ] ] ] } },
{ "type": "Feature", "properties": { "osm_id": 1162663750, "name": null, "label": "building:yes", "natural": null, "landuse": null, "building": "yes", "sport": null, "leisure": null }, "geometry": { "type": "Polygon", "coordinates": [ [ [ 23.8273882, 41.026334900395078 ], [ 23.8275009, 41.026289500395073 ], [ 23.8274373, 41.026199800395062 ], [ 23.8273247, 41.026245200395074 ], [ 23.8273882, 41.026334900395078 ] ] ] } },
{ "type": "Feature", "properties": { "osm_id": 1162663751, "name": null, "label": "building:yes", "natural": null, "landuse": null, "building": "yes", "sport": null, "leisure": null }, "geometry": { "type": "Polygon", "coordinates": [ [ [ 23.8274685, 41.026425400395098 ], [ 23.8275098, 41.026415300395087 ], [ 23.82752, 41.026439200395096 ], [ 23.8276026, 41.026419100395096 ], [ 23.8275629, 41.026326300395084 ], [ 23.827439, 41.026356500395089 ], [ 23.8274685, 41.026425400395098 ] ] ] } },
{ "type": "Feature", "properties": { "osm_id": 1162663749, "name": null, "label": "building:yes", "natural": null, "landuse": null, "building": "yes", "sport": null, "leisure": null }, "geometry": { "type": "Polygon", "coordinates": [ [ [ 23.8276554, 41.025664400395002 ], [ 23.8278825, 41.025609100395002 ], [ 23.8278543, 41.025543100394984 ], [ 23.8276272, 41.025598400394998 ], [ 23.8276554, 41.025664400395002 ] ] ] } },
{ "type": "Feature", "properties": { "osm_id": 1162663737, "name": null, "label": "building:yes", "natural": null, "landuse": null, "building": "yes", "sport": null, "leisure": null }, "geometry": { "type": "Polygon", "coordinates": [ [ [ 23.8286971, 41.026553700395112 ], [ 23.8285254, 41.026555000395106 ], [ 23.828525934098213, 41.026595525121827 ], [ 23.82869765123165, 41.026595525121827 ], [ 23.8286971, 41.026553700395112 ] ] ] } },
{ "type": "Feature", "properties": { "osm_id": 1162663736, "name": null, "label": "building:yes", "natural": null, "landuse": null, "building": "yes", "sport": null, "leisure": null }, "geometry": { "type": "Polygon", "coordinates": [ [ [ 23.8284872, 41.026535400395105 ], [ 23.8287403, 41.026526800395104 ], [ 23.8287337, 41.026415700395098 ], [ 23.8284806, 41.026424300395099 ], [ 23.8284872, 41.026535400395105 ] ] ] } },
{ "type": "Feature", "properties": { "osm_id": 1162663738, "name": null, "label": "building:yes", "natural": null, "landuse": null, "building": "yes", "sport": null, "leisure": null }, "geometry": { "type": "Polygon", "coordinates": [ [ [ 23.8290134, 41.026188400395064 ], [ 23.8293366, 41.026186900395068 ], [ 23.8293334, 41.025799700395034 ], [ 23.8290102, 41.025801200395016 ], [ 23.8290134, 41.026188400395064 ] ] ] } },
{ "type": "Feature", "properties": { "osm_id": 1162663746, "name": null, "label": "building:yes", "natural": null, "landuse": null, "building": "yes", "sport": null, "leisure": null }, "geometry": { "type": "Polygon", "coordinates": [ [ [ 23.8281745, 41.024006300394831 ], [ 23.8282279, 41.023996900394813 ], [ 23.8282327, 41.024012300394837 ], [ 23.8282988, 41.024000700394829 ], [ 23.8282686, 41.0239027003948 ], [ 23.8283348, 41.023891100394806 ], [ 23.8284135, 41.024146500394842 ], [ 23.828472, 41.024136200394828 ], [ 23.8284874, 41.024186100394843 ], [ 23.8286223, 41.024162400394836 ], [ 23.8284891, 41.023730500394791 ], [ 23.82811, 41.023797000394801 ], [ 23.8281745, 41.024006300394831 ] ] ] } },
{ "type": "Feature", "properties": { "osm_id": 1162663747, "name": null, "label": "building:yes", "natural": null, "landuse": null, "building": "yes", "sport": null, "leisure": null }, "geometry": { "type": "Polygon", "coordinates": [ [ [ 23.8266498, 41.023782400394808 ], [ 23.8267289, 41.023683800394785 ], [ 23.8263106, 41.023492900394757 ], [ 23.8262316, 41.02359150039478 ], [ 23.8266498, 41.023782400394808 ] ] ] } },
{ "type": "Feature", "properties": { "osm_id": 1162663748, "name": null, "label": "building:yes", "natural": null, "landuse": null, "building": "yes", "sport": null, "leisure": null }, "geometry": { "type": "Polygon", "coordinates": [ [ [ 23.826017, 41.023400300394755 ], [ 23.8259764, 41.023445300394762 ], [ 23.826177, 41.023548300394765 ], [ 23.8262563, 41.023460400394761 ], [ 23.8259091, 41.023282100394752 ], [ 23.8258704, 41.023325000394742 ], [ 23.826017, 41.023400300394755 ] ] ] } },
{ "type": "Feature", "properties": { "osm_id": 183235327, "name": null, "label": "landuse:residential", "natural": null, "landuse": "residential", "building": null, "sport": null, "leisure": null }, "geometry": { "type": "MultiPolygon", "coordinates": [ [ [ [ 23.8221454, 41.026131500395053 ], [ 23.821867466193961, 41.026595525121827 ], [ 23.824081295189362, 41.026595525121827 ], [ 23.8221454, 41.026131500395053 ] ] ], [ [ [ 23.8333381, 41.026178300395067 ], [ 23.8334867, 41.025726300395021 ], [ 23.8333917, 41.025182800394973 ], [ 23.8324674, 41.024487900394874 ], [ 23.8311478, 41.024601200394883 ], [ 23.8296205, 41.025191200394957 ], [ 23.828199, 41.025284300394965 ], [ 23.8269544, 41.025717300395009 ], [ 23.8267989, 41.026170600395069 ], [ 23.827115928118037, 41.026595525121827 ], [ 23.833087443174509, 41.026595525121827 ], [ 23.8333381, 41.026178300395067 ] ] ] ] } },
{ "type": "Feature", "properties": { "osm_id": 1040219161, "name": null, "label": "landuse:industrial", "natural": null, "landuse": "industrial", "building": null, "sport": null, "leisure": null }, "geometry": { "type": "Polygon", "coordinates": [ [ [ 23.8441564, 41.021489600394538 ], [ 23.8444943, 41.021487800394546 ], [ 23.8444899, 41.021023300394482 ], [ 23.8441521, 41.021025100394489 ], [ 23.8441564, 41.021489600394538 ] ] ] } }
]
}
