{
"type": "FeatureCollection",
"name": "patch_1575_features",
"crs": { "type": "name", "properties": { "name": "urn:ogc:def:crs:OGC:1.3:CRS84" } },
"features": [
{ "type": "Feature", "properties": { "@type": "way", "@id": 550868503, "access": null, "admin_level": null, "alt_name": null, "bicycle": null, "boundary": null, "castle_type": null, "ele": null, "foot": null, "highway": null, "historic": null, "lanes": null, "leaf_type": null, "leisure": null, "lit": null, "name": null, "name:el": null, "name:en": null, "natural": null, "noexit": null, "note": null, "old_ref": null, "oneway": null, "place": null, "protect_class": null, "protection_title": null, "reg_ref": null, "service": null, "smoothness": null, "source": null, "surface": null, "waterway": "stream", "wikidata": null, "label": "waterway:stream" }, "geometry": { "type": "LineString", "coordinates": [ [ 21.647903, 38.7325502 ], [ 21.6482363, 38.7326327 ], [ 21.648504377389369, 38.732675561947779 ] ] } },
{ "type": "Feature", "properties": { "@type": "node", "@id": 356735921, "access": null, "admin_level": null, "alt_name": null, "bicycle": null, "boundary": null, "castle_type": null, "ele": "1580", "foot": null, "highway": null, "historic": null, "lanes": null, "leaf_type": null, "leisure": null, "lit": null, "name": null, "name:el": null, "name:en": null, "natural": "peak", "noexit": null, "note": null, "old_ref": null, "oneway": null, "place": null, "protect_class": null, "protection_title": null, "reg_ref": null, "service": null, "smoothness": null, "source": null, "surface": null, "waterway": null, "wikidata": null, "label": "natural:peak" }, "geometry": { "type": "Point", "coordinates": [ 21.6200763, 38.721379 ] } },
{ "type": "Feature", "properties": { "@type": "node", "@id": 5320191170, "access": null, "admin_level": null, "alt_name": null, "bicycle": null, "boundary": null, "castle_type": null, "ele": null, "foot": null, "highway": null, "historic": null, "lanes": null, "leaf_type": null, "leisure": null, "lit": null, "name": "Καταρράκτης Μαύρης Σπηλιάς", "name:el": null, "name:en": null, "natural": null, "noexit": null, "note": null, "old_ref": null, "oneway": null, "place": null, "protect_class": null, "protection_title": null, "reg_ref": null, "service": null, "smoothness": null, "source": null, "surface": null, "waterway": "waterfall", "wikidata": null, "label": "waterway:waterfall" }, "geometry": { "type": "Point", "coordinates": [ 21.6482363, 38.7326327 ] } },
{ "type": "Feature", "properties": { "@type": "node", "@id": 8897233639, "access": null, "admin_level": null, "alt_name": "Πύργος Θολής", "bicycle": null, "boundary": null, "castle_type": "fortress", "ele": null, "foot": null, "highway": null, "historic": "castle", "lanes": null, "leaf_type": null, "leisure": null, "lit": null, "name": "Μαύρη Σπηλιά Προυσού", "name:el": "Μαύρη Σπηλιά Προυσού", "name:en": "Black Cave of Prousos", "natural": null, "noexit": null, "note": null, "old_ref": null, "oneway": null, "place": null, "protect_class": null, "protection_title": null, "reg_ref": null, "service": null, "smoothness": null, "source": "https://www.kastra.eu/castlegr.php?kastro=blackcave", "surface": null, "waterway": null, "wikidata": "Q108612419", "label": "historic:castle" }, "geometry": { "type": "Point", "coordinates": [ 21.6471457, 38.7327491 ] } },
{ "type": "Feature", "properties": { "@type": "way", "@id": 135871127, "access": null, "admin_level": null, "alt_name": null, "bicycle": null, "boundary": null, "castle_type": null, "ele": null, "foot": null, "highway": null, "historic": null, "lanes": null, "leaf_type": "needleleaved", "leisure": null, "lit": null, "name": null, "name:el": null, "name:en": null, "natural": "wood", "noexit": null, "note": null, "old_ref": null, "oneway": null, "place": null, "protect_class": null, "protection_title": null, "reg_ref": null, "service": null, "smoothness": null, "source": "http://geodata.gov.gr/", "surface": null, "waterway": null, "wikidata": null, "label": "natural:wood" }, "geometry": { "type": "Polygon", "coordinates": [ [ [ 21.648444, 38.724541 ], [ 21.648497, 38.723699 ], [ 21.648215, 38.723145 ], [ 21.647418, 38.723051 ], [ 21.646496, 38.723974 ], [ 21.6463214, 38.7238501 ], [ 21.6461468, 38.7238876 ], [ 21.6460045, 38.7239985 ], [ 21.6461433, 38.7241571 ], [ 21.6461803, 38.7243157 ], [ 21.6460306, 38.7242635 ], [ 21.6458945, 38.7242949 ], [ 21.645815, 38.7243969 ], [ 21.645837, 38.7245214 ], [ 21.6456659, 38.7247301 ], [ 21.6455881, 38.7245296 ], [ 21.6456022, 38.7242632 ], [ 21.645628, 38.724005 ], [ 21.6457816, 38.7238738 ], [ 21.645822, 38.7237426 ], [ 21.6458408, 38.7234051 ], [ 21.6460966, 38.7231453 ], [ 21.6462245, 38.7229077 ], [ 21.6462118, 38.7226215 ], [ 21.6459909, 38.7225023 ], [ 21.6459386, 38.7223502 ], [ 21.645911, 38.721082 ], [ 21.646069, 38.720589 ], [ 21.646319, 38.717387 ], [ 21.6461569, 38.7155385 ], [ 21.6462867, 38.7154394 ], [ 21.6464221, 38.7153775 ], [ 21.6464781, 38.7152427 ], [ 21.6464314, 38.7150933 ], [ 21.6464501, 38.7149949 ], [ 21.6463614, 38.7149147 ], [ 21.646268, 38.7147653 ], [ 21.646226, 38.7146487 ], [ 21.6461746, 38.7145248 ], [ 21.6460625, 38.7144705 ], [ 21.6459504, 38.7144629 ], [ 21.645871, 38.7143572 ], [ 21.6457216, 38.7143354 ], [ 21.6456702, 38.714288 ], [ 21.6456702, 38.7142042 ], [ 21.6455862, 38.7142443 ], [ 21.6455768, 38.714339 ], [ 21.6455021, 38.7143499 ], [ 21.6455441, 38.714441 ], [ 21.6455021, 38.7145248 ], [ 21.6453713, 38.7145358 ], [ 21.6452359, 38.7144447 ], [ 21.6450631, 38.7144848 ], [ 21.6450024, 38.714441 ], [ 21.6449604, 38.7143427 ], [ 21.644867, 38.7143754 ], [ 21.644867, 38.7144665 ], [ 21.6449417, 38.7145394 ], [ 21.6450818, 38.7145649 ], [ 21.6451752, 38.7145504 ], [ 21.6451752, 38.7146196 ], [ 21.6450771, 38.714656 ], [ 21.6449043, 38.7146269 ], [ 21.6448109, 38.7145248 ], [ 21.6446428, 38.7144483 ], [ 21.6445915, 38.7143244 ], [ 21.6446989, 38.7143244 ], [ 21.6447829, 38.7143572 ], [ 21.6447829, 38.7142661 ], [ 21.6446802, 38.7142042 ], [ 21.6445261, 38.7141787 ], [ 21.6444233, 38.7141167 ], [ 21.6443977, 38.714052 ], [ 21.644212, 38.714052 ], [ 21.642557, 38.714452 ], [ 21.64227, 38.715013 ], [ 21.642232, 38.716565 ], [ 21.6423849, 38.7186117 ], [ 21.6424037, 38.7188639 ], [ 21.642417, 38.719042 ], [ 21.641898, 38.721033 ], [ 21.6419606, 38.7217204 ], [ 21.642277, 38.725198 ], [ 21.641973, 38.726889 ], [ 21.641799, 38.728438 ], [ 21.641469, 38.729043 ], [ 21.641603, 38.729516 ], [ 21.642079, 38.73027 ], [ 21.642876, 38.730365 ], [ 21.643712, 38.730812 ], [ 21.644352, 38.731538 ], [ 21.644716, 38.732052 ], [ 21.645593, 38.731666 ], [ 21.645674, 38.731086 ], [ 21.645436, 38.73079 ], [ 21.645078, 38.730395 ], [ 21.644905, 38.730004 ], [ 21.645041, 38.729618 ], [ 21.645604, 38.729436 ], [ 21.646283, 38.729498 ], [ 21.647572, 38.729863 ], [ 21.648504377389369, 38.730751177564379 ], [ 21.648504377389369, 38.7252225201211 ], [ 21.648444, 38.724541 ] ] ] } },
{ "type": "Feature", "properties": { "@type": "way", "@id": 138542959, "access": null, "admin_level": null, "alt_name": null, "bicycle": null, "boundary": "protected_area", "castle_type": null, "ele": null, "foot": null, "highway": null, "historic": null, "lanes": null, "leaf_type": null, "leisure": "nature_reserve", "lit": null, "name": "Προυσός", "name:el": null, "name:en": "Prousos", "natural": null, "noexit": null, "note": null, "old_ref": null, "oneway": null, "place": null, "protect_class": "4", "protection_title": "Wildlife Refugee", "reg_ref": null, "service": null, "smoothness": null, "source": "http://geodata.gov.gr/", "surface": null, "waterway": null, "wikidata": null, "label": "leisure:nature_reserve" }, "geometry": { "type": "Polygon", "coordinates": [ [ [ 21.648459, 38.7161767 ], [ 21.6466546, 38.7160098 ], [ 21.6444456, 38.7161139 ], [ 21.6430531, 38.7165364 ], [ 21.6409929, 38.7170534 ], [ 21.6397735, 38.7173171 ], [ 21.6386149, 38.7178929 ], [ 21.6378352, 38.7185844 ], [ 21.6371413, 38.7191155 ], [ 21.6360399, 38.7196023 ], [ 21.6345891, 38.7199784 ], [ 21.6326998, 38.7201068 ], [ 21.6310716, 38.7201414 ], [ 21.6286001, 38.7201588 ], [ 21.6266234, 38.7202448 ], [ 21.62456, 38.7204192 ], [ 21.6222652, 38.7207329 ], [ 21.6205521, 38.7210629 ], [ 21.618853069319364, 38.721294864203159 ], [ 21.618853069319364, 38.734057831131786 ], [ 21.648504377389369, 38.734057831131786 ], [ 21.648504377389369, 38.716182296867565 ], [ 21.648459, 38.7161767 ] ] ] } },
{ "type": "Feature", "properties": { "@type": "way", "@id": 788943773, "access": null, "admin_level": null, "alt_name": null, "bicycle": null, "boundary": null, "castle_type": null, "ele": null, "foot": null, "highway": null, "historic": null, "lanes": null, "leaf_type": "mixed", "leisure": null, "lit": null, "name": null, "name:el": null, "name:en": null, "natural": "wood", "noexit": null, "note": null, "old_ref": null, "oneway": null, "place": null, "protect_class": null, "protection_title": null, "reg_ref": null, "service": null, "smoothness": null, "source": null, "surface": null, "waterway": null, "wikidata": null, "label": "natural:wood" }, "geometry": { "type": "Polygon", "coordinates": [ [ [ 21.619105, 38.721399 ], [ 21.619603, 38.720528 ], [ 21.62018, 38.720099 ], [ 21.620537, 38.718636 ], [ 21.61947, 38.718028 ], [ 21.619449, 38.71683 ], [ 21.620076, 38.71423 ], [ 21.621757, 38.711687 ], [ 21.6220079, 38.7116136 ], [ 21.6220974, 38.7113852 ], [ 21.6220974, 38.711148679043959 ], [ 21.618853069319364, 38.711148679043959 ], [ 21.618853069319364, 38.721642342134707 ], [ 21.619105, 38.721399 ] ] ] } },
{ "type": "Feature", "properties": { "@type": "way", "@id": 1414968259, "access": null, "admin_level": null, "alt_name": null, "bicycle": null, "boundary": null, "castle_type": null, "ele": null, "foot": null, "highway": null, "historic": null, "lanes": null, "leaf_type": null, "leisure": null, "lit": null, "name": null, "name:el": null, "name:en": null, "natural": "wood", "noexit": null, "note": null, "old_ref": null, "oneway": null, "place": null, "protect_class": null, "protection_title": null, "reg_ref": null, "service": null, "smoothness": null, "source": null, "surface": null, "waterway": null, "wikidata": null, "label": "natural:wood" }, "geometry": { "type": "Polygon", "coordinates": [ [ [ 21.6443197, 38.7339746 ], [ 21.6442082, 38.7337872 ], [ 21.6443412, 38.7332884 ], [ 21.6445, 38.7328632 ], [ 21.6445987, 38.732495 ], [ 21.6446068, 38.7322597 ], [ 21.643661642092191, 38.734057831131786 ], [ 21.644385164550087, 38.734057831131786 ], [ 21.6443197, 38.7339746 ] ] ] } }
]
}
