{
"type": "FeatureCollection",
"name": "patch_1575_point",
"crs": { "type": "name", "properties": { "name": "urn:ogc:def:crs:OGC:1.3:CRS84" } },
"features": [
{ "type": "Feature", "properties": { "@type": "node", "@id": 356735921, "access": null, "admin_level": null, "alt_name": null, "bicycle": null, "boundary": null, "castle_type": null, "ele": "1580", "foot": null, "highway": null, "historic": null, "lanes": null, "leaf_type": null, "leisure": null, "lit": null, "name": null, "name:el": null, "name:en": null, "natural": "peak", "noexit": null, "note": null, "old_ref": null, "oneway": null, "place": null, "protect_class": null, "protection_title": null, "reg_ref": null, "service": null, "smoothness": null, "source": null, "surface": null, "waterway": null, "wikidata": null, "label": "natural:peak" }, "geometry": { "type": "Point", "coordinates": [ 21.6200763, 38.721379 ] } },
{ "type": "Feature", "properties": { "@type": "node", "@id": 5320191170, "access": null, "admin_level": null, "alt_name": null, "bicycle": null, "boundary": null, "castle_type": null, "ele": null, "foot": null, "highway": null, "historic": null, "lanes": null, "leaf_type": null, "leisure": null, "lit": null, "name": "Καταρράκτης Μαύρης Σπηλιάς", "name:el": null, "name:en": null, "natural": null, "noexit": null, "note": null, "old_ref": null, "oneway": null, "place": null, "protect_class": null, "protection_title": null, "reg_ref": null, "service": null, "smoothness": null, "source": null, "surface": null, "waterway": "waterfall", "wikidata": null, "label": "waterway:waterfall" }, "geometry": { "type": "Point", "coordinates": [ 21.6482363, 38.7326327 ] } },
{ "type": "Feature", "properties": { "@type": "node", "@id": 8897233639, "access": null, "admin_level": null, "alt_name": "Πύργος Θολής", "bicycle": null, "boundary": null, "castle_type": "fortress", "ele": null, "foot": null, "highway": null, "historic": "castle", "lanes": null, "leaf_type": null, "leisure": null, "lit": null, "name": "Μαύρη Σπηλιά Προυσού", "name:el": "Μαύρη Σπηλιά Προυσού", "name:en": "Black Cave of Prousos", "natural": null, "noexit": null, "note": null, "old_ref": null, "oneway": null, "place": null, "protect_class": null, "protection_title": null, "reg_ref": null, "service": null, "smoothness": null, "source": "https://www.kastra.eu/castlegr.php?kastro=blackcave", "surface": null, "waterway": null, "wikidata": "Q108612419", "label": "historic:castle" }, "geometry": { "type": "Point", "coordinates": [ 21.6471457, 38.7327491 ] } }
]
}
