{
"type": "FeatureCollection",
"name": "patch_66856_point",
"crs": { "type": "name", "properties": { "name": "urn:ogc:def:crs:OGC:1.3:CRS84" } },
"features": [
{ "type": "Feature", "properties": { "@type": "node", "@id": 1109534408, "admin_level": null, "alt_name": null, "border_type": null, "boundary": "marker", "ele": "1064.2", "highway": null, "historic": "boundary_stone", "leaf_type": null, "lit": null, "man_made": null, "marker": "stone", "name": "156", "natural": null, "note": null, "ref": null, "source": null, "surface": null, "label": "historic:boundary_stone" }, "geometry": { "type": "Point", "coordinates": [ 25.9031324, 41.3065238 ] } }
]
}
