{
"type": "FeatureCollection",
"name": "patch_31838_polygon",
"crs": { "type": "name", "properties": { "name": "urn:ogc:def:crs:OGC:1.3:CRS84" } },
"features": [
{ "type": "Feature", "properties": { "osm_id": -12301781, "name": "Λίμνη Κάρλα", "label": "water:reservoir;natural:water", "water": "reservoir", "natural": "water", "waterway": null, "landuse": null, "historic": null, "amenity": null }, "geometry": { "type": "Polygon", "coordinates": [ [ [ 22.7895277, 39.530299300202095 ], [ 22.7894132, 39.530398400202102 ], [ 22.7893409, 39.530504700202123 ], [ 22.7892778, 39.530583900202124 ], [ 22.7885422, 39.531463500202243 ], [ 22.7884465, 39.531584500202257 ], [ 22.7883587, 39.531708100202295 ], [ 22.7882865, 39.531819300202294 ], [ 22.7881711, 39.532024700202335 ], [ 22.7880876, 39.532194000202352 ], [ 22.7880198, 39.532372200202374 ], [ 22.78796, 39.532556100202413 ], [ 22.7879274, 39.53272390020242 ], [ 22.787903, 39.532893200202437 ], [ 22.7878332, 39.533731700202573 ], [ 22.787897, 39.533876400202587 ], [ 22.7878756, 39.534145700202629 ], [ 22.7881713, 39.534156200202624 ], [ 22.7884832, 39.534167400202627 ], [ 22.7885248, 39.533910900202592 ], [ 22.7887745, 39.53260450020241 ], [ 22.7892749, 39.531861000202305 ], [ 22.790462, 39.530802600202144 ], [ 22.7908695, 39.530571300202119 ], [ 22.791256, 39.530534700202097 ], [ 22.7941374, 39.531153000202202 ], [ 22.795939, 39.531499700202247 ], [ 22.7983687, 39.531917800202308 ], [ 22.800734, 39.532097900202331 ], [ 22.8022477, 39.531680100202287 ], [ 22.8036204, 39.531011900202195 ], [ 22.804353807649939, 39.530268229272352 ], [ 22.789561910070834, 39.530268229272352 ], [ 22.7895277, 39.530299300202095 ] ], [ [ 22.7996143, 39.531654200202276 ], [ 22.7996466, 39.53166330020229 ], [ 22.7996847, 39.531679200202277 ], [ 22.7996877, 39.531710900202285 ], [ 22.7996994, 39.531738000202282 ], [ 22.7997405, 39.531751600202298 ], [ 22.7998022, 39.531753900202283 ], [ 22.7998345, 39.531765200202301 ], [ 22.7998463, 39.53179470020229 ], [ 22.7998874, 39.531810500202297 ], [ 22.7999696, 39.531810500202297 ], [ 22.8000254, 39.531810500202297 ], [ 22.8000959, 39.531826400202306 ], [ 22.8001546, 39.531837700202296 ], [ 22.8001987, 39.53184680020231 ], [ 22.8002721, 39.53184680020231 ], [ 22.8003132, 39.53184680020231 ], [ 22.8003807, 39.531826400202306 ], [ 22.8004277, 39.531826400202306 ], [ 22.8004894, 39.531803700202282 ], [ 22.8005423, 39.531803700202282 ], [ 22.8005775, 39.531819600202283 ], [ 22.8005922, 39.531849000202307 ], [ 22.8006304, 39.531874000202308 ], [ 22.8006568, 39.531917000202306 ], [ 22.8006362, 39.531937400202303 ], [ 22.8005804, 39.531948700202314 ], [ 22.8005423, 39.531948700202314 ], [ 22.800507, 39.531941900202312 ], [ 22.8004454, 39.531926000202319 ], [ 22.8003896, 39.531917000202306 ], [ 22.8003103, 39.531905700202316 ], [ 22.8002427, 39.531903400202317 ], [ 22.8001693, 39.531883000202313 ], [ 22.8001047, 39.531878500202311 ], [ 22.8000283, 39.531867200202313 ], [ 22.7999461, 39.531842200202291 ], [ 22.7998786, 39.531828700202297 ], [ 22.7998257, 39.531819600202283 ], [ 22.7997611, 39.531801500202285 ], [ 22.7996994, 39.5317992002023 ], [ 22.7996524, 39.531781100202295 ], [ 22.7996524, 39.531751600202298 ], [ 22.7996524, 39.531724500202294 ], [ 22.7996289, 39.531697300202282 ], [ 22.7996084, 39.531676900202271 ], [ 22.7996143, 39.531654200202276 ] ] ] } },
{ "type": "Feature", "properties": { "osm_id": 813482863, "name": null, "label": "waterway:dam", "water": null, "natural": null, "waterway": "dam", "landuse": null, "historic": null, "amenity": null }, "geometry": { "type": "Polygon", "coordinates": [ [ [ 22.7880495, 39.531062300202194 ], [ 22.7879117, 39.531239800202215 ], [ 22.7877929, 39.531405400202246 ], [ 22.7876916, 39.531559000202265 ], [ 22.7876039, 39.531712900202287 ], [ 22.7875241, 39.531865500202301 ], [ 22.7874338, 39.532083900202338 ], [ 22.7873648, 39.532290000202366 ], [ 22.78731, 39.5325015002024 ], [ 22.7872781, 39.532726700202417 ], [ 22.7872533, 39.532943700202459 ], [ 22.7872392, 39.533144300202487 ], [ 22.7872339, 39.533436400202532 ], [ 22.7872392, 39.53386090020259 ], [ 22.7872565, 39.534347700202652 ], [ 22.7872753, 39.534374500202645 ], [ 22.7873759, 39.534413900202651 ], [ 22.7874322, 39.534430400202666 ], [ 22.7874818, 39.534433500202674 ], [ 22.7875382, 39.534426300202654 ], [ 22.7875824, 39.534410700202677 ], [ 22.7876052, 39.534383900202656 ], [ 22.7876173, 39.534317700202656 ], [ 22.7876361, 39.534274200202645 ], [ 22.7876683, 39.534232800202631 ], [ 22.7877045, 39.534199700202642 ], [ 22.7877541, 39.534172900202634 ], [ 22.787789, 39.534157300202615 ], [ 22.7878319, 39.534148000202634 ], [ 22.7878756, 39.534145700202629 ], [ 22.787897, 39.533876400202587 ], [ 22.7878332, 39.533731700202573 ], [ 22.787903, 39.532893200202437 ], [ 22.7879274, 39.53272390020242 ], [ 22.78796, 39.532556100202413 ], [ 22.7880198, 39.532372200202374 ], [ 22.7880876, 39.532194000202352 ], [ 22.7881711, 39.532024700202335 ], [ 22.7882865, 39.531819300202294 ], [ 22.7883587, 39.531708100202295 ], [ 22.7884465, 39.531584500202257 ], [ 22.7885422, 39.531463500202243 ], [ 22.7892778, 39.530583900202124 ], [ 22.7893409, 39.530504700202123 ], [ 22.7894132, 39.530398400202102 ], [ 22.7895277, 39.530299300202095 ], [ 22.789561910070834, 39.530268229272352 ], [ 22.788733267069439, 39.530268229272352 ], [ 22.7880495, 39.531062300202194 ] ] ] } },
{ "type": "Feature", "properties": { "osm_id": 1341502706, "name": null, "label": "landuse:farmland", "water": null, "natural": null, "waterway": null, "landuse": "farmland", "historic": null, "amenity": null }, "geometry": { "type": "Polygon", "coordinates": [ [ [ 22.7792569, 39.542575900203822 ], [ 22.779722, 39.542109400203749 ], [ 22.7801611, 39.541790900203708 ], [ 22.7815954, 39.540825300203572 ], [ 22.7824703, 39.54013050020346 ], [ 22.7837907, 39.539006900203312 ], [ 22.7838363, 39.538956700203308 ], [ 22.7839208, 39.538878900203294 ], [ 22.7839533, 39.538801200203302 ], [ 22.7839956, 39.538610600203263 ], [ 22.7840607, 39.538176600203194 ], [ 22.7841713, 39.537512000203101 ], [ 22.7842623, 39.537050400203029 ], [ 22.7843631, 39.536779500202996 ], [ 22.7845811, 39.536385700202942 ], [ 22.7847729, 39.536119900202905 ], [ 22.7850592, 39.53576370020285 ], [ 22.7854559, 39.535402500202792 ], [ 22.7857588, 39.535201200202778 ], [ 22.7862352, 39.534916500202748 ], [ 22.7864884, 39.534717900202722 ], [ 22.7865399, 39.534645100202695 ], [ 22.7865742, 39.534463100202672 ], [ 22.7865785, 39.534238000202649 ], [ 22.7865742, 39.533635600202558 ], [ 22.7865699, 39.533129200202488 ], [ 22.7866, 39.532742000202425 ], [ 22.7866858, 39.532377900202377 ], [ 22.7867845, 39.532017100202317 ], [ 22.7869905, 39.531537200202266 ], [ 22.7872137, 39.531331900202233 ], [ 22.788177393853651, 39.530268229272352 ], [ 22.779116137430989, 39.530268229272352 ], [ 22.779116137430989, 39.542729284650797 ], [ 22.7792569, 39.542575900203822 ] ] ] } },
{ "type": "Feature", "properties": { "osm_id": 1341004427, "name": null, "label": "landuse:farmland", "water": null, "natural": null, "waterway": null, "landuse": "farmland", "historic": null, "amenity": null }, "geometry": { "type": "Polygon", "coordinates": [ [ [ 22.8042868, 39.532616500202415 ], [ 22.8033524, 39.533363400202511 ], [ 22.8029787, 39.533634100202555 ], [ 22.8027239, 39.533773900202583 ], [ 22.8029392, 39.533915100202591 ], [ 22.8031176, 39.534043900202612 ], [ 22.8035055, 39.534240500202642 ], [ 22.8039613, 39.534456600202674 ], [ 22.8042218, 39.53450030020268 ], [ 22.804638, 39.534415100202658 ], [ 22.8054223, 39.534196800202636 ], [ 22.8067812, 39.533874300202584 ], [ 22.8072597, 39.533994400202609 ], [ 22.8077439, 39.533994400202609 ], [ 22.8081034, 39.533922400202599 ], [ 22.8083158, 39.533841600202585 ], [ 22.8087009, 39.533583900202551 ], [ 22.8090463, 39.533466000202523 ], [ 22.809487839890178, 39.533397154832699 ], [ 22.809487839890178, 39.530268229272352 ], [ 22.807289081274206, 39.530268229272352 ], [ 22.8042868, 39.532616500202415 ] ] ] } },
{ "type": "Feature", "properties": { "osm_id": 1341004428, "name": null, "label": "landuse:farmland", "water": null, "natural": null, "waterway": null, "landuse": "farmland", "historic": null, "amenity": null }, "geometry": { "type": "Polygon", "coordinates": [ [ [ 22.8045179, 39.531449400202241 ], [ 22.8045212, 39.531519700202246 ], [ 22.8049537, 39.531880900202303 ], [ 22.8067002, 39.530551400202121 ], [ 22.807056132624695, 39.530268229272352 ], [ 22.805936477189661, 39.530268229272352 ], [ 22.8045179, 39.531449400202241 ] ] ] } },
{ "type": "Feature", "properties": { "osm_id": 906417029, "name": null, "label": "natural:wetland", "water": null, "natural": "wetland", "waterway": null, "landuse": null, "historic": null, "amenity": null }, "geometry": { "type": "Polygon", "coordinates": [ [ [ 22.7996289, 39.531697300202282 ], [ 22.7996524, 39.531724500202294 ], [ 22.7996524, 39.531751600202298 ], [ 22.7996524, 39.531781100202295 ], [ 22.7996994, 39.5317992002023 ], [ 22.7997611, 39.531801500202285 ], [ 22.7998257, 39.531819600202283 ], [ 22.7998786, 39.531828700202297 ], [ 22.7999461, 39.531842200202291 ], [ 22.8000283, 39.531867200202313 ], [ 22.8001047, 39.531878500202311 ], [ 22.8001693, 39.531883000202313 ], [ 22.8002427, 39.531903400202317 ], [ 22.8003103, 39.531905700202316 ], [ 22.8003896, 39.531917000202306 ], [ 22.8004454, 39.531926000202319 ], [ 22.800507, 39.531941900202312 ], [ 22.8005423, 39.531948700202314 ], [ 22.8005804, 39.531948700202314 ], [ 22.8006362, 39.531937400202303 ], [ 22.8006568, 39.531917000202306 ], [ 22.8006304, 39.531874000202308 ], [ 22.8005922, 39.531849000202307 ], [ 22.8005775, 39.531819600202283 ], [ 22.8005423, 39.531803700202282 ], [ 22.8004894, 39.531803700202282 ], [ 22.8004277, 39.531826400202306 ], [ 22.8003807, 39.531826400202306 ], [ 22.8003132, 39.53184680020231 ], [ 22.8002721, 39.53184680020231 ], [ 22.8001987, 39.53184680020231 ], [ 22.8001546, 39.531837700202296 ], [ 22.8000959, 39.531826400202306 ], [ 22.8000254, 39.531810500202297 ], [ 22.7999696, 39.531810500202297 ], [ 22.7998874, 39.531810500202297 ], [ 22.7998463, 39.53179470020229 ], [ 22.7998345, 39.531765200202301 ], [ 22.7998022, 39.531753900202283 ], [ 22.7997405, 39.531751600202298 ], [ 22.7996994, 39.531738000202282 ], [ 22.7996877, 39.531710900202285 ], [ 22.7996847, 39.531679200202277 ], [ 22.7996466, 39.53166330020229 ], [ 22.7996143, 39.531654200202276 ], [ 22.7996084, 39.531676900202271 ], [ 22.7996289, 39.531697300202282 ] ] ] } },
{ "type": "Feature", "properties": { "osm_id": 1341004437, "name": null, "label": "landuse:farmland", "water": null, "natural": null, "waterway": null, "landuse": "farmland", "historic": null, "amenity": null }, "geometry": { "type": "Polygon", "coordinates": [ [ [ 22.7935505, 39.540252100203503 ], [ 22.7936838, 39.540362500203514 ], [ 22.7940513, 39.540535500203532 ], [ 22.7943083, 39.540600800203542 ], [ 22.7946205, 39.54064340020355 ], [ 22.7949457, 39.540633400203532 ], [ 22.7960645, 39.540437700203512 ], [ 22.7966044, 39.539482100203386 ], [ 22.7959865, 39.539321600203358 ], [ 22.7953946, 39.539083300203323 ], [ 22.7944286, 39.538626800203261 ], [ 22.7942692, 39.538659400203272 ], [ 22.7941066, 39.538840000203294 ], [ 22.7938586, 39.539217600203337 ], [ 22.7936688, 39.539700400203422 ], [ 22.7934395, 39.540109100203473 ], [ 22.7935505, 39.540252100203503 ] ] ] } },
{ "type": "Feature", "properties": { "osm_id": 1341004438, "name": null, "label": "landuse:orchard", "water": null, "natural": null, "waterway": null, "landuse": "orchard", "historic": null, "amenity": null }, "geometry": { "type": "Polygon", "coordinates": [ [ [ 22.796715, 39.540420200203521 ], [ 22.7976289, 39.539946100203451 ], [ 22.7974891, 39.539885900203444 ], [ 22.7975053, 39.53977560020342 ], [ 22.7975769, 39.539682800203401 ], [ 22.7971541, 39.539569900203396 ], [ 22.7968776, 39.539482100203386 ], [ 22.7966044, 39.539482100203386 ], [ 22.7960645, 39.540437700203512 ], [ 22.796715, 39.540420200203521 ] ] ] } },
{ "type": "Feature", "properties": { "osm_id": 1341004439, "name": null, "label": "landuse:orchard", "water": null, "natural": null, "waterway": null, "landuse": "orchard", "historic": null, "amenity": null }, "geometry": { "type": "Polygon", "coordinates": [ [ [ 22.797076, 39.541175100203624 ], [ 22.797759, 39.541982700203739 ], [ 22.7978631, 39.541905000203734 ], [ 22.7979314, 39.541586400203684 ], [ 22.7978013, 39.541400800203654 ], [ 22.7982501, 39.541222800203634 ], [ 22.7981656, 39.541097400203597 ], [ 22.7996617, 39.540490400203531 ], [ 22.7992389, 39.539878400203442 ], [ 22.7991212, 39.539859400203433 ], [ 22.7986685, 39.539811400203433 ], [ 22.798559, 39.539816400203435 ], [ 22.7980483, 39.540005000203465 ], [ 22.7975591, 39.540177100203479 ], [ 22.7972179, 39.540354200203502 ], [ 22.7968223, 39.540558100203533 ], [ 22.797076, 39.541175100203624 ] ] ] } },
{ "type": "Feature", "properties": { "osm_id": 1341004440, "name": null, "label": "landuse:orchard", "water": null, "natural": null, "waterway": null, "landuse": "orchard", "historic": null, "amenity": null }, "geometry": { "type": "Polygon", "coordinates": [ [ [ 22.800988, 39.539538400203391 ], [ 22.8009966, 39.539472200203392 ], [ 22.8009494, 39.539363000203366 ], [ 22.8010031, 39.539232200203351 ], [ 22.8006962, 39.539126300203336 ], [ 22.8005031, 39.538993900203316 ], [ 22.8004258, 39.538891300203304 ], [ 22.8003422, 39.538773900203296 ], [ 22.8002585, 39.538747400203263 ], [ 22.8000267, 39.539212400203347 ], [ 22.800988, 39.539538400203391 ] ] ] } },
{ "type": "Feature", "properties": { "osm_id": 1341004441, "name": null, "label": "landuse:orchard", "water": null, "natural": null, "waterway": null, "landuse": "orchard", "historic": null, "amenity": null }, "geometry": { "type": "Polygon", "coordinates": [ [ [ 22.7954839, 39.541979400203736 ], [ 22.7957698, 39.541899600203728 ], [ 22.7959769, 39.541943300203741 ], [ 22.79628, 39.541947100203735 ], [ 22.7964501, 39.541888200203722 ], [ 22.7966448, 39.541717100203705 ], [ 22.7966596, 39.541582100203669 ], [ 22.7966522, 39.541496600203658 ], [ 22.7967977, 39.541549800203676 ], [ 22.7970318, 39.541572600203679 ], [ 22.7971206, 39.541549800203676 ], [ 22.79681, 39.540856000203583 ], [ 22.7967632, 39.540780000203561 ], [ 22.7965783, 39.540823700203568 ], [ 22.7965906, 39.540567100203532 ], [ 22.7962332, 39.540567100203532 ], [ 22.7960853, 39.540572800203527 ], [ 22.7958216, 39.540629800203526 ], [ 22.7957649, 39.541367300203646 ], [ 22.7957181, 39.54151370020368 ], [ 22.7955997, 39.541650600203695 ], [ 22.7954174, 39.541758900203703 ], [ 22.7954839, 39.541979400203736 ] ] ] } },
{ "type": "Feature", "properties": { "osm_id": 1341004445, "name": null, "label": "landuse:orchard", "water": null, "natural": null, "waterway": null, "landuse": "orchard", "historic": null, "amenity": null }, "geometry": { "type": "Polygon", "coordinates": [ [ [ 22.7897347, 39.542105400203752 ], [ 22.7904643, 39.541985300203734 ], [ 22.7908241, 39.541804700203713 ], [ 22.7910065, 39.541662200203689 ], [ 22.7915143, 39.541890300203718 ], [ 22.7920787, 39.54264490020384 ], [ 22.7924509, 39.542601100203825 ], [ 22.7927393, 39.542416800203796 ], [ 22.7931485, 39.542154500203758 ], [ 22.793602, 39.54202900020374 ], [ 22.7940999, 39.54187500020371 ], [ 22.7940753, 39.541821800203721 ], [ 22.7931436, 39.54193590020374 ], [ 22.7933383, 39.541692600203696 ], [ 22.7934837, 39.541513900203675 ], [ 22.7933679, 39.54123070020362 ], [ 22.7933038, 39.540987400203605 ], [ 22.7931855, 39.540871400203578 ], [ 22.7930992, 39.540820100203575 ], [ 22.7928404, 39.540861900203588 ], [ 22.7923129, 39.541029200203596 ], [ 22.7918051, 39.541407500203654 ], [ 22.7915069, 39.541472100203663 ], [ 22.7910361, 39.541342800203658 ], [ 22.7907354, 39.541339000203656 ], [ 22.7902449, 39.541401800203651 ], [ 22.7895433, 39.54154650020368 ], [ 22.7897347, 39.542105400203752 ] ] ] } },
{ "type": "Feature", "properties": { "osm_id": 1341004436, "name": null, "label": "landuse:orchard", "water": null, "natural": null, "waterway": null, "landuse": "orchard", "historic": null, "amenity": null }, "geometry": { "type": "Polygon", "coordinates": [ [ [ 22.791968, 39.539088300203332 ], [ 22.7923328, 39.539236600203353 ], [ 22.7934395, 39.540109100203473 ], [ 22.7936688, 39.539700400203422 ], [ 22.7938586, 39.539217600203337 ], [ 22.7929811, 39.538506700203243 ], [ 22.7926015, 39.538748100203271 ], [ 22.7921135, 39.538350800203226 ], [ 22.7917832, 39.538668200203261 ], [ 22.7917018, 39.538694900203282 ], [ 22.7915564, 39.538664400203274 ], [ 22.7913691, 39.538706300203273 ], [ 22.7910511, 39.538622600203254 ], [ 22.790987, 39.538829800203281 ], [ 22.791968, 39.539088300203332 ] ] ] } },
{ "type": "Feature", "properties": { "osm_id": 1341004435, "name": null, "label": "landuse:orchard", "water": null, "natural": null, "waterway": null, "landuse": "orchard", "historic": null, "amenity": null }, "geometry": { "type": "Polygon", "coordinates": [ [ [ 22.7890139, 39.53802770020318 ], [ 22.7892979, 39.537426900203087 ], [ 22.7895799, 39.537497500203102 ], [ 22.7893801, 39.537957100203165 ], [ 22.789862, 39.538089600203179 ], [ 22.7900918, 39.537602700203109 ], [ 22.790443, 39.537673300203124 ], [ 22.7904766, 39.537728000203138 ], [ 22.7904374, 39.537860600203153 ], [ 22.7902319, 39.538209200203191 ], [ 22.790103, 39.538189000203197 ], [ 22.7900208, 39.538354700203243 ], [ 22.7889654, 39.5382063002032 ], [ 22.7889131, 39.538490100203241 ], [ 22.7889542, 39.538674500203257 ], [ 22.789027, 39.538726400203274 ], [ 22.7900114, 39.538856000203296 ], [ 22.7901945, 39.538845900203299 ], [ 22.790499, 39.538726400203274 ], [ 22.7907755, 39.538768100203278 ], [ 22.7908053, 39.538504500203246 ], [ 22.7905812, 39.538449800203239 ], [ 22.7908745, 39.538174600203192 ], [ 22.7910968, 39.537968600203172 ], [ 22.7916235, 39.53733330020308 ], [ 22.7916254, 39.537278600203067 ], [ 22.791235, 39.537160400203049 ], [ 22.7903253, 39.536912600203017 ], [ 22.7900376, 39.536873700203017 ], [ 22.7897574, 39.536790200203001 ], [ 22.7895501, 39.536703800202979 ], [ 22.789296, 39.536507800202976 ], [ 22.7890718, 39.536303300202931 ], [ 22.7889131, 39.536059800202899 ], [ 22.7888496, 39.535982000202893 ], [ 22.7888141, 39.535921500202868 ], [ 22.788758, 39.535894100202881 ], [ 22.7887132, 39.535912800202873 ], [ 22.7886702, 39.536020900202899 ], [ 22.7886067, 39.536474700202966 ], [ 22.7885469, 39.537215200203065 ], [ 22.788489, 39.53788790020316 ], [ 22.7890139, 39.53802770020318 ] ] ] } },
{ "type": "Feature", "properties": { "osm_id": 1341004443, "name": null, "label": "landuse:orchard", "water": null, "natural": null, "waterway": null, "landuse": "orchard", "historic": null, "amenity": null }, "geometry": { "type": "Polygon", "coordinates": [ [ [ 22.7913812, 39.540979800203608 ], [ 22.7917164, 39.54061100020354 ], [ 22.7904741, 39.539978000203455 ], [ 22.7901636, 39.540333500203509 ], [ 22.7913812, 39.540979800203608 ] ] ] } },
{ "type": "Feature", "properties": { "osm_id": 1341004444, "name": null, "label": "landuse:orchard", "water": null, "natural": null, "waterway": null, "landuse": "orchard", "historic": null, "amenity": null }, "geometry": { "type": "Polygon", "coordinates": [ [ [ 22.7902498, 39.541359900203659 ], [ 22.7908044, 39.541291500203648 ], [ 22.7902942, 39.540917000203592 ], [ 22.7899688, 39.5411147002036 ], [ 22.7902498, 39.541359900203659 ] ] ] } },
{ "type": "Feature", "properties": { "osm_id": 608455684, "name": "Παλαιόσκαλα", "label": "historic:archaeological_site", "water": null, "natural": null, "waterway": null, "landuse": null, "historic": "archaeological_site", "amenity": null }, "geometry": { "type": "Polygon", "coordinates": [ [ [ 22.7871811, 39.537263700203084 ], [ 22.7883598, 39.537441000203103 ], [ 22.7885145, 39.535880800202875 ], [ 22.7878582, 39.535871100202868 ], [ 22.7873943, 39.536590000202978 ], [ 22.787457, 39.536696300202991 ], [ 22.7870683, 39.537160500203051 ], [ 22.7871811, 39.537263700203084 ] ] ] } },
{ "type": "Feature", "properties": { "osm_id": 1341004434, "name": null, "label": "landuse:farmland", "water": null, "natural": null, "waterway": null, "landuse": "farmland", "historic": null, "amenity": null }, "geometry": { "type": "Polygon", "coordinates": [ [ [ 22.7853665, 39.541127100203617 ], [ 22.7859455, 39.540823600203574 ], [ 22.7869992, 39.540163900203488 ], [ 22.7872659, 39.539968300203448 ], [ 22.7875001, 39.53977770020343 ], [ 22.7877473, 39.539516800203387 ], [ 22.7879262, 39.539286100203356 ], [ 22.7880693, 39.539030200203314 ], [ 22.7881896, 39.538776900203288 ], [ 22.7883034, 39.538468400203236 ], [ 22.788349, 39.537981800203163 ], [ 22.7883598, 39.537441000203103 ], [ 22.7871811, 39.537263700203084 ], [ 22.7870683, 39.537160500203051 ], [ 22.787457, 39.536696300202991 ], [ 22.7873943, 39.536590000202978 ], [ 22.7878582, 39.535871100202868 ], [ 22.7875391, 39.535920000202871 ], [ 22.7872854, 39.536022800202886 ], [ 22.7869049, 39.536251100202932 ], [ 22.7865504, 39.536481900202936 ], [ 22.7863618, 39.53667500020299 ], [ 22.7862317, 39.536885700203023 ], [ 22.7861243, 39.537106400203044 ], [ 22.785978, 39.537467600203101 ], [ 22.7858577, 39.5382276002032 ], [ 22.7857243, 39.539296100203359 ], [ 22.7856072, 39.53990560020344 ], [ 22.7854901, 39.540454900203521 ], [ 22.7853893, 39.540808500203561 ], [ 22.7852072, 39.541189800203639 ], [ 22.7853665, 39.541127100203617 ] ] ] } },
{ "type": "Feature", "properties": { "osm_id": 1341502709, "name": null, "label": "landuse:farmland", "water": null, "natural": null, "waterway": null, "landuse": "farmland", "historic": null, "amenity": null }, "geometry": { "type": "Polygon", "coordinates": [ [ [ 22.7809589, 39.542677900203834 ], [ 22.7810972, 39.542780500203847 ], [ 22.7814579, 39.54254980020383 ], [ 22.7819878, 39.542182000203759 ], [ 22.7833829, 39.541309500203631 ], [ 22.7834987, 39.541167000203615 ], [ 22.7837058, 39.540834300203571 ], [ 22.7837156, 39.540746900203558 ], [ 22.7834642, 39.540515000203534 ], [ 22.7833287, 39.540612000203545 ], [ 22.7826977, 39.540053100203465 ], [ 22.7819557, 39.540634800203549 ], [ 22.7814751, 39.540982600203591 ], [ 22.7806321, 39.54155480020367 ], [ 22.7800165, 39.541979300203735 ], [ 22.7809589, 39.542677900203834 ] ] ] } },
{ "type": "Feature", "properties": { "osm_id": 1341502710, "name": null, "label": "landuse:orchard", "water": null, "natural": null, "waterway": null, "landuse": "orchard", "historic": null, "amenity": null }, "geometry": { "type": "Polygon", "coordinates": [ [ [ 22.7806525, 39.542909800203859 ], [ 22.7809589, 39.542677900203834 ], [ 22.7800165, 39.541979300203735 ], [ 22.7797833, 39.542169600203763 ], [ 22.7806525, 39.542909800203859 ] ] ] } },
{ "type": "Feature", "properties": { "osm_id": 1341502711, "name": null, "label": "landuse:orchard", "water": null, "natural": null, "waterway": null, "landuse": "orchard", "historic": null, "amenity": null }, "geometry": { "type": "Polygon", "coordinates": [ [ [ 22.7795964, 39.543147800203897 ], [ 22.7800466, 39.543086700203894 ], [ 22.7802249, 39.543027700203886 ], [ 22.7802986, 39.542992800203876 ], [ 22.7795539, 39.542403300203794 ], [ 22.7793954, 39.542582300203811 ], [ 22.7792113, 39.54278540020384 ], [ 22.7795964, 39.543147800203897 ] ] ] } },
{ "type": "Feature", "properties": { "osm_id": 660348600, "name": null, "label": "landuse:orchard", "water": null, "natural": null, "waterway": null, "landuse": "orchard", "historic": null, "amenity": null }, "geometry": { "type": "Polygon", "coordinates": [ [ [ 22.7839677, 39.539675000203417 ], [ 22.7840632, 39.538966400203307 ], [ 22.7840083, 39.538921000203302 ], [ 22.7835428, 39.539301900203363 ], [ 22.7839677, 39.539675000203417 ] ] ] } },
{ "type": "Feature", "properties": { "osm_id": 1341502708, "name": null, "label": "landuse:orchard", "water": null, "natural": null, "waterway": null, "landuse": "orchard", "historic": null, "amenity": null }, "geometry": { "type": "Polygon", "coordinates": [ [ [ 22.7833287, 39.540612000203545 ], [ 22.7834642, 39.540515000203534 ], [ 22.7837156, 39.540746900203558 ], [ 22.7839523, 39.540406700203519 ], [ 22.7839621, 39.539870600203443 ], [ 22.7834396, 39.539452400203373 ], [ 22.7826977, 39.540053100203465 ], [ 22.7833287, 39.540612000203545 ] ] ] } },
{ "type": "Feature", "properties": { "osm_id": 1341009436, "name": null, "label": "landuse:orchard", "water": null, "natural": null, "waterway": null, "landuse": "orchard", "historic": null, "amenity": null }, "geometry": { "type": "Polygon", "coordinates": [ [ [ 22.7835928, 39.549472200204796 ], [ 22.7836601, 39.549591800204801 ], [ 22.7837647, 39.549668100204812 ], [ 22.7845153, 39.549609600204825 ], [ 22.784672, 39.550099400204893 ], [ 22.7847793, 39.550354200204929 ], [ 22.7847964, 39.550460100204951 ], [ 22.7848565, 39.550600700204953 ], [ 22.7851097, 39.550820800204988 ], [ 22.7851462, 39.551025900205012 ], [ 22.7851977, 39.55123770020505 ], [ 22.7853736, 39.551444500205086 ], [ 22.7856826, 39.551705900205121 ], [ 22.7858693, 39.551517300205077 ], [ 22.7856697, 39.551315500205064 ], [ 22.7859187, 39.551158300205032 ], [ 22.7863521, 39.551022600205016 ], [ 22.7867512, 39.550933300204996 ], [ 22.7871482, 39.550923300205007 ], [ 22.7874057, 39.550946500205008 ], [ 22.7880194, 39.550906800204999 ], [ 22.7889978, 39.55049320020494 ], [ 22.7892618, 39.550559300204959 ], [ 22.7896416, 39.550635400204968 ], [ 22.7897059, 39.550820800204988 ], [ 22.7898197, 39.550920000205004 ], [ 22.7902102, 39.550865400204998 ], [ 22.790811, 39.550953100205014 ], [ 22.7908646, 39.551123500205044 ], [ 22.7909805, 39.551136800205022 ], [ 22.7910449, 39.551287300205054 ], [ 22.7908925, 39.551368400205071 ], [ 22.790899, 39.551504100205086 ], [ 22.7910706, 39.551610000205102 ], [ 22.7913024, 39.551657900205122 ], [ 22.7915964, 39.551646400205101 ], [ 22.7919268, 39.551672800205104 ], [ 22.7919783, 39.551901100205143 ], [ 22.7920577, 39.552199000205192 ], [ 22.7922873, 39.552255200205188 ], [ 22.7924697, 39.552192300205185 ], [ 22.7926564, 39.551922700205147 ], [ 22.7929418, 39.551795300205136 ], [ 22.7932357, 39.551696000205112 ], [ 22.7935254, 39.551495800205082 ], [ 22.7936885, 39.551406500205083 ], [ 22.7939374, 39.551325400205059 ], [ 22.7940891, 39.551166100205045 ], [ 22.7937249, 39.551017700205016 ], [ 22.7935792, 39.550963000205009 ], [ 22.7925835, 39.550647600204954 ], [ 22.7918625, 39.550421400204932 ], [ 22.7910798, 39.550183800204898 ], [ 22.7907884, 39.550133300204891 ], [ 22.7904428, 39.550104500204895 ], [ 22.7898394, 39.549985000204863 ], [ 22.789576, 39.54995760020487 ], [ 22.7891371, 39.549950400204864 ], [ 22.788472, 39.549773300204848 ], [ 22.7878986, 39.549668100204812 ], [ 22.7873083, 39.549456400204797 ], [ 22.7869141, 39.549414600204791 ], [ 22.7865928, 39.549393000204788 ], [ 22.7861277, 39.549310900204787 ], [ 22.7858811, 39.549220200204765 ], [ 22.785685, 39.549194200204759 ], [ 22.7851582, 39.549191300204761 ], [ 22.7848967, 39.549189900204773 ], [ 22.7840636, 39.549260500204774 ], [ 22.7835816, 39.549295100204766 ], [ 22.7835928, 39.549472200204796 ] ] ] } },
{ "type": "Feature", "properties": { "osm_id": 1341006817, "name": null, "label": "landuse:farmland", "water": null, "natural": null, "waterway": null, "landuse": "farmland", "historic": null, "amenity": null }, "geometry": { "type": "Polygon", "coordinates": [ [ [ 22.7906508, 39.550069100204887 ], [ 22.7910772, 39.550114700204894 ], [ 22.7914716, 39.550215400204905 ], [ 22.7919818, 39.550378900204926 ], [ 22.7928667, 39.550654500204963 ], [ 22.7929752, 39.550477700204944 ], [ 22.7934312, 39.550591700204947 ], [ 22.793653, 39.55029330020492 ], [ 22.7932685, 39.550177400204895 ], [ 22.7934139, 39.549846700204853 ], [ 22.7929727, 39.549628200204815 ], [ 22.7925931, 39.54948560020479 ], [ 22.792248, 39.549717500204842 ], [ 22.7920755, 39.549850500204847 ], [ 22.7918783, 39.549924600204854 ], [ 22.7916146, 39.54985620020485 ], [ 22.7913706, 39.549698500204826 ], [ 22.7907012, 39.549581800204813 ], [ 22.790463, 39.550043400204885 ], [ 22.7906508, 39.550069100204887 ] ] ] } },
{ "type": "Feature", "properties": { "osm_id": 1341006818, "name": null, "label": "amenity:animal_breeding", "water": null, "natural": null, "waterway": null, "landuse": null, "historic": null, "amenity": "animal_breeding" }, "geometry": { "type": "Polygon", "coordinates": [ [ [ 22.7902313, 39.549384900204778 ], [ 22.7907012, 39.549581800204813 ], [ 22.7913706, 39.549698500204826 ], [ 22.7916146, 39.54985620020485 ], [ 22.7918783, 39.549924600204854 ], [ 22.791972, 39.549823900204842 ], [ 22.7921544, 39.549645300204816 ], [ 22.792423, 39.549514100204796 ], [ 22.7925931, 39.549352600204791 ], [ 22.7921568, 39.549191000204758 ], [ 22.790433, 39.548632100204678 ], [ 22.7902656, 39.548714800204692 ], [ 22.7900167, 39.549252600204774 ], [ 22.7902313, 39.549384900204778 ] ] ] } },
{ "type": "Feature", "properties": { "osm_id": 1341009437, "name": null, "label": "landuse:orchard", "water": null, "natural": null, "waterway": null, "landuse": "orchard", "historic": null, "amenity": null }, "geometry": { "type": "Polygon", "coordinates": [ [ [ 22.7961988, 39.55277570020526 ], [ 22.7962013, 39.552730100205267 ], [ 22.7957699, 39.552350000205209 ], [ 22.7954224, 39.552063000205159 ], [ 22.7953681, 39.552066800205168 ], [ 22.7949614, 39.552232100205181 ], [ 22.7949023, 39.552464000205219 ], [ 22.795315003229668, 39.552863998473811 ], [ 22.796238066476171, 39.552863998473811 ], [ 22.7961988, 39.55277570020526 ] ] ] } },
{ "type": "Feature", "properties": { "osm_id": 1341004446, "name": null, "label": "landuse:orchard", "water": null, "natural": null, "waterway": null, "landuse": "orchard", "historic": null, "amenity": null }, "geometry": { "type": "Polygon", "coordinates": [ [ [ 22.7834349, 39.544374800204082 ], [ 22.7836194, 39.544560100204087 ], [ 22.7837632, 39.544748800204133 ], [ 22.7838941, 39.544836500204148 ], [ 22.784276, 39.544851300204144 ], [ 22.7843597, 39.544887700204143 ], [ 22.7845078, 39.545273300204201 ], [ 22.7846472, 39.545471800204247 ], [ 22.7848146, 39.545559500204249 ], [ 22.7850635, 39.545572800204241 ], [ 22.7853403, 39.545713400204264 ], [ 22.7856107, 39.545897100204293 ], [ 22.7858253, 39.546041000204312 ], [ 22.7860248, 39.546226400204354 ], [ 22.7863359, 39.546271000204335 ], [ 22.7868574, 39.546411700204366 ], [ 22.7870677, 39.546163500204322 ], [ 22.7872844, 39.546085700204323 ], [ 22.7875547, 39.546107200204318 ], [ 22.7879345, 39.546161800204324 ], [ 22.7880504, 39.546125400204318 ], [ 22.7881084, 39.546060900204317 ], [ 22.7882285, 39.546011200204319 ], [ 22.7882822, 39.545921900204313 ], [ 22.7883487, 39.545915300204285 ], [ 22.7885396, 39.546031100204303 ], [ 22.7886448, 39.545969900204298 ], [ 22.7887006, 39.545855700204285 ], [ 22.7888379, 39.545744900204262 ], [ 22.7889667, 39.545705100204252 ], [ 22.7889731, 39.545625700204255 ], [ 22.7889345, 39.545478500204233 ], [ 22.7887714, 39.5452501002042 ], [ 22.7887349, 39.545089600204179 ], [ 22.7887735, 39.544944000204161 ], [ 22.7893709, 39.544605500204106 ], [ 22.7896413, 39.54438050020407 ], [ 22.789755, 39.544365600204067 ], [ 22.7898194, 39.544418500204074 ], [ 22.7895511, 39.544706400204142 ], [ 22.789343, 39.544939700204154 ], [ 22.7892615, 39.545103600204165 ], [ 22.7893172, 39.54523100020419 ], [ 22.7894932, 39.545346800204229 ], [ 22.7894996, 39.54548740020423 ], [ 22.7897722, 39.54571580020427 ], [ 22.7899545, 39.54584150020429 ], [ 22.7900447, 39.545801800204281 ], [ 22.7901305, 39.545730700204274 ], [ 22.7904159, 39.54589780020428 ], [ 22.7904266, 39.54615260020433 ], [ 22.7909394, 39.546427300204371 ], [ 22.7911197, 39.546342900204351 ], [ 22.7913128, 39.546349500204357 ], [ 22.7917205, 39.546549700204373 ], [ 22.7921389, 39.546150900204317 ], [ 22.7920295, 39.545992100204302 ], [ 22.7918535, 39.545805100204291 ], [ 22.7916626, 39.545652900204253 ], [ 22.7915338, 39.545618200204245 ], [ 22.7914458, 39.545480800204224 ], [ 22.7912785, 39.545355100204219 ], [ 22.7912248, 39.545159800204189 ], [ 22.7910553, 39.545002600204164 ], [ 22.7908643, 39.544843800204141 ], [ 22.7906562, 39.544673300204131 ], [ 22.7904137, 39.544486400204093 ], [ 22.7901756, 39.544359000204075 ], [ 22.7900661, 39.544190200204049 ], [ 22.7898902, 39.544082600204035 ], [ 22.7897507, 39.544024700204027 ], [ 22.7896219, 39.544114100204041 ], [ 22.7894524, 39.543925400204017 ], [ 22.7892379, 39.543639200203977 ], [ 22.7892035, 39.543443900203954 ], [ 22.7891821, 39.543314900203939 ], [ 22.7890593, 39.543141000203903 ], [ 22.7885959, 39.543294900203932 ], [ 22.7882139, 39.543536300203961 ], [ 22.7879329, 39.543734000203983 ], [ 22.7876618, 39.543578100203952 ], [ 22.7866536, 39.54425290020405 ], [ 22.7860892, 39.543502100203952 ], [ 22.7858698, 39.543378600203937 ], [ 22.7856258, 39.543502100203952 ], [ 22.7856751, 39.543621800203979 ], [ 22.7855124, 39.543686500203982 ], [ 22.7848642, 39.543230300203916 ], [ 22.7847705, 39.543251200203912 ], [ 22.7844205, 39.54303260020388 ], [ 22.7843416, 39.542930000203867 ], [ 22.7844476, 39.54281020020386 ], [ 22.7843375, 39.542711400203849 ], [ 22.7840464, 39.542802800203845 ], [ 22.7835057, 39.543117200203909 ], [ 22.7831817, 39.543352200203941 ], [ 22.7828877, 39.543797300203998 ], [ 22.782656, 39.543961100204015 ], [ 22.7834349, 39.544374800204082 ] ] ] } },
{ "type": "Feature", "properties": { "osm_id": 1341004442, "name": null, "label": "landuse:farmland", "water": null, "natural": null, "waterway": null, "landuse": "farmland", "historic": null, "amenity": null }, "geometry": { "type": "Polygon", "coordinates": [ [ [ 22.7832324, 39.542880600203851 ], [ 22.7834592, 39.543053500203882 ], [ 22.7834888, 39.543042100203905 ], [ 22.7842825, 39.542662000203826 ], [ 22.7843375, 39.542711400203849 ], [ 22.7844476, 39.54281020020386 ], [ 22.7843416, 39.542930000203867 ], [ 22.7844205, 39.54303260020388 ], [ 22.7847705, 39.543251200203912 ], [ 22.7848642, 39.543230300203916 ], [ 22.7855124, 39.543686500203982 ], [ 22.7856751, 39.543621800203979 ], [ 22.7856258, 39.543502100203952 ], [ 22.7858698, 39.543378600203937 ], [ 22.7860892, 39.543502100203952 ], [ 22.7866536, 39.54425290020405 ], [ 22.7876618, 39.543578100203952 ], [ 22.7879329, 39.543734000203983 ], [ 22.7882139, 39.543536300203961 ], [ 22.7885959, 39.543294900203932 ], [ 22.7890593, 39.543141000203903 ], [ 22.7892836, 39.543285400203921 ], [ 22.7893945, 39.543205600203912 ], [ 22.7895178, 39.543030700203893 ], [ 22.7897569, 39.542793100203852 ], [ 22.7899565, 39.542578300203822 ], [ 22.7897347, 39.542105400203752 ], [ 22.7897051, 39.542042300203747 ], [ 22.7895433, 39.54154650020368 ], [ 22.7895252, 39.541491100203665 ], [ 22.7902498, 39.541359900203659 ], [ 22.7899688, 39.5411147002036 ], [ 22.7902942, 39.540917000203592 ], [ 22.7908044, 39.541291500203648 ], [ 22.7910484, 39.541299100203645 ], [ 22.7914749, 39.541418900203659 ], [ 22.7915537, 39.54141510020365 ], [ 22.7916622, 39.541397900203648 ], [ 22.7917485, 39.541361800203653 ], [ 22.7923622, 39.540936100203595 ], [ 22.7924633, 39.540797300203558 ], [ 22.7923844, 39.540603400203551 ], [ 22.7921749, 39.540472300203518 ], [ 22.7915685, 39.540215600203481 ], [ 22.7911347, 39.539886800203433 ], [ 22.7906516, 39.53972330020342 ], [ 22.7904199, 39.539668200203415 ], [ 22.7901981, 39.539734700203411 ], [ 22.7896016, 39.540097800203469 ], [ 22.7892664, 39.540590100203552 ], [ 22.7882632, 39.540029400203458 ], [ 22.7879027, 39.539819800203411 ], [ 22.7873237, 39.54032140020351 ], [ 22.7862537, 39.540948400203604 ], [ 22.7850243, 39.541703400203708 ], [ 22.7837884, 39.542448300203795 ], [ 22.7832867, 39.542762700203845 ], [ 22.783225, 39.54281020020386 ], [ 22.7832324, 39.542880600203851 ] ] ] } },
{ "type": "Feature", "properties": { "osm_id": 1341004450, "name": null, "label": "landuse:orchard", "water": null, "natural": null, "waterway": null, "landuse": "orchard", "historic": null, "amenity": null }, "geometry": { "type": "Polygon", "coordinates": [ [ [ 22.781425, 39.545657100204252 ], [ 22.7816439, 39.545410600204221 ], [ 22.7818327, 39.545303000204207 ], [ 22.7820216, 39.545448700204226 ], [ 22.782337, 39.54514750020418 ], [ 22.7821246, 39.544949000204149 ], [ 22.7823456, 39.544752000204141 ], [ 22.7829163, 39.54515080020419 ], [ 22.7827468, 39.545319600204216 ], [ 22.7829249, 39.545417200204227 ], [ 22.7827554, 39.545554600204248 ], [ 22.7834528, 39.545946700204304 ], [ 22.7835579, 39.5459980002043 ], [ 22.7832618, 39.546173400204331 ], [ 22.7836888, 39.54636370020436 ], [ 22.783706, 39.546312400204343 ], [ 22.7848068, 39.546635000204397 ], [ 22.7846845, 39.546861700204417 ], [ 22.7840171, 39.546686300204399 ], [ 22.7830837, 39.546292500204345 ], [ 22.7830078, 39.546363200204354 ], [ 22.7827125, 39.546638300204393 ], [ 22.78297, 39.546891500204431 ], [ 22.7831867, 39.547058600204451 ], [ 22.7826589, 39.547528500204521 ], [ 22.7825408, 39.547770100204552 ], [ 22.7823756, 39.548011700204604 ], [ 22.7826653, 39.548188700204612 ], [ 22.7827447, 39.54828470020464 ], [ 22.7825473, 39.548613900204671 ], [ 22.7824614, 39.548650300204685 ], [ 22.7817662, 39.54841870020465 ], [ 22.7815817, 39.548592400204676 ], [ 22.7810603, 39.549217800204765 ], [ 22.7817276, 39.549416400204784 ], [ 22.7818478, 39.54947100020479 ], [ 22.7820194, 39.549475900204797 ], [ 22.7826116, 39.549375000204783 ], [ 22.7832554, 39.549242700204758 ], [ 22.7836373, 39.549212900204751 ], [ 22.7843454, 39.549105300204737 ], [ 22.7843519, 39.548863800204721 ], [ 22.7844227, 39.5486851002047 ], [ 22.7844935, 39.548580800204682 ], [ 22.7846308, 39.548589100204687 ], [ 22.7845772, 39.548840600204713 ], [ 22.7846973, 39.548996100204732 ], [ 22.7848905, 39.549092100204753 ], [ 22.7852059, 39.54912020020474 ], [ 22.785605, 39.549111900204757 ], [ 22.7858389, 39.549138400204754 ], [ 22.7861758, 39.549249300204764 ], [ 22.7865663, 39.549328700204768 ], [ 22.7868281, 39.549335300204781 ], [ 22.7871521, 39.549365100204788 ], [ 22.7875684, 39.549475900204797 ], [ 22.7879289, 39.549610000204822 ], [ 22.7887078, 39.549760500204833 ], [ 22.7892743, 39.549907800204849 ], [ 22.7897849, 39.549929300204866 ], [ 22.790463, 39.550043400204885 ], [ 22.7907012, 39.549581800204813 ], [ 22.7902313, 39.549384900204778 ], [ 22.7900167, 39.549252600204774 ], [ 22.7902656, 39.548714800204692 ], [ 22.790433, 39.548632100204678 ], [ 22.7905059, 39.548430300204643 ], [ 22.7907892, 39.548332600204638 ], [ 22.7908729, 39.54820190020461 ], [ 22.7908299, 39.548049700204608 ], [ 22.7907548, 39.548011700204604 ], [ 22.7903107, 39.548203600204616 ], [ 22.7898515, 39.548230100204613 ], [ 22.7899309, 39.548081100204598 ], [ 22.7898579, 39.547970300204582 ], [ 22.789918, 39.54778660020456 ], [ 22.7898922, 39.547690700204548 ], [ 22.789697, 39.547621200204546 ], [ 22.7895961, 39.547475600204507 ], [ 22.7893923, 39.547412700204511 ], [ 22.789182, 39.547250500204484 ], [ 22.7890425, 39.547162800204489 ], [ 22.7887679, 39.547058600204451 ], [ 22.7885361, 39.547066900204449 ], [ 22.7882336, 39.547103300204455 ], [ 22.787931, 39.547033800204453 ], [ 22.7877851, 39.546860100204434 ], [ 22.7876413, 39.546744200204415 ], [ 22.7874997, 39.546729300204412 ], [ 22.7872808, 39.546808800204424 ], [ 22.7872594, 39.546866700204433 ], [ 22.7862573, 39.546466300204372 ], [ 22.7856329, 39.546277600204348 ], [ 22.7853475, 39.546122100204329 ], [ 22.7851994, 39.546001300204296 ], [ 22.7850321, 39.545878900204286 ], [ 22.7849656, 39.545779600204284 ], [ 22.784751, 39.545739900204275 ], [ 22.7846265, 39.545642200204256 ], [ 22.7844506, 39.545592600204237 ], [ 22.7843733, 39.545463500204235 ], [ 22.7842274, 39.545274900204205 ], [ 22.7841394, 39.545185600204192 ], [ 22.7839656, 39.545102800204177 ], [ 22.7836523, 39.544937400204162 ], [ 22.7834302, 39.544705800204127 ], [ 22.7831319, 39.544961800204156 ], [ 22.7825026, 39.544509100204095 ], [ 22.7826034, 39.544402500204086 ], [ 22.7827319, 39.544290900204061 ], [ 22.7823205, 39.544066400204031 ], [ 22.7819872, 39.54422590020404 ], [ 22.7817576, 39.544338400204069 ], [ 22.7814765, 39.544439300204083 ], [ 22.781322, 39.544513800204093 ], [ 22.7812019, 39.544689200204118 ], [ 22.7810817, 39.545046600204174 ], [ 22.7808907, 39.545470200204235 ], [ 22.781425, 39.545657100204252 ] ] ] } },
{ "type": "Feature", "properties": { "osm_id": 1341006807, "name": null, "label": "landuse:farmland", "water": null, "natural": null, "waterway": null, "landuse": "farmland", "historic": null, "amenity": null }, "geometry": { "type": "MultiPolygon", "coordinates": [ [ [ [ 22.7793526, 39.549283900204763 ], [ 22.7796216, 39.549000700204722 ], [ 22.7792912, 39.548906300204713 ], [ 22.7792096, 39.548883200204713 ], [ 22.779116137430989, 39.548870474726414 ], [ 22.779116137430989, 39.549532841064106 ], [ 22.7793526, 39.549283900204763 ] ] ], [ [ [ 22.7792204, 39.551153200205036 ], [ 22.779598, 39.550837200204988 ], [ 22.7798791, 39.550643600204964 ], [ 22.7792461, 39.550342500204927 ], [ 22.779116137430989, 39.550227321428785 ], [ 22.779116137430989, 39.551238509404179 ], [ 22.7792204, 39.551153200205036 ] ] ] ] } },
{ "type": "Feature", "properties": { "osm_id": 1341006810, "name": null, "label": "landuse:farmland", "water": null, "natural": null, "waterway": null, "landuse": "farmland", "historic": null, "amenity": null }, "geometry": { "type": "Polygon", "coordinates": [ [ [ 22.7791721, 39.548830900204706 ], [ 22.7794393, 39.548897200204713 ], [ 22.7797989, 39.548611300204676 ], [ 22.7793404, 39.548210300204623 ], [ 22.779116137430989, 39.54829591513478 ], [ 22.779116137430989, 39.54882390994635 ], [ 22.7791721, 39.548830900204706 ] ] ] } },
{ "type": "Feature", "properties": { "osm_id": 1341006812, "name": null, "label": "landuse:farmland", "water": null, "natural": null, "waterway": null, "landuse": "farmland", "historic": null, "amenity": null }, "geometry": { "type": "Polygon", "coordinates": [ [ [ 22.779415, 39.550102800204876 ], [ 22.779839, 39.550219400204917 ], [ 22.7800258, 39.55031310020491 ], [ 22.7802743, 39.550383600204931 ], [ 22.7804312, 39.550409600204929 ], [ 22.7805713, 39.550367800204924 ], [ 22.7815893, 39.549653400204818 ], [ 22.7816248, 39.549590000204809 ], [ 22.7816024, 39.549509300204789 ], [ 22.7815277, 39.54944310020479 ], [ 22.7814175, 39.549427200204789 ], [ 22.7812998, 39.549518000204813 ], [ 22.781085, 39.5495266002048 ], [ 22.7808234, 39.549558300204815 ], [ 22.7806198, 39.549726800204837 ], [ 22.7805134, 39.549752800204828 ], [ 22.7802705, 39.550000500204867 ], [ 22.7796354, 39.549631800204828 ], [ 22.7794243, 39.549870900204859 ], [ 22.779229, 39.550028600204868 ], [ 22.779415, 39.550102800204876 ] ] ] } },
{ "type": "Feature", "properties": { "osm_id": 1341006811, "name": null, "label": "landuse:orchard", "water": null, "natural": null, "waterway": null, "landuse": "orchard", "historic": null, "amenity": null }, "geometry": { "type": "Polygon", "coordinates": [ [ [ 22.779229, 39.550028600204868 ], [ 22.7794243, 39.549870900204859 ], [ 22.7796354, 39.549631800204828 ], [ 22.7802705, 39.550000500204867 ], [ 22.7805134, 39.549752800204828 ], [ 22.7801696, 39.549568400204812 ], [ 22.7804144, 39.549198200204749 ], [ 22.7802294, 39.549195300204758 ], [ 22.7800408, 39.549150700204734 ], [ 22.7796216, 39.549000700204722 ], [ 22.7793526, 39.549283900204763 ], [ 22.779116137430989, 39.549532841064106 ], [ 22.779116137430989, 39.550119824946961 ], [ 22.779229, 39.550028600204868 ] ] ] } },
{ "type": "Feature", "properties": { "osm_id": 1341006819, "name": null, "label": "landuse:orchard", "water": null, "natural": null, "waterway": null, "landuse": "orchard", "historic": null, "amenity": null }, "geometry": { "type": "Polygon", "coordinates": [ [ [ 22.7792419, 39.552169700205177 ], [ 22.779116137430989, 39.552057128919408 ], [ 22.779116137430989, 39.552259798946707 ], [ 22.7792419, 39.552169700205177 ] ] ] } },
{ "type": "Feature", "properties": { "osm_id": 1341009435, "name": null, "label": "landuse:orchard", "water": null, "natural": null, "waterway": null, "landuse": "orchard", "historic": null, "amenity": null }, "geometry": { "type": "Polygon", "coordinates": [ [ [ 22.7856726, 39.552679100205246 ], [ 22.7856011, 39.552506100205228 ], [ 22.7855173, 39.552224900205189 ], [ 22.7853522, 39.551918900205138 ], [ 22.7851969, 39.551865700205127 ], [ 22.7851353, 39.551687000205114 ], [ 22.7849208, 39.551561600205083 ], [ 22.784768, 39.551508400205094 ], [ 22.7847754, 39.551282200205051 ], [ 22.7850589, 39.551170100205042 ], [ 22.7848715, 39.550896400204984 ], [ 22.7845536, 39.551061700205018 ], [ 22.7844772, 39.55090970020499 ], [ 22.7842948, 39.550886900204993 ], [ 22.7839362, 39.550763300204977 ], [ 22.7836706, 39.551025600205023 ], [ 22.783405, 39.551287900205047 ], [ 22.7830771, 39.551470300205089 ], [ 22.7831486, 39.55168320020509 ], [ 22.7832743, 39.551721200205115 ], [ 22.783437, 39.551818100205118 ], [ 22.7836983, 39.551934100205145 ], [ 22.7839448, 39.551964500205152 ], [ 22.7841494, 39.552091800205169 ], [ 22.7844279, 39.552162100205173 ], [ 22.7847113, 39.552243900205198 ], [ 22.7848296, 39.552422500205203 ], [ 22.7850268, 39.552553600205236 ], [ 22.7852585, 39.552772200205261 ], [ 22.785324326650017, 39.552863998473811 ], [ 22.785640823713546, 39.552863998473811 ], [ 22.7856726, 39.552679100205246 ] ] ] } },
{ "type": "Feature", "properties": { "osm_id": 1341006820, "name": null, "label": "landuse:orchard", "water": null, "natural": null, "waterway": null, "landuse": "orchard", "historic": null, "amenity": null }, "geometry": { "type": "Polygon", "coordinates": [ [ [ 22.7802894, 39.551118800205032 ], [ 22.7800996, 39.551306900205049 ], [ 22.7799493, 39.551516000205091 ], [ 22.780356, 39.552146900205173 ], [ 22.7807429, 39.552736100205252 ], [ 22.7810905, 39.552700000205256 ], [ 22.7810412, 39.55204810020517 ], [ 22.7811447, 39.55152930020509 ], [ 22.7817018, 39.551510300205067 ], [ 22.7818694, 39.551582500205086 ], [ 22.7820961, 39.551563500205098 ], [ 22.7821602, 39.551386700205079 ], [ 22.7824032, 39.551232600205047 ], [ 22.7824659, 39.551192900205031 ], [ 22.7827863, 39.550858400204994 ], [ 22.7828208, 39.550674000204978 ], [ 22.7831092, 39.550288200204911 ], [ 22.7832497, 39.550100100204894 ], [ 22.783612, 39.549940400204854 ], [ 22.7837599, 39.549896700204862 ], [ 22.7836071, 39.54969520020483 ], [ 22.783543, 39.549571700204815 ], [ 22.7835085, 39.549296100204778 ], [ 22.7833113, 39.549318900204781 ], [ 22.7822785, 39.549499500204796 ], [ 22.7819902, 39.549535600204806 ], [ 22.7818521, 39.549569800204814 ], [ 22.7816032, 39.549761800204841 ], [ 22.7812162, 39.550029700204881 ], [ 22.7815539, 39.550293900204906 ], [ 22.7810905, 39.550569500204965 ], [ 22.7806838, 39.550734800204971 ], [ 22.7804176, 39.550542900204952 ], [ 22.7802179, 39.55056190020494 ], [ 22.7801144, 39.550588500204952 ], [ 22.7798556, 39.550736700204972 ], [ 22.7798334, 39.550772900204997 ], [ 22.7802894, 39.551118800205032 ] ] ] } },
{ "type": "Feature", "properties": { "osm_id": 1341009434, "name": null, "label": "landuse:farmland", "water": null, "natural": null, "waterway": null, "landuse": "farmland", "historic": null, "amenity": null }, "geometry": { "type": "Polygon", "coordinates": [ [ [ 22.7830771, 39.551470300205089 ], [ 22.783405, 39.551287900205047 ], [ 22.7836706, 39.551025600205023 ], [ 22.7839362, 39.550763300204977 ], [ 22.7839842, 39.550715800204969 ], [ 22.7839275, 39.550624600204976 ], [ 22.7837254, 39.55037560020493 ], [ 22.783718, 39.55024830020492 ], [ 22.7837599, 39.550147600204888 ], [ 22.7839152, 39.550056300204893 ], [ 22.7837599, 39.549896700204862 ], [ 22.783612, 39.549940400204854 ], [ 22.7832497, 39.550100100204894 ], [ 22.7831092, 39.550288200204911 ], [ 22.7828208, 39.550674000204978 ], [ 22.7827863, 39.550858400204994 ], [ 22.7824659, 39.551192900205031 ], [ 22.7824032, 39.551232600205047 ], [ 22.7830771, 39.551470300205089 ] ] ] } },
{ "type": "Feature", "properties": { "osm_id": 1341004447, "name": null, "label": "landuse:farmland", "water": null, "natural": null, "waterway": null, "landuse": "farmland", "historic": null, "amenity": null }, "geometry": { "type": "Polygon", "coordinates": [ [ [ 22.7827319, 39.544290900204061 ], [ 22.7826034, 39.544402500204086 ], [ 22.7825026, 39.544509100204095 ], [ 22.7831319, 39.544961800204156 ], [ 22.7834302, 39.544705800204127 ], [ 22.7834913, 39.544653300204104 ], [ 22.7832214, 39.544427600204081 ], [ 22.7824847, 39.543999900204021 ], [ 22.7823205, 39.544066400204031 ], [ 22.7827319, 39.544290900204061 ] ] ] } },
{ "type": "Feature", "properties": { "osm_id": 1341004449, "name": null, "label": "landuse:orchard", "water": null, "natural": null, "waterway": null, "landuse": "orchard", "historic": null, "amenity": null }, "geometry": { "type": "Polygon", "coordinates": [ [ [ 22.7812275, 39.544533000204098 ], [ 22.7813583, 39.544442300204089 ], [ 22.7817617, 39.544276600204064 ], [ 22.7821951, 39.544033200204026 ], [ 22.7823296, 39.543956800204015 ], [ 22.7818869, 39.543673100203975 ], [ 22.7817729, 39.543707600203973 ], [ 22.7815731, 39.543820000204015 ], [ 22.7810089, 39.544360200204068 ], [ 22.7812275, 39.544533000204098 ] ] ] } },
{ "type": "Feature", "properties": { "osm_id": 1341004451, "name": null, "label": "landuse:farmland", "water": null, "natural": null, "waterway": null, "landuse": "farmland", "historic": null, "amenity": null }, "geometry": { "type": "Polygon", "coordinates": [ [ [ 22.7806123, 39.546843700204427 ], [ 22.7813394, 39.546191800204326 ], [ 22.7815785, 39.546155700204331 ], [ 22.7817559, 39.545914300204295 ], [ 22.7816943, 39.545809700204273 ], [ 22.781425, 39.545657100204252 ], [ 22.7808907, 39.545470200204235 ], [ 22.7803781, 39.546368500204359 ], [ 22.7802006, 39.546573800204385 ], [ 22.7806123, 39.546843700204427 ] ] ] } },
{ "type": "Feature", "properties": { "osm_id": 1341006780, "name": null, "label": "landuse:farmland", "water": null, "natural": null, "waterway": null, "landuse": "farmland", "historic": null, "amenity": null }, "geometry": { "type": "Polygon", "coordinates": [ [ [ 22.7807947, 39.546940600204444 ], [ 22.7808045, 39.54723900020447 ], [ 22.781263, 39.547508900204512 ], [ 22.7816228, 39.547088900204464 ], [ 22.7817904, 39.546986200204437 ], [ 22.782217, 39.546623700204393 ], [ 22.7813394, 39.546191800204326 ], [ 22.7806123, 39.546843700204427 ], [ 22.7807947, 39.546940600204444 ] ] ] } },
{ "type": "Feature", "properties": { "osm_id": 1341004455, "name": null, "label": "landuse:farmland", "water": null, "natural": null, "waterway": null, "landuse": "farmland", "historic": null, "amenity": null }, "geometry": { "type": "Polygon", "coordinates": [ [ [ 22.7795746, 39.54799930020458 ], [ 22.7797348, 39.547866200204574 ], [ 22.7801587, 39.54745570020453 ], [ 22.7801538, 39.547389200204506 ], [ 22.7802869, 39.547322700204504 ], [ 22.7802869, 39.547261800204481 ], [ 22.7798753, 39.546853200204431 ], [ 22.779116137430989, 39.547319617374328 ], [ 22.779116137430989, 39.547571466237336 ], [ 22.7795746, 39.54799930020458 ] ] ] } },
{ "type": "Feature", "properties": { "osm_id": 1341006778, "name": null, "label": "landuse:orchard", "water": null, "natural": null, "waterway": null, "landuse": "orchard", "historic": null, "amenity": null }, "geometry": { "type": "MultiPolygon", "coordinates": [ [ [ [ 22.7791902, 39.545554400204246 ], [ 22.77967, 39.545963200204312 ], [ 22.7799692, 39.545748700204264 ], [ 22.7804538, 39.546122400204318 ], [ 22.7807741, 39.54560580020425 ], [ 22.7809595, 39.545143100204179 ], [ 22.7810099, 39.545036500204169 ], [ 22.7811303, 39.544712900204132 ], [ 22.7808912, 39.544542400204101 ], [ 22.7809026, 39.544425800204095 ], [ 22.7806278, 39.544177500204043 ], [ 22.7803318, 39.544261500204058 ], [ 22.7798212, 39.544325500204074 ], [ 22.779116137430989, 39.544356239781635 ], [ 22.779116137430989, 39.545602624575899 ], [ 22.7791902, 39.545554400204246 ] ] ], [ [ [ 22.7791361, 39.546873700204429 ], [ 22.7797745, 39.546541100204387 ], [ 22.7799224, 39.546708400204409 ], [ 22.7801084, 39.546571700204389 ], [ 22.779116137430989, 39.545705554032672 ], [ 22.779116137430989, 39.545907076268279 ], [ 22.7793161, 39.546081200204313 ], [ 22.779116137430989, 39.546199647894618 ], [ 22.779116137430989, 39.546853414661726 ], [ 22.7791361, 39.546873700204429 ] ] ] ] } },
{ "type": "Feature", "properties": { "osm_id": 155023128, "name": null, "label": "water:river;natural:water", "water": "river", "natural": "water", "waterway": null, "landuse": null, "historic": null, "amenity": null }, "geometry": { "type": "Polygon", "coordinates": [ [ [ 22.7797832, 39.543915600204009 ], [ 22.7809487, 39.543610700203963 ], [ 22.7820205, 39.543153300203898 ], [ 22.7833318, 39.542318700203786 ], [ 22.7842683, 39.541676700203695 ], [ 22.7847575, 39.541066800203616 ], [ 22.7849968, 39.540111800203462 ], [ 22.7852778, 39.538257900203213 ], [ 22.7856004, 39.536789200203003 ], [ 22.7862768, 39.535978600202881 ], [ 22.7874319, 39.535408800202802 ], [ 22.7880667, 39.535023600202749 ], [ 22.7883624, 39.534715700202717 ], [ 22.7884593, 39.534314800202651 ], [ 22.7884686, 39.534257500202642 ], [ 22.788476, 39.534211900202642 ], [ 22.7884832, 39.534167400202627 ], [ 22.7881713, 39.534156200202624 ], [ 22.7878756, 39.534145700202629 ], [ 22.7878717, 39.534194000202639 ], [ 22.7878675, 39.534243900202625 ], [ 22.787848, 39.53447880020267 ], [ 22.7878165, 39.534682300202704 ], [ 22.7877917, 39.534754500202716 ], [ 22.7874038, 39.535005000202752 ], [ 22.7867092, 39.535255400202786 ], [ 22.7860777, 39.535533700202834 ], [ 22.7855274, 39.536069400202919 ], [ 22.7850944, 39.53668170020299 ], [ 22.7847787, 39.537746100203137 ], [ 22.7845442, 39.538935800203312 ], [ 22.7844449, 39.540160200203481 ], [ 22.7841472, 39.541015900203597 ], [ 22.7833263, 39.541774200203712 ], [ 22.7823971, 39.54229590020379 ], [ 22.7812334, 39.54306810020389 ], [ 22.7803403, 39.543415900203946 ], [ 22.7794833, 39.543527200203954 ], [ 22.779116137430989, 39.543525340265887 ], [ 22.779116137430989, 39.543946389410998 ], [ 22.7797832, 39.543915600204009 ] ] ] } },
{ "type": "Feature", "properties": { "osm_id": 1341006821, "name": null, "label": "landuse:farmland", "water": null, "natural": null, "waterway": null, "landuse": "farmland", "historic": null, "amenity": null }, "geometry": { "type": "Polygon", "coordinates": [ [ [ 22.7806838, 39.550734800204971 ], [ 22.7810905, 39.550569500204965 ], [ 22.7815539, 39.550293900204906 ], [ 22.7812162, 39.550029700204881 ], [ 22.7805162, 39.550504900204949 ], [ 22.7804176, 39.550542900204952 ], [ 22.7806838, 39.550734800204971 ] ] ] } },
{ "type": "Feature", "properties": { "osm_id": 1341004453, "name": null, "label": "landuse:farmland", "water": null, "natural": null, "waterway": null, "landuse": "farmland", "historic": null, "amenity": null }, "geometry": { "type": "Polygon", "coordinates": [ [ [ 22.7840171, 39.546686300204399 ], [ 22.7846845, 39.546861700204417 ], [ 22.7848068, 39.546635000204397 ], [ 22.783706, 39.546312400204343 ], [ 22.7836888, 39.54636370020436 ], [ 22.7832618, 39.546173400204331 ], [ 22.7830837, 39.546292500204345 ], [ 22.7840171, 39.546686300204399 ] ] ] } },
{ "type": "Feature", "properties": { "osm_id": 1341004448, "name": null, "label": "landuse:orchard", "water": null, "natural": null, "waterway": null, "landuse": "orchard", "historic": null, "amenity": null }, "geometry": { "type": "Polygon", "coordinates": [ [ [ 22.7825687, 39.543857500204005 ], [ 22.7828134, 39.543733600203986 ], [ 22.7829853, 39.543480000203949 ], [ 22.7831329, 39.543331700203929 ], [ 22.7833701, 39.543130000203895 ], [ 22.7833813, 39.543102600203888 ], [ 22.783372, 39.54306810020389 ], [ 22.7832169, 39.542941300203886 ], [ 22.7831291, 39.542899500203866 ], [ 22.7830824, 39.542899500203866 ], [ 22.7830114, 39.542919700203868 ], [ 22.7827032, 39.543102600203888 ], [ 22.7823147, 39.543347500203936 ], [ 22.7823371, 39.543470000203946 ], [ 22.7822101, 39.543634200203975 ], [ 22.7825687, 39.543857500204005 ] ] ] } },
{ "type": "Feature", "properties": { "osm_id": 1341006781, "name": null, "label": "landuse:farmland", "water": null, "natural": null, "waterway": null, "landuse": "farmland", "historic": null, "amenity": null }, "geometry": { "type": "Polygon", "coordinates": [ [ [ 22.7809026, 39.544425800204095 ], [ 22.7810089, 39.544360200204068 ], [ 22.7815731, 39.543820000204015 ], [ 22.7806278, 39.544177500204043 ], [ 22.7809026, 39.544425800204095 ] ] ] } },
{ "type": "Feature", "properties": { "osm_id": 1341004452, "name": null, "label": "landuse:farmland", "water": null, "natural": null, "waterway": null, "landuse": "farmland", "historic": null, "amenity": null }, "geometry": { "type": "Polygon", "coordinates": [ [ [ 22.7822031, 39.547934400204575 ], [ 22.7823756, 39.548011700204604 ], [ 22.7825408, 39.547770100204552 ], [ 22.7826589, 39.547528500204521 ], [ 22.7831867, 39.547058600204451 ], [ 22.78297, 39.546891500204431 ], [ 22.7827125, 39.546638300204393 ], [ 22.7830078, 39.546363200204354 ], [ 22.782732, 39.546186100204324 ], [ 22.782217, 39.546623700204393 ], [ 22.7817904, 39.546986200204437 ], [ 22.7822292, 39.547284600204485 ], [ 22.7821137, 39.547406100204512 ], [ 22.781788, 39.547748400204554 ], [ 22.7822031, 39.547934400204575 ] ] ] } },
{ "type": "Feature", "properties": { "osm_id": 1341004454, "name": null, "label": "landuse:orchard", "water": null, "natural": null, "waterway": null, "landuse": "orchard", "historic": null, "amenity": null }, "geometry": { "type": "Polygon", "coordinates": [ [ [ 22.7793404, 39.548210300204623 ], [ 22.7797989, 39.548611300204676 ], [ 22.7797422, 39.548858400204715 ], [ 22.780176, 39.549027500204751 ], [ 22.7801809, 39.549105400204752 ], [ 22.7807256, 39.549135800204766 ], [ 22.7810239, 39.549194800204759 ], [ 22.7814577, 39.548691100204678 ], [ 22.7816869, 39.54843450020465 ], [ 22.7820172, 39.548056300204607 ], [ 22.7821552, 39.548006900204584 ], [ 22.7822031, 39.547934400204575 ], [ 22.781788, 39.547748400204554 ], [ 22.7821137, 39.547406100204512 ], [ 22.7816228, 39.547088900204464 ], [ 22.781263, 39.547508900204512 ], [ 22.7808045, 39.54723900020447 ], [ 22.7807947, 39.546940600204444 ], [ 22.7806123, 39.546843700204427 ], [ 22.7802006, 39.546573800204385 ], [ 22.7798753, 39.546853200204431 ], [ 22.7802869, 39.547261800204481 ], [ 22.7802869, 39.547322700204504 ], [ 22.7801538, 39.547389200204506 ], [ 22.7801587, 39.54745570020453 ], [ 22.7797348, 39.547866200204574 ], [ 22.7795746, 39.54799930020458 ], [ 22.779116137430989, 39.547571466237336 ], [ 22.779116137430989, 39.54829591513478 ], [ 22.7793404, 39.548210300204623 ] ] ] } },
{ "type": "Feature", "properties": { "osm_id": 1341006779, "name": null, "label": "landuse:farmland", "water": null, "natural": null, "waterway": null, "landuse": "farmland", "historic": null, "amenity": null }, "geometry": { "type": "Polygon", "coordinates": [ [ [ 22.7801084, 39.546571700204389 ], [ 22.7802779, 39.546416200204369 ], [ 22.7804538, 39.546122400204318 ], [ 22.7799692, 39.545748700204264 ], [ 22.77967, 39.545963200204312 ], [ 22.7791902, 39.545554400204246 ], [ 22.779116137430989, 39.545602624575899 ], [ 22.779116137430989, 39.545705554032672 ], [ 22.7801084, 39.546571700204389 ] ] ] } },
{ "type": "Feature", "properties": { "osm_id": 1341004461, "name": null, "label": "landuse:farmland", "water": null, "natural": null, "waterway": null, "landuse": "farmland", "historic": null, "amenity": null }, "geometry": { "type": "MultiPolygon", "coordinates": [ [ [ [ 22.7793161, 39.546081200204313 ], [ 22.779116137430989, 39.545907076268279 ], [ 22.779116137430989, 39.546199647894618 ], [ 22.7793161, 39.546081200204313 ] ] ], [ [ [ 22.7795428, 39.546989700204442 ], [ 22.7798509, 39.546786300204417 ], [ 22.7799224, 39.546708400204409 ], [ 22.7797745, 39.546541100204387 ], [ 22.7791361, 39.546873700204429 ], [ 22.779116137430989, 39.546853414661726 ], [ 22.779116137430989, 39.547249027340875 ], [ 22.7795428, 39.546989700204442 ] ] ] ] } }
]
}
