{
"type": "FeatureCollection",
"name": "patch_55138_features",
"crs": { "type": "name", "properties": { "name": "urn:ogc:def:crs:OGC:1.3:CRS84" } },
"features": [
{ "type": "Feature", "properties": { "osm_id": -9135811, "name": "Σαρωνικός Κόλπος", "label": "natural:bay", "natural": "bay" }, "geometry": { "type": "Polygon", "coordinates": [ [ [ 23.621684540160476, 37.563445677809831 ], [ 23.651449091323695, 37.563445677809831 ], [ 23.651449091323695, 37.541042328072564 ], [ 23.621684540160476, 37.541042328072564 ], [ 23.621684540160476, 37.563445677809831 ] ] ] } }
]
}
