{
"type": "FeatureCollection",
"name": "patch_98680_multipolygon",
"crs": { "type": "name", "properties": { "name": "urn:ogc:def:crs:OGC:1.3:CRS84" } },
"features": [
{ "type": "Feature", "properties": { "element": "relation", "id": 9652372, "amenity": null, "name": null, "religion": null, "denomination": null, "ele": null, "natural": "wood", "tourism": null, "landuse": null, "building": null, "type": "multipolygon", "label": "natural:wood" }, "geometry": { "type": "MultiPolygon", "coordinates": [ [ [ [ 22.0441174, 37.417859 ], [ 22.044028, 37.4178106 ], [ 22.0439141, 37.4178106 ], [ 22.0438084, 37.4177493 ], [ 22.0436458, 37.417759 ], [ 22.0435686, 37.4178364 ], [ 22.043507905037945, 37.417896271281485 ], [ 22.0441174, 37.417896271281485 ], [ 22.0441174, 37.417859 ] ] ], [ [ [ 22.0428937, 37.4178526 ], [ 22.0427148, 37.4178494 ], [ 22.0425603, 37.4178881 ], [ 22.0423774, 37.4178816 ], [ 22.042340494920801, 37.417896271281485 ], [ 22.042968829026041, 37.417896271281485 ], [ 22.0428937, 37.4178526 ] ] ] ] } }
]
}
