{
"type": "FeatureCollection",
"name": "patch_98680_point",
"crs": { "type": "name", "properties": { "name": "urn:ogc:def:crs:OGC:1.3:CRS84" } },
"features": [
{ "type": "Feature", "properties": { "element": "node", "id": 6383582152, "amenity": "place_of_worship", "name": "Άγιος Ανδρέας", "religion": "christian", "denomination": null, "ele": null, "natural": null, "tourism": null, "landuse": null, "building": null, "type": null, "label": "amenity:place_of_worship" }, "geometry": { "type": "Point", "coordinates": [ 22.0315995, 37.398621 ] } },
{ "type": "Feature", "properties": { "element": "node", "id": 6421997210, "amenity": "place_of_worship", "name": "Αγία Παρασκευή", "religion": "christian", "denomination": null, "ele": null, "natural": null, "tourism": null, "landuse": null, "building": null, "type": null, "label": "amenity:place_of_worship" }, "geometry": { "type": "Point", "coordinates": [ 22.0216106, 37.4174719 ] } },
{ "type": "Feature", "properties": { "element": "node", "id": 6422005685, "amenity": "place_of_worship", "name": "Άγιος Γεώργιος", "religion": "christian", "denomination": null, "ele": null, "natural": null, "tourism": null, "landuse": null, "building": null, "type": null, "label": "amenity:place_of_worship" }, "geometry": { "type": "Point", "coordinates": [ 22.0208458, 37.4178563 ] } },
{ "type": "Feature", "properties": { "element": "node", "id": 6422005686, "amenity": "place_of_worship", "name": "Άγιος Σπυρίδων", "religion": "christian", "denomination": null, "ele": null, "natural": null, "tourism": null, "landuse": null, "building": null, "type": null, "label": "amenity:place_of_worship" }, "geometry": { "type": "Point", "coordinates": [ 22.0205427, 37.4174451 ] } },
{ "type": "Feature", "properties": { "element": "node", "id": 6422006770, "amenity": "place_of_worship", "name": null, "religion": "christian", "denomination": "greek_orthodox", "ele": null, "natural": null, "tourism": null, "landuse": null, "building": null, "type": null, "label": "amenity:place_of_worship" }, "geometry": { "type": "Point", "coordinates": [ 22.0191892, 37.4168624 ] } },
{ "type": "Feature", "properties": { "element": "node", "id": 6422042969, "amenity": "place_of_worship", "name": "Άγιος Αθανάσιος", "religion": "christian", "denomination": "greek_orthodox", "ele": null, "natural": null, "tourism": null, "landuse": null, "building": null, "type": null, "label": "amenity:place_of_worship" }, "geometry": { "type": "Point", "coordinates": [ 22.0244396, 37.4150758 ] } },
{ "type": "Feature", "properties": { "element": "node", "id": 6422063347, "amenity": null, "name": null, "religion": null, "denomination": null, "ele": "685", "natural": "spring", "tourism": null, "landuse": null, "building": null, "type": null, "label": "natural:spring" }, "geometry": { "type": "Point", "coordinates": [ 22.0197561, 37.405535 ] } },
{ "type": "Feature", "properties": { "element": "node", "id": 6422068517, "amenity": null, "name": null, "religion": null, "denomination": null, "ele": null, "natural": null, "tourism": "viewpoint", "landuse": null, "building": null, "type": null, "label": "tourism:viewpoint" }, "geometry": { "type": "Point", "coordinates": [ 22.0201772, 37.4052396 ] } },
{ "type": "Feature", "properties": { "element": "node", "id": 6424422962, "amenity": "place_of_worship", "name": "Άγιος Κωνσταντίνος", "religion": "christian", "denomination": null, "ele": null, "natural": null, "tourism": null, "landuse": null, "building": null, "type": null, "label": "amenity:place_of_worship" }, "geometry": { "type": "Point", "coordinates": [ 22.0285011, 37.3965891 ] } },
{ "type": "Feature", "properties": { "element": "node", "id": 6424426012, "amenity": "place_of_worship", "name": "Άγιοι Θεόδωροι", "religion": "christian", "denomination": null, "ele": null, "natural": null, "tourism": null, "landuse": null, "building": null, "type": null, "label": "amenity:place_of_worship" }, "geometry": { "type": "Point", "coordinates": [ 22.022858, 37.4024127 ] } },
{ "type": "Feature", "properties": { "element": "node", "id": 7194451220, "amenity": null, "name": null, "religion": null, "denomination": null, "ele": "737", "natural": "spring", "tourism": null, "landuse": null, "building": null, "type": null, "label": "natural:spring" }, "geometry": { "type": "Point", "coordinates": [ 22.0191131, 37.4137184 ] } }
]
}
