{
"type": "FeatureCollection",
"name": "patch_98680_polygon",
"crs": { "type": "name", "properties": { "name": "urn:ogc:def:crs:OGC:1.3:CRS84" } },
"features": [
{ "type": "Feature", "properties": { "element": "way", "id": 150822250, "amenity": null, "name": null, "religion": null, "denomination": null, "ele": null, "natural": null, "tourism": null, "landuse": "residential", "building": null, "type": null, "label": "landuse:residential" }, "geometry": { "type": "Polygon", "coordinates": [ [ [ 22.0208337, 37.4159236 ], [ 22.0197306, 37.4157446 ], [ 22.0195764, 37.4153301 ], [ 22.0197781, 37.4148779 ], [ 22.0191495, 37.4146848 ], [ 22.0182006, 37.414925 ], [ 22.017483, 37.4156693 ], [ 22.0182421, 37.4163711 ], [ 22.0188529, 37.4169457 ], [ 22.019529, 37.4172283 ], [ 22.020383, 37.4178029 ], [ 22.0212073, 37.4178218 ], [ 22.0214801, 37.4174732 ], [ 22.0215097, 37.4170305 ], [ 22.0210353, 37.4164323 ], [ 22.0208337, 37.4159236 ] ] ] } },
{ "type": "Feature", "properties": { "element": "way", "id": 685324708, "amenity": "place_of_worship", "name": "Κοίμηση της Θεοτόκου", "religion": "christian", "denomination": null, "ele": null, "natural": null, "tourism": null, "landuse": null, "building": "yes", "type": null, "label": "building:yes;amenity:place_of_worship" }, "geometry": { "type": "Polygon", "coordinates": [ [ [ 22.0192338, 37.416593 ], [ 22.0192483, 37.4166602 ], [ 22.0194427, 37.4166337 ], [ 22.0194282, 37.4165665 ], [ 22.0192338, 37.416593 ] ] ] } },
{ "type": "Feature", "properties": { "element": "way", "id": 685329013, "amenity": "monastery", "name": "Μονή Παναγίας Γκραμποβού", "religion": "christian", "denomination": "greek_orthodox", "ele": null, "natural": null, "tourism": null, "landuse": null, "building": null, "type": null, "label": "amenity:monastery" }, "geometry": { "type": "Polygon", "coordinates": [ [ [ 22.0197114, 37.4052508 ], [ 22.019689, 37.4053025 ], [ 22.0196687, 37.4053816 ], [ 22.0196605, 37.405451 ], [ 22.0196605, 37.4054817 ], [ 22.019813, 37.4055043 ], [ 22.0198557, 37.4054317 ], [ 22.0198536, 37.405401 ], [ 22.0198455, 37.4053477 ], [ 22.0198313, 37.4052879 ], [ 22.0197927, 37.4052427 ], [ 22.019752, 37.4052024 ], [ 22.0197114, 37.4052508 ] ] ] } },
{ "type": "Feature", "properties": { "element": "way", "id": 685329400, "amenity": null, "name": null, "religion": null, "denomination": null, "ele": null, "natural": null, "tourism": null, "landuse": null, "building": "yes", "type": null, "label": "building:yes" }, "geometry": { "type": "Polygon", "coordinates": [ [ [ 22.0201518, 37.4052328 ], [ 22.020181, 37.4052575 ], [ 22.0202021, 37.4052418 ], [ 22.020173, 37.4052171 ], [ 22.0201518, 37.4052328 ] ] ] } },
{ "type": "Feature", "properties": { "element": "way", "id": 694541557, "amenity": null, "name": null, "religion": null, "denomination": null, "ele": null, "natural": "wood", "tourism": null, "landuse": null, "building": null, "type": null, "label": "natural:wood" }, "geometry": { "type": "Polygon", "coordinates": [ [ [ 22.024435, 37.4178011 ], [ 22.0243977, 37.4176268 ], [ 22.0242856, 37.4174562 ], [ 22.0241642, 37.4172374 ], [ 22.0241175, 37.4171298 ], [ 22.023982, 37.416974 ], [ 22.023912, 37.4168628 ], [ 22.0237579, 37.4167589 ], [ 22.0235757, 37.416655 ], [ 22.0234403, 37.4165289 ], [ 22.0234029, 37.4164214 ], [ 22.0232815, 37.4163027 ], [ 22.0231134, 37.4161617 ], [ 22.0229219, 37.4161172 ], [ 22.0226978, 37.4160913 ], [ 22.0225203, 37.416006 ], [ 22.0222681, 37.4159837 ], [ 22.0220813, 37.4159503 ], [ 22.0218525, 37.4159206 ], [ 22.0215349, 37.4159132 ], [ 22.0214649, 37.4159355 ], [ 22.0214439, 37.4160078 ], [ 22.0214719, 37.4161525 ], [ 22.0215279, 37.4162878 ], [ 22.0216307, 37.4164344 ], [ 22.0217943, 37.4165996 ], [ 22.0219606, 37.4167147 ], [ 22.0221645, 37.4169192 ], [ 22.0222771, 37.4170853 ], [ 22.0224595, 37.4172728 ], [ 22.022422, 37.417341 ], [ 22.0223415, 37.4173538 ], [ 22.0223415, 37.4175753 ], [ 22.0222771, 37.4177202 ], [ 22.022256993674365, 37.417896271281485 ], [ 22.024435, 37.417896271281485 ], [ 22.024435, 37.4178011 ] ] ] } },
{ "type": "Feature", "properties": { "element": "way", "id": 1270812770, "amenity": null, "name": null, "religion": null, "denomination": null, "ele": null, "natural": null, "tourism": null, "landuse": null, "building": "yes", "type": null, "label": "building:yes" }, "geometry": { "type": "Polygon", "coordinates": [ [ [ 22.0196402, 37.4148251 ], [ 22.0194342, 37.4148488 ], [ 22.0194515, 37.4149434 ], [ 22.0196575, 37.4149196 ], [ 22.0196402, 37.4148251 ] ] ] } },
{ "type": "Feature", "properties": { "element": "way", "id": 1270812771, "amenity": null, "name": null, "religion": null, "denomination": null, "ele": null, "natural": null, "tourism": null, "landuse": null, "building": "yes", "type": null, "label": "building:yes" }, "geometry": { "type": "Polygon", "coordinates": [ [ [ 22.019231, 37.4153399 ], [ 22.0193852, 37.4153651 ], [ 22.0194023, 37.415299 ], [ 22.0192482, 37.4152738 ], [ 22.019231, 37.4153399 ] ] ] } },
{ "type": "Feature", "properties": { "element": "way", "id": 1270812772, "amenity": null, "name": null, "religion": null, "denomination": null, "ele": null, "natural": null, "tourism": null, "landuse": null, "building": "yes", "type": null, "label": "building:yes" }, "geometry": { "type": "Polygon", "coordinates": [ [ [ 22.019256, 37.4150502 ], [ 22.0190745, 37.41504 ], [ 22.0190652, 37.4151449 ], [ 22.0192467, 37.415155 ], [ 22.019256, 37.4150502 ] ] ] } },
{ "type": "Feature", "properties": { "element": "way", "id": 1270812773, "amenity": null, "name": null, "religion": null, "denomination": null, "ele": null, "natural": null, "tourism": null, "landuse": null, "building": "yes", "type": null, "label": "building:yes" }, "geometry": { "type": "Polygon", "coordinates": [ [ [ 22.018997, 37.415062 ], [ 22.018985, 37.4149839 ], [ 22.018825, 37.4149994 ], [ 22.018837, 37.4150775 ], [ 22.018997, 37.415062 ] ] ] } },
{ "type": "Feature", "properties": { "element": "way", "id": 1270812774, "amenity": null, "name": null, "religion": null, "denomination": null, "ele": null, "natural": null, "tourism": null, "landuse": null, "building": "yes", "type": null, "label": "building:yes" }, "geometry": { "type": "Polygon", "coordinates": [ [ [ 22.0182401, 37.4150615 ], [ 22.0184379, 37.4150622 ], [ 22.0184383, 37.4149831 ], [ 22.0182406, 37.4149824 ], [ 22.0182401, 37.4150615 ] ] ] } },
{ "type": "Feature", "properties": { "element": "way", "id": 1270812775, "amenity": null, "name": null, "religion": null, "denomination": null, "ele": null, "natural": null, "tourism": null, "landuse": null, "building": "yes", "type": null, "label": "building:yes" }, "geometry": { "type": "Polygon", "coordinates": [ [ [ 22.0182773, 37.4152136 ], [ 22.0184839, 37.4152103 ], [ 22.0184817, 37.415126 ], [ 22.0182751, 37.4151294 ], [ 22.0182773, 37.4152136 ] ] ] } },
{ "type": "Feature", "properties": { "element": "way", "id": 1270812776, "amenity": null, "name": null, "religion": null, "denomination": null, "ele": null, "natural": null, "tourism": null, "landuse": null, "building": "yes", "type": null, "label": "building:yes" }, "geometry": { "type": "Polygon", "coordinates": [ [ [ 22.0186278, 37.4158221 ], [ 22.0186932, 37.4158893 ], [ 22.0187762, 37.4158384 ], [ 22.0187109, 37.4157712 ], [ 22.0186278, 37.4158221 ] ] ] } },
{ "type": "Feature", "properties": { "element": "way", "id": 1270812777, "amenity": null, "name": null, "religion": null, "denomination": null, "ele": null, "natural": null, "tourism": null, "landuse": null, "building": "yes", "type": null, "label": "building:yes" }, "geometry": { "type": "Polygon", "coordinates": [ [ [ 22.018232, 37.4153291 ], [ 22.0182946, 37.4153381 ], [ 22.0182803, 37.4154013 ], [ 22.0184358, 37.4154235 ], [ 22.0184642, 37.4152984 ], [ 22.0182461, 37.4152671 ], [ 22.018232, 37.4153291 ] ] ] } },
{ "type": "Feature", "properties": { "element": "way", "id": 1270812778, "amenity": null, "name": null, "religion": null, "denomination": null, "ele": null, "natural": null, "tourism": null, "landuse": null, "building": "yes", "type": null, "label": "building:yes" }, "geometry": { "type": "Polygon", "coordinates": [ [ [ 22.0187256, 37.4161508 ], [ 22.018804, 37.416179 ], [ 22.0188675, 37.4160674 ], [ 22.0187891, 37.4160393 ], [ 22.0187256, 37.4161508 ] ] ] } },
{ "type": "Feature", "properties": { "element": "way", "id": 1270812779, "amenity": null, "name": null, "religion": null, "denomination": null, "ele": null, "natural": null, "tourism": null, "landuse": null, "building": "yes", "type": null, "label": "building:yes" }, "geometry": { "type": "Polygon", "coordinates": [ [ [ 22.0187495, 37.4165797 ], [ 22.0188731, 37.4166287 ], [ 22.0189575, 37.4164943 ], [ 22.0188339, 37.4164453 ], [ 22.0187495, 37.4165797 ] ] ] } },
{ "type": "Feature", "properties": { "element": "way", "id": 1270812780, "amenity": null, "name": null, "religion": null, "denomination": null, "ele": null, "natural": null, "tourism": null, "landuse": null, "building": "yes", "type": null, "label": "building:yes" }, "geometry": { "type": "Polygon", "coordinates": [ [ [ 22.0199569, 37.4165295 ], [ 22.0200903, 37.4164662 ], [ 22.0200301, 37.4163862 ], [ 22.0198968, 37.4164494 ], [ 22.0199569, 37.4165295 ] ] ] } },
{ "type": "Feature", "properties": { "element": "way", "id": 1270812781, "amenity": null, "name": null, "religion": null, "denomination": null, "ele": null, "natural": null, "tourism": null, "landuse": null, "building": "yes", "type": null, "label": "building:yes" }, "geometry": { "type": "Polygon", "coordinates": [ [ [ 22.019796, 37.4167367 ], [ 22.0197893, 37.4166024 ], [ 22.0196715, 37.4166061 ], [ 22.0196783, 37.4167404 ], [ 22.019796, 37.4167367 ] ] ] } },
{ "type": "Feature", "properties": { "element": "way", "id": 1270812784, "amenity": null, "name": null, "religion": null, "denomination": null, "ele": null, "natural": null, "tourism": null, "landuse": null, "building": "yes", "type": null, "label": "building:yes" }, "geometry": { "type": "Polygon", "coordinates": [ [ [ 22.0190146, 37.4167959 ], [ 22.0189507, 37.4167094 ], [ 22.0189003, 37.4167329 ], [ 22.0189641, 37.4168194 ], [ 22.0190146, 37.4167959 ] ] ] } },
{ "type": "Feature", "properties": { "element": "way", "id": 1270826879, "amenity": null, "name": null, "religion": null, "denomination": null, "ele": null, "natural": null, "tourism": null, "landuse": null, "building": "yes", "type": null, "label": "building:yes" }, "geometry": { "type": "Polygon", "coordinates": [ [ [ 22.01683, 37.417862 ], [ 22.016881, 37.4177993 ], [ 22.0167597, 37.417737 ], [ 22.0167086, 37.4177998 ], [ 22.01683, 37.417862 ] ] ] } }
]
}
