{
"type": "FeatureCollection",
"name": "patch_47811_point",
"crs": { "type": "name", "properties": { "name": "urn:ogc:def:crs:OGC:1.3:CRS84" } },
"features": [
{ "type": "Feature", "properties": { "@type": "node", "@id": 348247530, "alt_name": null, "amenity": null, "boat": null, "bridge": null, "building": null, "ele": "610", "ford": null, "highway": null, "int_name": null, "intermittent": null, "landuse": null, "lanes": null, "layer": null, "lit": null, "maxspeed": null, "name": null, "name:de": null, "name:el": null, "name:en": null, "name:mk": null, "natural": "peak", "note": null, "oneway": null, "place": null, "reg_ref": null, "sac_scale": null, "service": null, "source": null, "surface": null, "tracktype": null, "trail_visibility": null, "waterway": null, "wikidata": null, "label": "natural:peak" }, "geometry": { "type": "Point", "coordinates": [ 23.6683424, 40.5688494 ] } },
{ "type": "Feature", "properties": { "@type": "node", "@id": 348252529, "alt_name": null, "amenity": null, "boat": null, "bridge": null, "building": null, "ele": "660", "ford": null, "highway": null, "int_name": null, "intermittent": null, "landuse": null, "lanes": null, "layer": null, "lit": null, "maxspeed": null, "name": null, "name:de": null, "name:el": null, "name:en": null, "name:mk": null, "natural": "peak", "note": null, "oneway": null, "place": null, "reg_ref": null, "sac_scale": null, "service": null, "source": null, "surface": null, "tracktype": null, "trail_visibility": null, "waterway": null, "wikidata": null, "label": "natural:peak" }, "geometry": { "type": "Point", "coordinates": [ 23.6851652, 40.5676758 ] } },
{ "type": "Feature", "properties": { "@type": "node", "@id": 9771769953, "alt_name": null, "amenity": "drinking_water", "boat": null, "bridge": null, "building": null, "ele": "547", "ford": null, "highway": null, "int_name": null, "intermittent": null, "landuse": null, "lanes": null, "layer": null, "lit": null, "maxspeed": null, "name": null, "name:de": null, "name:el": null, "name:en": null, "name:mk": null, "natural": null, "note": null, "oneway": null, "place": null, "reg_ref": null, "sac_scale": null, "service": null, "source": null, "surface": null, "tracktype": null, "trail_visibility": null, "waterway": null, "wikidata": null, "label": "amenity:drinking_water" }, "geometry": { "type": "Point", "coordinates": [ 23.662717, 40.5704609 ] } },
{ "type": "Feature", "properties": { "@type": "node", "@id": 10305185442, "alt_name": null, "amenity": null, "boat": null, "bridge": null, "building": null, "ele": "527", "ford": null, "highway": null, "int_name": null, "intermittent": null, "landuse": null, "lanes": null, "layer": null, "lit": null, "maxspeed": null, "name": "Σελίτσα", "name:de": "Selitsa", "name:el": "Σελίτσα", "name:en": "Selitsa", "name:mk": null, "natural": "peak", "note": null, "oneway": null, "place": null, "reg_ref": null, "sac_scale": null, "service": null, "source": null, "surface": null, "tracktype": null, "trail_visibility": null, "waterway": null, "wikidata": null, "label": "natural:peak" }, "geometry": { "type": "Point", "coordinates": [ 23.6901308, 40.5792158 ] } }
]
}
