{
"type": "FeatureCollection",
"name": "patch_47811_linestring",
"crs": { "type": "name", "properties": { "name": "urn:ogc:def:crs:OGC:1.3:CRS84" } },
"features": [
{ "type": "Feature", "properties": { "@type": "way", "@id": 170539335, "alt_name": null, "amenity": null, "boat": "no", "bridge": null, "building": null, "ele": null, "ford": null, "highway": null, "int_name": null, "intermittent": "yes", "landuse": null, "lanes": null, "layer": null, "lit": null, "maxspeed": null, "name": null, "name:de": null, "name:el": null, "name:en": null, "name:mk": null, "natural": null, "note": null, "oneway": null, "place": null, "reg_ref": null, "sac_scale": null, "service": null, "source": "Bing Aerial Imagery Zoom Level 18", "surface": null, "tracktype": null, "trail_visibility": null, "waterway": "stream", "wikidata": null, "label": "waterway:stream" }, "geometry": { "type": "LineString", "coordinates": [ [ 23.6644219, 40.5633627 ], [ 23.66432, 40.5634239 ], [ 23.6642208, 40.5634891 ], [ 23.6641215, 40.5635502 ], [ 23.6640062, 40.5636358 ], [ 23.6638882, 40.5637112 ], [ 23.6638238, 40.5637377 ], [ 23.6637287, 40.5637769 ], [ 23.6636575, 40.5638029 ], [ 23.6635663, 40.5638273 ], [ 23.6634832, 40.5638416 ], [ 23.66338, 40.5638523 ], [ 23.6632981, 40.5638742 ], [ 23.6632137, 40.5639134 ], [ 23.6631479, 40.5639598 ], [ 23.6630877, 40.5640112 ], [ 23.6629628, 40.564137 ], [ 23.6629038, 40.5642002 ], [ 23.6628368, 40.5642837 ], [ 23.6627697, 40.5643489 ], [ 23.6627134, 40.5644019 ], [ 23.6626558, 40.5644534 ], [ 23.6626088, 40.5644773 ], [ 23.6625325, 40.5645064 ], [ 23.6624466, 40.5645227 ], [ 23.662413, 40.5645242 ], [ 23.6623513, 40.5645079 ], [ 23.6622842, 40.5644855 ], [ 23.6622493, 40.5644549 ], [ 23.6622064, 40.5643999 ], [ 23.6621608, 40.5643489 ], [ 23.662126, 40.564296 ], [ 23.6620938, 40.5642613 ], [ 23.6620428, 40.5642471 ], [ 23.6619933, 40.5642517 ], [ 23.661957, 40.5642756 ], [ 23.6619103, 40.564311 ], [ 23.661819, 40.5643454 ], [ 23.6617719, 40.5643714 ], [ 23.6617251, 40.5644208 ], [ 23.6616861, 40.5644834 ], [ 23.6616646, 40.5645466 ], [ 23.6616405, 40.5646729 ], [ 23.6616163, 40.5648074 ], [ 23.6615949, 40.5649134 ], [ 23.6615627, 40.5650152 ], [ 23.6615198, 40.5651151 ], [ 23.6614527, 40.5652272 ], [ 23.6614313, 40.5652761 ], [ 23.6614393, 40.5653351 ], [ 23.6614527, 40.5653922 ], [ 23.6614769, 40.5654574 ], [ 23.6614447, 40.5655389 ], [ 23.6613803, 40.5656021 ], [ 23.661273, 40.565655 ], [ 23.661147, 40.5656632 ], [ 23.6610745, 40.5656489 ], [ 23.6609982, 40.5656128 ], [ 23.66095473059071, 40.565611323408632 ] ] } },
{ "type": "Feature", "properties": { "@type": "way", "@id": 306082026, "alt_name": "Μποστάνια", "amenity": null, "boat": null, "bridge": null, "building": null, "ele": null, "ford": null, "highway": null, "int_name": null, "intermittent": "yes", "landuse": null, "lanes": null, "layer": null, "lit": null, "maxspeed": null, "name": "Κερασιά", "name:de": null, "name:el": "Κερασιά", "name:en": "Kerasia", "name:mk": "Домуздере", "natural": null, "note": null, "oneway": null, "place": null, "reg_ref": null, "sac_scale": null, "service": null, "source": null, "surface": null, "tracktype": null, "trail_visibility": null, "waterway": "stream", "wikidata": "Q124134793", "label": "waterway:stream" }, "geometry": { "type": "LineString", "coordinates": [ [ 23.6809749, 40.5736452 ], [ 23.6787499, 40.5751354 ], [ 23.6776255, 40.576153 ], [ 23.6768599, 40.5768617 ], [ 23.6765967, 40.5770071 ], [ 23.6760704, 40.5768799 ], [ 23.675544, 40.5766436 ], [ 23.675233, 40.576571 ], [ 23.6744435, 40.5768617 ], [ 23.6739889, 40.5777339 ], [ 23.673654, 40.5782973 ], [ 23.6731755, 40.5786062 ], [ 23.6722903, 40.579115 ], [ 23.6715964, 40.5794965 ], [ 23.6709026, 40.5797691 ], [ 23.6703045, 40.5801144 ], [ 23.6699456, 40.5804596 ], [ 23.6700174, 40.5808594 ], [ 23.67034036161461, 40.582221882595178 ] ] } },
{ "type": "Feature", "properties": { "@type": "way", "@id": 306082028, "alt_name": null, "amenity": null, "boat": null, "bridge": null, "building": null, "ele": null, "ford": null, "highway": null, "int_name": null, "intermittent": "yes", "landuse": null, "lanes": null, "layer": null, "lit": null, "maxspeed": null, "name": null, "name:de": null, "name:el": null, "name:en": null, "name:mk": null, "natural": null, "note": null, "oneway": null, "place": null, "reg_ref": null, "sac_scale": null, "service": null, "source": null, "surface": null, "tracktype": null, "trail_visibility": null, "waterway": "stream", "wikidata": null, "label": "waterway:stream" }, "geometry": { "type": "LineString", "coordinates": [ [ 23.68306613867016, 40.559884736723717 ], [ 23.6825293, 40.5601685 ], [ 23.6818463, 40.5604679 ], [ 23.6808436, 40.5607396 ], [ 23.6800077, 40.5609502 ], [ 23.6792493, 40.561094 ], [ 23.6781624, 40.5613457 ], [ 23.6766339, 40.5617657 ], [ 23.6756345, 40.5620571 ], [ 23.6750138, 40.5623006 ], [ 23.6743721, 40.5625435 ], [ 23.6738377, 40.5630073 ], [ 23.6736093, 40.5632323 ], [ 23.6729791, 40.5630712 ], [ 23.672291, 40.5630908 ], [ 23.6716585, 40.5632092 ], [ 23.6701122, 40.5633169 ], [ 23.6690491, 40.5634314 ], [ 23.6684644, 40.5636265 ], [ 23.6677887, 40.5637576 ], [ 23.6671368, 40.5640842 ], [ 23.6656512, 40.5637799 ], [ 23.6653143, 40.563626 ], [ 23.6650801, 40.5634391 ], [ 23.6649641, 40.5633636 ], [ 23.6647074, 40.5633133 ], [ 23.6644219, 40.5633627 ] ] } },
{ "type": "Feature", "properties": { "@type": "way", "@id": 306082030, "alt_name": null, "amenity": null, "boat": null, "bridge": null, "building": null, "ele": null, "ford": null, "highway": null, "int_name": null, "intermittent": "yes", "landuse": null, "lanes": null, "layer": null, "lit": null, "maxspeed": null, "name": null, "name:de": null, "name:el": null, "name:en": null, "name:mk": null, "natural": null, "note": null, "oneway": null, "place": null, "reg_ref": null, "sac_scale": null, "service": null, "source": null, "surface": null, "tracktype": null, "trail_visibility": null, "waterway": "stream", "wikidata": null, "label": "waterway:stream" }, "geometry": { "type": "LineString", "coordinates": [ [ 23.663400649066784, 40.559884736723717 ], [ 23.6628159, 40.5604497 ], [ 23.6626467, 40.5608115 ], [ 23.6623764, 40.5611717 ], [ 23.6623631, 40.561325 ], [ 23.6623518, 40.5614557 ], [ 23.6623353, 40.5616256 ], [ 23.6623353, 40.5620032 ], [ 23.6621945, 40.5622989 ], [ 23.6620951, 40.5624122 ], [ 23.6620122, 40.5624877 ], [ 23.6620288, 40.5628212 ], [ 23.6620205, 40.5633121 ], [ 23.6617811, 40.5637512 ], [ 23.6616261, 40.5639898 ], [ 23.661507, 40.5643126 ], [ 23.6615593, 40.5646139 ], [ 23.6616405, 40.5646729 ] ] } },
{ "type": "Feature", "properties": { "@type": "way", "@id": 306082032, "alt_name": null, "amenity": null, "boat": null, "bridge": null, "building": null, "ele": null, "ford": null, "highway": null, "int_name": null, "intermittent": "yes", "landuse": null, "lanes": null, "layer": null, "lit": null, "maxspeed": null, "name": null, "name:de": null, "name:el": null, "name:en": null, "name:mk": null, "natural": null, "note": null, "oneway": null, "place": null, "reg_ref": null, "sac_scale": null, "service": null, "source": null, "surface": null, "tracktype": null, "trail_visibility": null, "waterway": "stream", "wikidata": null, "label": "waterway:stream" }, "geometry": { "type": "LineString", "coordinates": [ [ 23.66095473059071, 40.578603283972775 ], [ 23.6611655, 40.5789824 ], [ 23.6614765, 40.5797093 ], [ 23.661644, 40.5808359 ], [ 23.661833331267285, 40.582221882595178 ] ] } },
{ "type": "Feature", "properties": { "@type": "way", "@id": 319292714, "alt_name": null, "amenity": null, "boat": null, "bridge": null, "building": null, "ele": null, "ford": null, "highway": null, "int_name": null, "intermittent": "yes", "landuse": null, "lanes": null, "layer": null, "lit": null, "maxspeed": null, "name": null, "name:de": null, "name:el": null, "name:en": null, "name:mk": null, "natural": null, "note": null, "oneway": null, "place": null, "reg_ref": null, "sac_scale": null, "service": null, "source": null, "surface": null, "tracktype": null, "trail_visibility": null, "waterway": "stream", "wikidata": null, "label": "waterway:stream" }, "geometry": { "type": "LineString", "coordinates": [ [ 23.66095473059071, 40.560733298310268 ], [ 23.6609784, 40.5607449 ], [ 23.6611402, 40.5608206 ], [ 23.6613518, 40.5608868 ], [ 23.6615697, 40.5608962 ], [ 23.6617813, 40.5609483 ], [ 23.6621409, 40.5611838 ], [ 23.6623631, 40.561325 ] ] } }
]
}
