{
"type": "FeatureCollection",
"name": "patch_47811_polygon",
"crs": { "type": "name", "properties": { "name": "urn:ogc:def:crs:OGC:1.3:CRS84" } },
"features": [
{ "type": "Feature", "properties": { "@type": "way", "@id": 1134617366, "alt_name": null, "amenity": null, "boat": null, "bridge": null, "building": "yes", "ele": null, "ford": null, "highway": null, "int_name": null, "intermittent": null, "landuse": null, "lanes": null, "layer": null, "lit": null, "maxspeed": null, "name": null, "name:de": null, "name:el": null, "name:en": null, "name:mk": null, "natural": null, "note": null, "oneway": null, "place": null, "reg_ref": null, "sac_scale": null, "service": null, "source": "microsoft/BuildingFootprints", "surface": null, "tracktype": null, "trail_visibility": null, "waterway": null, "wikidata": null, "label": "building:yes" }, "geometry": { "type": "Polygon", "coordinates": [ [ [ 23.6610683, 40.5689255 ], [ 23.6611729, 40.5688082 ], [ 23.6610369, 40.5687382 ], [ 23.66095473059071, 40.568830346001043 ], [ 23.66095473059071, 40.568867045156985 ], [ 23.6610683, 40.5689255 ] ] ] } },
{ "type": "Feature", "properties": { "@type": "way", "@id": 1134617367, "alt_name": null, "amenity": null, "boat": null, "bridge": null, "building": "yes", "ele": null, "ford": null, "highway": null, "int_name": null, "intermittent": null, "landuse": null, "lanes": null, "layer": null, "lit": null, "maxspeed": null, "name": null, "name:de": null, "name:el": null, "name:en": null, "name:mk": null, "natural": null, "note": null, "oneway": null, "place": null, "reg_ref": null, "sac_scale": null, "service": null, "source": "microsoft/BuildingFootprints", "surface": null, "tracktype": null, "trail_visibility": null, "waterway": null, "wikidata": null, "label": "building:yes" }, "geometry": { "type": "Polygon", "coordinates": [ [ [ 23.6611645, 40.5692484 ], [ 23.6612805, 40.5692111 ], [ 23.6612015, 40.5690695 ], [ 23.6610855, 40.5691068 ], [ 23.6611645, 40.5692484 ] ] ] } },
{ "type": "Feature", "properties": { "@type": "way", "@id": 1134617368, "alt_name": null, "amenity": null, "boat": null, "bridge": null, "building": "yes", "ele": null, "ford": null, "highway": null, "int_name": null, "intermittent": null, "landuse": null, "lanes": null, "layer": null, "lit": null, "maxspeed": null, "name": null, "name:de": null, "name:el": null, "name:en": null, "name:mk": null, "natural": null, "note": null, "oneway": null, "place": null, "reg_ref": null, "sac_scale": null, "service": null, "source": "microsoft/BuildingFootprints", "surface": null, "tracktype": null, "trail_visibility": null, "waterway": null, "wikidata": null, "label": "building:yes" }, "geometry": { "type": "Polygon", "coordinates": [ [ [ 23.6612704, 40.5694022 ], [ 23.6613946, 40.5693625 ], [ 23.6613457, 40.5692742 ], [ 23.6612215, 40.5693139 ], [ 23.6612704, 40.5694022 ] ] ] } },
{ "type": "Feature", "properties": { "@type": "way", "@id": 1134617369, "alt_name": null, "amenity": null, "boat": null, "bridge": null, "building": "yes", "ele": null, "ford": null, "highway": null, "int_name": null, "intermittent": null, "landuse": null, "lanes": null, "layer": null, "lit": null, "maxspeed": null, "name": null, "name:de": null, "name:el": null, "name:en": null, "name:mk": null, "natural": null, "note": null, "oneway": null, "place": null, "reg_ref": null, "sac_scale": null, "service": null, "source": "microsoft/BuildingFootprints", "surface": null, "tracktype": null, "trail_visibility": null, "waterway": null, "wikidata": null, "label": "building:yes" }, "geometry": { "type": "Polygon", "coordinates": [ [ [ 23.6617228, 40.5696114 ], [ 23.6618941, 40.5695547 ], [ 23.6618365, 40.5694544 ], [ 23.6616652, 40.5695112 ], [ 23.6617228, 40.5696114 ] ] ] } },
{ "type": "Feature", "properties": { "@type": "way", "@id": 1134617370, "alt_name": null, "amenity": null, "boat": null, "bridge": null, "building": "yes", "ele": null, "ford": null, "highway": null, "int_name": null, "intermittent": null, "landuse": null, "lanes": null, "layer": null, "lit": null, "maxspeed": null, "name": null, "name:de": null, "name:el": null, "name:en": null, "name:mk": null, "natural": null, "note": null, "oneway": null, "place": null, "reg_ref": null, "sac_scale": null, "service": null, "source": "microsoft/BuildingFootprints", "surface": null, "tracktype": null, "trail_visibility": null, "waterway": null, "wikidata": null, "label": "building:yes" }, "geometry": { "type": "Polygon", "coordinates": [ [ [ 23.6617181, 40.5699021 ], [ 23.6618552, 40.5697907 ], [ 23.661785, 40.5697409 ], [ 23.6616479, 40.5698523 ], [ 23.6617181, 40.5699021 ] ] ] } },
{ "type": "Feature", "properties": { "@type": "way", "@id": 1134617371, "alt_name": null, "amenity": null, "boat": null, "bridge": null, "building": "yes", "ele": null, "ford": null, "highway": null, "int_name": null, "intermittent": null, "landuse": null, "lanes": null, "layer": null, "lit": null, "maxspeed": null, "name": null, "name:de": null, "name:el": null, "name:en": null, "name:mk": null, "natural": null, "note": null, "oneway": null, "place": null, "reg_ref": null, "sac_scale": null, "service": null, "source": "microsoft/BuildingFootprints", "surface": null, "tracktype": null, "trail_visibility": null, "waterway": null, "wikidata": null, "label": "building:yes" }, "geometry": { "type": "Polygon", "coordinates": [ [ [ 23.6620323, 40.5699797 ], [ 23.6621071, 40.5699554 ], [ 23.6620678, 40.5698858 ], [ 23.661993, 40.5699101 ], [ 23.6620323, 40.5699797 ] ] ] } },
{ "type": "Feature", "properties": { "@type": "way", "@id": 1134617372, "alt_name": null, "amenity": null, "boat": null, "bridge": null, "building": "yes", "ele": null, "ford": null, "highway": null, "int_name": null, "intermittent": null, "landuse": null, "lanes": null, "layer": null, "lit": null, "maxspeed": null, "name": null, "name:de": null, "name:el": null, "name:en": null, "name:mk": null, "natural": null, "note": null, "oneway": null, "place": null, "reg_ref": null, "sac_scale": null, "service": null, "source": "microsoft/BuildingFootprints", "surface": null, "tracktype": null, "trail_visibility": null, "waterway": null, "wikidata": null, "label": "building:yes" }, "geometry": { "type": "Polygon", "coordinates": [ [ [ 23.662083, 40.5701302 ], [ 23.6622244, 40.5700806 ], [ 23.6621897, 40.5700235 ], [ 23.6620482, 40.5700731 ], [ 23.662083, 40.5701302 ] ] ] } },
{ "type": "Feature", "properties": { "@type": "way", "@id": 1134617373, "alt_name": null, "amenity": null, "boat": null, "bridge": null, "building": "yes", "ele": null, "ford": null, "highway": null, "int_name": null, "intermittent": null, "landuse": null, "lanes": null, "layer": null, "lit": null, "maxspeed": null, "name": null, "name:de": null, "name:el": null, "name:en": null, "name:mk": null, "natural": null, "note": null, "oneway": null, "place": null, "reg_ref": null, "sac_scale": null, "service": null, "source": "microsoft/BuildingFootprints", "surface": null, "tracktype": null, "trail_visibility": null, "waterway": null, "wikidata": null, "label": "building:yes" }, "geometry": { "type": "Polygon", "coordinates": [ [ [ 23.6626408, 40.5703956 ], [ 23.6627856, 40.5703936 ], [ 23.6627842, 40.5703345 ], [ 23.6626394, 40.5703365 ], [ 23.6626408, 40.5703956 ] ] ] } },
{ "type": "Feature", "properties": { "@type": "way", "@id": 1134617374, "alt_name": null, "amenity": null, "boat": null, "bridge": null, "building": "yes", "ele": null, "ford": null, "highway": null, "int_name": null, "intermittent": null, "landuse": null, "lanes": null, "layer": null, "lit": null, "maxspeed": null, "name": null, "name:de": null, "name:el": null, "name:en": null, "name:mk": null, "natural": null, "note": null, "oneway": null, "place": null, "reg_ref": null, "sac_scale": null, "service": null, "source": "microsoft/BuildingFootprints", "surface": null, "tracktype": null, "trail_visibility": null, "waterway": null, "wikidata": null, "label": "building:yes" }, "geometry": { "type": "Polygon", "coordinates": [ [ [ 23.6619895, 40.5704268 ], [ 23.6620684, 40.570413 ], [ 23.6620366, 40.5703085 ], [ 23.6619577, 40.5703224 ], [ 23.6619895, 40.5704268 ] ] ] } },
{ "type": "Feature", "properties": { "@type": "way", "@id": 1198242606, "alt_name": null, "amenity": null, "boat": null, "bridge": null, "building": null, "ele": null, "ford": null, "highway": null, "int_name": null, "intermittent": null, "landuse": "residential", "lanes": null, "layer": null, "lit": null, "maxspeed": null, "name": null, "name:de": null, "name:el": null, "name:en": null, "name:mk": null, "natural": null, "note": null, "oneway": null, "place": null, "reg_ref": null, "sac_scale": null, "service": null, "source": null, "surface": null, "tracktype": null, "trail_visibility": null, "waterway": null, "wikidata": null, "label": "landuse:residential" }, "geometry": { "type": "Polygon", "coordinates": [ [ [ 23.661025, 40.5699613 ], [ 23.6611739, 40.5699684 ], [ 23.6613134, 40.5699796 ], [ 23.6614743, 40.5700153 ], [ 23.6615816, 40.570056 ], [ 23.6616781, 40.5701008 ], [ 23.6617613, 40.5701569 ], [ 23.6618699, 40.570217 ], [ 23.661937, 40.5702608 ], [ 23.6620791, 40.5703046 ], [ 23.6623108, 40.5703678 ], [ 23.6623915, 40.5704167 ], [ 23.6624344, 40.5704635 ], [ 23.6625224, 40.5704283 ], [ 23.6626646, 40.5704524 ], [ 23.6629217, 40.5703919 ], [ 23.6613442, 40.5687887 ], [ 23.66095473059071, 40.568480779398051 ], [ 23.66095473059071, 40.569958665613022 ], [ 23.661025, 40.5699613 ] ] ] } }
]
}
