{
"type": "FeatureCollection",
"name": "patch_97125_polygon",
"crs": { "type": "name", "properties": { "name": "urn:ogc:def:crs:OGC:1.3:CRS84" } },
"features": [
{ "type": "Feature", "properties": { "@type": "way", "@id": 1193314245, "addr:postcode": null, "highway": null, "int_name": null, "landuse": "residential", "lanes": null, "name": null, "name:el": null, "name:en": null, "name:ru": null, "place": null, "source": null, "surface": null, "wikidata": null, "wikipedia": null, "label": "landuse:residential" }, "geometry": { "type": "Polygon", "coordinates": [ [ [ 24.6296953, 41.2405815 ], [ 24.6297382, 41.2407025 ], [ 24.6297758, 41.2408235 ], [ 24.6298509, 41.2409728 ], [ 24.6298884, 41.2410655 ], [ 24.6298938, 41.2411462 ], [ 24.6311829, 41.2413687 ], [ 24.6321631, 41.2417746 ], [ 24.6326954, 41.2419615 ], [ 24.6330938, 41.2406286 ], [ 24.6328756, 41.2389313 ], [ 24.6319162, 41.2389438 ], [ 24.6319162, 41.2390486 ], [ 24.631884, 41.2391333 ], [ 24.6318196, 41.2392221 ], [ 24.6316909, 41.2393391 ], [ 24.6315675, 41.2394601 ], [ 24.6315123, 41.2394922 ], [ 24.6314495, 41.2395287 ], [ 24.6313207, 41.2395488 ], [ 24.6311491, 41.239569 ], [ 24.6310579, 41.2395972 ], [ 24.6309774, 41.2396739 ], [ 24.6307602, 41.2398929 ], [ 24.6305912, 41.240041 ], [ 24.6304732, 41.2401055 ], [ 24.630323, 41.24017 ], [ 24.6301567, 41.2402225 ], [ 24.6300333, 41.2402669 ], [ 24.6298723, 41.2403193 ], [ 24.6297865, 41.2403637 ], [ 24.6297275, 41.2404322 ], [ 24.6296846, 41.2405089 ], [ 24.6296953, 41.2405815 ] ] ] } }
]
}
