{
"type": "FeatureCollection",
"name": "patch_79678_polygon",
"crs": { "type": "name", "properties": { "name": "urn:ogc:def:crs:OGC:1.3:CRS84" } },
"features": [
{ "type": "Feature", "properties": { "osm_id": 138271001, "name": "Βρύσινα, Πρασσανό Φαράγγι Δήμου Ρεθύμνης", "label": "leisure:nature_reserve;tourism:information", "leisure": "nature_reserve", "tourism": "information", "landuse": null, "building": null, "sport": null, "natural": null }, "geometry": { "type": "Polygon", "coordinates": [ [ [ 24.4880786, 35.291601099672782 ], [ 24.4851877, 35.291528099672774 ], [ 24.4823023, 35.292385999672845 ], [ 24.4813772, 35.293066799672893 ], [ 24.48070212787659, 35.302622976420352 ], [ 24.489391278815337, 35.302622976420352 ], [ 24.489391278815337, 35.291518875540227 ], [ 24.4880786, 35.291601099672782 ] ] ] } },
{ "type": "Feature", "properties": { "osm_id": 103857330, "name": null, "label": "landuse:residential", "leisure": null, "tourism": null, "landuse": "residential", "building": null, "sport": null, "natural": null }, "geometry": { "type": "Polygon", "coordinates": [ [ [ 24.4825126, 35.279103999671818 ], [ 24.482702, 35.279335899671835 ], [ 24.4824495, 35.279713799671867 ], [ 24.4821549, 35.279833999671872 ], [ 24.4821233, 35.280177599671909 ], [ 24.481955, 35.280830299671948 ], [ 24.4819129, 35.281319799671991 ], [ 24.4824916, 35.281474399672 ], [ 24.4829334, 35.281517399672005 ], [ 24.4833438, 35.281199599671986 ], [ 24.4831965, 35.280581199671936 ], [ 24.4833122, 35.280100299671908 ], [ 24.483712, 35.279773899671873 ], [ 24.4839119, 35.279687999671872 ], [ 24.4839119, 35.279275699671842 ], [ 24.483609121833819, 35.278974540222052 ], [ 24.482591873253185, 35.278974540222052 ], [ 24.4825126, 35.279103999671818 ] ] ] } },
{ "type": "Feature", "properties": { "osm_id": 1070802429, "name": null, "label": "building:roof", "leisure": null, "tourism": null, "landuse": null, "building": "roof", "sport": null, "natural": null }, "geometry": { "type": "Polygon", "coordinates": [ [ [ 24.4701066, 35.287192999672456 ], [ 24.4701482, 35.28707829967243 ], [ 24.4700139, 35.287045899672442 ], [ 24.4699723, 35.28716059967244 ], [ 24.4701066, 35.287192999672456 ] ] ] } },
{ "type": "Feature", "properties": { "osm_id": 98737772, "name": null, "label": "landuse:residential", "leisure": null, "tourism": null, "landuse": "residential", "building": null, "sport": null, "natural": null }, "geometry": { "type": "Polygon", "coordinates": [ [ [ 24.4858245, 35.287938199672503 ], [ 24.4864332, 35.288206499672519 ], [ 24.4869202, 35.288077299672516 ], [ 24.4874681, 35.288097199672507 ], [ 24.4881742, 35.287580499672465 ], [ 24.488162, 35.287222699672441 ], [ 24.4884908, 35.286795399672407 ], [ 24.4889656, 35.286835099672409 ], [ 24.4890021, 35.286367999672386 ], [ 24.4886247, 35.28599039967235 ], [ 24.4878942, 35.285980399672347 ], [ 24.4874924, 35.286407799672389 ], [ 24.4868593, 35.286725799672411 ], [ 24.4859219, 35.286775499672402 ], [ 24.4859828, 35.287262399672436 ], [ 24.4855323, 35.287381699672459 ], [ 24.4853984, 35.287590399672482 ], [ 24.4858245, 35.287938199672503 ] ] ] } },
{ "type": "Feature", "properties": { "osm_id": 295872786, "name": null, "label": "sport:soccer;leisure:pitch", "leisure": "pitch", "tourism": null, "landuse": null, "building": null, "sport": "soccer", "natural": null }, "geometry": { "type": "Polygon", "coordinates": [ [ [ 24.4622819, 35.299659899673415 ], [ 24.4626466, 35.299176099673367 ], [ 24.461980813756284, 35.298849464498936 ], [ 24.461980813756284, 35.299512872509837 ], [ 24.4622819, 35.299659899673415 ] ] ] } },
{ "type": "Feature", "properties": { "osm_id": 136906936, "name": null, "label": "natural:wood", "leisure": null, "tourism": null, "landuse": null, "building": null, "sport": null, "natural": "wood" }, "geometry": { "type": "Polygon", "coordinates": [ [ [ 24.462057, 35.287406999672463 ], [ 24.461980813756284, 35.287533706849203 ], [ 24.461980813756284, 35.291763546803679 ], [ 24.462319, 35.291408999672775 ], [ 24.462506, 35.291350999672773 ], [ 24.462763, 35.291407999672771 ], [ 24.463114, 35.291482999672773 ], [ 24.463348, 35.291481999672776 ], [ 24.463557, 35.291346999672768 ], [ 24.463626, 35.291174999672755 ], [ 24.463602, 35.290982999672742 ], [ 24.463435, 35.290714999672716 ], [ 24.463494, 35.290590999672709 ], [ 24.463751, 35.2905999996727 ], [ 24.46408, 35.290792999672711 ], [ 24.464319, 35.291070999672748 ], [ 24.464561, 35.290759999672723 ], [ 24.464821, 35.290505999672703 ], [ 24.465081, 35.29022199967266 ], [ 24.465104, 35.290036999672665 ], [ 24.464935, 35.289705999672648 ], [ 24.464923, 35.289520999672618 ], [ 24.464916, 35.289303999672605 ], [ 24.465027, 35.289051999672587 ], [ 24.465264, 35.288914999672571 ], [ 24.465466, 35.288884999672561 ], [ 24.465608, 35.288835999672564 ], [ 24.46557, 35.288701999672561 ], [ 24.465598, 35.288244999672521 ], [ 24.465663, 35.288006999672511 ], [ 24.465843, 35.287923999672493 ], [ 24.466126, 35.287917999672494 ], [ 24.466351, 35.287857999672504 ], [ 24.466524, 35.287609999672469 ], [ 24.46672, 35.287357999672452 ], [ 24.466095, 35.286689999672397 ], [ 24.465925, 35.28606599967236 ], [ 24.466051, 35.285697999672323 ], [ 24.466158, 35.285129999672286 ], [ 24.466067, 35.284598999672248 ], [ 24.466006, 35.284140999672204 ], [ 24.465578, 35.283601999672165 ], [ 24.465262, 35.282891999672117 ], [ 24.465368, 35.282270999672079 ], [ 24.466258, 35.279772999671863 ], [ 24.466911698739604, 35.278974540222052 ], [ 24.465432799672726, 35.278974540222052 ], [ 24.465433, 35.279010999671804 ], [ 24.465531, 35.27955699967184 ], [ 24.465391, 35.280063999671896 ], [ 24.465109, 35.280571999671935 ], [ 24.46497, 35.281234999671987 ], [ 24.464439, 35.28200499967204 ], [ 24.464204, 35.282270999672079 ], [ 24.462652, 35.283193999672129 ], [ 24.46213, 35.283468999672159 ], [ 24.461980813756284, 35.283622922026154 ], [ 24.461980813756284, 35.284286521692685 ], [ 24.461992, 35.284326999672224 ], [ 24.462137, 35.284715999672251 ], [ 24.462139, 35.28510599967229 ], [ 24.461980813756284, 35.285476607908805 ], [ 24.461980813756284, 35.287120644937943 ], [ 24.462057, 35.287406999672463 ] ] ] } },
{ "type": "Feature", "properties": { "osm_id": 557102306, "name": null, "label": "landuse:quarry", "leisure": null, "tourism": null, "landuse": "quarry", "building": null, "sport": null, "natural": null }, "geometry": { "type": "Polygon", "coordinates": [ [ [ 24.4621668, 35.295211399673065 ], [ 24.4625305, 35.295266499673069 ], [ 24.462745, 35.295371599673082 ], [ 24.4628749, 35.294685999673028 ], [ 24.462789, 35.294318199672993 ], [ 24.462789, 35.293880299672963 ], [ 24.463068, 35.293932899672967 ], [ 24.4632182, 35.294370699673003 ], [ 24.4635615, 35.294615899673019 ], [ 24.4639263, 35.294668399673029 ], [ 24.4641613, 35.294916299673034 ], [ 24.464098, 35.295176299673052 ], [ 24.4637106, 35.295476699673088 ], [ 24.4637106, 35.295826999673125 ], [ 24.4639896, 35.296054599673127 ], [ 24.4643329, 35.296247299673141 ], [ 24.4647846, 35.296419799673167 ], [ 24.4651494, 35.296419799673167 ], [ 24.4656858, 35.296157099673138 ], [ 24.4662652, 35.2958242996731 ], [ 24.46663, 35.295491599673092 ], [ 24.467101, 35.295283999673082 ], [ 24.4667158, 35.29484359967303 ], [ 24.4664368, 35.294528299673011 ], [ 24.4661364, 35.294230599672993 ], [ 24.4656215, 35.294125499672973 ], [ 24.465321, 35.293687699672944 ], [ 24.4649133, 35.29321479967291 ], [ 24.4642696, 35.29321479967291 ], [ 24.4633244, 35.293112299672899 ], [ 24.4626807, 35.293007299672894 ], [ 24.4621024, 35.293004599672905 ], [ 24.461980813756284, 35.29302941072897 ], [ 24.461980813756284, 35.295229053151793 ], [ 24.4621668, 35.295211399673065 ] ] ] } },
{ "type": "Feature", "properties": { "osm_id": 358512722, "name": null, "label": "landuse:residential", "leisure": null, "tourism": null, "landuse": "residential", "building": null, "sport": null, "natural": null }, "geometry": { "type": "MultiPolygon", "coordinates": [ [ [ [ 24.4620398, 35.301733599673582 ], [ 24.461980813756284, 35.301546483252423 ], [ 24.461980813756284, 35.301768608635314 ], [ 24.4620398, 35.301733599673582 ] ] ], [ [ [ 24.4620528, 35.302435299673633 ], [ 24.461980813756284, 35.302391882106186 ], [ 24.461980813756284, 35.302622976420352 ], [ 24.462066334018292, 35.302622976420352 ], [ 24.4620528, 35.302435299673633 ] ] ] ] } }
]
}
