{
"type": "FeatureCollection",
"name": "patch_92822_polygon",
"crs": { "type": "name", "properties": { "name": "urn:ogc:def:crs:OGC:1.3:CRS84" } },
"features": [
{ "type": "Feature", "properties": { "osm_id": 628699324, "name": null, "label": "amenity:grave_yard", "amenity": "grave_yard", "landuse": null, "natural": null, "leisure": null }, "geometry": { "type": "Polygon", "coordinates": [ [ [ 22.2475633, 37.399906399899805 ], [ 22.247561, 37.399924899899801 ], [ 22.2476404, 37.399978699899805 ], [ 22.2479299, 37.400073299899837 ], [ 22.2480863, 37.399728299899778 ], [ 22.2480186, 37.399709799899775 ], [ 22.2479883, 37.399661499899771 ], [ 22.2479462, 37.399622599899764 ], [ 22.2479112, 37.39959849989976 ], [ 22.2478832, 37.399585499899757 ], [ 22.2478458, 37.399585499899757 ], [ 22.2476217, 37.399654099899763 ], [ 22.2475283, 37.399776499899787 ], [ 22.2475026, 37.399880399899793 ], [ 22.2475633, 37.399906399899805 ] ] ] } },
{ "type": "Feature", "properties": { "osm_id": 150787737, "name": null, "label": "landuse:residential", "amenity": null, "landuse": "residential", "natural": null, "leisure": null }, "geometry": { "type": "Polygon", "coordinates": [ [ [ 22.2436583, 37.401460699900014 ], [ 22.2436727, 37.402168899900097 ], [ 22.2439715, 37.402746999900174 ], [ 22.2445642, 37.403305899900246 ], [ 22.2453015, 37.4036235999003 ], [ 22.2459569, 37.404140399900378 ], [ 22.2470701, 37.404603599900426 ], [ 22.248217, 37.404706899900447 ], [ 22.2485302, 37.404327899900387 ], [ 22.2480049, 37.403826499900319 ], [ 22.2480772, 37.403267599900261 ], [ 22.2480917, 37.402838799900181 ], [ 22.248429, 37.402455999900134 ], [ 22.248029, 37.40220339990011 ], [ 22.2473447, 37.402605299900152 ], [ 22.2466701, 37.402352699900135 ], [ 22.2462171, 37.402310599900112 ], [ 22.2463617, 37.401992799900079 ], [ 22.2476435, 37.401418599900005 ], [ 22.2473977, 37.401123899899964 ], [ 22.2460485, 37.401682799900044 ], [ 22.2458991, 37.401150599899957 ], [ 22.2457811, 37.400737499899904 ], [ 22.2454413, 37.400316099899854 ], [ 22.2453497, 37.399646199899763 ], [ 22.2450365, 37.399136999899703 ], [ 22.244757, 37.399439399899734 ], [ 22.2447233, 37.400293099899848 ], [ 22.2436775, 37.400319899899849 ], [ 22.2435571, 37.400794599899911 ], [ 22.2436583, 37.401460699900014 ] ] ] } },
{ "type": "Feature", "properties": { "osm_id": 628699325, "name": null, "label": "natural:water", "amenity": null, "landuse": null, "natural": "water", "leisure": null }, "geometry": { "type": "Polygon", "coordinates": [ [ [ 22.2452286, 37.400983999899942 ], [ 22.2452363, 37.401014599899952 ], [ 22.2452301, 37.401032999899932 ], [ 22.2452317, 37.401051299899947 ], [ 22.2452579, 37.401063599899956 ], [ 22.2452995, 37.401073399899943 ], [ 22.2453395, 37.401081899899964 ], [ 22.2453934, 37.401076999899963 ], [ 22.2454165, 37.401067199899956 ], [ 22.2454335, 37.401043999899954 ], [ 22.2454319, 37.400998699899951 ], [ 22.2454273, 37.400971799899949 ], [ 22.2454119, 37.400959499899948 ], [ 22.2453873, 37.400950999899933 ], [ 22.2453349, 37.400944899899933 ], [ 22.2453041, 37.400950999899933 ], [ 22.2452764, 37.400961999899927 ], [ 22.2452425, 37.400960799899941 ], [ 22.245224, 37.400968099899934 ], [ 22.2452286, 37.400983999899942 ] ] ] } },
{ "type": "Feature", "properties": { "osm_id": 150787726, "name": null, "label": "landuse:residential", "amenity": null, "landuse": "residential", "natural": null, "leisure": null }, "geometry": { "type": "Polygon", "coordinates": [ [ [ 22.2379976, 37.420588699902552 ], [ 22.2380117, 37.421009999902601 ], [ 22.238819, 37.421036099902601 ], [ 22.2396069, 37.421004099902589 ], [ 22.2400763, 37.420755499902569 ], [ 22.2403854, 37.420203199902502 ], [ 22.2403492, 37.419526299902408 ], [ 22.2406824, 37.418892599902321 ], [ 22.240734, 37.41819929990222 ], [ 22.2406167, 37.417707199902168 ], [ 22.2403257, 37.417554299902136 ], [ 22.2398563, 37.417580399902143 ], [ 22.2395747, 37.418109799902204 ], [ 22.238988, 37.418176899902214 ], [ 22.238697, 37.418411699902251 ], [ 22.2389598, 37.419034299902322 ], [ 22.2384107, 37.419134899902353 ], [ 22.2377677, 37.419280299902375 ], [ 22.2374485, 37.420014699902467 ], [ 22.2379976, 37.420588699902552 ] ] ] } },
{ "type": "Feature", "properties": { "osm_id": 138551872, "name": "Πρ. Ηλίας,Δάσος Παπαλέικο,Τρύπιο Λιθάρι,Βαθύρεμα,Φτέρες,Μάντρες,Ποταμόλακα,Σπαρτόραχη,περιοχών Ασέας,Αραχαμιτών,Κερασταρίου,Παλαιόχουνη", "label": "leisure:nature_reserve", "amenity": null, "landuse": null, "natural": null, "leisure": "nature_reserve" }, "geometry": { "type": "MultiPolygon", "coordinates": [ [ [ [ 22.2241809, 37.420667199902553 ], [ 22.222778, 37.418680099902296 ], [ 22.2219316, 37.41768439990215 ], [ 22.2203031, 37.416040899901937 ], [ 22.219908234635554, 37.4156566978697 ], [ 22.219908234635554, 37.42177270679128 ], [ 22.22513981887462, 37.42177270679128 ], [ 22.2241809, 37.420667199902553 ] ] ], [ [ [ 22.2484627, 37.411546599901342 ], [ 22.2469127, 37.412737899901501 ], [ 22.2447225, 37.413399299901599 ], [ 22.2438138, 37.415062699901796 ], [ 22.2421214, 37.416136099901941 ], [ 22.2424729, 37.416603899902015 ], [ 22.2417347, 37.417171199902086 ], [ 22.2403416, 37.417844299902178 ], [ 22.2401079, 37.418534699902274 ], [ 22.2394604, 37.418995699902347 ], [ 22.2370851, 37.420686899902542 ], [ 22.237479673042181, 37.42177270679128 ], [ 22.249208142503992, 37.42177270679128 ], [ 22.249208142503992, 37.411748947348975 ], [ 22.2484627, 37.411546599901342 ] ] ] ] } },
{ "type": "Feature", "properties": { "osm_id": -5913779, "name": "Πελοπόννησος", "label": "natural:peninsula", "amenity": null, "landuse": null, "natural": "peninsula", "leisure": null }, "geometry": { "type": "Polygon", "coordinates": [ [ [ 22.219908234635554, 37.42177270679128 ], [ 22.249208142503992, 37.42177270679128 ], [ 22.249208142503992, 37.399004780018998 ], [ 22.219908234635554, 37.399004780018998 ], [ 22.219908234635554, 37.42177270679128 ] ] ] } },
{ "type": "Feature", "properties": { "osm_id": 628699505, "name": null, "label": "amenity:grave_yard", "amenity": "grave_yard", "landuse": null, "natural": null, "leisure": null }, "geometry": { "type": "Polygon", "coordinates": [ [ [ 22.2381756, 37.421316199902641 ], [ 22.238441, 37.421390699902652 ], [ 22.2384127, 37.421174299902624 ], [ 22.2381473, 37.421212199902612 ], [ 22.2381756, 37.421316199902641 ] ] ] } },
{ "type": "Feature", "properties": { "osm_id": 135416408, "name": null, "label": "natural:wood", "amenity": null, "landuse": null, "natural": "wood", "leisure": null }, "geometry": { "type": "Polygon", "coordinates": [ [ [ 22.2481182, 37.421763099902698 ], [ 22.2469772, 37.421448099902655 ], [ 22.2464282, 37.420814099902572 ], [ 22.2451442, 37.420478099902525 ], [ 22.2431082, 37.420447099902518 ], [ 22.2418282, 37.420727099902564 ], [ 22.2411222, 37.420295099902496 ], [ 22.2408232, 37.419830099902448 ], [ 22.2404312, 37.41967809990242 ], [ 22.2403142, 37.419633099902406 ], [ 22.2398546, 37.419796499902446 ], [ 22.2393884, 37.420665899902552 ], [ 22.2387613, 37.421348799902638 ], [ 22.238138522199598, 37.42177270679128 ], [ 22.248121522958645, 37.42177270679128 ], [ 22.2481182, 37.421763099902698 ] ] ] } }
]
}
