{
"type": "FeatureCollection",
"name": "patch_65633_polygon",
"crs": { "type": "name", "properties": { "name": "urn:ogc:def:crs:OGC:1.3:CRS84" } },
"features": [
{ "type": "Feature", "properties": { "osm_id": 701193828, "name": null, "label": "landuse:meadow", "landuse": "meadow", "natural": null, "leisure": null }, "geometry": { "type": "MultiPolygon", "coordinates": [ [ [ [ 21.1118942, 40.552042400339189 ], [ 21.1120297, 40.551921700339186 ], [ 21.1122305, 40.55178690033916 ], [ 21.1123612, 40.551655600339153 ], [ 21.1121247, 40.551595600339141 ], [ 21.1119768, 40.551605000339151 ], [ 21.1117797, 40.551637800339137 ], [ 21.111666181344997, 40.551685084939457 ], [ 21.111666181344997, 40.552144163955802 ], [ 21.1118942, 40.552042400339189 ] ] ], [ [ [ 21.1118335, 40.553110400339328 ], [ 21.112039, 40.553163600339325 ], [ 21.112067, 40.553245200339354 ], [ 21.1122024, 40.553355200339354 ], [ 21.1123939, 40.553394300339363 ], [ 21.1125994, 40.553362300339352 ], [ 21.1126694, 40.553220400339342 ], [ 21.1126694, 40.553060700339316 ], [ 21.1127143, 40.552885700339296 ], [ 21.1127815, 40.552748500339284 ], [ 21.1128049, 40.552613600339271 ], [ 21.1126975, 40.552549800339243 ], [ 21.1127628, 40.552464600339235 ], [ 21.1129216, 40.552365300339225 ], [ 21.1128282, 40.552255300339219 ], [ 21.1127161, 40.552372400339237 ], [ 21.1126087, 40.552556900339255 ], [ 21.1124453, 40.552571100339257 ], [ 21.1122024, 40.552588800339251 ], [ 21.1119456, 40.55261720033927 ], [ 21.1117214, 40.552645600339261 ], [ 21.111666181344997, 40.552657182394881 ], [ 21.111666181344997, 40.553099650647717 ], [ 21.1118335, 40.553110400339328 ] ] ] ] } },
{ "type": "Feature", "properties": { "osm_id": 701193825, "name": null, "label": "landuse:meadow", "landuse": "meadow", "natural": null, "leisure": null }, "geometry": { "type": "Polygon", "coordinates": [ [ [ 21.1117981, 40.551216400339086 ], [ 21.1119275, 40.551108700339078 ], [ 21.1120693, 40.551089900339072 ], [ 21.1122357, 40.551178900339075 ], [ 21.1124267, 40.551235100339085 ], [ 21.1126177, 40.551347500339105 ], [ 21.1125068, 40.551441100339119 ], [ 21.1124513, 40.55152070033914 ], [ 21.1124665, 40.551603700339143 ], [ 21.112534, 40.551570400339152 ], [ 21.1127442, 40.551552700339123 ], [ 21.1127442, 40.551407200339114 ], [ 21.1128796, 40.551375300339096 ], [ 21.1131682, 40.5512954003391 ], [ 21.113003, 40.55117940033908 ], [ 21.1127694, 40.551071800339066 ], [ 21.1124014, 40.550910400339049 ], [ 21.1120687, 40.550819000339033 ], [ 21.1118351, 40.55087280033905 ], [ 21.111666181344997, 40.55087280033905 ], [ 21.111666181344997, 40.551279046655495 ], [ 21.1117981, 40.551216400339086 ] ] ] } },
{ "type": "Feature", "properties": { "osm_id": 701193826, "name": null, "label": "landuse:meadow", "landuse": "meadow", "natural": null, "leisure": null }, "geometry": { "type": "Polygon", "coordinates": [ [ [ 21.1123377, 40.550765200339036 ], [ 21.112734, 40.55094270033905 ], [ 21.1132719, 40.551201400339082 ], [ 21.1134307, 40.551286600339104 ], [ 21.1136128, 40.551343300339092 ], [ 21.113921, 40.551222700339089 ], [ 21.113851, 40.551137500339067 ], [ 21.1136408, 40.550924600339052 ], [ 21.1137155, 40.550896200339054 ], [ 21.1138323, 40.550967200339073 ], [ 21.113907, 40.551073700339074 ], [ 21.1140144, 40.551102100339065 ], [ 21.1142012, 40.551048800339061 ], [ 21.11436, 40.550945900339066 ], [ 21.1144627, 40.550811100339033 ], [ 21.1146729, 40.550843000339036 ], [ 21.1148317, 40.550835900339052 ], [ 21.1149287, 40.550771000339033 ], [ 21.1149019, 40.550628300339014 ], [ 21.1148, 40.550591600339011 ], [ 21.1145532, 40.550665000339016 ], [ 21.1143333, 40.550754600339026 ], [ 21.1140758, 40.550811700339032 ], [ 21.1139256, 40.550811700339032 ], [ 21.1139148, 40.550742400339033 ], [ 21.1140275, 40.550632400339012 ], [ 21.1140275, 40.550522300339004 ], [ 21.1139631, 40.550404100338994 ], [ 21.1138451, 40.550269600338972 ], [ 21.1137056, 40.55021660033897 ], [ 21.1135393, 40.550249200338975 ], [ 21.1132389, 40.550195300338956 ], [ 21.113003, 40.55027580033898 ], [ 21.113095, 40.550404900338997 ], [ 21.1132366, 40.550528600339007 ], [ 21.1130667, 40.550593100339007 ], [ 21.1128331, 40.550485500339001 ], [ 21.1125005, 40.55039950033899 ], [ 21.1122527, 40.550523200339008 ], [ 21.1119483, 40.550652300339017 ], [ 21.1123377, 40.550765200339036 ] ] ] } },
{ "type": "Feature", "properties": { "osm_id": 701193831, "name": null, "label": "landuse:meadow", "landuse": "meadow", "natural": null, "leisure": null }, "geometry": { "type": "Polygon", "coordinates": [ [ [ 21.1135522, 40.555746900339649 ], [ 21.1136595, 40.555753800339637 ], [ 21.1138229, 40.555682900339647 ], [ 21.1140471, 40.555597700339639 ], [ 21.1142339, 40.555540900339615 ], [ 21.1144067, 40.555441600339606 ], [ 21.1145234, 40.555313900339598 ], [ 21.1146262, 40.555218100339587 ], [ 21.1147383, 40.555189700339575 ], [ 21.114883, 40.555250000339591 ], [ 21.1150558, 40.555292600339591 ], [ 21.1151761, 40.555346200339599 ], [ 21.1152613, 40.55528190033958 ], [ 21.1154154, 40.555200300339585 ], [ 21.1155602, 40.555005200339565 ], [ 21.1156816, 40.554735500339518 ], [ 21.1158264, 40.55451910033949 ], [ 21.1159711, 40.554380700339479 ], [ 21.1159665, 40.554203300339459 ], [ 21.1159881, 40.554154000339445 ], [ 21.1160291, 40.554060500339446 ], [ 21.1160599, 40.553990400339437 ], [ 21.1162327, 40.553805900339405 ], [ 21.1164475, 40.553593000339376 ], [ 21.1165409, 40.553376500339368 ], [ 21.116737, 40.553142300339317 ], [ 21.1167837, 40.552968500339304 ], [ 21.1168444, 40.552748500339284 ], [ 21.1168818, 40.552510700339248 ], [ 21.1169705, 40.552418500339229 ], [ 21.1171059, 40.55230850033923 ], [ 21.1171293, 40.552194900339224 ], [ 21.117134, 40.552056600339199 ], [ 21.1172414, 40.551900400339171 ], [ 21.1172414, 40.551755000339142 ], [ 21.1171407, 40.551708000339147 ], [ 21.1171407, 40.551843800339178 ], [ 21.1170606, 40.552026400339187 ], [ 21.1167712, 40.55200600033919 ], [ 21.1166231, 40.552106000339201 ], [ 21.1166291, 40.552309300339225 ], [ 21.1165799, 40.552564800339255 ], [ 21.1164813, 40.55279890033929 ], [ 21.1163211, 40.552953400339312 ], [ 21.1160469, 40.553019000339312 ], [ 21.1159791, 40.553182800339322 ], [ 21.1162657, 40.553100900339324 ], [ 21.1163334, 40.553145400339318 ], [ 21.1162533, 40.553412200339359 ], [ 21.1160931, 40.553613600339389 ], [ 21.1159329, 40.553763400339413 ], [ 21.1156988, 40.553950700339435 ], [ 21.1155447, 40.554119200339457 ], [ 21.1153537, 40.554273700339465 ], [ 21.1151442, 40.554400100339478 ], [ 21.1148792, 40.554587400339507 ], [ 21.1151164, 40.554774700339522 ], [ 21.1151565, 40.554805100339536 ], [ 21.1149809, 40.554917500339549 ], [ 21.1149377, 40.554887000339548 ], [ 21.1146758, 40.554929200339537 ], [ 21.1144971, 40.554924500339553 ], [ 21.1143369, 40.554976000339558 ], [ 21.1142198, 40.555149200339592 ], [ 21.114035, 40.555285000339602 ], [ 21.1137823, 40.555374000339604 ], [ 21.1136714, 40.555589300339633 ], [ 21.113505, 40.555743800339663 ], [ 21.1135522, 40.555746900339649 ] ] ] } },
{ "type": "Feature", "properties": { "osm_id": -9746515, "name": null, "label": "natural:wood", "landuse": null, "natural": "wood", "leisure": null }, "geometry": { "type": "Polygon", "coordinates": [ [ [ 21.1118242, 40.557630800339879 ], [ 21.1119549, 40.557481700339878 ], [ 21.112053, 40.557276000339833 ], [ 21.1121884, 40.557034700339813 ], [ 21.1123285, 40.556757900339775 ], [ 21.1124593, 40.556491800339735 ], [ 21.112576, 40.556349900339711 ], [ 21.1128002, 40.556254100339714 ], [ 21.1129356, 40.556112200339683 ], [ 21.1131271, 40.556041200339692 ], [ 21.1132906, 40.555973800339672 ], [ 21.1135194, 40.555949000339673 ], [ 21.1137576, 40.555881600339667 ], [ 21.1139911, 40.555732500339658 ], [ 21.1141358, 40.55564030033964 ], [ 21.1143647, 40.555587100339629 ], [ 21.1145655, 40.555491300339625 ], [ 21.1147009, 40.555345800339595 ], [ 21.114841, 40.555342200339595 ], [ 21.1149998, 40.555416800339621 ], [ 21.1151586, 40.555423800339604 ], [ 21.1152193, 40.555548000339613 ], [ 21.11528, 40.555682900339647 ], [ 21.1151586, 40.555732500339658 ], [ 21.1149437, 40.555917000339683 ], [ 21.1148083, 40.556009300339689 ], [ 21.1146262, 40.5560838003397 ], [ 21.1146122, 40.556310900339717 ], [ 21.1146682, 40.556399600339738 ], [ 21.114883, 40.556456400339741 ], [ 21.1150465, 40.55656990033976 ], [ 21.1151352, 40.556715400339769 ], [ 21.1151399, 40.556850200339788 ], [ 21.1149624, 40.557052400339821 ], [ 21.1147896, 40.557169500339825 ], [ 21.1150044, 40.55721920033983 ], [ 21.1151399, 40.557201500339829 ], [ 21.1153033, 40.557116300339835 ], [ 21.1154855, 40.556878600339793 ], [ 21.1156162, 40.556715400339769 ], [ 21.1157143, 40.556530900339752 ], [ 21.1158497, 40.556381800339722 ], [ 21.1159945, 40.556335700339723 ], [ 21.1160412, 40.556215100339706 ], [ 21.1159992, 40.556098000339695 ], [ 21.1160272, 40.555973800339672 ], [ 21.116186, 40.555885100339673 ], [ 21.1163167, 40.555909900339671 ], [ 21.1165082, 40.555874500339662 ], [ 21.1166296, 40.555807000339655 ], [ 21.1168911, 40.555800000339659 ], [ 21.1168865, 40.555693500339643 ], [ 21.1166903, 40.555700600339655 ], [ 21.1164848, 40.555746700339654 ], [ 21.1163401, 40.555746700339654 ], [ 21.1164381, 40.555590600339642 ], [ 21.116312, 40.555626100339637 ], [ 21.1161673, 40.555718300339656 ], [ 21.1159758, 40.555796400339652 ], [ 21.1158684, 40.555863800339665 ], [ 21.115803, 40.556023500339684 ], [ 21.1156676, 40.556211500339714 ], [ 21.1155462, 40.556385400339728 ], [ 21.1153827, 40.556538000339742 ], [ 21.1152893, 40.55648830033973 ], [ 21.1151866, 40.556349900339711 ], [ 21.1152987, 40.556218600339719 ], [ 21.1154154, 40.556016400339686 ], [ 21.1155322, 40.555824800339671 ], [ 21.1156676, 40.555707700339646 ], [ 21.1158964, 40.555707700339646 ], [ 21.1161066, 40.55564030033964 ], [ 21.1163027, 40.555544500339629 ], [ 21.1164381, 40.555409700339602 ], [ 21.1166156, 40.555313900339598 ], [ 21.1167604, 40.555292600339591 ], [ 21.1168257, 40.555452200339609 ], [ 21.1170079, 40.55564030033964 ], [ 21.1171433, 40.555597700339639 ], [ 21.1171013, 40.55543800033962 ], [ 21.1170172, 40.555278400339603 ], [ 21.1170266, 40.555101000339576 ], [ 21.1172227, 40.555001600339544 ], [ 21.1173721, 40.554866800339546 ], [ 21.1175356, 40.55465390033951 ], [ 21.117643, 40.554412600339482 ], [ 21.1178064, 40.554206800339465 ], [ 21.1178812, 40.554050700339438 ], [ 21.1179185, 40.553830700339418 ], [ 21.1179139, 40.553663900339394 ], [ 21.1179839, 40.553504300339377 ], [ 21.118152, 40.553447500339374 ], [ 21.1183155, 40.553323300339358 ], [ 21.1184276, 40.553213300339337 ], [ 21.1185303, 40.553110400339328 ], [ 21.1186704, 40.553099800339318 ], [ 21.1187778, 40.553014600339317 ], [ 21.1187778, 40.552862000339289 ], [ 21.1188525, 40.552677500339271 ], [ 21.1188619, 40.552517800339253 ], [ 21.1187031, 40.552663300339276 ], [ 21.118549, 40.552723600339284 ], [ 21.1186097, 40.55252850033925 ], [ 21.1186657, 40.552397200339236 ], [ 21.1185817, 40.552265900339236 ], [ 21.1185817, 40.552038800339197 ], [ 21.1184743, 40.551911100339183 ], [ 21.1183861, 40.551953800339184 ], [ 21.1183225, 40.55197230033918 ], [ 21.1182629, 40.552015800339177 ], [ 21.1182022, 40.552043300339193 ], [ 21.1181556, 40.552061000339194 ], [ 21.1181667, 40.552080200339205 ], [ 21.1182233, 40.55209900033919 ], [ 21.1182968, 40.552053000339193 ], [ 21.1184135, 40.552145300339212 ], [ 21.1184649, 40.552209100339212 ], [ 21.1184649, 40.552358200339214 ], [ 21.1184276, 40.552542700339252 ], [ 21.1183482, 40.552730700339275 ], [ 21.1181987, 40.552808800339292 ], [ 21.118082, 40.552936500339307 ], [ 21.1179092, 40.553067800339321 ], [ 21.1178485, 40.553174300339343 ], [ 21.1176804, 40.553153000339321 ], [ 21.1175262, 40.553067800339321 ], [ 21.1173581, 40.553050100339313 ], [ 21.1172739, 40.553133500339328 ], [ 21.1171499, 40.553227700339349 ], [ 21.1169873, 40.553318800339341 ], [ 21.1168511, 40.553416100339362 ], [ 21.1167068, 40.553533500339384 ], [ 21.1165665, 40.553686400339394 ], [ 21.1164385, 40.553836200339425 ], [ 21.116284, 40.553961300339424 ], [ 21.1161153, 40.554075600339431 ], [ 21.1159881, 40.554154000339445 ], [ 21.1159665, 40.554203300339459 ], [ 21.1159711, 40.554380700339479 ], [ 21.1158264, 40.55451910033949 ], [ 21.1156816, 40.554735500339518 ], [ 21.1155602, 40.555005200339565 ], [ 21.1154154, 40.555200300339585 ], [ 21.1152613, 40.55528190033958 ], [ 21.1151761, 40.555346200339599 ], [ 21.1150558, 40.555292600339591 ], [ 21.114883, 40.555250000339591 ], [ 21.1147383, 40.555189700339575 ], [ 21.1146262, 40.555218100339587 ], [ 21.1145234, 40.555313900339598 ], [ 21.1144067, 40.555441600339606 ], [ 21.1142339, 40.555540900339615 ], [ 21.1140471, 40.555597700339639 ], [ 21.1138229, 40.555682900339647 ], [ 21.1136595, 40.555753800339637 ], [ 21.1135784, 40.555819200339663 ], [ 21.1134605, 40.555884100339668 ], [ 21.1133304, 40.555921200339675 ], [ 21.1131556, 40.555961300339668 ], [ 21.1130092, 40.555972100339687 ], [ 21.1128588, 40.55596600033968 ], [ 21.1127641, 40.555964100339672 ], [ 21.1126645, 40.55599150033968 ], [ 21.112576, 40.556041200339692 ], [ 21.1124266, 40.556151200339706 ], [ 21.1122725, 40.55627890033972 ], [ 21.1121931, 40.556428000339729 ], [ 21.112053, 40.556605400339755 ], [ 21.1119549, 40.556818300339785 ], [ 21.1118335, 40.556956600339795 ], [ 21.1117354, 40.557144700339812 ], [ 21.1117261, 40.557293700339841 ], [ 21.111666181344997, 40.55735440322681 ], [ 21.111666181344997, 40.557737999284811 ], [ 21.1118242, 40.557630800339879 ] ], [ [ 21.1157983, 40.554980300339558 ], [ 21.1158591, 40.554849000339537 ], [ 21.1159711, 40.55471070033952 ], [ 21.1160645, 40.554558100339499 ], [ 21.1162046, 40.554476500339483 ], [ 21.1164335, 40.55444100033948 ], [ 21.1164568, 40.554558100339499 ], [ 21.1165175, 40.554646800339519 ], [ 21.1163494, 40.554732000339527 ], [ 21.1162186, 40.554863200339533 ], [ 21.1162186, 40.554937700339565 ], [ 21.116298, 40.555001600339544 ], [ 21.1162233, 40.555104500339574 ], [ 21.1160832, 40.555101000339576 ], [ 21.1159851, 40.555154200339565 ], [ 21.1159384, 40.555253500339589 ], [ 21.1158404, 40.555235800339574 ], [ 21.115789, 40.555143500339575 ], [ 21.1157983, 40.554980300339558 ] ] ] } },
{ "type": "Feature", "properties": { "osm_id": 701193836, "name": null, "label": "landuse:meadow", "landuse": "meadow", "natural": null, "leisure": null }, "geometry": { "type": "Polygon", "coordinates": [ [ [ 21.1173938, 40.557779100339907 ], [ 21.1174873, 40.557794500339902 ], [ 21.1176744, 40.557729700339898 ], [ 21.1177597, 40.557624600339885 ], [ 21.1177597, 40.557541200339884 ], [ 21.1178776, 40.557473300339872 ], [ 21.117898, 40.557349700339849 ], [ 21.1178939, 40.557247800339837 ], [ 21.1178045, 40.557263300339855 ], [ 21.1176744, 40.557321900339851 ], [ 21.1175361, 40.557325000339844 ], [ 21.1174508, 40.557460900339862 ], [ 21.1174304, 40.557572100339883 ], [ 21.1173573, 40.557643200339896 ], [ 21.1173207, 40.55772660033989 ], [ 21.1173938, 40.557779100339907 ] ] ] } },
{ "type": "Feature", "properties": { "osm_id": 701193835, "name": null, "label": "landuse:meadow", "landuse": "meadow", "natural": null, "leisure": null }, "geometry": { "type": "Polygon", "coordinates": [ [ [ 21.1176174, 40.558100300339945 ], [ 21.1176825, 40.558211500339958 ], [ 21.1177719, 40.558369000339979 ], [ 21.1178817, 40.558480200339986 ], [ 21.1180443, 40.558542000340005 ], [ 21.1180443, 40.558461700339983 ], [ 21.1182273, 40.558443200339987 ], [ 21.1183655, 40.558393700339991 ], [ 21.1184265, 40.558304200339983 ], [ 21.1184387, 40.558177500339944 ], [ 21.1182679, 40.558189900339947 ], [ 21.1181053, 40.558115800339941 ], [ 21.1180321, 40.557989100339924 ], [ 21.1179996, 40.557813100339906 ], [ 21.1178451, 40.557899500339914 ], [ 21.1176784, 40.557936600339922 ], [ 21.1174995, 40.557939700339929 ], [ 21.1174711, 40.558010700339928 ], [ 21.1176174, 40.558100300339945 ] ] ] } },
{ "type": "Feature", "properties": { "osm_id": 701193830, "name": null, "label": "landuse:meadow", "landuse": "meadow", "natural": null, "leisure": null }, "geometry": { "type": "Polygon", "coordinates": [ [ [ 21.1158404, 40.555235800339574 ], [ 21.1159384, 40.555253500339589 ], [ 21.1159851, 40.555154200339565 ], [ 21.1160832, 40.555101000339576 ], [ 21.1162233, 40.555104500339574 ], [ 21.116298, 40.555001600339544 ], [ 21.1162186, 40.554937700339565 ], [ 21.1162186, 40.554863200339533 ], [ 21.1163494, 40.554732000339527 ], [ 21.1165175, 40.554646800339519 ], [ 21.1164568, 40.554558100339499 ], [ 21.1164335, 40.55444100033948 ], [ 21.1162046, 40.554476500339483 ], [ 21.1160645, 40.554558100339499 ], [ 21.1159711, 40.55471070033952 ], [ 21.1158591, 40.554849000339537 ], [ 21.1157983, 40.554980300339558 ], [ 21.115789, 40.555143500339575 ], [ 21.1158404, 40.555235800339574 ] ] ] } },
{ "type": "Feature", "properties": { "osm_id": 701193832, "name": null, "label": "landuse:meadow", "landuse": "meadow", "natural": null, "leisure": null }, "geometry": { "type": "Polygon", "coordinates": [ [ [ 21.1165553, 40.551492600339124 ], [ 21.1168634, 40.551459800339131 ], [ 21.1171284, 40.551436400339121 ], [ 21.1172947, 40.551497300339115 ], [ 21.1172763, 40.551651800339151 ], [ 21.1173628, 40.551733700339149 ], [ 21.1174375, 40.551808200339153 ], [ 21.1175262, 40.551967900339186 ], [ 21.1175216, 40.552141700339206 ], [ 21.1174609, 40.552255300339219 ], [ 21.1173815, 40.552404300339241 ], [ 21.117218, 40.552574600339263 ], [ 21.1173068, 40.552663300339276 ], [ 21.1173348, 40.552773300339275 ], [ 21.1173021, 40.552943600339304 ], [ 21.1173581, 40.553050100339313 ], [ 21.1175262, 40.553067800339321 ], [ 21.1176804, 40.553153000339321 ], [ 21.1178485, 40.553174300339343 ], [ 21.1179092, 40.553067800339321 ], [ 21.118082, 40.552936500339307 ], [ 21.1181987, 40.552808800339292 ], [ 21.1183482, 40.552730700339275 ], [ 21.1184276, 40.552542700339252 ], [ 21.1184649, 40.552358200339214 ], [ 21.1184649, 40.552209100339212 ], [ 21.1184135, 40.552145300339212 ], [ 21.1182968, 40.552053000339193 ], [ 21.1182233, 40.55209900033919 ], [ 21.1181667, 40.552080200339205 ], [ 21.1181556, 40.552061000339194 ], [ 21.1181172, 40.551994200339188 ], [ 21.1181956, 40.551937000339187 ], [ 21.1182547, 40.55184700033918 ], [ 21.1183834, 40.551745100339161 ], [ 21.1186784, 40.551516900339138 ], [ 21.1187804, 40.551378300339117 ], [ 21.1186463, 40.551198900339102 ], [ 21.1185765, 40.550999200339056 ], [ 21.1183834, 40.550905500339042 ], [ 21.1181045, 40.550905500339042 ], [ 21.1179703, 40.55097880033906 ], [ 21.1178523, 40.551203000339086 ], [ 21.1177182, 40.551357900339099 ], [ 21.1176646, 40.551533200339144 ], [ 21.1175197, 40.551582100339132 ], [ 21.1174607, 40.551488300339123 ], [ 21.1172676, 40.551353800339101 ], [ 21.1170262, 40.551309000339103 ], [ 21.1165553, 40.551403700339115 ], [ 21.1165553, 40.551492600339124 ] ] ] } },
{ "type": "Feature", "properties": { "osm_id": 701193827, "name": null, "label": "landuse:meadow", "landuse": "meadow", "natural": null, "leisure": null }, "geometry": { "type": "Polygon", "coordinates": [ [ [ 21.1165971, 40.549165000338832 ], [ 21.1167633, 40.549295400338842 ], [ 21.1168063, 40.549372900338867 ], [ 21.1168384, 40.549556300338885 ], [ 21.1166936, 40.54946660033886 ], [ 21.1165005, 40.549299500338847 ], [ 21.1162645, 40.549144600338828 ], [ 21.116258328678114, 40.549137163826629 ], [ 21.115407107740115, 40.549137163826629 ], [ 21.115433, 40.54923020033884 ], [ 21.11561, 40.54933620033885 ], [ 21.1158675, 40.549389200338865 ], [ 21.1161679, 40.54955220033888 ], [ 21.1163986, 40.54968670033891 ], [ 21.1166346, 40.549792700338898 ], [ 21.1169296, 40.549988300338931 ], [ 21.1172461, 40.55011880033895 ], [ 21.1174554, 40.550122900338955 ], [ 21.1177021, 40.550049500338943 ], [ 21.1179435, 40.549902700338912 ], [ 21.1179142, 40.549757100338901 ], [ 21.1177109, 40.549633600338886 ], [ 21.1175239, 40.549435900338864 ], [ 21.1178085, 40.549337000338866 ], [ 21.1179793, 40.549182600338845 ], [ 21.117938540748256, 40.549137163826629 ], [ 21.117220392094723, 40.549137163826629 ], [ 21.1172571, 40.54921620033884 ], [ 21.117151, 40.549194700338838 ], [ 21.11709040622825, 40.549137163826629 ], [ 21.11656962033506, 40.549137163826629 ], [ 21.1165971, 40.549165000338832 ] ] ] } },
{ "type": "Feature", "properties": { "osm_id": -9746168, "name": null, "label": "natural:wood", "landuse": null, "natural": "wood", "leisure": null }, "geometry": { "type": "MultiPolygon", "coordinates": [ [ [ [ 21.1118105, 40.55549570033962 ], [ 21.111983, 40.555420800339618 ], [ 21.1122726, 40.555322500339599 ], [ 21.1125253, 40.555168000339584 ], [ 21.1126978, 40.555093000339575 ], [ 21.1130306, 40.555050900339552 ], [ 21.1132832, 40.554943200339551 ], [ 21.1134742, 40.555060300339569 ], [ 21.1134126, 40.555163300339558 ], [ 21.1132093, 40.555271000339587 ], [ 21.1129998, 40.555345900339603 ], [ 21.1128888, 40.555430100339606 ], [ 21.1128888, 40.555673600339645 ], [ 21.1128796, 40.555757900339664 ], [ 21.1127902, 40.555821100339664 ], [ 21.1125684, 40.555910000339672 ], [ 21.1125961, 40.555933400339683 ], [ 21.1127132, 40.555905300339667 ], [ 21.1128703, 40.555886600339676 ], [ 21.1129967, 40.555900700339663 ], [ 21.1131476, 40.555898300339678 ], [ 21.1133233, 40.555867900339663 ], [ 21.1134588, 40.555816400339651 ], [ 21.1135522, 40.555746900339649 ], [ 21.113505, 40.555743800339663 ], [ 21.1136714, 40.555589300339633 ], [ 21.1137823, 40.555374000339604 ], [ 21.114035, 40.555285000339602 ], [ 21.1142198, 40.555149200339592 ], [ 21.1143369, 40.554976000339558 ], [ 21.1144971, 40.554924500339553 ], [ 21.1146758, 40.554929200339537 ], [ 21.1149377, 40.554887000339548 ], [ 21.1151164, 40.554774700339522 ], [ 21.1148792, 40.554587400339507 ], [ 21.1151442, 40.554400100339478 ], [ 21.1153537, 40.554273700339465 ], [ 21.1155447, 40.554119200339457 ], [ 21.1156988, 40.553950700339435 ], [ 21.1159329, 40.553763400339413 ], [ 21.1160931, 40.553613600339389 ], [ 21.1162533, 40.553412200339359 ], [ 21.1163334, 40.553145400339318 ], [ 21.1162657, 40.553100900339324 ], [ 21.1159791, 40.553182800339322 ], [ 21.1160469, 40.553019000339312 ], [ 21.1163211, 40.552953400339312 ], [ 21.1164813, 40.55279890033929 ], [ 21.1165799, 40.552564800339255 ], [ 21.1166291, 40.552309300339225 ], [ 21.1166231, 40.552106000339201 ], [ 21.1167712, 40.55200600033919 ], [ 21.1170606, 40.552026400339187 ], [ 21.1171407, 40.551843800339178 ], [ 21.1171407, 40.551708000339147 ], [ 21.1172414, 40.551755000339142 ], [ 21.1172414, 40.551900400339171 ], [ 21.117134, 40.552056600339199 ], [ 21.1171293, 40.552194900339224 ], [ 21.1171059, 40.55230850033923 ], [ 21.1169705, 40.552418500339229 ], [ 21.1168818, 40.552510700339248 ], [ 21.1168444, 40.552748500339284 ], [ 21.116737, 40.553142300339317 ], [ 21.1165409, 40.553376500339368 ], [ 21.1164475, 40.553593000339376 ], [ 21.1162327, 40.553805900339405 ], [ 21.1160599, 40.553990400339437 ], [ 21.1160291, 40.554060500339446 ], [ 21.11616, 40.553956700339427 ], [ 21.1162982, 40.553862400339419 ], [ 21.1164425, 40.553723400339415 ], [ 21.1165929, 40.553555100339373 ], [ 21.1167068, 40.55342690033936 ], [ 21.1168369, 40.553334200339357 ], [ 21.11703, 40.553233800339349 ], [ 21.1171499, 40.553162800339344 ], [ 21.1172414, 40.553057800339317 ], [ 21.1173021, 40.552943600339304 ], [ 21.1173348, 40.552773300339275 ], [ 21.1173068, 40.552663300339276 ], [ 21.117218, 40.552574600339263 ], [ 21.1173815, 40.552404300339241 ], [ 21.1174609, 40.552255300339219 ], [ 21.1175216, 40.552141700339206 ], [ 21.1175262, 40.551967900339186 ], [ 21.1174375, 40.551808200339153 ], [ 21.1172763, 40.551651800339151 ], [ 21.1172947, 40.551497300339115 ], [ 21.1171284, 40.551436400339121 ], [ 21.1168634, 40.551459800339131 ], [ 21.1165553, 40.551492600339124 ], [ 21.1165553, 40.551403700339115 ], [ 21.1170262, 40.551309000339103 ], [ 21.1172676, 40.551353800339101 ], [ 21.1174607, 40.551488300339123 ], [ 21.1175197, 40.551582100339132 ], [ 21.1176646, 40.551533200339144 ], [ 21.1177182, 40.551357900339099 ], [ 21.1178523, 40.551203000339086 ], [ 21.1179703, 40.55097880033906 ], [ 21.1181045, 40.550905500339042 ], [ 21.1183834, 40.550905500339042 ], [ 21.1185765, 40.550999200339056 ], [ 21.1186463, 40.551198900339102 ], [ 21.1187804, 40.551378300339117 ], [ 21.1186784, 40.551516900339138 ], [ 21.1183834, 40.551745100339161 ], [ 21.1182547, 40.55184700033918 ], [ 21.1181956, 40.551937000339187 ], [ 21.1181172, 40.551994200339188 ], [ 21.1182395, 40.551948800339169 ], [ 21.1183414, 40.551883400339165 ], [ 21.1185175, 40.551741000339156 ], [ 21.118657, 40.551622800339139 ], [ 21.1187643, 40.551516900339138 ], [ 21.1189145, 40.551423100339115 ], [ 21.1188716, 40.551260100339093 ], [ 21.1187267, 40.551056300339063 ], [ 21.1186999, 40.550848400339035 ], [ 21.1186194, 40.550652700339015 ], [ 21.1185014, 40.55044080033899 ], [ 21.118421, 40.550184000338973 ], [ 21.1188493, 40.550337900338967 ], [ 21.1191501, 40.550375000338981 ], [ 21.1194022, 40.550294600338979 ], [ 21.1195323, 40.550171100338957 ], [ 21.1196949, 40.550146400338953 ], [ 21.1199144, 40.55018340033898 ], [ 21.120077, 40.550053700338943 ], [ 21.1203535, 40.549973400338928 ], [ 21.1206462, 40.549967200338934 ], [ 21.1208251, 40.549806600338897 ], [ 21.1208251, 40.549627400338885 ], [ 21.1208901, 40.549516200338871 ], [ 21.1211585, 40.549503800338869 ], [ 21.1217165, 40.549485200338871 ], [ 21.1221412, 40.549479800338865 ], [ 21.122481, 40.549377600338858 ], [ 21.12275, 40.549372200338858 ], [ 21.122934, 40.549506700338881 ], [ 21.1231747, 40.549549700338879 ], [ 21.123387, 40.549442100338879 ], [ 21.1234366, 40.549323800338861 ], [ 21.1236702, 40.549286100338861 ], [ 21.1240453, 40.549323800338861 ], [ 21.1243143, 40.549194700338838 ], [ 21.124421885431975, 40.549137163826629 ], [ 21.117938540748256, 40.549137163826629 ], [ 21.1179793, 40.549182600338845 ], [ 21.1178085, 40.549337000338866 ], [ 21.1175239, 40.549435900338864 ], [ 21.1177109, 40.549633600338886 ], [ 21.1179142, 40.549757100338901 ], [ 21.1179435, 40.549902700338912 ], [ 21.1177021, 40.550049500338943 ], [ 21.1174554, 40.550122900338955 ], [ 21.1172461, 40.55011880033895 ], [ 21.1169296, 40.549988300338931 ], [ 21.1166346, 40.549792700338898 ], [ 21.1163986, 40.54968670033891 ], [ 21.1161679, 40.54955220033888 ], [ 21.1158675, 40.549389200338865 ], [ 21.11561, 40.54933620033885 ], [ 21.115433, 40.54923020033884 ], [ 21.115407107740115, 40.549137163826629 ], [ 21.111666181344997, 40.549137163826629 ], [ 21.111666181344997, 40.55087280033905 ], [ 21.1118351, 40.55087280033905 ], [ 21.1120687, 40.550819000339033 ], [ 21.1124014, 40.550910400339049 ], [ 21.1127694, 40.551071800339066 ], [ 21.113003, 40.55117940033908 ], [ 21.1131682, 40.5512954003391 ], [ 21.1128796, 40.551375300339096 ], [ 21.1127442, 40.551407200339114 ], [ 21.1127442, 40.551552700339123 ], [ 21.112534, 40.551570400339152 ], [ 21.1124665, 40.551603700339143 ], [ 21.1124513, 40.55152070033914 ], [ 21.1125068, 40.551441100339119 ], [ 21.1126177, 40.551347500339105 ], [ 21.1124267, 40.551235100339085 ], [ 21.1122357, 40.551178900339075 ], [ 21.1120693, 40.551089900339072 ], [ 21.1119275, 40.551108700339078 ], [ 21.1117981, 40.551216400339086 ], [ 21.111666181344997, 40.551279046655495 ], [ 21.111666181344997, 40.551685084939457 ], [ 21.1117797, 40.551637800339137 ], [ 21.1119768, 40.551605000339151 ], [ 21.1121247, 40.551595600339141 ], [ 21.1123612, 40.551655600339153 ], [ 21.1122305, 40.55178690033916 ], [ 21.1120297, 40.551921700339186 ], [ 21.1118942, 40.552042400339189 ], [ 21.111666181344997, 40.552144163955802 ], [ 21.111666181344997, 40.552657182394881 ], [ 21.1117214, 40.552645600339261 ], [ 21.1119456, 40.55261720033927 ], [ 21.1122024, 40.552588800339251 ], [ 21.1124453, 40.552571100339257 ], [ 21.1126087, 40.552556900339255 ], [ 21.1127161, 40.552372400339237 ], [ 21.1128282, 40.552255300339219 ], [ 21.1129216, 40.552365300339225 ], [ 21.1127628, 40.552464600339235 ], [ 21.1126975, 40.552549800339243 ], [ 21.1128049, 40.552613600339271 ], [ 21.1127815, 40.552748500339284 ], [ 21.1127143, 40.552885700339296 ], [ 21.1126694, 40.553060700339316 ], [ 21.1126694, 40.553220400339342 ], [ 21.1125994, 40.553362300339352 ], [ 21.1123939, 40.553394300339363 ], [ 21.1122024, 40.553355200339354 ], [ 21.112067, 40.553245200339354 ], [ 21.112039, 40.553163600339325 ], [ 21.1118335, 40.553110400339328 ], [ 21.111666181344997, 40.553099650647717 ], [ 21.111666181344997, 40.555671083864368 ], [ 21.1118105, 40.55549570033962 ] ], [ [ 21.1122527, 40.550523200339008 ], [ 21.1125005, 40.55039950033899 ], [ 21.1128331, 40.550485500339001 ], [ 21.1130667, 40.550593100339007 ], [ 21.1132366, 40.550528600339007 ], [ 21.113095, 40.550404900338997 ], [ 21.113003, 40.55027580033898 ], [ 21.1132389, 40.550195300338956 ], [ 21.1135393, 40.550249200338975 ], [ 21.1137056, 40.55021660033897 ], [ 21.1138451, 40.550269600338972 ], [ 21.1139631, 40.550404100338994 ], [ 21.1140275, 40.550522300339004 ], [ 21.1140275, 40.550632400339012 ], [ 21.1139148, 40.550742400339033 ], [ 21.1139256, 40.550811700339032 ], [ 21.1140758, 40.550811700339032 ], [ 21.1143333, 40.550754600339026 ], [ 21.1145532, 40.550665000339016 ], [ 21.1148, 40.550591600339011 ], [ 21.1149019, 40.550628300339014 ], [ 21.1149287, 40.550771000339033 ], [ 21.1148317, 40.550835900339052 ], [ 21.1146729, 40.550843000339036 ], [ 21.1144627, 40.550811100339033 ], [ 21.11436, 40.550945900339066 ], [ 21.1142012, 40.551048800339061 ], [ 21.1140144, 40.551102100339065 ], [ 21.113907, 40.551073700339074 ], [ 21.1138323, 40.550967200339073 ], [ 21.1137155, 40.550896200339054 ], [ 21.1136408, 40.550924600339052 ], [ 21.113851, 40.551137500339067 ], [ 21.113921, 40.551222700339089 ], [ 21.1136128, 40.551343300339092 ], [ 21.1134307, 40.551286600339104 ], [ 21.1132719, 40.551201400339082 ], [ 21.112734, 40.55094270033905 ], [ 21.1123377, 40.550765200339036 ], [ 21.1119483, 40.550652300339017 ], [ 21.1122527, 40.550523200339008 ] ] ], [ [ [ 21.117151, 40.549194700338838 ], [ 21.1172571, 40.54921620033884 ], [ 21.117220392094723, 40.549137163826629 ], [ 21.11709040622825, 40.549137163826629 ], [ 21.117151, 40.549194700338838 ] ] ], [ [ [ 21.1162645, 40.549144600338828 ], [ 21.1165005, 40.549299500338847 ], [ 21.1166936, 40.54946660033886 ], [ 21.1168384, 40.549556300338885 ], [ 21.1168063, 40.549372900338867 ], [ 21.1167633, 40.549295400338842 ], [ 21.1165971, 40.549165000338832 ], [ 21.11656962033506, 40.549137163826629 ], [ 21.116258328678114, 40.549137163826629 ], [ 21.1162645, 40.549144600338828 ] ] ] ] } },
{ "type": "Feature", "properties": { "osm_id": 701193837, "name": null, "label": "landuse:meadow", "landuse": "meadow", "natural": null, "leisure": null }, "geometry": { "type": "Polygon", "coordinates": [ [ [ 21.1214572, 40.553514100339378 ], [ 21.121543, 40.553632300339395 ], [ 21.1216664, 40.55377490033942 ], [ 21.1218703, 40.553889100339418 ], [ 21.1220419, 40.553978700339428 ], [ 21.1222511, 40.554084700339438 ], [ 21.1224925, 40.554007300339435 ], [ 21.1227018, 40.553872800339427 ], [ 21.1227018, 40.553750500339412 ], [ 21.1227822, 40.553689300339393 ], [ 21.1229485, 40.553681200339398 ], [ 21.1231416, 40.553554800339384 ], [ 21.1232865, 40.553501800339376 ], [ 21.1235118, 40.553404000339349 ], [ 21.1234903, 40.553281700339348 ], [ 21.1233884, 40.553216500339332 ], [ 21.1232597, 40.553326600339354 ], [ 21.1230719, 40.553314400339353 ], [ 21.1231041, 40.553212500339328 ], [ 21.1232489, 40.55315130033933 ], [ 21.1231524, 40.55299640033931 ], [ 21.1231738, 40.552849700339287 ], [ 21.1231309, 40.552760000339291 ], [ 21.1229914, 40.552760000339291 ], [ 21.1229324, 40.552898600339304 ], [ 21.1229324, 40.553016800339321 ], [ 21.123029, 40.553118700339333 ], [ 21.1229593, 40.553294000339349 ], [ 21.1228251, 40.553424400339367 ], [ 21.1225891, 40.55346920033935 ], [ 21.1224496, 40.553448900339369 ], [ 21.1223477, 40.553493700339367 ], [ 21.122337, 40.553611900339384 ], [ 21.122219, 40.553705600339399 ], [ 21.1220527, 40.553563000339373 ], [ 21.1218595, 40.553465200339367 ], [ 21.1217147, 40.553302100339359 ], [ 21.1216074, 40.553171700339334 ], [ 21.1215055, 40.553220600339344 ], [ 21.1213875, 40.553326600339354 ], [ 21.1213553, 40.553461100339383 ], [ 21.1214572, 40.553514100339378 ] ] ] } },
{ "type": "Feature", "properties": { "osm_id": 701193839, "name": null, "label": "landuse:meadow", "landuse": "meadow", "natural": null, "leisure": null }, "geometry": { "type": "Polygon", "coordinates": [ [ [ 21.1210227, 40.552825200339285 ], [ 21.1210763, 40.553004600339307 ], [ 21.1212265, 40.553082000339323 ], [ 21.1214518, 40.553118700339333 ], [ 21.1216664, 40.553000500339309 ], [ 21.1218917, 40.552943400339302 ], [ 21.1220151, 40.552853800339285 ], [ 21.1221975, 40.552698900339273 ], [ 21.1223477, 40.552637800339269 ], [ 21.122514, 40.552580700339256 ], [ 21.1225784, 40.552486900339247 ], [ 21.1226535, 40.552421700339238 ], [ 21.1225194, 40.552385000339228 ], [ 21.1223799, 40.552389100339255 ], [ 21.1221921, 40.552389100339255 ], [ 21.122058, 40.552336100339225 ], [ 21.1220312, 40.552234200339221 ], [ 21.1219132, 40.552156800339198 ], [ 21.1217791, 40.552124200339208 ], [ 21.121645, 40.552205700339215 ], [ 21.1214733, 40.552356500339236 ], [ 21.1212695, 40.552470600339248 ], [ 21.1210442, 40.552568500339262 ], [ 21.1209637, 40.552678500339269 ], [ 21.1210227, 40.552825200339285 ] ] ] } },
{ "type": "Feature", "properties": { "osm_id": 701193838, "name": null, "label": "landuse:meadow", "landuse": "meadow", "natural": null, "leisure": null }, "geometry": { "type": "Polygon", "coordinates": [ [ [ 21.1202878, 40.553603700339373 ], [ 21.1203146, 40.553811600339415 ], [ 21.1204487, 40.553974600339437 ], [ 21.1206418, 40.554092800339447 ], [ 21.1208457, 40.554174400339456 ], [ 21.1210871, 40.554190700339461 ], [ 21.1212695, 40.554137700339453 ], [ 21.1212802, 40.554251800339479 ], [ 21.1211729, 40.554345500339473 ], [ 21.1209798, 40.55442300033949 ], [ 21.1210066, 40.554581900339514 ], [ 21.1211193, 40.554581900339514 ], [ 21.1211622, 40.554700100339524 ], [ 21.1212265, 40.554822400339525 ], [ 21.1213821, 40.554679800339514 ], [ 21.1215216, 40.554614600339505 ], [ 21.1216772, 40.554455600339487 ], [ 21.1218542, 40.554325200339477 ], [ 21.1217469, 40.554178400339445 ], [ 21.1216557, 40.55408880033945 ], [ 21.1215591, 40.554154000339445 ], [ 21.1214733, 40.55408880033945 ], [ 21.1214733, 40.553954300339434 ], [ 21.1214036, 40.553807500339417 ], [ 21.1212695, 40.553681200339398 ], [ 21.1211997, 40.553591500339387 ], [ 21.1212158, 40.55344070033938 ], [ 21.1211622, 40.553322500339362 ], [ 21.1209476, 40.553355100339353 ], [ 21.1207759, 40.553367300339353 ], [ 21.1206365, 40.553241000339334 ], [ 21.1204916, 40.553143200339328 ], [ 21.1203468, 40.553236900339328 ], [ 21.1202663, 40.553379600339355 ], [ 21.1202878, 40.553603700339373 ] ] ] } },
{ "type": "Feature", "properties": { "osm_id": -9746166, "name": null, "label": "natural:wood", "landuse": null, "natural": "wood", "leisure": null }, "geometry": { "type": "Polygon", "coordinates": [ [ [ 21.1116841, 40.564275900340704 ], [ 21.1117635, 40.564421400340734 ], [ 21.1119736, 40.564460400340742 ], [ 21.1121604, 40.56453130034074 ], [ 21.1123752, 40.564513600340732 ], [ 21.1124826, 40.564417800340735 ], [ 21.1126087, 40.564357500340712 ], [ 21.1126087, 40.564212100340711 ], [ 21.112562, 40.564073700340671 ], [ 21.1124967, 40.564020500340675 ], [ 21.1122818, 40.564034700340684 ], [ 21.1120997, 40.564027600340687 ], [ 21.1121184, 40.563896300340673 ], [ 21.1122725, 40.563797000340649 ], [ 21.1124686, 40.563665700340636 ], [ 21.1127068, 40.563577000340629 ], [ 21.1128189, 40.563385400340614 ], [ 21.1128936, 40.563236400340578 ], [ 21.1130711, 40.56305550034056 ], [ 21.1132252, 40.563037800340545 ], [ 21.1133886, 40.563105200340573 ], [ 21.113496, 40.563044900340564 ], [ 21.1135801, 40.562910000340544 ], [ 21.113482, 40.562835500340526 ], [ 21.1135194, 40.562693600340516 ], [ 21.1136788, 40.562614900340506 ], [ 21.113829, 40.562464100340485 ], [ 21.1139631, 40.562317400340461 ], [ 21.1141187, 40.562244000340449 ], [ 21.1143655, 40.562182900340453 ], [ 21.1145103, 40.562044300340418 ], [ 21.1145103, 40.561889500340406 ], [ 21.1143279, 40.561673500340383 ], [ 21.1142206, 40.561510500340354 ], [ 21.114285, 40.561335200340345 ], [ 21.1144942, 40.561102900340316 ], [ 21.1146015, 40.560976600340297 ], [ 21.1146229, 40.560805400340264 ], [ 21.1147088, 40.560736100340264 ], [ 21.1149287, 40.56074020034027 ], [ 21.1151755, 40.560748400340273 ], [ 21.1152506, 40.560670900340263 ], [ 21.1149287, 40.560642400340264 ], [ 21.114859, 40.560479400340242 ], [ 21.1148375, 40.560300100340221 ], [ 21.1150628, 40.560116700340203 ], [ 21.1153096, 40.559957700340171 ], [ 21.1155456, 40.559872100340165 ], [ 21.1156797, 40.559888400340164 ], [ 21.115787, 40.560104400340194 ], [ 21.1158192, 40.560336700340223 ], [ 21.1158782, 40.560524200340254 ], [ 21.1159801, 40.560666900340266 ], [ 21.1159855, 40.560923600340303 ], [ 21.1160767, 40.561217000340321 ], [ 21.1161625, 40.561355600340349 ], [ 21.116184, 40.561490100340372 ], [ 21.1162806, 40.561567500340374 ], [ 21.1165059, 40.561514500340373 ], [ 21.1164522, 40.561359700340347 ], [ 21.1164844, 40.56124150034033 ], [ 21.116699, 40.561253700340338 ], [ 21.1169779, 40.561225200340331 ], [ 21.117273, 40.561257800340329 ], [ 21.1175358, 40.561237400340332 ], [ 21.1177289, 40.561115200340332 ], [ 21.1179435, 40.560935800340296 ], [ 21.1181205, 40.560658700340269 ], [ 21.1183137, 40.560467200340227 ], [ 21.1184424, 40.560255200340222 ], [ 21.1185658, 40.560071800340182 ], [ 21.1184961, 40.559900700340172 ], [ 21.1183619, 40.559749900340158 ], [ 21.1183405, 40.559562400340113 ], [ 21.1185551, 40.559517600340115 ], [ 21.1185712, 40.559399400340098 ], [ 21.1184907, 40.559216000340072 ], [ 21.1187106, 40.559101900340075 ], [ 21.1189842, 40.558861400340042 ], [ 21.1191398, 40.558665800340009 ], [ 21.1193758, 40.558543500339994 ], [ 21.1196494, 40.558547600339992 ], [ 21.1199123, 40.558555700340008 ], [ 21.1200571, 40.55842130033998 ], [ 21.1201107, 40.558274500339969 ], [ 21.1202502, 40.558152300339955 ], [ 21.1204433, 40.558127800339953 ], [ 21.1205238, 40.55825420033996 ], [ 21.1205989, 40.558396800339985 ], [ 21.1208296, 40.558482400339997 ], [ 21.1210602, 40.558368300339978 ], [ 21.1209369, 40.558274500339969 ], [ 21.1208671, 40.558107400339935 ], [ 21.1209744, 40.557952600339931 ], [ 21.12113, 40.557756900339896 ], [ 21.121307, 40.557683600339885 ], [ 21.1214679, 40.557536800339882 ], [ 21.1217147, 40.557447200339865 ], [ 21.1221546, 40.55744310033986 ], [ 21.1224174, 40.557516500339865 ], [ 21.1225462, 40.557349400339859 ], [ 21.122573, 40.557108900339827 ], [ 21.1225891, 40.556901000339792 ], [ 21.1227179, 40.556717600339773 ], [ 21.1229539, 40.556721700339764 ], [ 21.1230558, 40.556546500339749 ], [ 21.1229914, 40.55627340033972 ], [ 21.1228788, 40.556057400339697 ], [ 21.1226696, 40.555898400339657 ], [ 21.1225408, 40.555739500339648 ], [ 21.1228251, 40.555523500339625 ], [ 21.1230987, 40.555421600339621 ], [ 21.1232972, 40.555303400339596 ], [ 21.1235654, 40.555181100339574 ], [ 21.1238497, 40.555054700339568 ], [ 21.1241394, 40.555014000339561 ], [ 21.1243272, 40.555071000339559 ], [ 21.1245203, 40.555005800339558 ], [ 21.124692, 40.554895800339537 ], [ 21.124928, 40.554781700339525 ], [ 21.1251157, 40.554749100339521 ], [ 21.1252981, 40.554802000339535 ], [ 21.1255234, 40.554773500339543 ], [ 21.1256683, 40.554834600339532 ], [ 21.1257917, 40.554997700339555 ], [ 21.1258882, 40.555274800339589 ], [ 21.1258882, 40.555547900339626 ], [ 21.125915, 40.555804700339664 ], [ 21.125915, 40.556130700339693 ], [ 21.1259633, 40.556363100339723 ], [ 21.1258829, 40.556526100339759 ], [ 21.1256844, 40.556644300339762 ], [ 21.1255556, 40.556884700339793 ], [ 21.1254483, 40.557072200339817 ], [ 21.125223, 40.557280100339838 ], [ 21.125164, 40.557414600339868 ], [ 21.1252069, 40.557532800339871 ], [ 21.1253411, 40.557675400339882 ], [ 21.1255449, 40.557801800339902 ], [ 21.1257487, 40.55774470033991 ], [ 21.1258507, 40.557622400339881 ], [ 21.125958, 40.557683600339885 ], [ 21.1260277, 40.557809900339912 ], [ 21.1262047, 40.557887300339921 ], [ 21.1263442, 40.558078900339936 ], [ 21.1263281, 40.558319400339968 ], [ 21.1262155, 40.558453900339984 ], [ 21.1260331, 40.558531300339993 ], [ 21.1259043, 40.558645400340005 ], [ 21.1258721, 40.558902200340043 ], [ 21.1258721, 40.559126300340075 ], [ 21.1257648, 40.559264900340082 ], [ 21.1254966, 40.559415700340097 ], [ 21.1252016, 40.559652100340145 ], [ 21.1257112, 40.56004330034019 ], [ 21.125958, 40.559859900340157 ], [ 21.1261511, 40.559839500340161 ], [ 21.1263764, 40.559717300340147 ], [ 21.1265856, 40.559635800340125 ], [ 21.1268216, 40.559631700340127 ], [ 21.1269665, 40.559713200340134 ], [ 21.1270684, 40.55979060034015 ], [ 21.1272615, 40.559815100340153 ], [ 21.1273555, 40.559964800340182 ], [ 21.127425, 40.560274000340208 ], [ 21.127725, 40.560660000340263 ], [ 21.127965, 40.561027000340303 ], [ 21.128094, 40.561141000340321 ], [ 21.129731, 40.561817000340405 ], [ 21.131526, 40.561861000340407 ], [ 21.133129, 40.561353000340347 ], [ 21.133742, 40.56101600034031 ], [ 21.133728, 40.560773000340276 ], [ 21.133818, 40.56051900034025 ], [ 21.134389, 40.560335000340217 ], [ 21.135079, 40.560151000340198 ], [ 21.135254, 40.559970000340165 ], [ 21.135253, 40.56000900034018 ], [ 21.136052, 40.559907000340161 ], [ 21.136545, 40.559347000340097 ], [ 21.136582, 40.558490000339987 ], [ 21.135981, 40.557188000339821 ], [ 21.134627, 40.555938000339665 ], [ 21.132981, 40.554967000339559 ], [ 21.1320022, 40.554264000339472 ], [ 21.1320255, 40.55414660033945 ], [ 21.1319401, 40.554032300339443 ], [ 21.1318303, 40.553958200339423 ], [ 21.1317775, 40.553834600339414 ], [ 21.1316863, 40.553796200339413 ], [ 21.1316401, 40.55360190033938 ], [ 21.1315076, 40.553538700339374 ], [ 21.131295, 40.553534000339376 ], [ 21.1310824, 40.553498900339378 ], [ 21.1309315, 40.553470800339376 ], [ 21.1308637, 40.553358400339349 ], [ 21.1308729, 40.55326710033934 ], [ 21.1308175, 40.553168800339328 ], [ 21.1309869, 40.553206200339325 ], [ 21.1311163, 40.55326710033934 ], [ 21.1312365, 40.553276500339344 ], [ 21.1313074, 40.553225000339324 ], [ 21.1313936, 40.553098500339317 ], [ 21.1313382, 40.553047000339319 ], [ 21.1313197, 40.552920600339299 ], [ 21.1312396, 40.552838700339294 ], [ 21.1311595, 40.552885500339293 ], [ 21.1310978, 40.55284570033929 ], [ 21.1310701, 40.552719300339277 ], [ 21.1309808, 40.552663100339245 ], [ 21.1309869, 40.552555400339251 ], [ 21.1310054, 40.552489900339239 ], [ 21.1310701, 40.552494600339259 ], [ 21.1310886, 40.55259290033927 ], [ 21.1311779, 40.552632700339259 ], [ 21.1313197, 40.552606900339249 ], [ 21.1313782, 40.552494600339259 ], [ 21.1314306, 40.552375200339242 ], [ 21.131446, 40.552279200339228 ], [ 21.1313875, 40.552237100339212 ], [ 21.1313443, 40.55223470033922 ], [ 21.1311749, 40.55232370033923 ], [ 21.1310639, 40.552297900339219 ], [ 21.1309407, 40.552304900339223 ], [ 21.130876, 40.552396200339231 ], [ 21.1307558, 40.552408000339241 ], [ 21.1306018, 40.552393900339233 ], [ 21.1305494, 40.552300300339219 ], [ 21.1306326, 40.552211300339209 ], [ 21.1305833, 40.552145800339197 ], [ 21.1305032, 40.55213410033921 ], [ 21.130383, 40.552213600339208 ], [ 21.130383, 40.552110600339198 ], [ 21.1304816, 40.552012300339193 ], [ 21.1304447, 40.551958500339182 ], [ 21.1303307, 40.551949100339179 ], [ 21.1302475, 40.551897600339174 ], [ 21.130155, 40.551974900339175 ], [ 21.1300256, 40.552035700339182 ], [ 21.1300226, 40.552094300339185 ], [ 21.1300564, 40.552162100339203 ], [ 21.1299517, 40.552148100339203 ], [ 21.1298192, 40.552178500339203 ], [ 21.1297884, 40.552246400339214 ], [ 21.1296559, 40.552246400339214 ], [ 21.1294988, 40.552302600339225 ], [ 21.1294094, 40.552227700339216 ], [ 21.1293848, 40.552087200339201 ], [ 21.1293879, 40.551932700339179 ], [ 21.1293355, 40.551864800339168 ], [ 21.1292461, 40.551815700339155 ], [ 21.1292246, 40.551747800339164 ], [ 21.1292523, 40.551654100339142 ], [ 21.1292492, 40.551525400339123 ], [ 21.1292708, 40.551401300339116 ], [ 21.129357, 40.551352100339109 ], [ 21.129317, 40.551277200339086 ], [ 21.1292523, 40.551246800339094 ], [ 21.1292554, 40.551164900339089 ], [ 21.1292122, 40.55109700033907 ], [ 21.1290366, 40.551040800339074 ], [ 21.1291537, 40.551012700339079 ], [ 21.1292677, 40.550986900339041 ], [ 21.1294033, 40.551008000339067 ], [ 21.129471, 40.551082900339082 ], [ 21.1293817, 40.551101700339075 ], [ 21.129394, 40.551153200339087 ], [ 21.129431, 40.551200000339087 ], [ 21.1294834, 40.551164900339089 ], [ 21.1295573, 40.551155500339078 ], [ 21.1295635, 40.551239800339097 ], [ 21.1296744, 40.551298300339099 ], [ 21.1296775, 40.551382600339103 ], [ 21.1295666, 40.551445800339124 ], [ 21.1295419, 40.551502000339127 ], [ 21.1296189, 40.551539400339138 ], [ 21.1296497, 40.55158860033913 ], [ 21.1294834, 40.551602600339123 ], [ 21.1293386, 40.551598000339126 ], [ 21.1293786, 40.551717300339156 ], [ 21.1294063, 40.551794600339157 ], [ 21.1294865, 40.551778200339164 ], [ 21.1295604, 40.551705600339155 ], [ 21.1296374, 40.551717300339156 ], [ 21.1296128, 40.551782900339148 ], [ 21.1295573, 40.551853100339173 ], [ 21.1296251, 40.551925700339176 ], [ 21.1297329, 40.551897600339174 ], [ 21.1297915, 40.551911700339183 ], [ 21.1298346, 40.552014700339186 ], [ 21.129924, 40.551979500339179 ], [ 21.130001, 40.551899900339187 ], [ 21.1300965, 40.551836700339173 ], [ 21.1302629, 40.551829700339169 ], [ 21.1302475, 40.551771200339154 ], [ 21.1301335, 40.551703300339156 ], [ 21.1300195, 40.551747800339164 ], [ 21.1299363, 40.551745400339151 ], [ 21.1299363, 40.55167520033914 ], [ 21.1300071, 40.551609700339135 ], [ 21.1301181, 40.551605000339151 ], [ 21.1302351, 40.551551100339132 ], [ 21.1302629, 40.551441100339119 ], [ 21.1302382, 40.551321700339109 ], [ 21.1302043, 40.551190600339083 ], [ 21.1301181, 40.551127400339077 ], [ 21.1300441, 40.551022100339075 ], [ 21.1298623, 40.551038400339067 ], [ 21.1297268, 40.550979900339065 ], [ 21.1296374, 40.550902700339051 ], [ 21.1295019, 40.550879300339034 ], [ 21.129354, 40.55078560033904 ], [ 21.1291229, 40.550783300339035 ], [ 21.1288641, 40.550809000339044 ], [ 21.1286854, 40.550806700339038 ], [ 21.1285591, 40.550851200339046 ], [ 21.1285036, 40.550949500339044 ], [ 21.1283526, 40.550914400339053 ], [ 21.1282017, 40.550872200339043 ], [ 21.1280199, 40.550898000339046 ], [ 21.1279644, 40.550954200339049 ], [ 21.1279706, 40.551057200339073 ], [ 21.1278011, 40.551054800339067 ], [ 21.127684, 40.551045500339072 ], [ 21.127644, 40.551113400339084 ], [ 21.1275516, 40.551139100339071 ], [ 21.1274468, 40.551251500339092 ], [ 21.1274468, 40.55104780033907 ], [ 21.1274745, 40.550860500339041 ], [ 21.1274684, 40.550736400339034 ], [ 21.1274098, 40.550584300338997 ], [ 21.1273574, 40.55061000033902 ], [ 21.127302, 40.550675600339027 ], [ 21.1272132, 40.550697600339035 ], [ 21.1271542, 40.550836200339042 ], [ 21.127063, 40.550909500339039 ], [ 21.1269826, 40.550836200339042 ], [ 21.1269396, 40.550742400339033 ], [ 21.1268377, 40.550758700339046 ], [ 21.1268914, 40.550889200339057 ], [ 21.126886, 40.551072600339069 ], [ 21.1267573, 40.551194900339098 ], [ 21.1266339, 40.551239700339103 ], [ 21.1266339, 40.5513416003391 ], [ 21.1266071, 40.551520900339135 ], [ 21.1266231, 40.551643200339136 ], [ 21.1265373, 40.551720700339153 ], [ 21.1263978, 40.551741000339156 ], [ 21.1263871, 40.551879600339177 ], [ 21.1264193, 40.552022300339203 ], [ 21.1263978, 40.552120100339202 ], [ 21.1262906, 40.552063000339189 ], [ 21.1262101, 40.551948900339177 ], [ 21.1262208, 40.551765500339158 ], [ 21.1262208, 40.551561700339136 ], [ 21.1261564, 40.551419000339123 ], [ 21.1262101, 40.551325300339094 ], [ 21.1262155, 40.551109300339057 ], [ 21.126253, 40.550864700339048 ], [ 21.126253, 40.550652700339015 ], [ 21.1263227, 40.550412300338991 ], [ 21.1263227, 40.55018810033895 ], [ 21.1263871, 40.55008620033896 ], [ 21.1265749, 40.550045400338938 ], [ 21.1265105, 40.549955700338927 ], [ 21.1264247, 40.549890500338918 ], [ 21.1263174, 40.549853800338923 ], [ 21.1263174, 40.549731600338916 ], [ 21.126253, 40.549658200338911 ], [ 21.1260813, 40.549646000338882 ], [ 21.1258614, 40.5497071003389 ], [ 21.1258507, 40.549968000338929 ], [ 21.1257863, 40.550131000338958 ], [ 21.1256361, 40.550204400338956 ], [ 21.1255073, 40.550204400338956 ], [ 21.1253947, 40.550310400338986 ], [ 21.1253357, 40.550396000338978 ], [ 21.1251855, 40.550404100338994 ], [ 21.1249924, 40.550330700338982 ], [ 21.1248743, 40.550387800338989 ], [ 21.1249226, 40.550501900338993 ], [ 21.1248583, 40.550591600339011 ], [ 21.1247456, 40.550595700339009 ], [ 21.12481, 40.550746500339024 ], [ 21.1246222, 40.550713900339026 ], [ 21.1245203, 40.550648700339025 ], [ 21.1244184, 40.550648700339025 ], [ 21.1243916, 40.550762800339029 ], [ 21.1241984, 40.550762800339029 ], [ 21.1240536, 40.550730200339025 ], [ 21.124016, 40.550815800339045 ], [ 21.1238283, 40.550856500339037 ], [ 21.12378, 40.550962500339061 ], [ 21.1237478, 40.551194900339098 ], [ 21.1236137, 40.551366100339123 ], [ 21.1235386, 40.551533200339144 ], [ 21.1236781, 40.551590200339128 ], [ 21.1238873, 40.551590200339128 ], [ 21.1241233, 40.551655400339151 ], [ 21.1239892, 40.551834800339165 ], [ 21.1237693, 40.551944800339179 ], [ 21.1237585, 40.55205080033921 ], [ 21.1235547, 40.552067100339201 ], [ 21.1234099, 40.55216090033921 ], [ 21.1233723, 40.552258700339223 ], [ 21.1233777, 40.552405400339218 ], [ 21.1232811, 40.552544000339253 ], [ 21.1232167, 40.552686700339272 ], [ 21.1230504, 40.552686700339272 ], [ 21.1229056, 40.552645900339265 ], [ 21.122809, 40.552548100339266 ], [ 21.1227876, 40.552446200339247 ], [ 21.122852, 40.552336100339225 ], [ 21.1228412, 40.552242400339203 ], [ 21.1228412, 40.552107900339202 ], [ 21.1227876, 40.551989700339178 ], [ 21.1229378, 40.551961100339184 ], [ 21.1230719, 40.551969300339188 ], [ 21.1230987, 40.551895900339169 ], [ 21.1229432, 40.551895900339169 ], [ 21.1227554, 40.551842900339174 ], [ 21.1226696, 40.551875600339166 ], [ 21.1226696, 40.551977400339183 ], [ 21.1225837, 40.551977400339183 ], [ 21.1224979, 40.551895900339169 ], [ 21.1224335, 40.551806300339166 ], [ 21.1221921, 40.551834800339165 ], [ 21.1220473, 40.551814400339161 ], [ 21.12194, 40.551732900339154 ], [ 21.1220258, 40.551614700339144 ], [ 21.1221975, 40.551525000339133 ], [ 21.1222887, 40.55143940033912 ], [ 21.1221707, 40.551419000339123 ], [ 21.1219668, 40.551504600339115 ], [ 21.1217844, 40.551565800339134 ], [ 21.1217469, 40.55166360033914 ], [ 21.1216557, 40.551635100339141 ], [ 21.121484, 40.551773700339155 ], [ 21.1211461, 40.551977400339183 ], [ 21.1208671, 40.552124200339208 ], [ 21.1206686, 40.552283100339217 ], [ 21.1204809, 40.552389100339255 ], [ 21.1203307, 40.55253180033926 ], [ 21.1202824, 40.552686700339272 ], [ 21.1201966, 40.552792600339281 ], [ 21.1200678, 40.552788600339284 ], [ 21.1198801, 40.552992400339313 ], [ 21.1197621, 40.553163500339323 ], [ 21.1195904, 40.553347000339357 ], [ 21.1194938, 40.553534500339381 ], [ 21.1193061, 40.553807500339417 ], [ 21.1191934, 40.554019500339436 ], [ 21.1190593, 40.554304800339459 ], [ 21.1189306, 40.554569700339506 ], [ 21.1186999, 40.554891700339532 ], [ 21.1184424, 40.55520960033958 ], [ 21.1181956, 40.555527500339629 ], [ 21.1180669, 40.555739500339648 ], [ 21.1178309, 40.555939200339672 ], [ 21.1176485, 40.556098100339703 ], [ 21.1175305, 40.556269300339707 ], [ 21.1173534, 40.556460900339736 ], [ 21.1172837, 40.556619800339753 ], [ 21.1171335, 40.55683580033979 ], [ 21.1169296, 40.557015200339812 ], [ 21.1166936, 40.557198600339831 ], [ 21.1165005, 40.557276000339833 ], [ 21.1165863, 40.557426800339869 ], [ 21.1167902, 40.557581700339888 ], [ 21.1169887, 40.557691700339895 ], [ 21.1171389, 40.557724300339899 ], [ 21.1172783, 40.557809900339912 ], [ 21.1173266, 40.558005500339938 ], [ 21.1171979, 40.558013700339927 ], [ 21.1170477, 40.558160400339943 ], [ 21.1169189, 40.558201200339951 ], [ 21.1167794, 40.558347900339982 ], [ 21.1167633, 40.558547600339992 ], [ 21.1166507, 40.558690200340024 ], [ 21.116538, 40.558600600340007 ], [ 21.1163986, 40.558555700340008 ], [ 21.1163664, 40.558633200340005 ], [ 21.1162645, 40.558743200340025 ], [ 21.1159265, 40.558722800340014 ], [ 21.11561, 40.55864950034001 ], [ 21.1154544, 40.558568000340003 ], [ 21.1154062, 40.558372300339983 ], [ 21.1152935, 40.558372300339983 ], [ 21.1153686, 40.558621000340018 ], [ 21.1153686, 40.55877580034003 ], [ 21.1151969, 40.558669900340007 ], [ 21.1150682, 40.558612800340001 ], [ 21.1149985, 40.558486500339988 ], [ 21.1148751, 40.558494600339991 ], [ 21.1148965, 40.558621000340018 ], [ 21.1148, 40.558755500340027 ], [ 21.1148161, 40.558902200340043 ], [ 21.114977, 40.55911000034007 ], [ 21.1151057, 40.559134500340072 ], [ 21.1152077, 40.559260800340091 ], [ 21.1152667, 40.559383100340078 ], [ 21.1152613, 40.559656100340128 ], [ 21.1152613, 40.559835500340156 ], [ 21.114918, 40.560027000340185 ], [ 21.1146659, 40.560173700340187 ], [ 21.1144459, 40.560287800340213 ], [ 21.1142689, 40.560243000340208 ], [ 21.1141616, 40.560067800340185 ], [ 21.1140543, 40.559949600340182 ], [ 21.1140221, 40.560084100340184 ], [ 21.1140865, 40.560247100340213 ], [ 21.1141455, 40.56043460034023 ], [ 21.1141348, 40.560597600340252 ], [ 21.1139792, 40.560597600340252 ], [ 21.1140382, 40.560772800340274 ], [ 21.1142635, 40.56082580034029 ], [ 21.1142635, 40.560907300340304 ], [ 21.1141562, 40.561070300340297 ], [ 21.1140168, 40.561192600340334 ], [ 21.1140168, 40.561335200340345 ], [ 21.113947, 40.561559400340371 ], [ 21.1139739, 40.561787600340402 ], [ 21.1141348, 40.561946500340426 ], [ 21.1142206, 40.562011700340427 ], [ 21.114108, 40.562097300340433 ], [ 21.1138719, 40.562231800340449 ], [ 21.1136842, 40.562325500340471 ], [ 21.1135071, 40.562492600340491 ], [ 21.1134493, 40.562402700340478 ], [ 21.113482, 40.562314000340464 ], [ 21.1135614, 40.562239500340453 ], [ 21.1135614, 40.562143700340442 ], [ 21.11344, 40.562143700340442 ], [ 21.1133886, 40.562062100340434 ], [ 21.1132999, 40.562037300340428 ], [ 21.1132065, 40.562076300340429 ], [ 21.1131785, 40.562236000340462 ], [ 21.1131878, 40.56240630034047 ], [ 21.1132859, 40.562565900340509 ], [ 21.1132532, 40.562693600340516 ], [ 21.1130897, 40.562849700340536 ], [ 21.1128422, 40.562995200340559 ], [ 21.1127021, 40.563158400340576 ], [ 21.1126461, 40.563335800340589 ], [ 21.1124686, 40.563484800340611 ], [ 21.1121604, 40.563626700340635 ], [ 21.1120203, 40.563814700340657 ], [ 21.1119269, 40.563882100340656 ], [ 21.1118662, 40.564095000340672 ], [ 21.1116701, 40.564102100340691 ], [ 21.1116841, 40.564275900340704 ] ], [ [ 21.1173573, 40.557643200339896 ], [ 21.1174304, 40.557572100339883 ], [ 21.1174508, 40.557460900339862 ], [ 21.1175361, 40.557325000339844 ], [ 21.1176744, 40.557321900339851 ], [ 21.1178045, 40.557263300339855 ], [ 21.1178939, 40.557247800339837 ], [ 21.117898, 40.557349700339849 ], [ 21.1178776, 40.557473300339872 ], [ 21.1177597, 40.557541200339884 ], [ 21.1177597, 40.557624600339885 ], [ 21.1176744, 40.557729700339898 ], [ 21.1174873, 40.557794500339902 ], [ 21.1173938, 40.557779100339907 ], [ 21.1173207, 40.55772660033989 ], [ 21.1173573, 40.557643200339896 ] ], [ [ 21.1174995, 40.557939700339929 ], [ 21.1176784, 40.557936600339922 ], [ 21.1178451, 40.557899500339914 ], [ 21.1179996, 40.557813100339906 ], [ 21.1180321, 40.557989100339924 ], [ 21.1181053, 40.558115800339941 ], [ 21.1182679, 40.558189900339947 ], [ 21.1184387, 40.558177500339944 ], [ 21.1184265, 40.558304200339983 ], [ 21.1183655, 40.558393700339991 ], [ 21.1182273, 40.558443200339987 ], [ 21.1180443, 40.558461700339983 ], [ 21.1180443, 40.558542000340005 ], [ 21.1178817, 40.558480200339986 ], [ 21.1177719, 40.558369000339979 ], [ 21.1176825, 40.558211500339958 ], [ 21.1176174, 40.558100300339945 ], [ 21.1174711, 40.558010700339928 ], [ 21.1174995, 40.557939700339929 ] ], [ [ 21.1203468, 40.553236900339328 ], [ 21.1204916, 40.553143200339328 ], [ 21.1206365, 40.553241000339334 ], [ 21.1207759, 40.553367300339353 ], [ 21.1209476, 40.553355100339353 ], [ 21.1211622, 40.553322500339362 ], [ 21.1212158, 40.55344070033938 ], [ 21.1211997, 40.553591500339387 ], [ 21.1212695, 40.553681200339398 ], [ 21.1214036, 40.553807500339417 ], [ 21.1214733, 40.553954300339434 ], [ 21.1214733, 40.55408880033945 ], [ 21.1215591, 40.554154000339445 ], [ 21.1216557, 40.55408880033945 ], [ 21.1217469, 40.554178400339445 ], [ 21.1218542, 40.554325200339477 ], [ 21.1216772, 40.554455600339487 ], [ 21.1215216, 40.554614600339505 ], [ 21.1213821, 40.554679800339514 ], [ 21.1212265, 40.554822400339525 ], [ 21.1211622, 40.554700100339524 ], [ 21.1211193, 40.554581900339514 ], [ 21.1210066, 40.554581900339514 ], [ 21.1209798, 40.55442300033949 ], [ 21.1211729, 40.554345500339473 ], [ 21.1212802, 40.554251800339479 ], [ 21.1212695, 40.554137700339453 ], [ 21.1210871, 40.554190700339461 ], [ 21.1208457, 40.554174400339456 ], [ 21.1206418, 40.554092800339447 ], [ 21.1204487, 40.553974600339437 ], [ 21.1203146, 40.553811600339415 ], [ 21.1202878, 40.553603700339373 ], [ 21.1202663, 40.553379600339355 ], [ 21.1203468, 40.553236900339328 ] ], [ [ 21.1210442, 40.552568500339262 ], [ 21.1212695, 40.552470600339248 ], [ 21.1214733, 40.552356500339236 ], [ 21.121645, 40.552205700339215 ], [ 21.1217791, 40.552124200339208 ], [ 21.1219132, 40.552156800339198 ], [ 21.1220312, 40.552234200339221 ], [ 21.122058, 40.552336100339225 ], [ 21.1221921, 40.552389100339255 ], [ 21.1223799, 40.552389100339255 ], [ 21.1225194, 40.552385000339228 ], [ 21.1226535, 40.552421700339238 ], [ 21.1225784, 40.552486900339247 ], [ 21.122514, 40.552580700339256 ], [ 21.1223477, 40.552637800339269 ], [ 21.1221975, 40.552698900339273 ], [ 21.1220151, 40.552853800339285 ], [ 21.1218917, 40.552943400339302 ], [ 21.1216664, 40.553000500339309 ], [ 21.1214518, 40.553118700339333 ], [ 21.1212265, 40.553082000339323 ], [ 21.1210763, 40.553004600339307 ], [ 21.1210227, 40.552825200339285 ], [ 21.1209637, 40.552678500339269 ], [ 21.1210442, 40.552568500339262 ] ], [ [ 21.1213875, 40.553326600339354 ], [ 21.1215055, 40.553220600339344 ], [ 21.1216074, 40.553171700339334 ], [ 21.1217147, 40.553302100339359 ], [ 21.1218595, 40.553465200339367 ], [ 21.1220527, 40.553563000339373 ], [ 21.122219, 40.553705600339399 ], [ 21.122337, 40.553611900339384 ], [ 21.1223477, 40.553493700339367 ], [ 21.1224496, 40.553448900339369 ], [ 21.1225891, 40.55346920033935 ], [ 21.1228251, 40.553424400339367 ], [ 21.1229593, 40.553294000339349 ], [ 21.123029, 40.553118700339333 ], [ 21.1229324, 40.553016800339321 ], [ 21.1229324, 40.552898600339304 ], [ 21.1229914, 40.552760000339291 ], [ 21.1231309, 40.552760000339291 ], [ 21.1231738, 40.552849700339287 ], [ 21.1231524, 40.55299640033931 ], [ 21.1232489, 40.55315130033933 ], [ 21.1231041, 40.553212500339328 ], [ 21.1230719, 40.553314400339353 ], [ 21.1232597, 40.553326600339354 ], [ 21.1233884, 40.553216500339332 ], [ 21.1234903, 40.553281700339348 ], [ 21.1235118, 40.553404000339349 ], [ 21.1232865, 40.553501800339376 ], [ 21.1231416, 40.553554800339384 ], [ 21.1229485, 40.553681200339398 ], [ 21.1227822, 40.553689300339393 ], [ 21.1227018, 40.553750500339412 ], [ 21.1227018, 40.553872800339427 ], [ 21.1224925, 40.554007300339435 ], [ 21.1222511, 40.554084700339438 ], [ 21.1220419, 40.553978700339428 ], [ 21.1218703, 40.553889100339418 ], [ 21.1216664, 40.55377490033942 ], [ 21.121543, 40.553632300339395 ], [ 21.1214572, 40.553514100339378 ], [ 21.1213553, 40.553461100339383 ], [ 21.1213875, 40.553326600339354 ] ], [ [ 21.1255825, 40.553860500339411 ], [ 21.1256683, 40.5537179003394 ], [ 21.1256683, 40.553571100339369 ], [ 21.1255288, 40.553567100339372 ], [ 21.1255395, 40.553424400339367 ], [ 21.1257327, 40.553232800339352 ], [ 21.1258453, 40.553094300339325 ], [ 21.1259526, 40.552959800339302 ], [ 21.1259526, 40.552796700339286 ], [ 21.1258346, 40.55266220033927 ], [ 21.1257434, 40.552458400339255 ], [ 21.1257112, 40.552311700339224 ], [ 21.1257917, 40.552189400339223 ], [ 21.1257917, 40.552042700339193 ], [ 21.1257058, 40.551920400339178 ], [ 21.1257434, 40.551814400339161 ], [ 21.125738, 40.551651400339153 ], [ 21.1258024, 40.551602500339136 ], [ 21.1258882, 40.551573900339136 ], [ 21.1260062, 40.551732900339154 ], [ 21.1259258, 40.551916300339187 ], [ 21.1259258, 40.552181200339213 ], [ 21.1259955, 40.55229950033921 ], [ 21.1261082, 40.552482900339243 ], [ 21.1262423, 40.552637800339269 ], [ 21.1262637, 40.552874200339296 ], [ 21.1263442, 40.553008700339305 ], [ 21.1263442, 40.553224700339349 ], [ 21.1263174, 40.553501800339376 ], [ 21.1261994, 40.553701600339402 ], [ 21.126135, 40.553946100339424 ], [ 21.125958, 40.554076500339441 ], [ 21.1258614, 40.554304800339459 ], [ 21.1257273, 40.554484100339494 ], [ 21.1256039, 40.554634900339529 ], [ 21.1254644, 40.55463900033952 ], [ 21.1254805, 40.554467800339495 ], [ 21.1253947, 40.554288500339467 ], [ 21.1253947, 40.554027600339424 ], [ 21.1255825, 40.553860500339411 ] ], [ [ 21.125554, 40.55729020033985 ], [ 21.125582, 40.557173100339831 ], [ 21.1256894, 40.557063100339803 ], [ 21.1257828, 40.556977900339803 ], [ 21.1258995, 40.557031100339799 ], [ 21.1259883, 40.557059500339818 ], [ 21.1259276, 40.557187300339827 ], [ 21.1260163, 40.557212100339839 ], [ 21.126119, 40.557109200339831 ], [ 21.1262498, 40.557002800339809 ], [ 21.1263479, 40.556875000339794 ], [ 21.1263665, 40.556747300339772 ], [ 21.1264413, 40.556626700339748 ], [ 21.126586, 40.556726000339765 ], [ 21.1266374, 40.55682180033979 ], [ 21.1266701, 40.557041800339825 ], [ 21.1267308, 40.557293700339841 ], [ 21.1268476, 40.557492400339868 ], [ 21.126955, 40.557669800339895 ], [ 21.127011, 40.557921700339925 ], [ 21.1270764, 40.558081400339944 ], [ 21.1270764, 40.558226800339966 ], [ 21.1270484, 40.55848580033998 ], [ 21.127067, 40.558709400340007 ], [ 21.1271651, 40.558901000340043 ], [ 21.1272585, 40.559177700340072 ], [ 21.1272725, 40.559433100340108 ], [ 21.1272492, 40.559560900340117 ], [ 21.1270717, 40.55948640034012 ], [ 21.1268849, 40.559429600340103 ], [ 21.1267495, 40.559319600340096 ], [ 21.1265533, 40.559096100340057 ], [ 21.1264459, 40.558940000340044 ], [ 21.1264086, 40.558681000340023 ], [ 21.1265207, 40.558375800339981 ], [ 21.1266234, 40.558138100339953 ], [ 21.126572, 40.557939400339919 ], [ 21.1264273, 40.557754900339901 ], [ 21.1262731, 40.557637900339884 ], [ 21.126007, 40.557538500339867 ], [ 21.1257127, 40.55750660033987 ], [ 21.1254606, 40.557517200339866 ], [ 21.1254606, 40.557414300339858 ], [ 21.125554, 40.55729020033985 ] ], [ [ 21.1259191, 40.554458600339494 ], [ 21.1260533, 40.554341200339479 ], [ 21.1261387, 40.55423620033946 ], [ 21.1261387, 40.554091000339447 ], [ 21.1262444, 40.553992200339444 ], [ 21.1263826, 40.553964400339432 ], [ 21.1264639, 40.553819200339404 ], [ 21.1266184, 40.554010700339425 ], [ 21.126659, 40.554223800339464 ], [ 21.1266834, 40.554440100339491 ], [ 21.12672, 40.554643900339507 ], [ 21.1267973, 40.554782900339539 ], [ 21.1268176, 40.554968300339546 ], [ 21.1268542, 40.555128900339568 ], [ 21.1268867, 40.555267900339594 ], [ 21.1271103, 40.555277200339589 ], [ 21.1273055, 40.555264800339593 ], [ 21.1275047, 40.555267900339594 ], [ 21.1277201, 40.555255500339591 ], [ 21.1277161, 40.555348200339587 ], [ 21.1276795, 40.555434700339603 ], [ 21.1275534, 40.555564400339634 ], [ 21.1274396, 40.555607700339635 ], [ 21.127277, 40.555641600339641 ], [ 21.1272648, 40.555576800339622 ], [ 21.1271388, 40.555576800339622 ], [ 21.1271388, 40.555697200339637 ], [ 21.1271632, 40.555857900339667 ], [ 21.1270737, 40.555857900339667 ], [ 21.126964, 40.555839300339656 ], [ 21.126964, 40.555755900339648 ], [ 21.1269802, 40.555632400339647 ], [ 21.1269518, 40.555567500339642 ], [ 21.1267241, 40.555586000339638 ], [ 21.1265737, 40.555573700339629 ], [ 21.1265533, 40.55572810033965 ], [ 21.1265533, 40.555901100339668 ], [ 21.1263989, 40.55586400033966 ], [ 21.126224, 40.555789900339654 ], [ 21.1261021, 40.555675600339654 ], [ 21.1260736, 40.555515000339632 ], [ 21.1261224, 40.555382200339594 ], [ 21.1261346, 40.555252400339583 ], [ 21.1261021, 40.555141200339577 ], [ 21.1260411, 40.555030000339571 ], [ 21.1259598, 40.554854000339546 ], [ 21.125911, 40.554656300339524 ], [ 21.1259191, 40.554458600339494 ] ] ] } },
{ "type": "Feature", "properties": { "osm_id": 701193833, "name": null, "label": "landuse:farmland", "landuse": "farmland", "natural": null, "leisure": null }, "geometry": { "type": "Polygon", "coordinates": [ [ [ 21.1254606, 40.557517200339866 ], [ 21.1257127, 40.55750660033987 ], [ 21.126007, 40.557538500339867 ], [ 21.1262731, 40.557637900339884 ], [ 21.1264273, 40.557754900339901 ], [ 21.126572, 40.557939400339919 ], [ 21.1266234, 40.558138100339953 ], [ 21.1265207, 40.558375800339981 ], [ 21.1264086, 40.558681000340023 ], [ 21.1264459, 40.558940000340044 ], [ 21.1265533, 40.559096100340057 ], [ 21.1267495, 40.559319600340096 ], [ 21.1268849, 40.559429600340103 ], [ 21.1270717, 40.55948640034012 ], [ 21.1272492, 40.559560900340117 ], [ 21.1272725, 40.559433100340108 ], [ 21.1272585, 40.559177700340072 ], [ 21.1271651, 40.558901000340043 ], [ 21.127067, 40.558709400340007 ], [ 21.1270484, 40.55848580033998 ], [ 21.1270764, 40.558226800339966 ], [ 21.1270764, 40.558081400339944 ], [ 21.127011, 40.557921700339925 ], [ 21.126955, 40.557669800339895 ], [ 21.1268476, 40.557492400339868 ], [ 21.1267308, 40.557293700339841 ], [ 21.1266701, 40.557041800339825 ], [ 21.1266374, 40.55682180033979 ], [ 21.126586, 40.556726000339765 ], [ 21.1264413, 40.556626700339748 ], [ 21.1263665, 40.556747300339772 ], [ 21.1263479, 40.556875000339794 ], [ 21.1262498, 40.557002800339809 ], [ 21.126119, 40.557109200339831 ], [ 21.1260163, 40.557212100339839 ], [ 21.1259276, 40.557187300339827 ], [ 21.1259883, 40.557059500339818 ], [ 21.1258995, 40.557031100339799 ], [ 21.1257828, 40.556977900339803 ], [ 21.1256894, 40.557063100339803 ], [ 21.125582, 40.557173100339831 ], [ 21.125554, 40.55729020033985 ], [ 21.1254606, 40.557414300339858 ], [ 21.1254606, 40.557517200339866 ] ] ] } },
{ "type": "Feature", "properties": { "osm_id": 701193834, "name": null, "label": "landuse:farmland", "landuse": "farmland", "natural": null, "leisure": null }, "geometry": { "type": "Polygon", "coordinates": [ [ [ 21.1259598, 40.554854000339546 ], [ 21.1260411, 40.555030000339571 ], [ 21.1261021, 40.555141200339577 ], [ 21.1261346, 40.555252400339583 ], [ 21.1261224, 40.555382200339594 ], [ 21.1260736, 40.555515000339632 ], [ 21.1261021, 40.555675600339654 ], [ 21.126224, 40.555789900339654 ], [ 21.1263989, 40.55586400033966 ], [ 21.1265533, 40.555901100339668 ], [ 21.1265533, 40.55572810033965 ], [ 21.1265737, 40.555573700339629 ], [ 21.1267241, 40.555586000339638 ], [ 21.1269518, 40.555567500339642 ], [ 21.1269802, 40.555632400339647 ], [ 21.126964, 40.555755900339648 ], [ 21.126964, 40.555839300339656 ], [ 21.1270737, 40.555857900339667 ], [ 21.1271632, 40.555857900339667 ], [ 21.1271388, 40.555697200339637 ], [ 21.1271388, 40.555576800339622 ], [ 21.1272648, 40.555576800339622 ], [ 21.127277, 40.555641600339641 ], [ 21.1274396, 40.555607700339635 ], [ 21.1275534, 40.555564400339634 ], [ 21.1276795, 40.555434700339603 ], [ 21.1277161, 40.555348200339587 ], [ 21.1277201, 40.555255500339591 ], [ 21.1275047, 40.555267900339594 ], [ 21.1273055, 40.555264800339593 ], [ 21.1271103, 40.555277200339589 ], [ 21.1268867, 40.555267900339594 ], [ 21.1268542, 40.555128900339568 ], [ 21.1268176, 40.554968300339546 ], [ 21.1267973, 40.554782900339539 ], [ 21.12672, 40.554643900339507 ], [ 21.1266834, 40.554440100339491 ], [ 21.126659, 40.554223800339464 ], [ 21.1266184, 40.554010700339425 ], [ 21.1264639, 40.553819200339404 ], [ 21.1263826, 40.553964400339432 ], [ 21.1262444, 40.553992200339444 ], [ 21.1261387, 40.554091000339447 ], [ 21.1261387, 40.55423620033946 ], [ 21.1260533, 40.554341200339479 ], [ 21.1259191, 40.554458600339494 ], [ 21.125911, 40.554656300339524 ], [ 21.1259598, 40.554854000339546 ] ] ] } },
{ "type": "Feature", "properties": { "osm_id": 701193840, "name": null, "label": "landuse:meadow", "landuse": "meadow", "natural": null, "leisure": null }, "geometry": { "type": "Polygon", "coordinates": [ [ [ 21.1253947, 40.554288500339467 ], [ 21.1254805, 40.554467800339495 ], [ 21.1254644, 40.55463900033952 ], [ 21.1256039, 40.554634900339529 ], [ 21.1257273, 40.554484100339494 ], [ 21.1258614, 40.554304800339459 ], [ 21.125958, 40.554076500339441 ], [ 21.126135, 40.553946100339424 ], [ 21.1261994, 40.553701600339402 ], [ 21.1263174, 40.553501800339376 ], [ 21.1263442, 40.553224700339349 ], [ 21.1263442, 40.553008700339305 ], [ 21.1262637, 40.552874200339296 ], [ 21.1262423, 40.552637800339269 ], [ 21.1261082, 40.552482900339243 ], [ 21.1259955, 40.55229950033921 ], [ 21.1259258, 40.552181200339213 ], [ 21.1259258, 40.551916300339187 ], [ 21.1260062, 40.551732900339154 ], [ 21.1258882, 40.551573900339136 ], [ 21.1258024, 40.551602500339136 ], [ 21.125738, 40.551651400339153 ], [ 21.1257434, 40.551814400339161 ], [ 21.1257058, 40.551920400339178 ], [ 21.1257917, 40.552042700339193 ], [ 21.1257917, 40.552189400339223 ], [ 21.1257112, 40.552311700339224 ], [ 21.1257434, 40.552458400339255 ], [ 21.1258346, 40.55266220033927 ], [ 21.1259526, 40.552796700339286 ], [ 21.1259526, 40.552959800339302 ], [ 21.1258453, 40.553094300339325 ], [ 21.1257327, 40.553232800339352 ], [ 21.1255395, 40.553424400339367 ], [ 21.1255288, 40.553567100339372 ], [ 21.1256683, 40.553571100339369 ], [ 21.1256683, 40.5537179003394 ], [ 21.1255825, 40.553860500339411 ], [ 21.1253947, 40.554027600339424 ], [ 21.1253947, 40.554288500339467 ] ] ] } },
{ "type": "Feature", "properties": { "osm_id": 138577571, "name": "Λίμνη-Βουνό Καστοριάς", "label": "leisure:nature_reserve", "landuse": null, "natural": null, "leisure": "nature_reserve" }, "geometry": { "type": "Polygon", "coordinates": [ [ [ 21.1418316, 40.560933000340299 ], [ 21.1418397, 40.561640300340379 ], [ 21.1418491, 40.562437700340482 ], [ 21.141949122064666, 40.562845970020632 ], [ 21.141949122064666, 40.560340400226394 ], [ 21.1418316, 40.560933000340299 ] ] ] } }
]
}
