{
"type": "FeatureCollection",
"name": "patch_46522_point",
"crs": { "type": "name", "properties": { "name": "urn:ogc:def:crs:OGC:1.3:CRS84" } },
"features": [
{ "type": "Feature", "properties": { "@type": "node", "@id": 1361205842, "access": null, "amenity": "restaurant", "area": null, "barrier": null, "building": null, "created_by": null, "denomination": null, "denotation": null, "direction": null, "ele": null, "height": null, "highway": null, "historic": null, "historic:civilization": null, "image": null, "int_name": "Aerostato", "landuse": null, "lane_markings": null, "lanes": null, "leaf_cycle": null, "leisure": null, "lit": null, "man_made": null, "material": null, "name": "Αερόστατο", "name:el": null, "name:en": null, "natural": null, "noexit": null, "place": null, "pump": null, "ref": null, "reg_ref": null, "religion": null, "seamark:harbour:category": null, "seamark:type": null, "service": null, "smoothness": null, "source": null, "surface": null, "tourism": null, "tracktype": null, "wheelchair": null, "width": null, "label": "amenity:restaurant" }, "geometry": { "type": "Point", "coordinates": [ 19.8393422, 39.5648214 ] } },
{ "type": "Feature", "properties": { "@type": "node", "@id": 5014160448, "access": null, "amenity": null, "area": null, "barrier": null, "building": null, "created_by": null, "denomination": null, "denotation": null, "direction": null, "ele": null, "height": null, "highway": null, "historic": null, "historic:civilization": null, "image": null, "int_name": null, "landuse": null, "lane_markings": null, "lanes": null, "leaf_cycle": null, "leisure": "marina", "lit": null, "man_made": null, "material": null, "name": "Κυραδικιά", "name:el": "Κυραδικιά", "name:en": "Kyradikia", "natural": null, "noexit": null, "place": null, "pump": null, "ref": null, "reg_ref": null, "religion": null, "seamark:harbour:category": "marina", "seamark:type": "harbour", "service": null, "smoothness": null, "source": null, "surface": null, "tourism": null, "tracktype": null, "wheelchair": null, "width": null, "label": "leisure:marina" }, "geometry": { "type": "Point", "coordinates": [ 19.8298189, 39.5683127 ] } },
{ "type": "Feature", "properties": { "@type": "node", "@id": 8493953659, "access": null, "amenity": null, "area": null, "barrier": null, "building": null, "created_by": null, "denomination": null, "denotation": null, "direction": null, "ele": "245", "height": null, "highway": null, "historic": null, "historic:civilization": null, "image": null, "int_name": null, "landuse": null, "lane_markings": null, "lanes": null, "leaf_cycle": null, "leisure": null, "lit": null, "man_made": null, "material": null, "name": null, "name:el": null, "name:en": null, "natural": "peak", "noexit": null, "place": null, "pump": null, "ref": null, "reg_ref": null, "religion": null, "seamark:harbour:category": null, "seamark:type": null, "service": null, "smoothness": null, "source": null, "surface": null, "tourism": null, "tracktype": null, "wheelchair": null, "width": null, "label": "natural:peak" }, "geometry": { "type": "Point", "coordinates": [ 19.8390105, 39.5698722 ] } },
{ "type": "Feature", "properties": { "@type": "node", "@id": 8894278683, "access": null, "amenity": null, "area": null, "barrier": null, "building": null, "created_by": null, "denomination": null, "denotation": null, "direction": "165", "ele": null, "height": null, "highway": null, "historic": null, "historic:civilization": null, "image": null, "int_name": null, "landuse": null, "lane_markings": null, "lanes": null, "leaf_cycle": null, "leisure": null, "lit": null, "man_made": null, "material": null, "name": null, "name:el": null, "name:en": null, "natural": null, "noexit": null, "place": null, "pump": null, "ref": null, "reg_ref": null, "religion": null, "seamark:harbour:category": null, "seamark:type": null, "service": null, "smoothness": null, "source": null, "surface": null, "tourism": "viewpoint", "tracktype": null, "wheelchair": null, "width": null, "label": "tourism:viewpoint" }, "geometry": { "type": "Point", "coordinates": [ 19.8367508, 39.5643632 ] } },
{ "type": "Feature", "properties": { "@type": "node", "@id": 8894278690, "access": null, "amenity": "parking", "area": null, "barrier": null, "building": null, "created_by": null, "denomination": null, "denotation": null, "direction": null, "ele": null, "height": null, "highway": null, "historic": null, "historic:civilization": null, "image": null, "int_name": null, "landuse": null, "lane_markings": null, "lanes": null, "leaf_cycle": null, "leisure": null, "lit": null, "man_made": null, "material": null, "name": null, "name:el": null, "name:en": null, "natural": null, "noexit": null, "place": null, "pump": null, "ref": null, "reg_ref": null, "religion": null, "seamark:harbour:category": null, "seamark:type": null, "service": null, "smoothness": null, "source": null, "surface": null, "tourism": null, "tracktype": null, "wheelchair": null, "width": null, "label": "amenity:parking" }, "geometry": { "type": "Point", "coordinates": [ 19.8368678, 39.5644373 ] } },
{ "type": "Feature", "properties": { "@type": "node", "@id": 9214803183, "access": null, "amenity": "place_of_worship", "area": null, "barrier": null, "building": null, "created_by": null, "denomination": "greek_orthodox", "denotation": null, "direction": null, "ele": null, "height": null, "highway": null, "historic": null, "historic:civilization": null, "image": null, "int_name": null, "landuse": null, "lane_markings": null, "lanes": null, "leaf_cycle": null, "leisure": null, "lit": null, "man_made": null, "material": null, "name": "Ἱερὸς Ναὸς Ἀγίας Τριάδος", "name:el": "Ἱερὸς Ναὸς Ἀγίας Τριάδος", "name:en": "Chapel of Holy Trinity", "natural": null, "noexit": null, "place": null, "pump": null, "ref": null, "reg_ref": null, "religion": "christian", "seamark:harbour:category": null, "seamark:type": null, "service": null, "smoothness": null, "source": null, "surface": null, "tourism": null, "tracktype": null, "wheelchair": null, "width": null, "label": "amenity:place_of_worship" }, "geometry": { "type": "Point", "coordinates": [ 19.8398652, 39.5647595 ] } },
{ "type": "Feature", "properties": { "@type": "node", "@id": 11927510395, "access": null, "amenity": "drinking_water", "area": null, "barrier": null, "building": null, "created_by": null, "denomination": null, "denotation": null, "direction": null, "ele": null, "height": null, "highway": null, "historic": null, "historic:civilization": null, "image": null, "int_name": null, "landuse": null, "lane_markings": null, "lanes": null, "leaf_cycle": null, "leisure": null, "lit": null, "man_made": "water_tap", "material": null, "name": null, "name:el": null, "name:en": null, "natural": null, "noexit": null, "place": null, "pump": null, "ref": null, "reg_ref": null, "religion": null, "seamark:harbour:category": null, "seamark:type": null, "service": null, "smoothness": null, "source": null, "surface": null, "tourism": null, "tracktype": null, "wheelchair": null, "width": null, "label": "amenity:drinking_water" }, "geometry": { "type": "Point", "coordinates": [ 19.8397425, 39.5656067 ] } },
{ "type": "Feature", "properties": { "@type": "node", "@id": 12087869773, "access": "private", "amenity": null, "area": null, "barrier": null, "building": null, "created_by": null, "denomination": null, "denotation": null, "direction": null, "ele": null, "height": null, "highway": null, "historic": "ruins", "historic:civilization": "modern", "image": null, "int_name": null, "landuse": null, "lane_markings": null, "lanes": null, "leaf_cycle": null, "leisure": null, "lit": null, "man_made": null, "material": null, "name": "Ἰερὰ Μονὴ Ἀρχαγγέλων", "name:el": "Ἰερὰ Μονὴ Ἀρχαγγέλων", "name:en": "Holy Monastery of Archangels", "natural": null, "noexit": null, "place": null, "pump": null, "ref": null, "reg_ref": null, "religion": null, "seamark:harbour:category": null, "seamark:type": null, "service": null, "smoothness": null, "source": null, "surface": null, "tourism": null, "tracktype": null, "wheelchair": null, "width": null, "label": "historic:ruins" }, "geometry": { "type": "Point", "coordinates": [ 19.8395998, 39.5699639 ] } }
]
}
