{
"type": "FeatureCollection",
"name": "patch_46522_polygon",
"crs": { "type": "name", "properties": { "name": "urn:ogc:def:crs:OGC:1.3:CRS84" } },
"features": [
{ "type": "Feature", "properties": { "@type": "way", "@id": 228179094, "access": null, "amenity": null, "area": null, "barrier": null, "building": null, "created_by": null, "denomination": null, "denotation": null, "direction": null, "ele": null, "height": null, "highway": null, "historic": null, "historic:civilization": null, "image": null, "int_name": null, "landuse": "residential", "lane_markings": null, "lanes": null, "leaf_cycle": null, "leisure": null, "lit": null, "man_made": null, "material": null, "name": null, "name:el": null, "name:en": null, "natural": null, "noexit": null, "place": null, "pump": null, "ref": null, "reg_ref": null, "religion": null, "seamark:harbour:category": null, "seamark:type": null, "service": null, "smoothness": null, "source": "Bing", "surface": null, "tourism": null, "tracktype": null, "wheelchair": null, "width": null, "label": "landuse:residential" }, "geometry": { "type": "Polygon", "coordinates": [ [ [ 19.844061, 39.5688006 ], [ 19.8438943, 39.5693742 ], [ 19.8439962, 39.5697422 ], [ 19.844423762719522, 39.570054066253022 ], [ 19.844423762719522, 39.569029964793025 ], [ 19.844061, 39.5688006 ] ] ] } },
{ "type": "Feature", "properties": { "@type": "way", "@id": 371216239, "access": null, "amenity": null, "area": null, "barrier": null, "building": "yes", "created_by": null, "denomination": null, "denotation": null, "direction": null, "ele": null, "height": null, "highway": null, "historic": null, "historic:civilization": null, "image": null, "int_name": null, "landuse": null, "lane_markings": null, "lanes": null, "leaf_cycle": null, "leisure": null, "lit": null, "man_made": null, "material": null, "name": null, "name:el": null, "name:en": null, "natural": null, "noexit": null, "place": null, "pump": null, "ref": null, "reg_ref": null, "religion": null, "seamark:harbour:category": null, "seamark:type": null, "service": null, "smoothness": null, "source": null, "surface": null, "tourism": null, "tracktype": null, "wheelchair": null, "width": null, "label": "building:yes" }, "geometry": { "type": "Polygon", "coordinates": [ [ [ 19.83847, 39.56431 ], [ 19.8384811, 39.5643096 ], [ 19.8384823, 39.5643297 ], [ 19.838537, 39.5643278 ], [ 19.8385356, 39.5643039 ], [ 19.8386694, 39.5642991 ], [ 19.8386619, 39.5641723 ], [ 19.8385752, 39.5641753 ], [ 19.8385791, 39.5642401 ], [ 19.8384661, 39.564244 ], [ 19.83847, 39.56431 ] ] ] } },
{ "type": "Feature", "properties": { "@type": "way", "@id": 371216240, "access": null, "amenity": null, "area": null, "barrier": null, "building": "yes", "created_by": null, "denomination": null, "denotation": null, "direction": null, "ele": null, "height": null, "highway": null, "historic": null, "historic:civilization": null, "image": null, "int_name": null, "landuse": null, "lane_markings": null, "lanes": null, "leaf_cycle": null, "leisure": null, "lit": null, "man_made": null, "material": null, "name": null, "name:el": null, "name:en": null, "natural": null, "noexit": null, "place": null, "pump": null, "ref": null, "reg_ref": null, "religion": null, "seamark:harbour:category": null, "seamark:type": null, "service": null, "smoothness": null, "source": null, "surface": null, "tourism": null, "tracktype": null, "wheelchair": null, "width": null, "label": "building:yes" }, "geometry": { "type": "Polygon", "coordinates": [ [ [ 19.8392567, 39.5649075 ], [ 19.8393711, 39.5649089 ], [ 19.8393905, 39.5649324 ], [ 19.8395262, 39.5649246 ], [ 19.8395262, 39.5649061 ], [ 19.8396092, 39.5648932 ], [ 19.8396, 39.5648278 ], [ 19.8395169, 39.5648321 ], [ 19.8395243, 39.5647936 ], [ 19.83936, 39.5647993 ], [ 19.8393545, 39.5647737 ], [ 19.8392382, 39.564778 ], [ 19.8392567, 39.5649075 ] ] ] } },
{ "type": "Feature", "properties": { "@type": "way", "@id": 371216241, "access": null, "amenity": null, "area": null, "barrier": null, "building": "yes", "created_by": null, "denomination": null, "denotation": null, "direction": null, "ele": null, "height": null, "highway": null, "historic": null, "historic:civilization": null, "image": null, "int_name": null, "landuse": null, "lane_markings": null, "lanes": null, "leaf_cycle": null, "leisure": null, "lit": null, "man_made": null, "material": null, "name": null, "name:el": null, "name:en": null, "natural": null, "noexit": null, "place": null, "pump": null, "ref": null, "reg_ref": null, "religion": null, "seamark:harbour:category": null, "seamark:type": null, "service": null, "smoothness": null, "source": null, "surface": null, "tourism": null, "tracktype": null, "wheelchair": null, "width": null, "label": "building:yes" }, "geometry": { "type": "Polygon", "coordinates": [ [ [ 19.8385358, 39.5649873 ], [ 19.8385437, 39.5648324 ], [ 19.838441, 39.5648293 ], [ 19.8384331, 39.5649841 ], [ 19.8385358, 39.5649873 ] ] ] } },
{ "type": "Feature", "properties": { "@type": "way", "@id": 371216243, "access": null, "amenity": null, "area": null, "barrier": null, "building": "yes", "created_by": null, "denomination": null, "denotation": null, "direction": null, "ele": null, "height": null, "highway": null, "historic": null, "historic:civilization": null, "image": null, "int_name": null, "landuse": null, "lane_markings": null, "lanes": null, "leaf_cycle": null, "leisure": null, "lit": null, "man_made": null, "material": null, "name": null, "name:el": null, "name:en": null, "natural": null, "noexit": null, "place": null, "pump": null, "ref": null, "reg_ref": null, "religion": null, "seamark:harbour:category": null, "seamark:type": null, "service": null, "smoothness": null, "source": null, "surface": null, "tourism": null, "tracktype": null, "wheelchair": null, "width": null, "label": "building:yes" }, "geometry": { "type": "Polygon", "coordinates": [ [ [ 19.8390509, 39.5655252 ], [ 19.8391188, 39.5654629 ], [ 19.8389831, 39.5653552 ], [ 19.8388799, 39.5654327 ], [ 19.8390509, 39.5655252 ] ] ] } },
{ "type": "Feature", "properties": { "@type": "way", "@id": 371216244, "access": null, "amenity": null, "area": null, "barrier": null, "building": "yes", "created_by": null, "denomination": null, "denotation": null, "direction": null, "ele": null, "height": null, "highway": null, "historic": null, "historic:civilization": null, "image": null, "int_name": null, "landuse": null, "lane_markings": null, "lanes": null, "leaf_cycle": null, "leisure": null, "lit": null, "man_made": null, "material": null, "name": null, "name:el": null, "name:en": null, "natural": null, "noexit": null, "place": null, "pump": null, "ref": null, "reg_ref": null, "religion": null, "seamark:harbour:category": null, "seamark:type": null, "service": null, "smoothness": null, "source": null, "surface": null, "tourism": null, "tracktype": null, "wheelchair": null, "width": null, "label": "building:yes" }, "geometry": { "type": "Polygon", "coordinates": [ [ [ 19.8409475, 39.5663634 ], [ 19.8410206, 39.5662729 ], [ 19.8408353, 39.5661924 ], [ 19.8407648, 39.5662809 ], [ 19.8409475, 39.5663634 ] ] ] } },
{ "type": "Feature", "properties": { "@type": "way", "@id": 371216245, "access": null, "amenity": null, "area": null, "barrier": null, "building": "yes", "created_by": null, "denomination": null, "denotation": null, "direction": null, "ele": null, "height": null, "highway": null, "historic": null, "historic:civilization": null, "image": null, "int_name": null, "landuse": null, "lane_markings": null, "lanes": null, "leaf_cycle": null, "leisure": null, "lit": null, "man_made": null, "material": null, "name": null, "name:el": null, "name:en": null, "natural": null, "noexit": null, "place": null, "pump": null, "ref": null, "reg_ref": null, "religion": null, "seamark:harbour:category": null, "seamark:type": null, "service": null, "smoothness": null, "source": null, "surface": null, "tourism": null, "tracktype": null, "wheelchair": null, "width": null, "label": "building:yes" }, "geometry": { "type": "Polygon", "coordinates": [ [ [ 19.8376782, 39.5642198 ], [ 19.8376866, 39.5641662 ], [ 19.8375632, 39.5641547 ], [ 19.8375548, 39.5642083 ], [ 19.8376782, 39.5642198 ] ] ] } },
{ "type": "Feature", "properties": { "@type": "way", "@id": 371216246, "access": null, "amenity": null, "area": null, "barrier": null, "building": "yes", "created_by": null, "denomination": null, "denotation": null, "direction": null, "ele": null, "height": null, "highway": null, "historic": null, "historic:civilization": null, "image": null, "int_name": null, "landuse": null, "lane_markings": null, "lanes": null, "leaf_cycle": null, "leisure": null, "lit": null, "man_made": null, "material": null, "name": null, "name:el": null, "name:en": null, "natural": null, "noexit": null, "place": null, "pump": null, "ref": null, "reg_ref": null, "religion": null, "seamark:harbour:category": null, "seamark:type": null, "service": null, "smoothness": null, "source": null, "surface": null, "tourism": null, "tracktype": null, "wheelchair": null, "width": null, "label": "building:yes" }, "geometry": { "type": "Polygon", "coordinates": [ [ [ 19.8397349, 39.5657446 ], [ 19.8398667, 39.5656772 ], [ 19.8397963, 39.5656057 ], [ 19.8396488, 39.5656691 ], [ 19.8397349, 39.5657446 ] ] ] } },
{ "type": "Feature", "properties": { "@type": "way", "@id": 371216247, "access": null, "amenity": null, "area": null, "barrier": null, "building": "yes", "created_by": null, "denomination": null, "denotation": null, "direction": null, "ele": null, "height": null, "highway": null, "historic": null, "historic:civilization": null, "image": null, "int_name": null, "landuse": null, "lane_markings": null, "lanes": null, "leaf_cycle": null, "leisure": null, "lit": null, "man_made": null, "material": null, "name": null, "name:el": null, "name:en": null, "natural": null, "noexit": null, "place": null, "pump": null, "ref": null, "reg_ref": null, "religion": null, "seamark:harbour:category": null, "seamark:type": null, "service": null, "smoothness": null, "source": null, "surface": null, "tourism": null, "tracktype": null, "wheelchair": null, "width": null, "label": "building:yes" }, "geometry": { "type": "Polygon", "coordinates": [ [ [ 19.8412985, 39.5630644 ], [ 19.841501, 39.5629979 ], [ 19.8414654, 39.5629336 ], [ 19.8412629, 39.563 ], [ 19.8412985, 39.5630644 ] ] ] } },
{ "type": "Feature", "properties": { "@type": "way", "@id": 371216248, "access": null, "amenity": null, "area": null, "barrier": null, "building": "yes", "created_by": null, "denomination": null, "denotation": null, "direction": null, "ele": null, "height": null, "highway": null, "historic": null, "historic:civilization": null, "image": null, "int_name": null, "landuse": null, "lane_markings": null, "lanes": null, "leaf_cycle": null, "leisure": null, "lit": null, "man_made": null, "material": null, "name": null, "name:el": null, "name:en": null, "natural": null, "noexit": null, "place": null, "pump": null, "ref": null, "reg_ref": null, "religion": null, "seamark:harbour:category": null, "seamark:type": null, "service": null, "smoothness": null, "source": null, "surface": null, "tourism": null, "tracktype": null, "wheelchair": null, "width": null, "label": "building:yes" }, "geometry": { "type": "Polygon", "coordinates": [ [ [ 19.8388565, 39.5660918 ], [ 19.8389739, 39.5660274 ], [ 19.8389087, 39.5659187 ], [ 19.8387625, 39.5659831 ], [ 19.8388565, 39.5660918 ] ] ] } },
{ "type": "Feature", "properties": { "@type": "way", "@id": 371216249, "access": null, "amenity": null, "area": null, "barrier": null, "building": "yes", "created_by": null, "denomination": null, "denotation": null, "direction": null, "ele": null, "height": null, "highway": null, "historic": null, "historic:civilization": null, "image": null, "int_name": null, "landuse": null, "lane_markings": null, "lanes": null, "leaf_cycle": null, "leisure": null, "lit": null, "man_made": null, "material": null, "name": null, "name:el": null, "name:en": null, "natural": null, "noexit": null, "place": null, "pump": null, "ref": null, "reg_ref": null, "religion": null, "seamark:harbour:category": null, "seamark:type": null, "service": null, "smoothness": null, "source": null, "surface": null, "tourism": null, "tracktype": null, "wheelchair": null, "width": null, "label": "building:yes" }, "geometry": { "type": "Polygon", "coordinates": [ [ [ 19.8414148, 39.5663956 ], [ 19.8414827, 39.5663212 ], [ 19.8413548, 39.5662729 ], [ 19.8413078, 39.5663554 ], [ 19.8414148, 39.5663956 ] ] ] } },
{ "type": "Feature", "properties": { "@type": "way", "@id": 371216250, "access": null, "amenity": null, "area": null, "barrier": null, "building": "yes", "created_by": null, "denomination": null, "denotation": null, "direction": null, "ele": null, "height": null, "highway": null, "historic": null, "historic:civilization": null, "image": null, "int_name": null, "landuse": null, "lane_markings": null, "lanes": null, "leaf_cycle": null, "leisure": null, "lit": null, "man_made": null, "material": null, "name": null, "name:el": null, "name:en": null, "natural": null, "noexit": null, "place": null, "pump": null, "ref": null, "reg_ref": null, "religion": null, "seamark:harbour:category": null, "seamark:type": null, "service": null, "smoothness": null, "source": null, "surface": null, "tourism": null, "tracktype": null, "wheelchair": null, "width": null, "label": "building:yes" }, "geometry": { "type": "Polygon", "coordinates": [ [ [ 19.8378005, 39.5616834 ], [ 19.8378234, 39.5616664 ], [ 19.8378511, 39.5616886 ], [ 19.8379046, 39.561649 ], [ 19.8378067, 39.5615704 ], [ 19.8377303, 39.5616271 ], [ 19.8378005, 39.5616834 ] ] ] } },
{ "type": "Feature", "properties": { "@type": "way", "@id": 371216251, "access": null, "amenity": null, "area": null, "barrier": null, "building": "yes", "created_by": null, "denomination": null, "denotation": null, "direction": null, "ele": null, "height": null, "highway": null, "historic": null, "historic:civilization": null, "image": null, "int_name": null, "landuse": null, "lane_markings": null, "lanes": null, "leaf_cycle": null, "leisure": null, "lit": null, "man_made": null, "material": null, "name": null, "name:el": null, "name:en": null, "natural": null, "noexit": null, "place": null, "pump": null, "ref": null, "reg_ref": null, "religion": null, "seamark:harbour:category": null, "seamark:type": null, "service": null, "smoothness": null, "source": null, "surface": null, "tourism": null, "tracktype": null, "wheelchair": null, "width": null, "label": "building:yes" }, "geometry": { "type": "Polygon", "coordinates": [ [ [ 19.8398145, 39.5660193 ], [ 19.8398694, 39.5660012 ], [ 19.8399007, 39.5660334 ], [ 19.8399842, 39.5660012 ], [ 19.8399111, 39.5659086 ], [ 19.8397728, 39.5659388 ], [ 19.8398145, 39.5660193 ] ] ] } },
{ "type": "Feature", "properties": { "@type": "way", "@id": 371216252, "access": null, "amenity": null, "area": null, "barrier": null, "building": "yes", "created_by": null, "denomination": null, "denotation": null, "direction": null, "ele": null, "height": null, "highway": null, "historic": null, "historic:civilization": null, "image": null, "int_name": null, "landuse": null, "lane_markings": null, "lanes": null, "leaf_cycle": null, "leisure": null, "lit": null, "man_made": null, "material": null, "name": null, "name:el": null, "name:en": null, "natural": null, "noexit": null, "place": null, "pump": null, "ref": null, "reg_ref": null, "religion": null, "seamark:harbour:category": null, "seamark:type": null, "service": null, "smoothness": null, "source": null, "surface": null, "tourism": null, "tracktype": null, "wheelchair": null, "width": null, "label": "building:yes" }, "geometry": { "type": "Polygon", "coordinates": [ [ [ 19.8385262, 39.5640302 ], [ 19.8385376, 39.5639597 ], [ 19.838454, 39.5639517 ], [ 19.8384573, 39.5639315 ], [ 19.8383445, 39.5639206 ], [ 19.8383298, 39.5640113 ], [ 19.8385262, 39.5640302 ] ] ] } },
{ "type": "Feature", "properties": { "@type": "way", "@id": 619707324, "access": null, "amenity": null, "area": null, "barrier": null, "building": null, "created_by": null, "denomination": null, "denotation": null, "direction": null, "ele": null, "height": null, "highway": null, "historic": null, "historic:civilization": null, "image": null, "int_name": null, "landuse": "residential", "lane_markings": null, "lanes": null, "leaf_cycle": null, "leisure": null, "lit": null, "man_made": null, "material": null, "name": null, "name:el": null, "name:en": null, "natural": null, "noexit": null, "place": null, "pump": null, "ref": null, "reg_ref": null, "religion": null, "seamark:harbour:category": null, "seamark:type": null, "service": null, "smoothness": null, "source": null, "surface": null, "tourism": null, "tracktype": null, "wheelchair": null, "width": null, "label": "landuse:residential" }, "geometry": { "type": "Polygon", "coordinates": [ [ [ 19.8430306, 39.559871 ], [ 19.8432371, 39.5598131 ], [ 19.8433873, 39.5598772 ], [ 19.843795, 39.5596642 ], [ 19.8437749, 39.5594491 ], [ 19.8438849, 39.559325 ], [ 19.8437711, 39.5591645 ], [ 19.8436116, 39.5593046 ], [ 19.8432289, 39.5592535 ], [ 19.8426632, 39.5595099 ], [ 19.8430306, 39.559871 ] ] ] } },
{ "type": "Feature", "properties": { "@type": "way", "@id": 619707325, "access": null, "amenity": null, "area": null, "barrier": null, "building": null, "created_by": null, "denomination": null, "denotation": null, "direction": null, "ele": null, "height": null, "highway": null, "historic": null, "historic:civilization": null, "image": null, "int_name": null, "landuse": null, "lane_markings": null, "lanes": null, "leaf_cycle": null, "leisure": null, "lit": null, "man_made": null, "material": null, "name": null, "name:el": null, "name:en": null, "natural": "wood", "noexit": null, "place": null, "pump": null, "ref": null, "reg_ref": null, "religion": null, "seamark:harbour:category": null, "seamark:type": null, "service": null, "smoothness": null, "source": null, "surface": null, "tourism": null, "tracktype": null, "wheelchair": null, "width": null, "label": "natural:wood" }, "geometry": { "type": "Polygon", "coordinates": [ [ [ 19.8419899, 39.5576976 ], [ 19.842132, 39.5578382 ], [ 19.8422098, 39.5579126 ], [ 19.8424351, 39.5577927 ], [ 19.8427114, 39.5577824 ], [ 19.8429689, 39.5579333 ], [ 19.8429635, 39.5580615 ], [ 19.8430252, 39.558045 ], [ 19.8431566, 39.557983 ], [ 19.8432425, 39.5580657 ], [ 19.8430923, 39.5582869 ], [ 19.8428026, 39.5582487 ], [ 19.8427395, 39.5584017 ], [ 19.842765, 39.5584968 ], [ 19.8428576, 39.5585589 ], [ 19.8429635, 39.5586695 ], [ 19.8430386, 39.5588246 ], [ 19.843103, 39.5588515 ], [ 19.8432317, 39.5588639 ], [ 19.8433605, 39.5584793 ], [ 19.8435241, 39.5582497 ], [ 19.8435348, 39.5581505 ], [ 19.8433658, 39.558045 ], [ 19.8433524, 39.5577844 ], [ 19.8431191, 39.5575528 ], [ 19.8431325, 39.5574081 ], [ 19.8426738, 39.5571703 ], [ 19.8424083, 39.557162 ], [ 19.8422232, 39.5573005 ], [ 19.8420811, 39.5574515 ], [ 19.8419255, 39.5575611 ], [ 19.8419899, 39.5576976 ] ] ] } },
{ "type": "Feature", "properties": { "@type": "way", "@id": 619707326, "access": null, "amenity": null, "area": null, "barrier": null, "building": null, "created_by": null, "denomination": null, "denotation": null, "direction": null, "ele": null, "height": null, "highway": null, "historic": null, "historic:civilization": null, "image": null, "int_name": null, "landuse": null, "lane_markings": null, "lanes": null, "leaf_cycle": null, "leisure": null, "lit": null, "man_made": null, "material": null, "name": null, "name:el": null, "name:en": null, "natural": "wood", "noexit": null, "place": null, "pump": null, "ref": null, "reg_ref": null, "religion": null, "seamark:harbour:category": null, "seamark:type": null, "service": null, "smoothness": null, "source": null, "surface": null, "tourism": null, "tracktype": null, "wheelchair": null, "width": null, "label": "natural:wood" }, "geometry": { "type": "Polygon", "coordinates": [ [ [ 19.8409036, 39.5586881 ], [ 19.840858, 39.5589363 ], [ 19.8409089, 39.5590893 ], [ 19.8412254, 39.5591865 ], [ 19.8415366, 39.5592982 ], [ 19.8416921, 39.5594305 ], [ 19.841727, 39.5596063 ], [ 19.8417807, 39.5596456 ], [ 19.8418638, 39.5594408 ], [ 19.8423573, 39.559201 ], [ 19.8421052, 39.5590996 ], [ 19.8420677, 39.5590211 ], [ 19.8417968, 39.5589528 ], [ 19.8418075, 39.5587874 ], [ 19.8419389, 39.5586302 ], [ 19.8416787, 39.5585578 ], [ 19.8414682, 39.5584482 ], [ 19.8412093, 39.5584813 ], [ 19.8412147, 39.5584131 ], [ 19.8415433, 39.5582869 ], [ 19.8415741, 39.5581319 ], [ 19.8416841, 39.5580285 ], [ 19.8415714, 39.5579395 ], [ 19.8414078, 39.5580098 ], [ 19.8410967, 39.5582125 ], [ 19.8408446, 39.5583593 ], [ 19.8409036, 39.5586881 ] ] ] } },
{ "type": "Feature", "properties": { "@type": "way", "@id": 619707327, "access": null, "amenity": null, "area": null, "barrier": null, "building": "yes", "created_by": null, "denomination": null, "denotation": null, "direction": null, "ele": null, "height": null, "highway": null, "historic": null, "historic:civilization": null, "image": null, "int_name": null, "landuse": null, "lane_markings": null, "lanes": null, "leaf_cycle": null, "leisure": null, "lit": null, "man_made": null, "material": null, "name": null, "name:el": null, "name:en": null, "natural": null, "noexit": null, "place": null, "pump": null, "ref": null, "reg_ref": null, "religion": null, "seamark:harbour:category": null, "seamark:type": null, "service": null, "smoothness": null, "source": null, "surface": null, "tourism": null, "tracktype": null, "wheelchair": null, "width": null, "label": "building:yes" }, "geometry": { "type": "Polygon", "coordinates": [ [ [ 19.8421059, 39.5589691 ], [ 19.8421257, 39.5589509 ], [ 19.842164, 39.5589757 ], [ 19.8422473, 39.5588992 ], [ 19.842209, 39.5588744 ], [ 19.8422748, 39.558814 ], [ 19.8422098, 39.5587719 ], [ 19.8420409, 39.558927 ], [ 19.8421059, 39.5589691 ] ] ] } },
{ "type": "Feature", "properties": { "@type": "way", "@id": 619707328, "access": null, "amenity": null, "area": null, "barrier": null, "building": "yes", "created_by": null, "denomination": null, "denotation": null, "direction": null, "ele": null, "height": null, "highway": null, "historic": null, "historic:civilization": null, "image": null, "int_name": null, "landuse": null, "lane_markings": null, "lanes": null, "leaf_cycle": null, "leisure": null, "lit": null, "man_made": null, "material": null, "name": null, "name:el": null, "name:en": null, "natural": null, "noexit": null, "place": null, "pump": null, "ref": null, "reg_ref": null, "religion": null, "seamark:harbour:category": null, "seamark:type": null, "service": null, "smoothness": null, "source": null, "surface": null, "tourism": null, "tracktype": null, "wheelchair": null, "width": null, "label": "building:yes" }, "geometry": { "type": "Polygon", "coordinates": [ [ [ 19.8434118, 39.5597284 ], [ 19.8435537, 39.5596603 ], [ 19.8435072, 39.5596027 ], [ 19.8433653, 39.5596708 ], [ 19.8434118, 39.5597284 ] ] ] } },
{ "type": "Feature", "properties": { "@type": "way", "@id": 619707329, "access": null, "amenity": null, "area": null, "barrier": null, "building": "yes", "created_by": null, "denomination": null, "denotation": null, "direction": null, "ele": null, "height": null, "highway": null, "historic": null, "historic:civilization": null, "image": null, "int_name": null, "landuse": null, "lane_markings": null, "lanes": null, "leaf_cycle": null, "leisure": null, "lit": null, "man_made": null, "material": null, "name": null, "name:el": null, "name:en": null, "natural": null, "noexit": null, "place": null, "pump": null, "ref": null, "reg_ref": null, "religion": null, "seamark:harbour:category": null, "seamark:type": null, "service": null, "smoothness": null, "source": null, "surface": null, "tourism": null, "tracktype": null, "wheelchair": null, "width": null, "label": "building:yes" }, "geometry": { "type": "Polygon", "coordinates": [ [ [ 19.8429905, 39.5596798 ], [ 19.843131, 39.5596467 ], [ 19.8431045, 39.5595797 ], [ 19.8429639, 39.5596128 ], [ 19.8429905, 39.5596798 ] ] ] } },
{ "type": "Feature", "properties": { "@type": "way", "@id": 619707337, "access": null, "amenity": null, "area": null, "barrier": null, "building": null, "created_by": null, "denomination": null, "denotation": null, "direction": null, "ele": null, "height": null, "highway": null, "historic": null, "historic:civilization": null, "image": null, "int_name": null, "landuse": "farmyard", "lane_markings": null, "lanes": null, "leaf_cycle": null, "leisure": null, "lit": null, "man_made": null, "material": null, "name": null, "name:el": null, "name:en": null, "natural": null, "noexit": null, "place": null, "pump": null, "ref": null, "reg_ref": null, "religion": null, "seamark:harbour:category": null, "seamark:type": null, "service": null, "smoothness": null, "source": null, "surface": null, "tourism": null, "tracktype": null, "wheelchair": null, "width": null, "label": "landuse:farmyard" }, "geometry": { "type": "Polygon", "coordinates": [ [ [ 19.8418021, 39.5580574 ], [ 19.8419631, 39.5580243 ], [ 19.8421133, 39.558014 ], [ 19.8419738, 39.5577782 ], [ 19.8418196, 39.5575776 ], [ 19.8415768, 39.5578072 ], [ 19.8418021, 39.5580574 ] ] ] } },
{ "type": "Feature", "properties": { "@type": "way", "@id": 619707338, "access": null, "amenity": null, "area": null, "barrier": null, "building": "yes", "created_by": null, "denomination": null, "denotation": null, "direction": null, "ele": null, "height": null, "highway": null, "historic": null, "historic:civilization": null, "image": null, "int_name": null, "landuse": null, "lane_markings": null, "lanes": null, "leaf_cycle": null, "leisure": null, "lit": null, "man_made": null, "material": null, "name": null, "name:el": null, "name:en": null, "natural": null, "noexit": null, "place": null, "pump": null, "ref": null, "reg_ref": null, "religion": null, "seamark:harbour:category": null, "seamark:type": null, "service": null, "smoothness": null, "source": null, "surface": null, "tourism": null, "tracktype": null, "wheelchair": null, "width": null, "label": "building:yes" }, "geometry": { "type": "Polygon", "coordinates": [ [ [ 19.8417236, 39.5579427 ], [ 19.8417646, 39.5579261 ], [ 19.8417391, 39.5578889 ], [ 19.8416981, 39.5579055 ], [ 19.8417236, 39.5579427 ] ] ] } },
{ "type": "Feature", "properties": { "@type": "way", "@id": 619707340, "access": null, "amenity": null, "area": null, "barrier": null, "building": "yes", "created_by": null, "denomination": null, "denotation": null, "direction": null, "ele": null, "height": null, "highway": null, "historic": null, "historic:civilization": null, "image": null, "int_name": null, "landuse": null, "lane_markings": null, "lanes": null, "leaf_cycle": null, "leisure": null, "lit": null, "man_made": null, "material": null, "name": null, "name:el": null, "name:en": null, "natural": null, "noexit": null, "place": null, "pump": null, "ref": null, "reg_ref": null, "religion": null, "seamark:harbour:category": null, "seamark:type": null, "service": null, "smoothness": null, "source": null, "surface": null, "tourism": null, "tracktype": null, "wheelchair": null, "width": null, "label": "building:yes" }, "geometry": { "type": "Polygon", "coordinates": [ [ [ 19.8418343, 39.5576997 ], [ 19.8418833, 39.5576655 ], [ 19.8418499, 39.5576371 ], [ 19.8418009, 39.5576712 ], [ 19.8418343, 39.5576997 ] ] ] } },
{ "type": "Feature", "properties": { "@type": "way", "@id": 619722331, "access": null, "amenity": null, "area": null, "barrier": null, "building": null, "created_by": null, "denomination": null, "denotation": null, "direction": null, "ele": null, "height": null, "highway": null, "historic": null, "historic:civilization": null, "image": null, "int_name": null, "landuse": null, "lane_markings": null, "lanes": null, "leaf_cycle": null, "leisure": null, "lit": null, "man_made": null, "material": null, "name": null, "name:el": null, "name:en": null, "natural": "shingle", "noexit": null, "place": null, "pump": null, "ref": null, "reg_ref": null, "religion": null, "seamark:harbour:category": null, "seamark:type": null, "service": null, "smoothness": null, "source": null, "surface": null, "tourism": null, "tracktype": null, "wheelchair": null, "width": null, "label": "natural:shingle" }, "geometry": { "type": "Polygon", "coordinates": [ [ [ 19.8417612, 39.5575735 ], [ 19.841839, 39.5575373 ], [ 19.8419175, 39.5575073 ], [ 19.8419999, 39.5574329 ], [ 19.8419275, 39.5574608 ], [ 19.8418457, 39.5574437 ], [ 19.8417398, 39.557496 ], [ 19.8416995, 39.5575446 ], [ 19.8417612, 39.5575735 ] ] ] } },
{ "type": "Feature", "properties": { "@type": "way", "@id": 619722332, "access": null, "amenity": null, "area": null, "barrier": null, "building": null, "created_by": null, "denomination": null, "denotation": null, "direction": null, "ele": null, "height": null, "highway": null, "historic": null, "historic:civilization": null, "image": null, "int_name": null, "landuse": null, "lane_markings": null, "lanes": null, "leaf_cycle": null, "leisure": null, "lit": null, "man_made": null, "material": null, "name": null, "name:el": null, "name:en": null, "natural": "shingle", "noexit": null, "place": null, "pump": null, "ref": null, "reg_ref": null, "religion": null, "seamark:harbour:category": null, "seamark:type": null, "service": null, "smoothness": null, "source": null, "surface": null, "tourism": null, "tracktype": null, "wheelchair": null, "width": null, "label": "natural:shingle" }, "geometry": { "type": "Polygon", "coordinates": [ [ [ 19.8404362, 39.5584694 ], [ 19.8406219, 39.5584395 ], [ 19.8406776, 39.5584002 ], [ 19.8407178, 39.5583717 ], [ 19.8407929, 39.5583645 ], [ 19.8408942, 39.5582875 ], [ 19.8410343, 39.5582223 ], [ 19.8412489, 39.5580812 ], [ 19.8414119, 39.5579385 ], [ 19.8414816, 39.5578687 ], [ 19.8416063, 39.5577529 ], [ 19.8416586, 39.5576676 ], [ 19.8417612, 39.5575735 ], [ 19.8416995, 39.5575446 ], [ 19.8417398, 39.557496 ], [ 19.8418457, 39.5574437 ], [ 19.8419275, 39.5574608 ], [ 19.8419999, 39.5574329 ], [ 19.8421729, 39.5572478 ], [ 19.8422876, 39.557117 ], [ 19.842411, 39.5569598 ], [ 19.842533, 39.5568683 ], [ 19.8426356, 39.5567913 ], [ 19.8427174, 39.556722 ], [ 19.8427697, 39.5566776 ], [ 19.8428274, 39.5565819 ], [ 19.8429206, 39.5565028 ], [ 19.8429977, 39.5564092 ], [ 19.8431117, 39.556326 ], [ 19.8430795, 39.5561885 ], [ 19.8429354, 39.5563167 ], [ 19.8428301, 39.5564087 ], [ 19.8427094, 39.5565638 ], [ 19.8426182, 39.5567148 ], [ 19.8424975, 39.5568011 ], [ 19.8423573, 39.556872 ], [ 19.842244, 39.5570048 ], [ 19.8421307, 39.5571196 ], [ 19.8419624, 39.5573181 ], [ 19.8419014, 39.5573734 ], [ 19.8417096, 39.5574944 ], [ 19.8416378, 39.5575533 ], [ 19.8414601, 39.5577534 ], [ 19.8413642, 39.5578346 ], [ 19.8412013, 39.5579344 ], [ 19.8412, 39.5580321 ], [ 19.8411007, 39.5581417 ], [ 19.8409874, 39.5581908 ], [ 19.840854, 39.5582249 ], [ 19.8407198, 39.5583169 ], [ 19.8406347, 39.5583521 ], [ 19.8405267, 39.5584141 ], [ 19.840394, 39.5584343 ], [ 19.8403262, 39.5584849 ], [ 19.8402974, 39.5585522 ], [ 19.8404362, 39.5584694 ] ] ] } },
{ "type": "Feature", "properties": { "@type": "way", "@id": 619722635, "access": null, "amenity": null, "area": null, "barrier": null, "building": null, "created_by": null, "denomination": null, "denotation": null, "direction": null, "ele": null, "height": null, "highway": null, "historic": null, "historic:civilization": null, "image": null, "int_name": null, "landuse": null, "lane_markings": null, "lanes": null, "leaf_cycle": null, "leisure": null, "lit": null, "man_made": null, "material": null, "name": null, "name:el": null, "name:en": null, "natural": "scrub", "noexit": null, "place": null, "pump": null, "ref": null, "reg_ref": null, "religion": null, "seamark:harbour:category": null, "seamark:type": null, "service": null, "smoothness": null, "source": null, "surface": null, "tourism": null, "tracktype": null, "wheelchair": null, "width": null, "label": "natural:scrub" }, "geometry": { "type": "Polygon", "coordinates": [ [ [ 19.8421656, 39.5583924 ], [ 19.842238, 39.558531 ], [ 19.8423399, 39.5585248 ], [ 19.8423721, 39.5585589 ], [ 19.8422782, 39.5586116 ], [ 19.8424405, 39.5587564 ], [ 19.8425505, 39.5587946 ], [ 19.8426698, 39.5588835 ], [ 19.8426886, 39.5589673 ], [ 19.842651, 39.5590252 ], [ 19.8425961, 39.5590883 ], [ 19.8425142, 39.5591265 ], [ 19.8425384, 39.5591338 ], [ 19.842706, 39.5590779 ], [ 19.8428616, 39.5589911 ], [ 19.843052, 39.5589363 ], [ 19.843213, 39.5589239 ], [ 19.8432291, 39.5588877 ], [ 19.8431177, 39.5588773 ], [ 19.8430037, 39.5588629 ], [ 19.8429608, 39.5589063 ], [ 19.8428723, 39.5589197 ], [ 19.8427972, 39.5588939 ], [ 19.8427744, 39.5588163 ], [ 19.8428629, 39.5587481 ], [ 19.8429313, 39.5587026 ], [ 19.8428455, 39.5585889 ], [ 19.8427208, 39.558501 ], [ 19.8427181, 39.55835 ], [ 19.8427825, 39.5582477 ], [ 19.842812, 39.5581546 ], [ 19.8427261, 39.5580874 ], [ 19.842639, 39.558166 ], [ 19.8425612, 39.5580646 ], [ 19.842407, 39.5580791 ], [ 19.8423734, 39.5581701 ], [ 19.8422661, 39.558198 ], [ 19.8421468, 39.5582756 ], [ 19.8421656, 39.5583924 ] ] ] } },
{ "type": "Feature", "properties": { "@type": "way", "@id": 619722636, "access": null, "amenity": null, "area": null, "barrier": null, "building": "yes", "created_by": null, "denomination": null, "denotation": null, "direction": null, "ele": null, "height": null, "highway": null, "historic": null, "historic:civilization": null, "image": null, "int_name": null, "landuse": null, "lane_markings": null, "lanes": null, "leaf_cycle": null, "leisure": null, "lit": null, "man_made": null, "material": null, "name": null, "name:el": null, "name:en": null, "natural": null, "noexit": null, "place": null, "pump": null, "ref": null, "reg_ref": null, "religion": null, "seamark:harbour:category": null, "seamark:type": null, "service": null, "smoothness": null, "source": null, "surface": null, "tourism": null, "tracktype": null, "wheelchair": null, "width": null, "label": "building:yes" }, "geometry": { "type": "Polygon", "coordinates": [ [ [ 19.8428629, 39.5589115 ], [ 19.8429367, 39.5588908 ], [ 19.8429128, 39.5588402 ], [ 19.8428391, 39.5588609 ], [ 19.8428629, 39.5589115 ] ] ] } },
{ "type": "Feature", "properties": { "@type": "way", "@id": 619723630, "access": null, "amenity": null, "area": null, "barrier": null, "building": "yes", "created_by": null, "denomination": null, "denotation": null, "direction": null, "ele": null, "height": null, "highway": null, "historic": null, "historic:civilization": null, "image": null, "int_name": null, "landuse": null, "lane_markings": null, "lanes": null, "leaf_cycle": null, "leisure": null, "lit": null, "man_made": null, "material": null, "name": null, "name:el": null, "name:en": null, "natural": null, "noexit": null, "place": null, "pump": null, "ref": null, "reg_ref": null, "religion": null, "seamark:harbour:category": null, "seamark:type": null, "service": null, "smoothness": null, "source": null, "surface": null, "tourism": null, "tracktype": null, "wheelchair": null, "width": null, "label": "building:yes" }, "geometry": { "type": "Polygon", "coordinates": [ [ [ 19.8443572, 39.5570732 ], [ 19.8443817, 39.5571113 ], [ 19.844423762719522, 39.557095167636504 ], [ 19.844423762719522, 39.557047652170752 ], [ 19.8443572, 39.5570732 ] ] ] } },
{ "type": "Feature", "properties": { "@type": "way", "@id": 619723633, "access": null, "amenity": null, "area": null, "barrier": null, "building": "yes", "created_by": null, "denomination": null, "denotation": null, "direction": null, "ele": null, "height": null, "highway": null, "historic": null, "historic:civilization": null, "image": null, "int_name": null, "landuse": null, "lane_markings": null, "lanes": null, "leaf_cycle": null, "leisure": null, "lit": null, "man_made": null, "material": null, "name": null, "name:el": null, "name:en": null, "natural": null, "noexit": null, "place": null, "pump": null, "ref": null, "reg_ref": null, "religion": null, "seamark:harbour:category": null, "seamark:type": null, "service": null, "smoothness": null, "source": null, "surface": null, "tourism": null, "tracktype": null, "wheelchair": null, "width": null, "label": "building:yes" }, "geometry": { "type": "Polygon", "coordinates": [ [ [ 19.843736, 39.5572199 ], [ 19.8438051, 39.557148 ], [ 19.8437293, 39.5571047 ], [ 19.8436602, 39.5571766 ], [ 19.843736, 39.5572199 ] ] ] } },
{ "type": "Feature", "properties": { "@type": "way", "@id": 619723636, "access": null, "amenity": null, "area": null, "barrier": null, "building": "yes", "created_by": null, "denomination": null, "denotation": null, "direction": null, "ele": null, "height": null, "highway": null, "historic": null, "historic:civilization": null, "image": null, "int_name": null, "landuse": null, "lane_markings": null, "lanes": null, "leaf_cycle": null, "leisure": null, "lit": null, "man_made": null, "material": null, "name": null, "name:el": null, "name:en": null, "natural": null, "noexit": null, "place": null, "pump": null, "ref": null, "reg_ref": null, "religion": null, "seamark:harbour:category": null, "seamark:type": null, "service": null, "smoothness": null, "source": null, "surface": null, "tourism": null, "tracktype": null, "wheelchair": null, "width": null, "label": "building:yes" }, "geometry": { "type": "Polygon", "coordinates": [ [ [ 19.8415036, 39.5593994 ], [ 19.8415405, 39.5593611 ], [ 19.8415064, 39.5593416 ], [ 19.8414695, 39.5593798 ], [ 19.8415036, 39.5593994 ] ] ] } },
{ "type": "Feature", "properties": { "@type": "way", "@id": 619723637, "access": null, "amenity": null, "area": null, "barrier": null, "building": "yes", "created_by": null, "denomination": null, "denotation": null, "direction": null, "ele": null, "height": null, "highway": null, "historic": null, "historic:civilization": null, "image": null, "int_name": null, "landuse": null, "lane_markings": null, "lanes": null, "leaf_cycle": null, "leisure": null, "lit": null, "man_made": null, "material": null, "name": null, "name:el": null, "name:en": null, "natural": null, "noexit": null, "place": null, "pump": null, "ref": null, "reg_ref": null, "religion": null, "seamark:harbour:category": null, "seamark:type": null, "service": null, "smoothness": null, "source": null, "surface": null, "tourism": null, "tracktype": null, "wheelchair": null, "width": null, "label": "building:yes" }, "geometry": { "type": "Polygon", "coordinates": [ [ [ 19.8414367, 39.5594972 ], [ 19.8414923, 39.5594295 ], [ 19.8414228, 39.5593955 ], [ 19.8413671, 39.5594632 ], [ 19.8414367, 39.5594972 ] ] ] } },
{ "type": "Feature", "properties": { "@type": "way", "@id": 619723639, "access": null, "amenity": null, "area": null, "barrier": null, "building": "yes", "created_by": null, "denomination": null, "denotation": null, "direction": null, "ele": null, "height": null, "highway": null, "historic": null, "historic:civilization": null, "image": null, "int_name": null, "landuse": null, "lane_markings": null, "lanes": null, "leaf_cycle": null, "leisure": null, "lit": null, "man_made": null, "material": null, "name": null, "name:el": null, "name:en": null, "natural": null, "noexit": null, "place": null, "pump": null, "ref": null, "reg_ref": null, "religion": null, "seamark:harbour:category": null, "seamark:type": null, "service": null, "smoothness": null, "source": null, "surface": null, "tourism": null, "tracktype": null, "wheelchair": null, "width": null, "label": "building:yes" }, "geometry": { "type": "Polygon", "coordinates": [ [ [ 19.8436327, 39.5581045 ], [ 19.8436762, 39.5580323 ], [ 19.8436378, 39.5580185 ], [ 19.843625, 39.5580397 ], [ 19.8435682, 39.5580193 ], [ 19.8435374, 39.5580704 ], [ 19.8436327, 39.5581045 ] ] ] } },
{ "type": "Feature", "properties": { "@type": "way", "@id": 659643367, "access": null, "amenity": null, "area": null, "barrier": null, "building": null, "created_by": null, "denomination": null, "denotation": null, "direction": null, "ele": null, "height": null, "highway": null, "historic": null, "historic:civilization": null, "image": null, "int_name": null, "landuse": null, "lane_markings": null, "lanes": null, "leaf_cycle": null, "leisure": null, "lit": null, "man_made": null, "material": null, "name": null, "name:el": null, "name:en": null, "natural": "bare_rock", "noexit": null, "place": null, "pump": null, "ref": null, "reg_ref": null, "religion": null, "seamark:harbour:category": null, "seamark:type": null, "service": null, "smoothness": null, "source": null, "surface": null, "tourism": null, "tracktype": null, "wheelchair": null, "width": null, "label": "natural:bare_rock" }, "geometry": { "type": "Polygon", "coordinates": [ [ [ 19.8396502, 39.5584216 ], [ 19.8396587, 39.5584287 ], [ 19.839665, 39.558434 ], [ 19.8396878, 39.5584226 ], [ 19.8396851, 39.5583999 ], [ 19.839661, 39.5583885 ], [ 19.8396476, 39.5583896 ], [ 19.8396341, 39.5584061 ], [ 19.8396502, 39.5584216 ] ] ] } },
{ "type": "Feature", "properties": { "@type": "way", "@id": 659643368, "access": null, "amenity": null, "area": null, "barrier": null, "building": null, "created_by": null, "denomination": null, "denotation": null, "direction": null, "ele": null, "height": null, "highway": null, "historic": null, "historic:civilization": null, "image": null, "int_name": null, "landuse": null, "lane_markings": null, "lanes": null, "leaf_cycle": null, "leisure": null, "lit": null, "man_made": null, "material": null, "name": null, "name:el": null, "name:en": null, "natural": "bare_rock", "noexit": null, "place": null, "pump": null, "ref": null, "reg_ref": null, "religion": null, "seamark:harbour:category": null, "seamark:type": null, "service": null, "smoothness": null, "source": null, "surface": null, "tourism": null, "tracktype": null, "wheelchair": null, "width": null, "label": "natural:bare_rock" }, "geometry": { "type": "Polygon", "coordinates": [ [ [ 19.8306122, 39.5709094 ], [ 19.8306299, 39.5709217 ], [ 19.8306547, 39.570923 ], [ 19.8306706, 39.5709121 ], [ 19.8306795, 39.570893 ], [ 19.8306759, 39.5708739 ], [ 19.8306712, 39.5708687 ], [ 19.83066, 39.5708562 ], [ 19.8306423, 39.5708521 ], [ 19.8306246, 39.5708507 ], [ 19.8306176, 39.5708685 ], [ 19.8306122, 39.5708848 ], [ 19.8306122, 39.5709094 ] ] ] } },
{ "type": "Feature", "properties": { "@type": "way", "@id": 686742443, "access": null, "amenity": null, "area": null, "barrier": null, "building": null, "created_by": null, "denomination": null, "denotation": null, "direction": null, "ele": null, "height": null, "highway": null, "historic": null, "historic:civilization": null, "image": null, "int_name": null, "landuse": null, "lane_markings": null, "lanes": null, "leaf_cycle": null, "leisure": null, "lit": null, "man_made": null, "material": null, "name": null, "name:el": null, "name:en": null, "natural": "bare_rock", "noexit": null, "place": null, "pump": null, "ref": null, "reg_ref": null, "religion": null, "seamark:harbour:category": null, "seamark:type": null, "service": null, "smoothness": null, "source": null, "surface": null, "tourism": null, "tracktype": null, "wheelchair": null, "width": null, "label": "natural:bare_rock" }, "geometry": { "type": "Polygon", "coordinates": [ [ [ 19.835221, 39.5611981 ], [ 19.8352473, 39.5612197 ], [ 19.8352648, 39.5612211 ], [ 19.8352858, 39.5612103 ], [ 19.8352841, 39.56119 ], [ 19.8352666, 39.5611657 ], [ 19.8352333, 39.5611562 ], [ 19.8352105, 39.5611643 ], [ 19.8352052, 39.5611832 ], [ 19.835221, 39.5611981 ] ] ] } },
{ "type": "Feature", "properties": { "@type": "way", "@id": 686742444, "access": null, "amenity": null, "area": null, "barrier": null, "building": null, "created_by": null, "denomination": null, "denotation": null, "direction": null, "ele": null, "height": null, "highway": null, "historic": null, "historic:civilization": null, "image": null, "int_name": null, "landuse": null, "lane_markings": null, "lanes": null, "leaf_cycle": null, "leisure": null, "lit": null, "man_made": null, "material": null, "name": null, "name:el": null, "name:en": null, "natural": "bare_rock", "noexit": null, "place": null, "pump": null, "ref": null, "reg_ref": null, "religion": null, "seamark:harbour:category": null, "seamark:type": null, "service": null, "smoothness": null, "source": null, "surface": null, "tourism": null, "tracktype": null, "wheelchair": null, "width": null, "label": "natural:bare_rock" }, "geometry": { "type": "Polygon", "coordinates": [ [ [ 19.8352105, 39.5613414 ], [ 19.8352262, 39.5613495 ], [ 19.8352525, 39.5613616 ], [ 19.8352806, 39.5613697 ], [ 19.8353016, 39.5613643 ], [ 19.8353174, 39.5613454 ], [ 19.8353279, 39.5613022 ], [ 19.8352718, 39.5612914 ], [ 19.835228, 39.5612941 ], [ 19.835207, 39.5613184 ], [ 19.8352105, 39.5613414 ] ] ] } },
{ "type": "Feature", "properties": { "@type": "way", "@id": 687992156, "access": null, "amenity": null, "area": null, "barrier": null, "building": "yes", "created_by": null, "denomination": null, "denotation": null, "direction": null, "ele": null, "height": null, "highway": null, "historic": null, "historic:civilization": null, "image": null, "int_name": null, "landuse": null, "lane_markings": null, "lanes": null, "leaf_cycle": null, "leisure": null, "lit": null, "man_made": null, "material": null, "name": null, "name:el": null, "name:en": null, "natural": null, "noexit": null, "place": null, "pump": null, "ref": null, "reg_ref": null, "religion": null, "seamark:harbour:category": null, "seamark:type": null, "service": null, "smoothness": null, "source": null, "surface": null, "tourism": null, "tracktype": null, "wheelchair": null, "width": null, "label": "building:yes" }, "geometry": { "type": "Polygon", "coordinates": [ [ [ 19.8442027, 39.5704287 ], [ 19.844271, 39.5704116 ], [ 19.8442361, 39.5703289 ], [ 19.8441678, 39.570346 ], [ 19.8442027, 39.5704287 ] ] ] } },
{ "type": "Feature", "properties": { "@type": "way", "@id": 687992158, "access": null, "amenity": null, "area": null, "barrier": null, "building": "yes", "created_by": null, "denomination": null, "denotation": null, "direction": null, "ele": null, "height": null, "highway": null, "historic": null, "historic:civilization": null, "image": null, "int_name": null, "landuse": null, "lane_markings": null, "lanes": null, "leaf_cycle": null, "leisure": null, "lit": null, "man_made": null, "material": null, "name": null, "name:el": null, "name:en": null, "natural": null, "noexit": null, "place": null, "pump": null, "ref": null, "reg_ref": null, "religion": null, "seamark:harbour:category": null, "seamark:type": null, "service": null, "smoothness": null, "source": null, "surface": null, "tourism": null, "tracktype": null, "wheelchair": null, "width": null, "label": "building:yes" }, "geometry": { "type": "Polygon", "coordinates": [ [ [ 19.843898, 39.5704015 ], [ 19.8440311, 39.5703098 ], [ 19.8439519, 39.5702416 ], [ 19.8438189, 39.5703333 ], [ 19.843898, 39.5704015 ] ] ] } },
{ "type": "Feature", "properties": { "@type": "way", "@id": 687992159, "access": null, "amenity": null, "area": null, "barrier": null, "building": "yes", "created_by": null, "denomination": null, "denotation": null, "direction": null, "ele": null, "height": null, "highway": null, "historic": null, "historic:civilization": null, "image": null, "int_name": null, "landuse": null, "lane_markings": null, "lanes": null, "leaf_cycle": null, "leisure": null, "lit": null, "man_made": null, "material": null, "name": null, "name:el": null, "name:en": null, "natural": null, "noexit": null, "place": null, "pump": null, "ref": null, "reg_ref": null, "religion": null, "seamark:harbour:category": null, "seamark:type": null, "service": null, "smoothness": null, "source": null, "surface": null, "tourism": null, "tracktype": null, "wheelchair": null, "width": null, "label": "building:yes" }, "geometry": { "type": "Polygon", "coordinates": [ [ [ 19.8437347, 39.5704639 ], [ 19.843856, 39.5703998 ], [ 19.8437689, 39.5703016 ], [ 19.8436475, 39.5703657 ], [ 19.8437347, 39.5704639 ] ] ] } },
{ "type": "Feature", "properties": { "@type": "way", "@id": 687992161, "access": null, "amenity": null, "area": null, "barrier": null, "building": "yes", "created_by": null, "denomination": null, "denotation": null, "direction": null, "ele": null, "height": null, "highway": null, "historic": null, "historic:civilization": null, "image": null, "int_name": null, "landuse": null, "lane_markings": null, "lanes": null, "leaf_cycle": null, "leisure": null, "lit": null, "man_made": null, "material": null, "name": null, "name:el": null, "name:en": null, "natural": null, "noexit": null, "place": null, "pump": null, "ref": null, "reg_ref": null, "religion": null, "seamark:harbour:category": null, "seamark:type": null, "service": null, "smoothness": null, "source": null, "surface": null, "tourism": null, "tracktype": null, "wheelchair": null, "width": null, "label": "building:yes" }, "geometry": { "type": "Polygon", "coordinates": [ [ [ 19.8435807, 39.5705553 ], [ 19.8436035, 39.5705025 ], [ 19.8434852, 39.5704721 ], [ 19.8434624, 39.5705249 ], [ 19.8435807, 39.5705553 ] ] ] } },
{ "type": "Feature", "properties": { "@type": "way", "@id": 687992162, "access": null, "amenity": null, "area": null, "barrier": null, "building": "yes", "created_by": null, "denomination": null, "denotation": null, "direction": null, "ele": null, "height": null, "highway": null, "historic": null, "historic:civilization": null, "image": null, "int_name": null, "landuse": null, "lane_markings": null, "lanes": null, "leaf_cycle": null, "leisure": null, "lit": null, "man_made": null, "material": null, "name": null, "name:el": null, "name:en": null, "natural": null, "noexit": null, "place": null, "pump": null, "ref": null, "reg_ref": null, "religion": null, "seamark:harbour:category": null, "seamark:type": null, "service": null, "smoothness": null, "source": null, "surface": null, "tourism": null, "tracktype": null, "wheelchair": null, "width": null, "label": "building:yes" }, "geometry": { "type": "Polygon", "coordinates": [ [ [ 19.8433658, 39.5706468 ], [ 19.8434376, 39.5706291 ], [ 19.8434135, 39.5705712 ], [ 19.8433417, 39.570589 ], [ 19.8433658, 39.5706468 ] ] ] } },
{ "type": "Feature", "properties": { "@type": "way", "@id": 687992164, "access": null, "amenity": null, "area": null, "barrier": null, "building": "yes", "created_by": null, "denomination": null, "denotation": null, "direction": null, "ele": null, "height": null, "highway": null, "historic": null, "historic:civilization": null, "image": null, "int_name": null, "landuse": null, "lane_markings": null, "lanes": null, "leaf_cycle": null, "leisure": null, "lit": null, "man_made": null, "material": null, "name": null, "name:el": null, "name:en": null, "natural": null, "noexit": null, "place": null, "pump": null, "ref": null, "reg_ref": null, "religion": null, "seamark:harbour:category": null, "seamark:type": null, "service": null, "smoothness": null, "source": null, "surface": null, "tourism": null, "tracktype": null, "wheelchair": null, "width": null, "label": "building:yes" }, "geometry": { "type": "Polygon", "coordinates": [ [ [ 19.8436005, 39.5707058 ], [ 19.843728, 39.570682 ], [ 19.8437065, 39.5706137 ], [ 19.8435791, 39.5706375 ], [ 19.8436005, 39.5707058 ] ] ] } },
{ "type": "Feature", "properties": { "@type": "way", "@id": 900362951, "access": null, "amenity": "monastery", "area": null, "barrier": null, "building": "church", "created_by": null, "denomination": "greek_orthodox", "denotation": null, "direction": null, "ele": null, "height": null, "highway": null, "historic": null, "historic:civilization": null, "image": null, "int_name": null, "landuse": null, "lane_markings": null, "lanes": null, "leaf_cycle": null, "leisure": null, "lit": null, "man_made": null, "material": null, "name": "Ἱερὰ Μονή Ταξιάρχη", "name:el": "Ἱερὰ Μονή Ταξιάρχη", "name:en": "Holy Monastery of Archangel", "natural": null, "noexit": null, "place": null, "pump": null, "ref": null, "reg_ref": null, "religion": "christian", "seamark:harbour:category": null, "seamark:type": null, "service": null, "smoothness": null, "source": null, "surface": null, "tourism": null, "tracktype": null, "wheelchair": null, "width": null, "label": "building:church;amenity:monastery" }, "geometry": { "type": "Polygon", "coordinates": [ [ [ 19.8394228, 39.5699259 ], [ 19.8394895, 39.5699298 ], [ 19.839571, 39.5699272 ], [ 19.839571, 39.5698676 ], [ 19.8394228, 39.5698728 ], [ 19.8394228, 39.5699259 ] ] ] } },
{ "type": "Feature", "properties": { "@type": "way", "@id": 900362952, "access": null, "amenity": "place_of_worship", "area": null, "barrier": null, "building": "church", "created_by": null, "denomination": "greek_orthodox", "denotation": null, "direction": null, "ele": null, "height": null, "highway": null, "historic": null, "historic:civilization": null, "image": null, "int_name": null, "landuse": null, "lane_markings": null, "lanes": null, "leaf_cycle": null, "leisure": null, "lit": null, "man_made": null, "material": null, "name": "Ἱερὸν Ἐξωκκλήσιον Ταξιάρχου", "name:el": "Ἱερὸν Ἐξωκκλήσιον Ταξιάρχου", "name:en": "Holy Chapel of Archangel", "natural": null, "noexit": null, "place": null, "pump": null, "ref": null, "reg_ref": null, "religion": "christian", "seamark:harbour:category": null, "seamark:type": null, "service": null, "smoothness": null, "source": null, "surface": null, "tourism": null, "tracktype": null, "wheelchair": null, "width": null, "label": "building:church;amenity:place_of_worship" }, "geometry": { "type": "Polygon", "coordinates": [ [ [ 19.839396, 39.5700057 ], [ 19.8394917, 39.5700014 ], [ 19.8394861, 39.5699493 ], [ 19.8393922, 39.5699529 ], [ 19.839396, 39.5700057 ] ] ] } },
{ "type": "Feature", "properties": { "@type": "way", "@id": 985354795, "access": null, "amenity": "place_of_worship", "area": null, "barrier": null, "building": "church", "created_by": null, "denomination": "greek_orthodox", "denotation": null, "direction": null, "ele": null, "height": null, "highway": null, "historic": null, "historic:civilization": null, "image": null, "int_name": "Ag. Theoktistos", "landuse": null, "lane_markings": null, "lanes": null, "leaf_cycle": null, "leisure": null, "lit": null, "man_made": null, "material": null, "name": null, "name:el": null, "name:en": null, "natural": null, "noexit": null, "place": null, "pump": null, "ref": null, "reg_ref": null, "religion": "christian", "seamark:harbour:category": null, "seamark:type": null, "service": null, "smoothness": null, "source": null, "surface": null, "tourism": null, "tracktype": null, "wheelchair": null, "width": null, "label": "building:church;amenity:place_of_worship" }, "geometry": { "type": "Polygon", "coordinates": [ [ [ 19.8394355, 39.565628 ], [ 19.8395754, 39.5656219 ], [ 19.8395702, 39.565552 ], [ 19.8394303, 39.5655581 ], [ 19.8394355, 39.565628 ] ] ] } },
{ "type": "Feature", "properties": { "@type": "way", "@id": 985354796, "access": null, "amenity": null, "area": null, "barrier": null, "building": "yes", "created_by": null, "denomination": null, "denotation": null, "direction": null, "ele": null, "height": null, "highway": null, "historic": null, "historic:civilization": null, "image": "https://kartaview.org/details/3843845/1", "int_name": null, "landuse": null, "lane_markings": null, "lanes": null, "leaf_cycle": null, "leisure": null, "lit": null, "man_made": null, "material": null, "name": null, "name:el": null, "name:en": null, "natural": null, "noexit": null, "place": null, "pump": null, "ref": null, "reg_ref": null, "religion": null, "seamark:harbour:category": null, "seamark:type": null, "service": null, "smoothness": null, "source": null, "surface": null, "tourism": null, "tracktype": null, "wheelchair": null, "width": null, "label": "building:yes" }, "geometry": { "type": "Polygon", "coordinates": [ [ [ 19.8393246, 39.5656336 ], [ 19.839367, 39.5656331 ], [ 19.8393656, 39.5655687 ], [ 19.8393232, 39.5655693 ], [ 19.8393246, 39.5656336 ] ] ] } },
{ "type": "Feature", "properties": { "@type": "way", "@id": 1030148565, "access": null, "amenity": null, "area": null, "barrier": null, "building": "church", "created_by": null, "denomination": null, "denotation": null, "direction": null, "ele": null, "height": "4", "highway": null, "historic": null, "historic:civilization": null, "image": null, "int_name": null, "landuse": null, "lane_markings": null, "lanes": null, "leaf_cycle": null, "leisure": null, "lit": null, "man_made": null, "material": null, "name": "Ὑπεραγία Θεοτόκος ἡ Εὐαγγελίστρια", "name:el": "Ὑπεραγία Θεοτόκος ἡ Εὐαγγελίστρια", "name:en": "Virgin Mary the Evangelist", "natural": null, "noexit": null, "place": null, "pump": null, "ref": null, "reg_ref": null, "religion": null, "seamark:harbour:category": null, "seamark:type": null, "service": null, "smoothness": null, "source": null, "surface": null, "tourism": null, "tracktype": null, "wheelchair": null, "width": null, "label": "building:church" }, "geometry": { "type": "Polygon", "coordinates": [ [ [ 19.8383415, 39.5700953 ], [ 19.8384571, 39.5700894 ], [ 19.838451, 39.5700269 ], [ 19.8383371, 39.5700316 ], [ 19.8383415, 39.5700953 ] ] ] } },
{ "type": "Feature", "properties": { "@type": "way", "@id": 1254352038, "access": null, "amenity": null, "area": null, "barrier": null, "building": "church", "created_by": null, "denomination": null, "denotation": null, "direction": null, "ele": null, "height": null, "highway": null, "historic": null, "historic:civilization": null, "image": null, "int_name": null, "landuse": null, "lane_markings": null, "lanes": null, "leaf_cycle": null, "leisure": null, "lit": null, "man_made": null, "material": null, "name": "Ιερά Μονή Θεοτόκου Δικαίας", "name:el": "Ιερά Μονή Θεοτόκου Δικαίας", "name:en": "Holy Monastery of Theotokos Dikaia", "natural": null, "noexit": null, "place": null, "pump": null, "ref": null, "reg_ref": null, "religion": null, "seamark:harbour:category": null, "seamark:type": null, "service": null, "smoothness": null, "source": null, "surface": null, "tourism": null, "tracktype": null, "wheelchair": null, "width": null, "label": "building:church" }, "geometry": { "type": "Polygon", "coordinates": [ [ [ 19.8292775, 39.5684125 ], [ 19.8293101, 39.5684227 ], [ 19.8293388, 39.5683682 ], [ 19.82928, 39.5683498 ], [ 19.8292513, 39.5684043 ], [ 19.8292775, 39.5684125 ] ] ] } },
{ "type": "Feature", "properties": { "@type": "way", "@id": 1263523449, "access": null, "amenity": null, "area": "yes", "barrier": null, "building": null, "created_by": null, "denomination": null, "denotation": null, "direction": null, "ele": null, "height": null, "highway": null, "historic": null, "historic:civilization": null, "image": null, "int_name": null, "landuse": null, "lane_markings": null, "lanes": null, "leaf_cycle": null, "leisure": "swimming_pool", "lit": null, "man_made": null, "material": null, "name": null, "name:el": null, "name:en": null, "natural": null, "noexit": null, "place": null, "pump": null, "ref": null, "reg_ref": null, "religion": null, "seamark:harbour:category": null, "seamark:type": null, "service": null, "smoothness": null, "source": null, "surface": null, "tourism": null, "tracktype": null, "wheelchair": null, "width": null, "label": "leisure:swimming_pool" }, "geometry": { "type": "Polygon", "coordinates": [ [ [ 19.8437952, 39.556748 ], [ 19.8438276, 39.5567221 ], [ 19.843823, 39.556715 ], [ 19.8439541, 39.5566125 ], [ 19.8439153, 39.5565968 ], [ 19.8437594, 39.5567212 ], [ 19.8437952, 39.556748 ] ] ] } },
{ "type": "Feature", "properties": { "@type": "way", "@id": 1263523452, "access": null, "amenity": null, "area": null, "barrier": null, "building": "yes", "created_by": null, "denomination": null, "denotation": null, "direction": null, "ele": null, "height": null, "highway": null, "historic": null, "historic:civilization": null, "image": null, "int_name": null, "landuse": null, "lane_markings": null, "lanes": null, "leaf_cycle": null, "leisure": null, "lit": null, "man_made": null, "material": null, "name": null, "name:el": null, "name:en": null, "natural": null, "noexit": null, "place": null, "pump": null, "ref": null, "reg_ref": null, "religion": null, "seamark:harbour:category": null, "seamark:type": null, "service": null, "smoothness": null, "source": null, "surface": null, "tourism": null, "tracktype": null, "wheelchair": null, "width": null, "label": "building:yes" }, "geometry": { "type": "Polygon", "coordinates": [ [ [ 19.8363502, 39.5680397 ], [ 19.8363846, 39.5680346 ], [ 19.8363915, 39.5680625 ], [ 19.8364522, 39.5680535 ], [ 19.836447, 39.5680326 ], [ 19.8365031, 39.5680243 ], [ 19.8364718, 39.5678986 ], [ 19.8363206, 39.567921 ], [ 19.8363502, 39.5680397 ] ] ] } },
{ "type": "Feature", "properties": { "@type": "way", "@id": 1263523454, "access": null, "amenity": null, "area": "yes", "barrier": null, "building": null, "created_by": null, "denomination": null, "denotation": null, "direction": null, "ele": null, "height": null, "highway": null, "historic": null, "historic:civilization": null, "image": null, "int_name": null, "landuse": null, "lane_markings": null, "lanes": null, "leaf_cycle": null, "leisure": "swimming_pool", "lit": null, "man_made": null, "material": null, "name": null, "name:el": null, "name:en": null, "natural": null, "noexit": null, "place": null, "pump": null, "ref": null, "reg_ref": null, "religion": null, "seamark:harbour:category": null, "seamark:type": null, "service": null, "smoothness": null, "source": null, "surface": null, "tourism": null, "tracktype": null, "wheelchair": null, "width": null, "label": "leisure:swimming_pool" }, "geometry": { "type": "Polygon", "coordinates": [ [ [ 19.8368724, 39.570043 ], [ 19.8369526, 39.5701127 ], [ 19.8369753, 39.5700826 ], [ 19.8369135, 39.5700239 ], [ 19.8368847, 39.5699446 ], [ 19.8368209, 39.5699668 ], [ 19.8368724, 39.570043 ] ] ] } },
{ "type": "Feature", "properties": { "@type": "way", "@id": 1292789559, "access": null, "amenity": null, "area": null, "barrier": null, "building": null, "created_by": null, "denomination": null, "denotation": null, "direction": null, "ele": null, "height": null, "highway": null, "historic": null, "historic:civilization": null, "image": null, "int_name": null, "landuse": null, "lane_markings": null, "lanes": null, "leaf_cycle": null, "leisure": null, "lit": null, "man_made": null, "material": null, "name": null, "name:el": null, "name:en": null, "natural": "bare_rock", "noexit": null, "place": null, "pump": null, "ref": null, "reg_ref": null, "religion": null, "seamark:harbour:category": null, "seamark:type": null, "service": null, "smoothness": null, "source": null, "surface": null, "tourism": null, "tracktype": null, "wheelchair": null, "width": null, "label": "natural:bare_rock" }, "geometry": { "type": "Polygon", "coordinates": [ [ [ 19.8395437, 39.5583484 ], [ 19.8395644, 39.5583527 ], [ 19.8395879, 39.5583361 ], [ 19.8396011, 39.5583223 ], [ 19.8396077, 39.5583092 ], [ 19.8396048, 39.5582955 ], [ 19.8395841, 39.5582846 ], [ 19.8395616, 39.5582824 ], [ 19.8395465, 39.5582962 ], [ 19.8395428, 39.5583107 ], [ 19.8395362, 39.5583259 ], [ 19.8395437, 39.5583484 ] ] ] } },
{ "type": "Feature", "properties": { "@type": "way", "@id": 1303465385, "access": null, "amenity": null, "area": null, "barrier": null, "building": null, "created_by": null, "denomination": null, "denotation": null, "direction": null, "ele": null, "height": null, "highway": null, "historic": null, "historic:civilization": null, "image": null, "int_name": null, "landuse": null, "lane_markings": null, "lanes": null, "leaf_cycle": null, "leisure": null, "lit": null, "man_made": null, "material": null, "name": null, "name:el": null, "name:en": null, "natural": "bare_rock", "noexit": null, "place": null, "pump": null, "ref": null, "reg_ref": null, "religion": null, "seamark:harbour:category": null, "seamark:type": null, "service": null, "smoothness": null, "source": null, "surface": null, "tourism": null, "tracktype": null, "wheelchair": null, "width": null, "label": "natural:bare_rock" }, "geometry": { "type": "Polygon", "coordinates": [ [ [ 19.8335519, 39.5629636 ], [ 19.8335696, 39.5629854 ], [ 19.8336014, 39.5629977 ], [ 19.8336209, 39.5629895 ], [ 19.8336403, 39.562969 ], [ 19.8336456, 39.5629363 ], [ 19.833628, 39.5629199 ], [ 19.8335873, 39.5629199 ], [ 19.8335554, 39.562924 ], [ 19.8335395, 39.5629376 ], [ 19.8335519, 39.5629636 ] ] ] } },
{ "type": "Feature", "properties": { "@type": "way", "@id": 1303465387, "access": null, "amenity": null, "area": null, "barrier": null, "building": null, "created_by": null, "denomination": null, "denotation": null, "direction": null, "ele": null, "height": null, "highway": null, "historic": null, "historic:civilization": null, "image": null, "int_name": null, "landuse": null, "lane_markings": null, "lanes": null, "leaf_cycle": null, "leisure": null, "lit": null, "man_made": null, "material": null, "name": null, "name:el": null, "name:en": null, "natural": "bare_rock", "noexit": null, "place": null, "pump": null, "ref": null, "reg_ref": null, "religion": null, "seamark:harbour:category": null, "seamark:type": null, "service": null, "smoothness": null, "source": null, "surface": null, "tourism": null, "tracktype": null, "wheelchair": null, "width": null, "label": "natural:bare_rock" }, "geometry": { "type": "Polygon", "coordinates": [ [ [ 19.833156, 39.5641399 ], [ 19.8331896, 39.5641285 ], [ 19.8332085, 39.564101 ], [ 19.8331896, 39.5640783 ], [ 19.8331518, 39.5640702 ], [ 19.8331203, 39.5641075 ], [ 19.8330867, 39.5641285 ], [ 19.833156, 39.5641399 ] ] ] } },
{ "type": "Feature", "properties": { "@type": "way", "@id": 1303465389, "access": null, "amenity": null, "area": null, "barrier": null, "building": null, "created_by": null, "denomination": null, "denotation": null, "direction": null, "ele": null, "height": null, "highway": null, "historic": null, "historic:civilization": null, "image": null, "int_name": null, "landuse": null, "lane_markings": null, "lanes": null, "leaf_cycle": null, "leisure": null, "lit": null, "man_made": null, "material": null, "name": null, "name:el": null, "name:en": null, "natural": "bare_rock", "noexit": null, "place": null, "pump": null, "ref": null, "reg_ref": null, "religion": null, "seamark:harbour:category": null, "seamark:type": null, "service": null, "smoothness": null, "source": null, "surface": null, "tourism": null, "tracktype": null, "wheelchair": null, "width": null, "label": "natural:bare_rock" }, "geometry": { "type": "Polygon", "coordinates": [ [ [ 19.8332254, 39.5638774 ], [ 19.8332674, 39.5638969 ], [ 19.8332968, 39.5638774 ], [ 19.8332926, 39.5638483 ], [ 19.8332527, 39.5638321 ], [ 19.8332022, 39.5638369 ], [ 19.8332254, 39.5638774 ] ] ] } },
{ "type": "Feature", "properties": { "@type": "way", "@id": 1303465390, "access": null, "amenity": null, "area": null, "barrier": null, "building": null, "created_by": null, "denomination": null, "denotation": null, "direction": null, "ele": null, "height": null, "highway": null, "historic": null, "historic:civilization": null, "image": null, "int_name": null, "landuse": null, "lane_markings": null, "lanes": null, "leaf_cycle": null, "leisure": null, "lit": null, "man_made": null, "material": null, "name": null, "name:el": null, "name:en": null, "natural": "bare_rock", "noexit": null, "place": null, "pump": null, "ref": null, "reg_ref": null, "religion": null, "seamark:harbour:category": null, "seamark:type": null, "service": null, "smoothness": null, "source": null, "surface": null, "tourism": null, "tracktype": null, "wheelchair": null, "width": null, "label": "natural:bare_rock" }, "geometry": { "type": "Polygon", "coordinates": [ [ [ 19.8327419, 39.565083 ], [ 19.8328016, 39.5650866 ], [ 19.8328598, 39.5650501 ], [ 19.8328679, 39.5649954 ], [ 19.8328215, 39.5649968 ], [ 19.8327444, 39.5649986 ], [ 19.8326954, 39.5650292 ], [ 19.8326884, 39.5650634 ], [ 19.8327419, 39.565083 ] ] ] } }
]
}
