{
"type": "FeatureCollection",
"name": "patch_1575_features",
"crs": { "type": "name", "properties": { "name": "urn:ogc:def:crs:OGC:1.3:CRS84" } },
"features": [
{ "type": "Feature", "properties": { "element": "node", "id": 356735921, "ele": "1580", "natural": "peak", "name": null, "waterway": null, "alt_name": null, "castle_type": null, "historic": null, "name:el": null, "name:en": null, "source": null, "wikidata": null, "leaf_type": null, "boundary": null, "leisure": null, "protect_class": null, "protection_title": null, "type": null, "label": "natural:peak" }, "geometry": { "type": "Point", "coordinates": [ 21.6200763, 38.721379 ] } },
{ "type": "Feature", "properties": { "element": "node", "id": 5320191170, "ele": null, "natural": null, "name": "Καταρράκτης Μαύρης Σπηλιάς", "waterway": "waterfall", "alt_name": null, "castle_type": null, "historic": null, "name:el": null, "name:en": null, "source": null, "wikidata": null, "leaf_type": null, "boundary": null, "leisure": null, "protect_class": null, "protection_title": null, "type": null, "label": "waterway:waterfall" }, "geometry": { "type": "Point", "coordinates": [ 21.6482363, 38.7326327 ] } },
{ "type": "Feature", "properties": { "element": "node", "id": 8897233639, "ele": null, "natural": null, "name": "Μαύρη Σπηλιά Προυσού", "waterway": null, "alt_name": "Πύργος Θολής", "castle_type": "fortress", "historic": "castle", "name:el": "Μαύρη Σπηλιά Προυσού", "name:en": "Black Cave of Prousos", "source": "https://www.kastra.eu/castlegr.php?kastro=blackcave", "wikidata": "Q108612419", "leaf_type": null, "boundary": null, "leisure": null, "protect_class": null, "protection_title": null, "type": null, "label": "historic:castle" }, "geometry": { "type": "Point", "coordinates": [ 21.6471457, 38.7327491 ] } },
{ "type": "Feature", "properties": { "element": "relation", "id": 10952037, "ele": null, "natural": "wood", "name": null, "waterway": null, "alt_name": null, "castle_type": null, "historic": null, "name:el": null, "name:en": null, "source": null, "wikidata": null, "leaf_type": null, "boundary": null, "leisure": null, "protect_class": null, "protection_title": null, "type": "multipolygon", "label": "natural:wood" }, "geometry": { "type": "MultiPolygon", "coordinates": [ [ [ [ 21.6330335, 38.7339495 ], [ 21.6330254, 38.7333723 ], [ 21.6330091, 38.7328712 ], [ 21.633001, 38.7324082 ], [ 21.6328221, 38.7320086 ], [ 21.6327326, 38.7316788 ], [ 21.6326513, 38.7312157 ], [ 21.6326188, 38.7307654 ], [ 21.632505, 38.730518 ], [ 21.6322936, 38.7302326 ], [ 21.6320415, 38.7299916 ], [ 21.6318952, 38.7298837 ], [ 21.6318626, 38.7301311 ], [ 21.6317, 38.730258 ], [ 21.6317895, 38.7303468 ], [ 21.6319867, 38.7304215 ], [ 21.6320253, 38.7305561 ], [ 21.6318464, 38.7306893 ], [ 21.6317813, 38.730943 ], [ 21.6317732, 38.7311713 ], [ 21.6316594, 38.7313553 ], [ 21.6315537, 38.7311016 ], [ 21.6315537, 38.7308225 ], [ 21.631501, 38.7305469 ], [ 21.6313829, 38.7304102 ], [ 21.6315049, 38.7302516 ], [ 21.6316675, 38.7300423 ], [ 21.6316675, 38.7298584 ], [ 21.631822, 38.7296998 ], [ 21.6316512, 38.7295412 ], [ 21.631513, 38.7296237 ], [ 21.6314805, 38.7299154 ], [ 21.6313585, 38.730074 ], [ 21.6311146, 38.7301628 ], [ 21.6308707, 38.7301248 ], [ 21.630765, 38.7299789 ], [ 21.6309113, 38.7298013 ], [ 21.6309113, 38.729611 ], [ 21.6307162, 38.729611 ], [ 21.6305129, 38.7297315 ], [ 21.6302608, 38.7297886 ], [ 21.6300518, 38.729893 ], [ 21.6296185, 38.7294841 ], [ 21.6293754, 38.729539 ], [ 21.6292119, 38.72963 ], [ 21.6289355, 38.7295602 ], [ 21.6288991, 38.7293508 ], [ 21.6286834, 38.7290465 ], [ 21.6284476, 38.728742 ], [ 21.6282606, 38.7284121 ], [ 21.6280655, 38.728076 ], [ 21.6278134, 38.7277778 ], [ 21.6276345, 38.7274416 ], [ 21.6274882, 38.7271752 ], [ 21.6275207, 38.7268264 ], [ 21.6274882, 38.7264711 ], [ 21.6273662, 38.7260652 ], [ 21.6275044, 38.7257734 ], [ 21.627537, 38.7253928 ], [ 21.6275126, 38.7250629 ], [ 21.6273662, 38.724714 ], [ 21.6272117, 38.7244666 ], [ 21.6271711, 38.7241304 ], [ 21.6269922, 38.7238894 ], [ 21.626732, 38.7237625 ], [ 21.6264718, 38.723883 ], [ 21.6263986, 38.7241304 ], [ 21.626171, 38.7242954 ], [ 21.6259921, 38.7246506 ], [ 21.6262279, 38.7246633 ], [ 21.62671, 38.724728 ], [ 21.625345, 38.725105 ], [ 21.6241, 38.725918 ], [ 21.624214, 38.727034 ], [ 21.62288, 38.730434 ], [ 21.622483, 38.731951 ], [ 21.621623, 38.731458 ], [ 21.621645, 38.730807 ], [ 21.621659, 38.730392 ], [ 21.62182, 38.730099 ], [ 21.621996, 38.729332 ], [ 21.62209, 38.728801 ], [ 21.622105, 38.728327 ], [ 21.621966, 38.727968 ], [ 21.621144, 38.727655 ], [ 21.620109, 38.727701 ], [ 21.62003, 38.728406 ], [ 21.620119, 38.729116 ], [ 21.620325, 38.729694 ], [ 21.620418, 38.730315 ], [ 21.620394, 38.731022 ], [ 21.620199, 38.731814 ], [ 21.619665, 38.732598 ], [ 21.619101, 38.732587 ], [ 21.618853069319364, 38.732437997324944 ], [ 21.618853069319364, 38.734057831131786 ], [ 21.63305766160526, 38.734057831131786 ], [ 21.6330335, 38.7339495 ] ] ], [ [ [ 21.619066, 38.7262081 ], [ 21.619066, 38.7259989 ], [ 21.618853069319364, 38.72602726494177 ], [ 21.618853069319364, 38.726346525615298 ], [ 21.619066, 38.7262081 ] ] ] ] } },
{ "type": "Feature", "properties": { "element": "relation", "id": 10968978, "ele": null, "natural": "wood", "name": null, "waterway": null, "alt_name": null, "castle_type": null, "historic": null, "name:el": null, "name:en": null, "source": null, "wikidata": null, "leaf_type": null, "boundary": null, "leisure": null, "protect_class": null, "protection_title": null, "type": "multipolygon", "label": "natural:wood" }, "geometry": { "type": "Polygon", "coordinates": [ [ [ 21.6445051, 38.7139309 ], [ 21.6445681, 38.7138562 ], [ 21.6446218, 38.7137378 ], [ 21.6446989, 38.7136849 ], [ 21.6447199, 38.7135082 ], [ 21.6446942, 38.7133807 ], [ 21.6447946, 38.7133224 ], [ 21.644944, 38.7133752 ], [ 21.644944, 38.7134645 ], [ 21.6449978, 38.713459 ], [ 21.6450748, 38.7134025 ], [ 21.6452126, 38.7134918 ], [ 21.6453247, 38.713572 ], [ 21.6453667, 38.7136485 ], [ 21.645348, 38.7137469 ], [ 21.6454087, 38.7137469 ], [ 21.6454507, 38.7138416 ], [ 21.6455768, 38.7139436 ], [ 21.6456866, 38.7139928 ], [ 21.6457593, 38.7138612 ], [ 21.6458613, 38.7138068 ], [ 21.6460329, 38.7139115 ], [ 21.646226, 38.7139491 ], [ 21.6463655, 38.7139031 ], [ 21.6464406, 38.7137859 ], [ 21.6463952, 38.7136726 ], [ 21.646582, 38.713482 ], [ 21.647198, 38.712439 ], [ 21.645223, 38.711824 ], [ 21.645237, 38.711387 ], [ 21.645184393218123, 38.711148679043959 ], [ 21.626321891325752, 38.711148679043959 ], [ 21.626303, 38.711225 ], [ 21.626136, 38.711696 ], [ 21.625514, 38.712217 ], [ 21.62442, 38.71206 ], [ 21.624065, 38.712236 ], [ 21.623652, 38.712409 ], [ 21.623585, 38.712682 ], [ 21.623749, 38.713004 ], [ 21.624376, 38.713381 ], [ 21.624591, 38.713933 ], [ 21.624568, 38.714616 ], [ 21.623911, 38.715149 ], [ 21.623259, 38.715501 ], [ 21.62301, 38.715997 ], [ 21.623051, 38.716499 ], [ 21.623627, 38.716693 ], [ 21.624442, 38.716664 ], [ 21.625262, 38.716499 ], [ 21.625267, 38.716362 ], [ 21.62562, 38.716232 ], [ 21.626134, 38.716516 ], [ 21.62618, 38.716882 ], [ 21.626047, 38.717381 ], [ 21.626086, 38.717974 ], [ 21.626588, 38.718622 ], [ 21.627326, 38.719184 ], [ 21.628017, 38.71938 ], [ 21.628483, 38.71939 ], [ 21.628787, 38.718986 ], [ 21.628883, 38.717848 ], [ 21.628908, 38.717074 ], [ 21.628402, 38.716562 ], [ 21.628256, 38.715693 ], [ 21.628593, 38.714287 ], [ 21.628975, 38.713292 ], [ 21.629181, 38.712339 ], [ 21.629599, 38.712029 ], [ 21.63018, 38.712041 ], [ 21.630581, 38.712231 ], [ 21.63068, 38.712734 ], [ 21.630499, 38.712959 ], [ 21.630303, 38.713593 ], [ 21.630103, 38.714364 ], [ 21.630128, 38.715367 ], [ 21.630676, 38.716655 ], [ 21.631535, 38.716303 ], [ 21.63191, 38.715567 ], [ 21.631778, 38.715016 ], [ 21.631748, 38.714388 ], [ 21.631915, 38.713882 ], [ 21.63222, 38.713732 ], [ 21.632517, 38.713816 ], [ 21.632917, 38.713824 ], [ 21.633277, 38.713518 ], [ 21.633658, 38.712585 ], [ 21.634307, 38.711669 ], [ 21.635649, 38.712102 ], [ 21.635888, 38.712917 ], [ 21.636066, 38.713521 ], [ 21.635465, 38.713915 ], [ 21.634905, 38.714217 ], [ 21.634205, 38.715047 ], [ 21.634065, 38.715552 ], [ 21.634115, 38.715952 ], [ 21.634739, 38.716212 ], [ 21.635305, 38.716586 ], [ 21.635473, 38.716697 ], [ 21.636566, 38.716708 ], [ 21.636607, 38.717587 ], [ 21.636593, 38.718025 ], [ 21.636584, 38.7183 ], [ 21.636352, 38.719018 ], [ 21.636246, 38.720082 ], [ 21.63606, 38.721369 ], [ 21.635889, 38.722207 ], [ 21.634811, 38.722289 ], [ 21.634479, 38.723694 ], [ 21.634066, 38.725369 ], [ 21.632627, 38.725564 ], [ 21.631408, 38.724978 ], [ 21.631314, 38.724545 ], [ 21.631363, 38.723837 ], [ 21.631505, 38.723516 ], [ 21.631579, 38.722387 ], [ 21.631351, 38.720667 ], [ 21.630454, 38.720157 ], [ 21.62891, 38.720209 ], [ 21.627564, 38.720784 ], [ 21.62715, 38.722169 ], [ 21.6270712, 38.7235991 ], [ 21.627496, 38.7242397 ], [ 21.6278357, 38.724941 ], [ 21.6278499, 38.725184 ], [ 21.6277791, 38.7254104 ], [ 21.6277437, 38.7255595 ], [ 21.6277579, 38.7257915 ], [ 21.6276517, 38.72604 ], [ 21.6276446, 38.7262222 ], [ 21.6278286, 38.7266916 ], [ 21.6278286, 38.7268793 ], [ 21.6277564, 38.7270535 ], [ 21.6277671, 38.7272711 ], [ 21.6279602, 38.7274636 ], [ 21.6280782, 38.7277147 ], [ 21.6282821, 38.7278905 ], [ 21.6284001, 38.7281625 ], [ 21.6285503, 38.7284429 ], [ 21.6287863, 38.7287567 ], [ 21.6290545, 38.7291292 ], [ 21.6293281, 38.7292506 ], [ 21.6295105, 38.7290706 ], [ 21.6296596, 38.7290072 ], [ 21.6297466, 38.7289702 ], [ 21.6299397, 38.7290915 ], [ 21.6299128, 38.729351 ], [ 21.6301811, 38.729238 ], [ 21.6305298, 38.7291459 ], [ 21.6308731, 38.7291585 ], [ 21.6310877, 38.7291083 ], [ 21.6312271, 38.7291794 ], [ 21.6315007, 38.729171 ], [ 21.6317368, 38.7290329 ], [ 21.631844, 38.7291585 ], [ 21.6318977, 38.7293803 ], [ 21.6321444, 38.7296356 ], [ 21.6324288, 38.7297946 ], [ 21.6326487, 38.7296188 ], [ 21.6329223, 38.7295895 ], [ 21.6331587, 38.7297508 ], [ 21.632918, 38.7299827 ], [ 21.6326419, 38.7301428 ], [ 21.6327279, 38.7303462 ], [ 21.6328097, 38.7304937 ], [ 21.6328344, 38.7307389 ], [ 21.6328344, 38.7310513 ], [ 21.6329071, 38.7315543 ], [ 21.6329632, 38.7318275 ], [ 21.6330893, 38.7320169 ], [ 21.633164, 38.7322573 ], [ 21.6331827, 38.7324832 ], [ 21.633178, 38.7328876 ], [ 21.6331827, 38.7333393 ], [ 21.6332571, 38.7338924 ], [ 21.6337108, 38.7335773 ], [ 21.6337108, 38.7333399 ], [ 21.6333923, 38.7330528 ], [ 21.6333781, 38.7328595 ], [ 21.6336754, 38.7327546 ], [ 21.6340222, 38.7327491 ], [ 21.6343195, 38.7328706 ], [ 21.6346027, 38.7331025 ], [ 21.6348716, 38.732981 ], [ 21.6349353, 38.7327104 ], [ 21.6351689, 38.7325558 ], [ 21.6352609, 38.7321914 ], [ 21.6352963, 38.7318822 ], [ 21.6350415, 38.7315398 ], [ 21.6354025, 38.7314515 ], [ 21.6355087, 38.7311478 ], [ 21.6355087, 38.7308827 ], [ 21.6353034, 38.730684 ], [ 21.6353034, 38.7303858 ], [ 21.6350486, 38.7301207 ], [ 21.6347725, 38.7300434 ], [ 21.6347301, 38.7298336 ], [ 21.6344469, 38.7297729 ], [ 21.6342841, 38.7300379 ], [ 21.6340081, 38.7297839 ], [ 21.6336754, 38.7295685 ], [ 21.6336542, 38.7293532 ], [ 21.6339939, 38.7294691 ], [ 21.6342063, 38.7296514 ], [ 21.6345036, 38.7295961 ], [ 21.6347796, 38.7296679 ], [ 21.635268, 38.7296458 ], [ 21.6356573, 38.7296514 ], [ 21.636556, 38.729928 ], [ 21.638698, 38.730415 ], [ 21.639615, 38.73119 ], [ 21.639045, 38.732124 ], [ 21.638236, 38.733589 ], [ 21.637112, 38.733517 ], [ 21.636295, 38.733586 ], [ 21.635995248457455, 38.734057831131786 ], [ 21.643661642092191, 38.734057831131786 ], [ 21.6446068, 38.7322597 ], [ 21.644716, 38.732052 ], [ 21.644352, 38.731538 ], [ 21.643712, 38.730812 ], [ 21.642876, 38.730365 ], [ 21.642079, 38.73027 ], [ 21.641603, 38.729516 ], [ 21.641469, 38.729043 ], [ 21.641799, 38.728438 ], [ 21.641973, 38.726889 ], [ 21.642277, 38.725198 ], [ 21.6419606, 38.7217204 ], [ 21.641898, 38.721033 ], [ 21.642417, 38.719042 ], [ 21.6424037, 38.7188639 ], [ 21.6423849, 38.7186117 ], [ 21.642232, 38.716565 ], [ 21.64227, 38.715013 ], [ 21.642557, 38.714452 ], [ 21.644212, 38.714052 ], [ 21.6443977, 38.714052 ], [ 21.6444023, 38.713971 ], [ 21.6445051, 38.7139309 ] ] ] } },
{ "type": "Feature", "properties": { "element": "way", "id": 135871127, "ele": null, "natural": "wood", "name": null, "waterway": null, "alt_name": null, "castle_type": null, "historic": null, "name:el": null, "name:en": null, "source": "http://geodata.gov.gr/", "wikidata": null, "leaf_type": "needleleaved", "boundary": null, "leisure": null, "protect_class": null, "protection_title": null, "type": null, "label": "natural:wood" }, "geometry": { "type": "Polygon", "coordinates": [ [ [ 21.644212, 38.714052 ], [ 21.642557, 38.714452 ], [ 21.64227, 38.715013 ], [ 21.642232, 38.716565 ], [ 21.6423849, 38.7186117 ], [ 21.6424037, 38.7188639 ], [ 21.642417, 38.719042 ], [ 21.641898, 38.721033 ], [ 21.6419606, 38.7217204 ], [ 21.642277, 38.725198 ], [ 21.641973, 38.726889 ], [ 21.641799, 38.728438 ], [ 21.641469, 38.729043 ], [ 21.641603, 38.729516 ], [ 21.642079, 38.73027 ], [ 21.642876, 38.730365 ], [ 21.643712, 38.730812 ], [ 21.644352, 38.731538 ], [ 21.644716, 38.732052 ], [ 21.645593, 38.731666 ], [ 21.645674, 38.731086 ], [ 21.645436, 38.73079 ], [ 21.645078, 38.730395 ], [ 21.644905, 38.730004 ], [ 21.645041, 38.729618 ], [ 21.645604, 38.729436 ], [ 21.646283, 38.729498 ], [ 21.647572, 38.729863 ], [ 21.648504377389369, 38.730751177564379 ], [ 21.648504377389369, 38.7252225201211 ], [ 21.648444, 38.724541 ], [ 21.648497, 38.723699 ], [ 21.648215, 38.723145 ], [ 21.647418, 38.723051 ], [ 21.646496, 38.723974 ], [ 21.6463214, 38.7238501 ], [ 21.6461468, 38.7238876 ], [ 21.6460045, 38.7239985 ], [ 21.6461433, 38.7241571 ], [ 21.6461803, 38.7243157 ], [ 21.6460306, 38.7242635 ], [ 21.6458945, 38.7242949 ], [ 21.645815, 38.7243969 ], [ 21.645837, 38.7245214 ], [ 21.6456659, 38.7247301 ], [ 21.6455881, 38.7245296 ], [ 21.6456022, 38.7242632 ], [ 21.645628, 38.724005 ], [ 21.6457816, 38.7238738 ], [ 21.645822, 38.7237426 ], [ 21.6458408, 38.7234051 ], [ 21.6460966, 38.7231453 ], [ 21.6462245, 38.7229077 ], [ 21.6462118, 38.7226215 ], [ 21.6459909, 38.7225023 ], [ 21.6459386, 38.7223502 ], [ 21.645911, 38.721082 ], [ 21.646069, 38.720589 ], [ 21.646319, 38.717387 ], [ 21.6461569, 38.7155385 ], [ 21.6462867, 38.7154394 ], [ 21.6464221, 38.7153775 ], [ 21.6464781, 38.7152427 ], [ 21.6464314, 38.7150933 ], [ 21.6464501, 38.7149949 ], [ 21.6463614, 38.7149147 ], [ 21.646268, 38.7147653 ], [ 21.646226, 38.7146487 ], [ 21.6461746, 38.7145248 ], [ 21.6460625, 38.7144705 ], [ 21.6459504, 38.7144629 ], [ 21.645871, 38.7143572 ], [ 21.6457216, 38.7143354 ], [ 21.6456702, 38.714288 ], [ 21.6456702, 38.7142042 ], [ 21.6455862, 38.7142443 ], [ 21.6455768, 38.714339 ], [ 21.6455021, 38.7143499 ], [ 21.6455441, 38.714441 ], [ 21.6455021, 38.7145248 ], [ 21.6453713, 38.7145358 ], [ 21.6452359, 38.7144447 ], [ 21.6450631, 38.7144848 ], [ 21.6450024, 38.714441 ], [ 21.6449604, 38.7143427 ], [ 21.644867, 38.7143754 ], [ 21.644867, 38.7144665 ], [ 21.6449417, 38.7145394 ], [ 21.6450818, 38.7145649 ], [ 21.6451752, 38.7145504 ], [ 21.6451752, 38.7146196 ], [ 21.6450771, 38.714656 ], [ 21.6449043, 38.7146269 ], [ 21.6448109, 38.7145248 ], [ 21.6446428, 38.7144483 ], [ 21.6445915, 38.7143244 ], [ 21.6446989, 38.7143244 ], [ 21.6447829, 38.7143572 ], [ 21.6447829, 38.7142661 ], [ 21.6446802, 38.7142042 ], [ 21.6445261, 38.7141787 ], [ 21.6444233, 38.7141167 ], [ 21.6443977, 38.714052 ], [ 21.644212, 38.714052 ] ] ] } },
{ "type": "Feature", "properties": { "element": "way", "id": 138542959, "ele": null, "natural": null, "name": "Προυσός", "waterway": null, "alt_name": null, "castle_type": null, "historic": null, "name:el": null, "name:en": "Prousos", "source": "http://geodata.gov.gr/", "wikidata": null, "leaf_type": null, "boundary": "protected_area", "leisure": "nature_reserve", "protect_class": "4", "protection_title": "Wildlife Refugee", "type": null, "label": "leisure:nature_reserve" }, "geometry": { "type": "Polygon", "coordinates": [ [ [ 21.648459, 38.7161767 ], [ 21.6466546, 38.7160098 ], [ 21.6444456, 38.7161139 ], [ 21.6430531, 38.7165364 ], [ 21.6409929, 38.7170534 ], [ 21.6397735, 38.7173171 ], [ 21.6386149, 38.7178929 ], [ 21.6378352, 38.7185844 ], [ 21.6371413, 38.7191155 ], [ 21.6360399, 38.7196023 ], [ 21.6345891, 38.7199784 ], [ 21.6326998, 38.7201068 ], [ 21.6310716, 38.7201414 ], [ 21.6286001, 38.7201588 ], [ 21.6266234, 38.7202448 ], [ 21.62456, 38.7204192 ], [ 21.6222652, 38.7207329 ], [ 21.6205521, 38.7210629 ], [ 21.618853069319364, 38.721294864203159 ], [ 21.618853069319364, 38.734057831131786 ], [ 21.648504377389369, 38.734057831131786 ], [ 21.648504377389369, 38.716182296867565 ], [ 21.648459, 38.7161767 ] ] ] } },
{ "type": "Feature", "properties": { "element": "way", "id": 550868503, "ele": null, "natural": null, "name": null, "waterway": "stream", "alt_name": null, "castle_type": null, "historic": null, "name:el": null, "name:en": null, "source": null, "wikidata": null, "leaf_type": null, "boundary": null, "leisure": null, "protect_class": null, "protection_title": null, "type": null, "label": "waterway:stream" }, "geometry": { "type": "LineString", "coordinates": [ [ 21.647903, 38.7325502 ], [ 21.6482363, 38.7326327 ], [ 21.648504377389369, 38.732675561947779 ] ] } },
{ "type": "Feature", "properties": { "element": "way", "id": 788943773, "ele": null, "natural": "wood", "name": null, "waterway": null, "alt_name": null, "castle_type": null, "historic": null, "name:el": null, "name:en": null, "source": null, "wikidata": null, "leaf_type": "mixed", "boundary": null, "leisure": null, "protect_class": null, "protection_title": null, "type": null, "label": "natural:wood" }, "geometry": { "type": "Polygon", "coordinates": [ [ [ 21.619105, 38.721399 ], [ 21.619603, 38.720528 ], [ 21.62018, 38.720099 ], [ 21.620537, 38.718636 ], [ 21.61947, 38.718028 ], [ 21.619449, 38.71683 ], [ 21.620076, 38.71423 ], [ 21.621757, 38.711687 ], [ 21.6220079, 38.7116136 ], [ 21.6220974, 38.7113852 ], [ 21.6220974, 38.711148679043959 ], [ 21.618853069319364, 38.711148679043959 ], [ 21.618853069319364, 38.721642342134707 ], [ 21.619105, 38.721399 ] ] ] } },
{ "type": "Feature", "properties": { "element": "way", "id": 1414968259, "ele": null, "natural": "wood", "name": null, "waterway": null, "alt_name": null, "castle_type": null, "historic": null, "name:el": null, "name:en": null, "source": null, "wikidata": null, "leaf_type": null, "boundary": null, "leisure": null, "protect_class": null, "protection_title": null, "type": null, "label": "natural:wood" }, "geometry": { "type": "Polygon", "coordinates": [ [ [ 21.6443197, 38.7339746 ], [ 21.6442082, 38.7337872 ], [ 21.6443412, 38.7332884 ], [ 21.6445, 38.7328632 ], [ 21.6445987, 38.732495 ], [ 21.6446068, 38.7322597 ], [ 21.643661642092191, 38.734057831131786 ], [ 21.644385164550087, 38.734057831131786 ], [ 21.6443197, 38.7339746 ] ] ] } }
]
}
