{
"type": "FeatureCollection",
"name": "patch_1575_multipolygon",
"crs": { "type": "name", "properties": { "name": "urn:ogc:def:crs:OGC:1.3:CRS84" } },
"features": [
{ "type": "Feature", "properties": { "element": "relation", "id": 10952037, "ele": null, "natural": "wood", "name": null, "waterway": null, "alt_name": null, "castle_type": null, "historic": null, "name:el": null, "name:en": null, "source": null, "wikidata": null, "leaf_type": null, "boundary": null, "leisure": null, "protect_class": null, "protection_title": null, "type": "multipolygon", "label": "natural:wood" }, "geometry": { "type": "MultiPolygon", "coordinates": [ [ [ [ 21.6330335, 38.7339495 ], [ 21.6330254, 38.7333723 ], [ 21.6330091, 38.7328712 ], [ 21.633001, 38.7324082 ], [ 21.6328221, 38.7320086 ], [ 21.6327326, 38.7316788 ], [ 21.6326513, 38.7312157 ], [ 21.6326188, 38.7307654 ], [ 21.632505, 38.730518 ], [ 21.6322936, 38.7302326 ], [ 21.6320415, 38.7299916 ], [ 21.6318952, 38.7298837 ], [ 21.6318626, 38.7301311 ], [ 21.6317, 38.730258 ], [ 21.6317895, 38.7303468 ], [ 21.6319867, 38.7304215 ], [ 21.6320253, 38.7305561 ], [ 21.6318464, 38.7306893 ], [ 21.6317813, 38.730943 ], [ 21.6317732, 38.7311713 ], [ 21.6316594, 38.7313553 ], [ 21.6315537, 38.7311016 ], [ 21.6315537, 38.7308225 ], [ 21.631501, 38.7305469 ], [ 21.6313829, 38.7304102 ], [ 21.6315049, 38.7302516 ], [ 21.6316675, 38.7300423 ], [ 21.6316675, 38.7298584 ], [ 21.631822, 38.7296998 ], [ 21.6316512, 38.7295412 ], [ 21.631513, 38.7296237 ], [ 21.6314805, 38.7299154 ], [ 21.6313585, 38.730074 ], [ 21.6311146, 38.7301628 ], [ 21.6308707, 38.7301248 ], [ 21.630765, 38.7299789 ], [ 21.6309113, 38.7298013 ], [ 21.6309113, 38.729611 ], [ 21.6307162, 38.729611 ], [ 21.6305129, 38.7297315 ], [ 21.6302608, 38.7297886 ], [ 21.6300518, 38.729893 ], [ 21.6296185, 38.7294841 ], [ 21.6293754, 38.729539 ], [ 21.6292119, 38.72963 ], [ 21.6289355, 38.7295602 ], [ 21.6288991, 38.7293508 ], [ 21.6286834, 38.7290465 ], [ 21.6284476, 38.728742 ], [ 21.6282606, 38.7284121 ], [ 21.6280655, 38.728076 ], [ 21.6278134, 38.7277778 ], [ 21.6276345, 38.7274416 ], [ 21.6274882, 38.7271752 ], [ 21.6275207, 38.7268264 ], [ 21.6274882, 38.7264711 ], [ 21.6273662, 38.7260652 ], [ 21.6275044, 38.7257734 ], [ 21.627537, 38.7253928 ], [ 21.6275126, 38.7250629 ], [ 21.6273662, 38.724714 ], [ 21.6272117, 38.7244666 ], [ 21.6271711, 38.7241304 ], [ 21.6269922, 38.7238894 ], [ 21.626732, 38.7237625 ], [ 21.6264718, 38.723883 ], [ 21.6263986, 38.7241304 ], [ 21.626171, 38.7242954 ], [ 21.6259921, 38.7246506 ], [ 21.6262279, 38.7246633 ], [ 21.62671, 38.724728 ], [ 21.625345, 38.725105 ], [ 21.6241, 38.725918 ], [ 21.624214, 38.727034 ], [ 21.62288, 38.730434 ], [ 21.622483, 38.731951 ], [ 21.621623, 38.731458 ], [ 21.621645, 38.730807 ], [ 21.621659, 38.730392 ], [ 21.62182, 38.730099 ], [ 21.621996, 38.729332 ], [ 21.62209, 38.728801 ], [ 21.622105, 38.728327 ], [ 21.621966, 38.727968 ], [ 21.621144, 38.727655 ], [ 21.620109, 38.727701 ], [ 21.62003, 38.728406 ], [ 21.620119, 38.729116 ], [ 21.620325, 38.729694 ], [ 21.620418, 38.730315 ], [ 21.620394, 38.731022 ], [ 21.620199, 38.731814 ], [ 21.619665, 38.732598 ], [ 21.619101, 38.732587 ], [ 21.618853069319364, 38.732437997324944 ], [ 21.618853069319364, 38.734057831131786 ], [ 21.63305766160526, 38.734057831131786 ], [ 21.6330335, 38.7339495 ] ] ], [ [ [ 21.619066, 38.7262081 ], [ 21.619066, 38.7259989 ], [ 21.618853069319364, 38.72602726494177 ], [ 21.618853069319364, 38.726346525615298 ], [ 21.619066, 38.7262081 ] ] ] ] } }
]
}
