{
"type": "FeatureCollection",
"name": "patch_24283_linestring",
"crs": { "type": "name", "properties": { "name": "urn:ogc:def:crs:OGC:1.3:CRS84" } },
"features": [
{ "type": "Feature", "properties": { "osm_id": 1352544666, "name": null, "label": "natural:cliff", "natural": "cliff", "waterway": null }, "geometry": { "type": "LineString", "coordinates": [ [ 19.9405928, 39.462177300192408 ], [ 19.9406487, 39.462144500192409 ], [ 19.9406933, 39.4620963001924 ], [ 19.9409614, 39.461851400192366 ], [ 19.941053, 39.461703100192331 ], [ 19.9410619, 39.461611700192321 ], [ 19.9410284, 39.461473700192293 ], [ 19.9409971, 39.461353000192297 ], [ 19.9409115, 39.461173600192268 ], [ 19.9408722, 39.461073400192255 ], [ 19.9406559, 39.461070300192254 ], [ 19.9405536, 39.461082500192262 ], [ 19.9404868, 39.461067300192248 ], [ 19.9404946, 39.460976200192242 ], [ 19.9404553, 39.460903400192223 ], [ 19.9404514, 39.460806200192209 ], [ 19.940475, 39.46073330019221 ], [ 19.9406205, 39.460715100192196 ], [ 19.9406795, 39.460681700192204 ], [ 19.9407306, 39.460578500192177 ], [ 19.9407306, 39.460420600192158 ], [ 19.9402764, 39.460092700192121 ], [ 19.9401781, 39.460051700192103 ], [ 19.9398579, 39.459863600192072 ], [ 19.9395686, 39.459821000192065 ], [ 19.9392792, 39.459821000192065 ], [ 19.9389394, 39.459856500192082 ], [ 19.9386776, 39.459842300192072 ] ] } },
{ "type": "Feature", "properties": { "osm_id": 1348786864, "name": null, "label": "waterway:stream", "natural": null, "waterway": "stream" }, "geometry": { "type": "LineString", "coordinates": [ [ 19.9491868, 39.459864600192084 ], [ 19.9489901, 39.45979470019207 ], [ 19.9487739, 39.459749200192071 ], [ 19.9485772, 39.459758300192064 ], [ 19.9483806, 39.459728000192058 ], [ 19.948242, 39.459782200192059 ], [ 19.9480346, 39.459806900192063 ], [ 19.9477357, 39.459816000192063 ], [ 19.947429, 39.459867600192069 ] ] } },
{ "type": "Feature", "properties": { "osm_id": 10135325, "name": null, "label": "natural:coastline", "natural": "coastline", "waterway": null }, "geometry": { "type": "LineString", "coordinates": [ [ 19.954264752116412, 39.467996197852429 ], [ 19.9542058, 39.468017500193227 ], [ 19.954045, 39.468133800193257 ], [ 19.9540051, 39.46819470019328 ], [ 19.9540147, 39.468256200193281 ], [ 19.9538258, 39.468245200193273 ], [ 19.9534984, 39.468181500193261 ], [ 19.9530854, 39.468200600193263 ], [ 19.9525075, 39.468274200193285 ], [ 19.9523276, 39.468215400193259 ], [ 19.9518854, 39.468298600193286 ], [ 19.9516435, 39.468359800193276 ], [ 19.9513598, 39.468431400193296 ], [ 19.9512374, 39.468489500193293 ], [ 19.9511504, 39.468530800193321 ], [ 19.9510215, 39.468663300193342 ], [ 19.9500184, 39.468772800193349 ], [ 19.949649, 39.46869880019333 ], [ 19.949485, 39.468590700193317 ], [ 19.9492216, 39.468531000193323 ], [ 19.9480969, 39.468582900193312 ], [ 19.9474195, 39.468707500193347 ], [ 19.9466891, 39.468882700193362 ], [ 19.946216, 39.469028300193393 ], [ 19.9458922, 39.469183900193407 ], [ 19.9457447, 39.469208900193408 ], [ 19.9454317, 39.469329700193427 ], [ 19.945142, 39.469483800193451 ], [ 19.9449323, 39.469684900193471 ], [ 19.9446959, 39.46991990019351 ], [ 19.9443487, 39.47020180019355 ], [ 19.9438018, 39.470526700193602 ], [ 19.9436813, 39.470692000193623 ], [ 19.9429276, 39.471085000193675 ], [ 19.9422613, 39.471151400193676 ], [ 19.9420893, 39.471198900193684 ], [ 19.9421, 39.471135000193676 ], [ 19.9420479, 39.471072500193671 ], [ 19.941922, 39.470997500193661 ], [ 19.941796, 39.47098220019366 ], [ 19.9416413, 39.471022500193655 ], [ 19.941555, 39.471110000193683 ], [ 19.9414237, 39.471136400193679 ], [ 19.9412258, 39.471116900193678 ], [ 19.9409182, 39.471182200193695 ], [ 19.9407616, 39.471283600193701 ], [ 19.9405584, 39.471330800193705 ], [ 19.9402058, 39.471353000193702 ], [ 19.9400619, 39.471447400193732 ], [ 19.9399611, 39.471471000193731 ], [ 19.9398262, 39.471454400193714 ], [ 19.9396391, 39.47137800019371 ], [ 19.9392694, 39.471359300193726 ], [ 19.9391048, 39.47131970019371 ], [ 19.9387253, 39.471418300193726 ], [ 19.9384626, 39.471578000193738 ], [ 19.9377642, 39.471907900193784 ], [ 19.9372244, 39.472277700193835 ], [ 19.9371415, 39.47252080019387 ], [ 19.9369168, 39.472801000193925 ], [ 19.9368339, 39.472995800193942 ], [ 19.9364844, 39.473365700193987 ], [ 19.9364525, 39.473588900194038 ], [ 19.9363143, 39.473706900194053 ], [ 19.9363278, 39.473855000194064 ], [ 19.9362938, 39.473916200194068 ], [ 19.9361117, 39.474032600194107 ], [ 19.9359827, 39.47417050019412 ], [ 19.9359422, 39.474375300194147 ], [ 19.9358722, 39.474507500194157 ], [ 19.935804607808652, 39.474577499626214 ] ] } }
]
}
