{
"type": "FeatureCollection",
"name": "patch_75902_multilinestring",
"crs": { "type": "name", "properties": { "name": "urn:ogc:def:crs:OGC:1.3:CRS84" } },
"features": [
{ "type": "Feature", "properties": { "element": "way", "id": 434989727, "amenity": null, "name": null, "tourism": null, "denomination": null, "religion": null, "brand": null, "brand:wikidata": null, "compressed_air": null, "fuel:diesel": null, "fuel:octane_95": null, "check_date": null, "cuisine": null, "toilets:wheelchair": null, "wheelchair": null, "alt_name": null, "phone": null, "website": null, "rental": null, "outdoor_seating": null, "shop": null, "collection_times:signed": null, "operator": null, "operator:el": null, "operator:en": null, "operator:wikidata": null, "short_name": null, "email": null, "int_name": null, "breakfast": null, "internet_access": null, "opening_hours": null, "description:ru": null, "dispensing": null, "healthcare": null, "atm": null, "addr:city": null, "addr:postcode": null, "addr:street": null, "smoking": null, "description": null, "old_name": null, "cafe": null, "leisure": null, "url": null, "contact:mobile": null, "contact:phone": null, "fixme": null, "toilets": null, "indoor_seating": null, "name:el": null, "name:en": null, "description:en": null, "isced:level": null, "school": null, "name:bg": null, "phone:mobile": null, "addr:unit": null, "healthcare:speciality": null, "opening_hours:covid19": null, "organic": null, "origin": null, "delivery": null, "fax": null, "mobile": null, "designation": null, "source": null, "takeaway": null, "natural": "coastline", "backrest": null, "building": null, "leaf_type": null, "female": null, "male": null, "drink:liquor": null, "gift": null, "addr:country": null, "air_conditioning": null, "internet_access:fee": null, "rooms": null, "direction": null, "cash_in": null, "indoor": null, "cocktails": null, "check_date:opening_hours": null, "covered": null, "hiking": null, "information": null, "map_type": null, "material": null, "armrest": null, "bottle": null, "fountain": null, "motorboat_rental": null, "man_made": null, "recycling:glass_bottles": null, "recycling:plastic_bottles": null, "recycling:plastic_packaging": null, "recycling:waste": null, "recycling_type": null, "contact:email": null, "contact:website": null, "office": null, "ref:GR:kepId": null, "beauty": null, "historic": null, "memorial": null, "support": null, "recycling:clothes": null, "recycling:shoes": null, "inscription": null, "access": null, "attraction": null, "reservation": null, "sport": null, "authentication:app": null, "capacity": null, "fee": null, "lit": null, "motorcar": null, "payment:app": null, "ref": null, "ref:EU:EVSE": null, "ref:GR:IDRO": null, "socket:type2": null, "socket:type2:output": null, "note": null, "landuse": null, "waterway": null, "name:etymology": null, "surface": null, "wikidata": null, "wikipedia": null, "intermittent": null, "building:levels": null, "roof:levels": null, "roof:shape": null, "community_centre": null, "operator:type": null, "addr:housenumber": null, "location": null, "stars": null, "image": null, "water": null, "seamark:harbour:category": null, "seamark:type": null, "contact:fax": null, "swimming_pool": null, "donor": null, "wikimedia_commons": null, "disused:amenity": null, "generator:method": null, "generator:output": null, "generator:source": null, "power": null, "parking": null, "layer": null, "tunnel": null, "bar": null, "animal_keeping": null, "animal_keeping:type": null, "type": null, "label": "natural:coastline" }, "geometry": { "type": "MultiLineString", "coordinates": [ [ [ 24.263629962988276, 35.361781616324265 ], [ 24.2630495, 35.3623635 ], [ 24.262886, 35.3626348 ], [ 24.262252, 35.3635089 ], [ 24.2619373, 35.3643689 ], [ 24.2636, 35.3656959 ], [ 24.263629962988276, 35.365689250459823 ] ], [ [ 24.263629962988276, 35.365967393712317 ], [ 24.2635815, 35.36596 ], [ 24.2634811, 35.3660291 ], [ 24.2633994, 35.3659725 ], [ 24.2634359, 35.3658529 ], [ 24.2634811, 35.3657413 ], [ 24.2635428, 35.3657178 ], [ 24.2620582, 35.3645273 ], [ 24.2619753, 35.3646056 ], [ 24.2619372, 35.3646575 ], [ 24.2619511, 35.364847 ], [ 24.2620568, 35.3649926 ], [ 24.2625776, 35.3654356 ], [ 24.26268, 35.3655596 ], [ 24.2626191, 35.365602 ], [ 24.2620613, 35.3651466 ], [ 24.2616511, 35.3648609 ], [ 24.2613854, 35.3646966 ], [ 24.2604215, 35.3641204 ], [ 24.2604648, 35.3640567 ], [ 24.2604355, 35.3640347 ], [ 24.2603753, 35.3640996 ], [ 24.259827, 35.3638582 ], [ 24.2597261, 35.3639469 ], [ 24.2596679, 35.3640013 ], [ 24.2596797, 35.3640127 ], [ 24.25965, 35.3640484 ], [ 24.2604501, 35.3646091 ], [ 24.2605523, 35.3648883 ], [ 24.260632, 35.3651055 ], [ 24.2606783, 35.3652528 ], [ 24.2608207, 35.3652252 ], [ 24.2613298, 35.3653878 ], [ 24.2616091, 35.36554 ], [ 24.2616502, 35.3656199 ], [ 24.2617496, 35.3656878 ], [ 24.2622513, 35.3656772 ], [ 24.2622538, 35.3657149 ], [ 24.2617375, 35.3657244 ], [ 24.2616411, 35.3658978 ], [ 24.2613474, 35.3658005 ], [ 24.2611277, 35.3658792 ], [ 24.2609539, 35.3660333 ], [ 24.2607896, 35.3664095 ], [ 24.2606956, 35.3669359 ], [ 24.2607379, 35.3672211 ], [ 24.2609007, 35.3675361 ], [ 24.2610438, 35.3676649 ], [ 24.2610816, 35.3677767 ], [ 24.2610057, 35.3678236 ], [ 24.2608564, 35.3678331 ], [ 24.260922, 35.3679101 ], [ 24.260971, 35.3679759 ], [ 24.261243, 35.3679844 ], [ 24.2619519, 35.367877 ], [ 24.2620558, 35.3678171 ], [ 24.2621702, 35.3677967 ], [ 24.2623833, 35.3678603 ], [ 24.2624251, 35.3679369 ], [ 24.2625454, 35.3680263 ], [ 24.2626017, 35.3681411 ], [ 24.262551, 35.3681874 ], [ 24.2627375, 35.3683576 ], [ 24.262916, 35.3684127 ], [ 24.2630265, 35.3685117 ], [ 24.2630888, 35.3692146 ], [ 24.2629511, 35.369406 ], [ 24.2623785, 35.3698825 ], [ 24.2619415, 35.3704645 ], [ 24.2617012, 35.3712781 ], [ 24.2617125, 35.3713918 ], [ 24.2615495, 35.3716786 ], [ 24.2615521, 35.3719674 ], [ 24.2609237, 35.3728971 ], [ 24.2602056, 35.3743248 ], [ 24.259347635904579, 35.375058360669662 ] ] ] } }
]
}
