{
"type": "FeatureCollection",
"name": "patch_53466_linestring",
"crs": { "type": "name", "properties": { "name": "urn:ogc:def:crs:OGC:1.3:CRS84" } },
"features": [
{ "type": "Feature", "properties": { "element": "way", "id": 277822999, "amenity": null, "name": null, "building": null, "denomination": null, "religion": null, "source": "Bing", "historic": null, "name:el": null, "name:en": null, "leisure": null, "ele": null, "natural": null, "brand": null, "operator": null, "landuse": null, "addr:postcode": null, "wikidata": null, "wikipedia": null, "sport": null, "intermittent": "yes", "waterway": "stream", "label": "waterway:stream" }, "geometry": { "type": "LineString", "coordinates": [ [ 24.997949676865435, 35.367559973244866 ], [ 24.9979892, 35.3675405 ], [ 24.9986185, 35.3670536 ], [ 24.9995221, 35.3663826 ], [ 25.0004741, 35.3657904 ], [ 25.0011195, 35.3651062 ], [ 25.0015875, 35.3645272 ], [ 25.0021709, 35.3640523 ], [ 25.002268, 35.3639149 ], [ 25.0025692, 35.3634944 ], [ 25.0029163, 35.3632279 ], [ 25.0030746, 35.3628407 ], [ 25.0036566, 35.3624452 ], [ 25.0042693, 35.3619372 ], [ 25.004448, 35.3615231 ], [ 25.0043612, 35.3609463 ], [ 25.0043203, 35.3603759 ], [ 25.0044276, 35.3600345 ], [ 25.004545, 35.3596514 ], [ 25.0049177, 35.3592767 ], [ 25.0051729, 35.3589394 ], [ 25.0051576, 35.3586563 ], [ 25.0049789, 35.3584148 ], [ 25.0047798, 35.3581983 ], [ 25.0047747, 35.3580192 ], [ 25.0049585, 35.3576945 ], [ 25.0053976, 35.3575196 ], [ 25.0054691, 35.3572115 ], [ 25.0052291, 35.3570074 ], [ 25.0048105, 35.356895 ], [ 25.0047645, 35.3567493 ], [ 25.0050607, 35.3565507 ], [ 25.0061628, 35.3561185 ], [ 25.0072224, 35.3553234 ], [ 25.0079854, 35.3543555 ], [ 25.0083669, 35.3534393 ], [ 25.008354952813619, 35.352864595251404 ] ] } },
{ "type": "Feature", "properties": { "element": "way", "id": 547734260, "amenity": null, "name": null, "building": null, "denomination": null, "religion": null, "source": "Bing Sat", "historic": null, "name:el": null, "name:en": null, "leisure": null, "ele": null, "natural": null, "brand": null, "operator": null, "landuse": null, "addr:postcode": null, "wikidata": null, "wikipedia": null, "sport": null, "intermittent": "yes", "waterway": "stream", "label": "waterway:stream" }, "geometry": { "type": "LineString", "coordinates": [ [ 24.99927, 35.3704984 ], [ 25.0003536, 35.3708987 ], [ 25.0013273, 35.3713208 ], [ 25.0022768, 35.371533 ], [ 25.0027864, 35.3719201 ], [ 25.0033175, 35.372878 ], [ 25.0036474, 35.3732323 ], [ 25.0040148, 35.3737179 ], [ 25.0042589, 35.3741137 ], [ 25.0046023, 35.3744133 ], [ 25.005415, 35.3744111 ], [ 25.0056376, 35.3752291 ], [ 25.0061633, 35.3755571 ], [ 25.0060453, 35.375907 ] ] } },
{ "type": "Feature", "properties": { "element": "way", "id": 547734263, "amenity": null, "name": null, "building": null, "denomination": null, "religion": null, "source": "Bing Sat", "historic": null, "name:el": null, "name:en": null, "leisure": null, "ele": null, "natural": null, "brand": null, "operator": null, "landuse": null, "addr:postcode": null, "wikidata": null, "wikipedia": null, "sport": null, "intermittent": "yes", "waterway": "stream", "label": "waterway:stream" }, "geometry": { "type": "LineString", "coordinates": [ [ 25.0089735, 35.3678759 ], [ 25.0094858, 35.3680531 ], [ 25.0096217, 35.3680677 ], [ 25.0098023, 35.3680969 ], [ 25.0101859, 35.368064 ], [ 25.010403, 35.3682076 ], [ 25.0105292, 35.3682368 ], [ 25.0108404, 35.3683484 ], [ 25.0109683, 35.3684348 ], [ 25.011358, 35.3685649 ], [ 25.0116906, 35.3687399 ], [ 25.0125194, 35.3688427 ], [ 25.0131873, 35.3688274 ], [ 25.0138418, 35.3685321 ], [ 25.014338, 35.3686677 ], [ 25.0145472, 35.3686633 ], [ 25.0146868, 35.3687596 ], [ 25.0147725, 35.3688471 ], [ 25.0155423, 35.3690767 ], [ 25.016186, 35.3693982 ], [ 25.0172374, 35.3694595 ], [ 25.018085, 35.3701637 ], [ 25.0183345, 35.3704656 ], [ 25.0189004, 35.3708767 ], [ 25.0191874, 35.371032 ], [ 25.0195227, 35.370997 ], [ 25.0199518, 35.371043 ], [ 25.0205848, 35.3710845 ], [ 25.0212929, 35.3712792 ], [ 25.0222175, 35.371682 ] ] } },
{ "type": "Feature", "properties": { "element": "way", "id": 1352927258, "amenity": null, "name": null, "building": null, "denomination": null, "religion": null, "source": "Bing Sat", "historic": null, "name:el": null, "name:en": null, "leisure": null, "ele": null, "natural": null, "brand": null, "operator": null, "landuse": null, "addr:postcode": null, "wikidata": null, "wikipedia": null, "sport": null, "intermittent": "yes", "waterway": "stream", "label": "waterway:stream" }, "geometry": { "type": "LineString", "coordinates": [ [ 25.0222175, 35.371682 ], [ 25.0230095, 35.3715919 ], [ 25.0241227, 35.3715504 ], [ 25.024753, 35.3714345 ], [ 25.0254128, 35.3711589 ], [ 25.025546660635811, 35.371200307958205 ] ] } }
]
}
