{
"type": "FeatureCollection",
"name": "patch_32940_point",
"crs": { "type": "name", "properties": { "name": "urn:ogc:def:crs:OGC:1.3:CRS84" } },
"features": [
{ "type": "Feature", "properties": { "element": "node", "id": 3738899792, "addr:housenumber": "3ο ΧΛΜ", "addr:street": "ΛΕΩΦ. ΚΟΡΩΠΙΟΥ ΒΑΡΗΣ", "amenity": "fast_food", "brand": "Γρηγόρης", "brand:el": "Γρηγόρης", "brand:en": "Gregory's", "brand:wikidata": "Q62273834", "cuisine": "sandwich", "name": "Γρηγόρης", "name:el": "Γρηγόρης", "name:en": "Gregory's", "takeaway": "yes", "shop": null, "trade": null, "addr:city": null, "addr:postcode": null, "check_date": null, "operator": null, "addr:country": null, "addr:unit": null, "description": null, "phone": null, "ele": null, "man_made": null, "natural": null, "building": null, "access": null, "authentication:app": null, "authentication:membership_card": null, "capacity": null, "contact:phone": null, "contact:website": null, "covered": null, "fee": null, "lit": null, "motorcar": null, "note": null, "opening_hours": null, "parking:fee": null, "payment:app": null, "payment:website": null, "ref": null, "ref:GR:IDRO": null, "socket:type2_combo": null, "socket:type2_combo:current": null, "socket:type2_combo:output": null, "socket:type2_combo:voltage": null, "landuse": null, "source": null, "building:levels": null, "short_name": null, "religion": null, "aeroway": null, "parking": null, "surface": null, "addr:full": null, "addr:housename": null, "contact:email": null, "contact:fax": null, "brand:wikipedia": null, "fuel:diesel": null, "fuel:lpg": null, "fuel:octane_100": null, "fuel:octane_95": null, "fuel:octane_98": null, "layer": null, "park_ride": null, "hoops": null, "leisure": null, "sport": null, "operator:type": null, "website": null, "atm": null, "type": null, "label": "amenity:fast_food" }, "geometry": { "type": "Point", "coordinates": [ 23.8659104, 37.8763502 ] } },
{ "type": "Feature", "properties": { "element": "node", "id": 3793360046, "addr:housenumber": null, "addr:street": null, "amenity": null, "brand": null, "brand:el": null, "brand:en": null, "brand:wikidata": null, "cuisine": null, "name": null, "name:el": null, "name:en": null, "takeaway": null, "shop": "trade", "trade": "wood", "addr:city": null, "addr:postcode": null, "check_date": null, "operator": null, "addr:country": null, "addr:unit": null, "description": null, "phone": null, "ele": null, "man_made": null, "natural": null, "building": null, "access": null, "authentication:app": null, "authentication:membership_card": null, "capacity": null, "contact:phone": null, "contact:website": null, "covered": null, "fee": null, "lit": null, "motorcar": null, "note": null, "opening_hours": null, "parking:fee": null, "payment:app": null, "payment:website": null, "ref": null, "ref:GR:IDRO": null, "socket:type2_combo": null, "socket:type2_combo:current": null, "socket:type2_combo:output": null, "socket:type2_combo:voltage": null, "landuse": null, "source": null, "building:levels": null, "short_name": null, "religion": null, "aeroway": null, "parking": null, "surface": null, "addr:full": null, "addr:housename": null, "contact:email": null, "contact:fax": null, "brand:wikipedia": null, "fuel:diesel": null, "fuel:lpg": null, "fuel:octane_100": null, "fuel:octane_95": null, "fuel:octane_98": null, "layer": null, "park_ride": null, "hoops": null, "leisure": null, "sport": null, "operator:type": null, "website": null, "atm": null, "type": null, "label": "shop:trade" }, "geometry": { "type": "Point", "coordinates": [ 23.8612124, 37.8738063 ] } },
{ "type": "Feature", "properties": { "element": "node", "id": 3995975257, "addr:housenumber": null, "addr:street": "Βάρης - Κορωπίου", "amenity": "fast_food", "brand": null, "brand:el": null, "brand:en": null, "brand:wikidata": null, "cuisine": null, "name": "CoffeEat", "name:el": null, "name:en": null, "takeaway": null, "shop": null, "trade": null, "addr:city": "Κορωπί", "addr:postcode": "19400", "check_date": "2026-03-30", "operator": "Αικατερίνη Τσεβα", "addr:country": null, "addr:unit": null, "description": null, "phone": null, "ele": null, "man_made": null, "natural": null, "building": null, "access": null, "authentication:app": null, "authentication:membership_card": null, "capacity": null, "contact:phone": null, "contact:website": null, "covered": null, "fee": null, "lit": null, "motorcar": null, "note": null, "opening_hours": null, "parking:fee": null, "payment:app": null, "payment:website": null, "ref": null, "ref:GR:IDRO": null, "socket:type2_combo": null, "socket:type2_combo:current": null, "socket:type2_combo:output": null, "socket:type2_combo:voltage": null, "landuse": null, "source": null, "building:levels": null, "short_name": null, "religion": null, "aeroway": null, "parking": null, "surface": null, "addr:full": null, "addr:housename": null, "contact:email": null, "contact:fax": null, "brand:wikipedia": null, "fuel:diesel": null, "fuel:lpg": null, "fuel:octane_100": null, "fuel:octane_95": null, "fuel:octane_98": null, "layer": null, "park_ride": null, "hoops": null, "leisure": null, "sport": null, "operator:type": null, "website": null, "atm": null, "type": null, "label": "amenity:fast_food" }, "geometry": { "type": "Point", "coordinates": [ 23.8657521, 37.8756723 ] } },
{ "type": "Feature", "properties": { "element": "node", "id": 4872851317, "addr:housenumber": null, "addr:street": null, "amenity": null, "brand": null, "brand:el": null, "brand:en": null, "brand:wikidata": null, "cuisine": null, "name": "Θεολόγης", "name:el": null, "name:en": null, "takeaway": null, "shop": "kitchen", "trade": null, "addr:city": null, "addr:postcode": null, "check_date": null, "operator": null, "addr:country": null, "addr:unit": null, "description": null, "phone": null, "ele": null, "man_made": null, "natural": null, "building": null, "access": null, "authentication:app": null, "authentication:membership_card": null, "capacity": null, "contact:phone": null, "contact:website": null, "covered": null, "fee": null, "lit": null, "motorcar": null, "note": null, "opening_hours": null, "parking:fee": null, "payment:app": null, "payment:website": null, "ref": null, "ref:GR:IDRO": null, "socket:type2_combo": null, "socket:type2_combo:current": null, "socket:type2_combo:output": null, "socket:type2_combo:voltage": null, "landuse": null, "source": null, "building:levels": null, "short_name": null, "religion": null, "aeroway": null, "parking": null, "surface": null, "addr:full": null, "addr:housename": null, "contact:email": null, "contact:fax": null, "brand:wikipedia": null, "fuel:diesel": null, "fuel:lpg": null, "fuel:octane_100": null, "fuel:octane_95": null, "fuel:octane_98": null, "layer": null, "park_ride": null, "hoops": null, "leisure": null, "sport": null, "operator:type": null, "website": null, "atm": null, "type": null, "label": "shop:kitchen" }, "geometry": { "type": "Point", "coordinates": [ 23.8651643, 37.8752538 ] } },
{ "type": "Feature", "properties": { "element": "node", "id": 7026356714, "addr:housenumber": "2", "addr:street": "Βάρης - Κορωπίου", "amenity": null, "brand": null, "brand:el": null, "brand:en": null, "brand:wikidata": null, "cuisine": null, "name": "Μεταξάκης Επαγγελματικά Έπιπλα", "name:el": null, "name:en": null, "takeaway": null, "shop": "furniture", "trade": null, "addr:city": "Κορωπί", "addr:postcode": "19400", "check_date": null, "operator": null, "addr:country": "GR", "addr:unit": "Χιλιόμετρο", "description": "www.e-metaxakis.com", "phone": "+30 210 6628823", "ele": null, "man_made": null, "natural": null, "building": null, "access": null, "authentication:app": null, "authentication:membership_card": null, "capacity": null, "contact:phone": null, "contact:website": null, "covered": null, "fee": null, "lit": null, "motorcar": null, "note": null, "opening_hours": null, "parking:fee": null, "payment:app": null, "payment:website": null, "ref": null, "ref:GR:IDRO": null, "socket:type2_combo": null, "socket:type2_combo:current": null, "socket:type2_combo:output": null, "socket:type2_combo:voltage": null, "landuse": null, "source": null, "building:levels": null, "short_name": null, "religion": null, "aeroway": null, "parking": null, "surface": null, "addr:full": null, "addr:housename": null, "contact:email": null, "contact:fax": null, "brand:wikipedia": null, "fuel:diesel": null, "fuel:lpg": null, "fuel:octane_100": null, "fuel:octane_95": null, "fuel:octane_98": null, "layer": null, "park_ride": null, "hoops": null, "leisure": null, "sport": null, "operator:type": null, "website": null, "atm": null, "type": null, "label": "shop:furniture" }, "geometry": { "type": "Point", "coordinates": [ 23.8736844, 37.881156 ] } },
{ "type": "Feature", "properties": { "element": "node", "id": 7788033366, "addr:housenumber": null, "addr:street": null, "amenity": null, "brand": null, "brand:el": null, "brand:en": null, "brand:wikidata": null, "cuisine": null, "name": "Osmen", "name:el": null, "name:en": null, "takeaway": null, "shop": "garden_furniture", "trade": null, "addr:city": null, "addr:postcode": null, "check_date": null, "operator": null, "addr:country": null, "addr:unit": null, "description": null, "phone": null, "ele": null, "man_made": null, "natural": null, "building": null, "access": null, "authentication:app": null, "authentication:membership_card": null, "capacity": null, "contact:phone": null, "contact:website": null, "covered": null, "fee": null, "lit": null, "motorcar": null, "note": null, "opening_hours": null, "parking:fee": null, "payment:app": null, "payment:website": null, "ref": null, "ref:GR:IDRO": null, "socket:type2_combo": null, "socket:type2_combo:current": null, "socket:type2_combo:output": null, "socket:type2_combo:voltage": null, "landuse": null, "source": null, "building:levels": null, "short_name": null, "religion": null, "aeroway": null, "parking": null, "surface": null, "addr:full": null, "addr:housename": null, "contact:email": null, "contact:fax": null, "brand:wikipedia": null, "fuel:diesel": null, "fuel:lpg": null, "fuel:octane_100": null, "fuel:octane_95": null, "fuel:octane_98": null, "layer": null, "park_ride": null, "hoops": null, "leisure": null, "sport": null, "operator:type": null, "website": null, "atm": null, "type": null, "label": "shop:garden_furniture" }, "geometry": { "type": "Point", "coordinates": [ 23.865403, 37.8758879 ] } },
{ "type": "Feature", "properties": { "element": "node", "id": 8715156522, "addr:housenumber": null, "addr:street": null, "amenity": null, "brand": null, "brand:el": null, "brand:en": null, "brand:wikidata": null, "cuisine": null, "name": "Παλάτι", "name:el": null, "name:en": null, "takeaway": null, "shop": null, "trade": null, "addr:city": null, "addr:postcode": null, "check_date": null, "operator": null, "addr:country": null, "addr:unit": null, "description": null, "phone": null, "ele": "221", "man_made": "survey_point", "natural": "peak", "building": null, "access": null, "authentication:app": null, "authentication:membership_card": null, "capacity": null, "contact:phone": null, "contact:website": null, "covered": null, "fee": null, "lit": null, "motorcar": null, "note": null, "opening_hours": null, "parking:fee": null, "payment:app": null, "payment:website": null, "ref": null, "ref:GR:IDRO": null, "socket:type2_combo": null, "socket:type2_combo:current": null, "socket:type2_combo:output": null, "socket:type2_combo:voltage": null, "landuse": null, "source": null, "building:levels": null, "short_name": null, "religion": null, "aeroway": null, "parking": null, "surface": null, "addr:full": null, "addr:housename": null, "contact:email": null, "contact:fax": null, "brand:wikipedia": null, "fuel:diesel": null, "fuel:lpg": null, "fuel:octane_100": null, "fuel:octane_95": null, "fuel:octane_98": null, "layer": null, "park_ride": null, "hoops": null, "leisure": null, "sport": null, "operator:type": null, "website": null, "atm": null, "type": null, "label": "natural:peak" }, "geometry": { "type": "Point", "coordinates": [ 23.8717199, 37.8923702 ] } },
{ "type": "Feature", "properties": { "element": "node", "id": 8715175823, "addr:housenumber": null, "addr:street": null, "amenity": null, "brand": null, "brand:el": null, "brand:en": null, "brand:wikidata": null, "cuisine": null, "name": null, "name:el": null, "name:en": null, "takeaway": null, "shop": null, "trade": null, "addr:city": null, "addr:postcode": null, "check_date": null, "operator": null, "addr:country": null, "addr:unit": null, "description": null, "phone": null, "ele": "334", "man_made": "survey_point", "natural": "peak", "building": null, "access": null, "authentication:app": null, "authentication:membership_card": null, "capacity": null, "contact:phone": null, "contact:website": null, "covered": null, "fee": null, "lit": null, "motorcar": null, "note": null, "opening_hours": null, "parking:fee": null, "payment:app": null, "payment:website": null, "ref": null, "ref:GR:IDRO": null, "socket:type2_combo": null, "socket:type2_combo:current": null, "socket:type2_combo:output": null, "socket:type2_combo:voltage": null, "landuse": null, "source": null, "building:levels": null, "short_name": null, "religion": null, "aeroway": null, "parking": null, "surface": null, "addr:full": null, "addr:housename": null, "contact:email": null, "contact:fax": null, "brand:wikipedia": null, "fuel:diesel": null, "fuel:lpg": null, "fuel:octane_100": null, "fuel:octane_95": null, "fuel:octane_98": null, "layer": null, "park_ride": null, "hoops": null, "leisure": null, "sport": null, "operator:type": null, "website": null, "atm": null, "type": null, "label": "natural:peak" }, "geometry": { "type": "Point", "coordinates": [ 23.84623, 37.88143 ] } },
{ "type": "Feature", "properties": { "element": "node", "id": 9008669200, "addr:housenumber": null, "addr:street": null, "amenity": "telephone", "brand": null, "brand:el": null, "brand:en": null, "brand:wikidata": null, "cuisine": null, "name": null, "name:el": null, "name:en": null, "takeaway": null, "shop": null, "trade": null, "addr:city": null, "addr:postcode": null, "check_date": null, "operator": null, "addr:country": null, "addr:unit": null, "description": null, "phone": null, "ele": null, "man_made": null, "natural": null, "building": null, "access": null, "authentication:app": null, "authentication:membership_card": null, "capacity": null, "contact:phone": null, "contact:website": null, "covered": null, "fee": null, "lit": null, "motorcar": null, "note": null, "opening_hours": null, "parking:fee": null, "payment:app": null, "payment:website": null, "ref": null, "ref:GR:IDRO": null, "socket:type2_combo": null, "socket:type2_combo:current": null, "socket:type2_combo:output": null, "socket:type2_combo:voltage": null, "landuse": null, "source": null, "building:levels": null, "short_name": null, "religion": null, "aeroway": null, "parking": null, "surface": null, "addr:full": null, "addr:housename": null, "contact:email": null, "contact:fax": null, "brand:wikipedia": null, "fuel:diesel": null, "fuel:lpg": null, "fuel:octane_100": null, "fuel:octane_95": null, "fuel:octane_98": null, "layer": null, "park_ride": null, "hoops": null, "leisure": null, "sport": null, "operator:type": null, "website": null, "atm": null, "type": null, "label": "amenity:telephone" }, "geometry": { "type": "Point", "coordinates": [ 23.8658459, 37.8757186 ] } },
{ "type": "Feature", "properties": { "element": "node", "id": 10823731697, "addr:housenumber": null, "addr:street": null, "amenity": null, "brand": null, "brand:el": null, "brand:en": null, "brand:wikidata": null, "cuisine": null, "name": "Domogroup", "name:el": null, "name:en": null, "takeaway": null, "shop": "furniture", "trade": null, "addr:city": null, "addr:postcode": null, "check_date": null, "operator": null, "addr:country": null, "addr:unit": null, "description": null, "phone": null, "ele": null, "man_made": null, "natural": null, "building": null, "access": null, "authentication:app": null, "authentication:membership_card": null, "capacity": null, "contact:phone": null, "contact:website": null, "covered": null, "fee": null, "lit": null, "motorcar": null, "note": null, "opening_hours": null, "parking:fee": null, "payment:app": null, "payment:website": null, "ref": null, "ref:GR:IDRO": null, "socket:type2_combo": null, "socket:type2_combo:current": null, "socket:type2_combo:output": null, "socket:type2_combo:voltage": null, "landuse": null, "source": null, "building:levels": null, "short_name": null, "religion": null, "aeroway": null, "parking": null, "surface": null, "addr:full": null, "addr:housename": null, "contact:email": null, "contact:fax": null, "brand:wikipedia": null, "fuel:diesel": null, "fuel:lpg": null, "fuel:octane_100": null, "fuel:octane_95": null, "fuel:octane_98": null, "layer": null, "park_ride": null, "hoops": null, "leisure": null, "sport": null, "operator:type": null, "website": null, "atm": null, "type": null, "label": "shop:furniture" }, "geometry": { "type": "Point", "coordinates": [ 23.8731309, 37.8817812 ] } },
{ "type": "Feature", "properties": { "element": "node", "id": 10823741885, "addr:housenumber": null, "addr:street": null, "amenity": null, "brand": null, "brand:el": null, "brand:en": null, "brand:wikidata": null, "cuisine": null, "name": "Τυροβολας", "name:el": null, "name:en": null, "takeaway": null, "shop": "electrical", "trade": null, "addr:city": null, "addr:postcode": null, "check_date": null, "operator": null, "addr:country": null, "addr:unit": null, "description": null, "phone": null, "ele": null, "man_made": null, "natural": null, "building": null, "access": null, "authentication:app": null, "authentication:membership_card": null, "capacity": null, "contact:phone": null, "contact:website": null, "covered": null, "fee": null, "lit": null, "motorcar": null, "note": null, "opening_hours": null, "parking:fee": null, "payment:app": null, "payment:website": null, "ref": null, "ref:GR:IDRO": null, "socket:type2_combo": null, "socket:type2_combo:current": null, "socket:type2_combo:output": null, "socket:type2_combo:voltage": null, "landuse": null, "source": null, "building:levels": null, "short_name": null, "religion": null, "aeroway": null, "parking": null, "surface": null, "addr:full": null, "addr:housename": null, "contact:email": null, "contact:fax": null, "brand:wikipedia": null, "fuel:diesel": null, "fuel:lpg": null, "fuel:octane_100": null, "fuel:octane_95": null, "fuel:octane_98": null, "layer": null, "park_ride": null, "hoops": null, "leisure": null, "sport": null, "operator:type": null, "website": null, "atm": null, "type": null, "label": "shop:electrical" }, "geometry": { "type": "Point", "coordinates": [ 23.8647564, 37.8755002 ] } },
{ "type": "Feature", "properties": { "element": "node", "id": 11007144217, "addr:housenumber": null, "addr:street": null, "amenity": null, "brand": null, "brand:el": null, "brand:en": null, "brand:wikidata": null, "cuisine": null, "name": "Hellenic Instruments", "name:el": null, "name:en": null, "takeaway": null, "shop": null, "trade": null, "addr:city": null, "addr:postcode": null, "check_date": null, "operator": null, "addr:country": null, "addr:unit": null, "description": null, "phone": null, "ele": null, "man_made": null, "natural": null, "building": "retail", "access": null, "authentication:app": null, "authentication:membership_card": null, "capacity": null, "contact:phone": null, "contact:website": null, "covered": null, "fee": null, "lit": null, "motorcar": null, "note": null, "opening_hours": null, "parking:fee": null, "payment:app": null, "payment:website": null, "ref": null, "ref:GR:IDRO": null, "socket:type2_combo": null, "socket:type2_combo:current": null, "socket:type2_combo:output": null, "socket:type2_combo:voltage": null, "landuse": null, "source": null, "building:levels": null, "short_name": null, "religion": null, "aeroway": null, "parking": null, "surface": null, "addr:full": null, "addr:housename": null, "contact:email": null, "contact:fax": null, "brand:wikipedia": null, "fuel:diesel": null, "fuel:lpg": null, "fuel:octane_100": null, "fuel:octane_95": null, "fuel:octane_98": null, "layer": null, "park_ride": null, "hoops": null, "leisure": null, "sport": null, "operator:type": null, "website": null, "atm": null, "type": null, "label": "building:retail" }, "geometry": { "type": "Point", "coordinates": [ 23.8624039, 37.8738121 ] } },
{ "type": "Feature", "properties": { "element": "node", "id": 11074290349, "addr:housenumber": null, "addr:street": null, "amenity": null, "brand": null, "brand:el": null, "brand:en": null, "brand:wikidata": null, "cuisine": null, "name": "American door", "name:el": null, "name:en": null, "takeaway": null, "shop": "doors", "trade": null, "addr:city": null, "addr:postcode": null, "check_date": null, "operator": null, "addr:country": null, "addr:unit": null, "description": null, "phone": null, "ele": null, "man_made": null, "natural": null, "building": null, "access": null, "authentication:app": null, "authentication:membership_card": null, "capacity": null, "contact:phone": null, "contact:website": null, "covered": null, "fee": null, "lit": null, "motorcar": null, "note": null, "opening_hours": null, "parking:fee": null, "payment:app": null, "payment:website": null, "ref": null, "ref:GR:IDRO": null, "socket:type2_combo": null, "socket:type2_combo:current": null, "socket:type2_combo:output": null, "socket:type2_combo:voltage": null, "landuse": null, "source": null, "building:levels": null, "short_name": null, "religion": null, "aeroway": null, "parking": null, "surface": null, "addr:full": null, "addr:housename": null, "contact:email": null, "contact:fax": null, "brand:wikipedia": null, "fuel:diesel": null, "fuel:lpg": null, "fuel:octane_100": null, "fuel:octane_95": null, "fuel:octane_98": null, "layer": null, "park_ride": null, "hoops": null, "leisure": null, "sport": null, "operator:type": null, "website": null, "atm": null, "type": null, "label": "shop:doors" }, "geometry": { "type": "Point", "coordinates": [ 23.8690957, 37.8777454 ] } },
{ "type": "Feature", "properties": { "element": "node", "id": 13524772234, "addr:housenumber": null, "addr:street": null, "amenity": "charging_station", "brand": "nrg incharge", "brand:el": null, "brand:en": null, "brand:wikidata": null, "cuisine": null, "name": "nrg - Shell 120", "name:el": null, "name:en": null, "takeaway": null, "shop": null, "trade": null, "addr:city": "Κορωπί", "addr:postcode": "19400", "check_date": null, "operator": "Shell ΜΥΡΤΕΑ 120", "addr:country": null, "addr:unit": null, "description": null, "phone": null, "ele": null, "man_made": null, "natural": null, "building": null, "access": "yes", "authentication:app": "yes", "authentication:membership_card": "yes", "capacity": "2", "contact:phone": "+30 2188818102", "contact:website": "https://www.nrgincharge.gr/", "covered": "no", "fee": "yes", "lit": "yes", "motorcar": "yes", "note": "Νέα προσθήκη DC 180kW", "opening_hours": "24/7", "parking:fee": "no", "payment:app": "yes", "payment:website": "yes", "ref": "#5861", "ref:GR:IDRO": "GR-NRG-S198", "socket:type2_combo": "2", "socket:type2_combo:current": "180", "socket:type2_combo:output": "180", "socket:type2_combo:voltage": "1000", "landuse": null, "source": null, "building:levels": null, "short_name": null, "religion": null, "aeroway": null, "parking": null, "surface": null, "addr:full": null, "addr:housename": null, "contact:email": null, "contact:fax": null, "brand:wikipedia": null, "fuel:diesel": null, "fuel:lpg": null, "fuel:octane_100": null, "fuel:octane_95": null, "fuel:octane_98": null, "layer": null, "park_ride": null, "hoops": null, "leisure": null, "sport": null, "operator:type": null, "website": null, "atm": null, "type": null, "label": "amenity:charging_station" }, "geometry": { "type": "Point", "coordinates": [ 23.8674559, 37.8775793 ] } },
{ "type": "Feature", "properties": { "element": "node", "id": 13692147196, "addr:housenumber": null, "addr:street": null, "amenity": null, "brand": null, "brand:el": null, "brand:en": null, "brand:wikidata": null, "cuisine": null, "name": "Entos", "name:el": null, "name:en": null, "takeaway": null, "shop": "furniture", "trade": null, "addr:city": null, "addr:postcode": null, "check_date": "2026-03-30", "operator": null, "addr:country": null, "addr:unit": null, "description": null, "phone": null, "ele": null, "man_made": null, "natural": null, "building": null, "access": null, "authentication:app": null, "authentication:membership_card": null, "capacity": null, "contact:phone": null, "contact:website": null, "covered": null, "fee": null, "lit": null, "motorcar": null, "note": null, "opening_hours": null, "parking:fee": null, "payment:app": null, "payment:website": null, "ref": null, "ref:GR:IDRO": null, "socket:type2_combo": null, "socket:type2_combo:current": null, "socket:type2_combo:output": null, "socket:type2_combo:voltage": null, "landuse": null, "source": null, "building:levels": null, "short_name": null, "religion": null, "aeroway": null, "parking": null, "surface": null, "addr:full": null, "addr:housename": null, "contact:email": null, "contact:fax": null, "brand:wikipedia": null, "fuel:diesel": null, "fuel:lpg": null, "fuel:octane_100": null, "fuel:octane_95": null, "fuel:octane_98": null, "layer": null, "park_ride": null, "hoops": null, "leisure": null, "sport": null, "operator:type": null, "website": null, "atm": null, "type": null, "label": "shop:furniture" }, "geometry": { "type": "Point", "coordinates": [ 23.8697478, 37.8791147 ] } }
]
}
