{
"type": "FeatureCollection",
"name": "patch_64363_polygon",
"crs": { "type": "name", "properties": { "name": "urn:ogc:def:crs:OGC:1.3:CRS84" } },
"features": [
{ "type": "Feature", "properties": { "osm_id": 1228715800, "name": null, "label": "landuse:residential", "landuse": "residential" }, "geometry": { "type": "Polygon", "coordinates": [ [ [ 26.4038389, 41.450018000439123 ], [ 26.404092, 41.449418500439052 ], [ 26.4038327, 41.44920740043905 ], [ 26.4033675, 41.44910350043903 ], [ 26.403716, 41.448558900438982 ], [ 26.4040906, 41.448446300438974 ], [ 26.4040998, 41.447287300438852 ], [ 26.4041073, 41.44632330043877 ], [ 26.4034733, 41.446390600438775 ], [ 26.4030206, 41.44649950043879 ], [ 26.403032, 41.44634330043877 ], [ 26.4030726, 41.445872300438722 ], [ 26.4024137, 41.44610520043873 ], [ 26.401664670809474, 41.446458291268428 ], [ 26.401664670809474, 41.450009165854944 ], [ 26.401690784674649, 41.450054528176516 ], [ 26.403271479319628, 41.450054528176516 ], [ 26.4032901, 41.449854000439103 ], [ 26.403520626501294, 41.450054528176516 ], [ 26.403663735668015, 41.450054528176516 ], [ 26.4038389, 41.450018000439123 ] ] ] } }
]
}
