{
"type": "FeatureCollection",
"name": "patch_50129_point",
"crs": { "type": "name", "properties": { "name": "urn:ogc:def:crs:OGC:1.3:CRS84" } },
"features": [
{ "type": "Feature", "properties": { "@type": "node", "@id": 2967900934, "access": null, "addr:city": null, "addr:postcode": null, "addr:street": null, "air_conditioning": null, "amenity": "fuel", "angle": null, "bar": null, "barrier": null, "brand": "Aegean", "brand:wikidata": "Q28146598", "building": null, "cables": null, "camera:direction": null, "camera:mount": null, "camera:type": null, "cuisine": null, "denomination": null, "diet:vegan": null, "diet:vegetarian": null, "fee": null, "generator:method": null, "generator:output:electricity": null, "generator:source": null, "generator:type": null, "height": null, "highway": null, "int_name": null, "int_ref": null, "landuse": null, "lanes": null, "layer": null, "leisure": null, "line_attachment": null, "lit": null, "man_made": null, "maxspeed": null, "name": "Aegean", "name:de": null, "name:el": null, "name:en": null, "name:ru": null, "natural": null, "noexit": null, "oneway": null, "operator": "Aegean", "outdoor_seating": null, "overtaking": null, "parking": null, "place": null, "power": null, "ref": null, "religion": null, "service": null, "shop": null, "short_name": null, "smoothness": null, "source": null, "source:maxspeed": null, "source:ref": null, "surface": null, "surveillance": null, "surveillance:type": null, "surveillance:zone": null, "tracktype": null, "tunnel": null, "voltage": null, "website": null, "wikidata": null, "zone:traffic": null, "label": "amenity:fuel" }, "geometry": { "type": "Point", "coordinates": [ 24.1455237, 35.4233485 ] } },
{ "type": "Feature", "properties": { "@type": "node", "@id": 9144201844, "access": null, "addr:city": "Armenoi", "addr:postcode": "730 03", "addr:street": "Armenoi 730 03", "air_conditioning": "no", "amenity": "restaurant", "angle": null, "bar": "yes", "barrier": null, "brand": null, "brand:wikidata": null, "building": null, "cables": null, "camera:direction": null, "camera:mount": null, "camera:type": null, "cuisine": "greek", "denomination": null, "diet:vegan": "yes", "diet:vegetarian": "yes", "fee": null, "generator:method": null, "generator:output:electricity": null, "generator:source": null, "generator:type": null, "height": null, "highway": null, "int_name": null, "int_ref": null, "landuse": null, "lanes": null, "layer": null, "leisure": null, "line_attachment": null, "lit": null, "man_made": null, "maxspeed": null, "name": "Tzitzikas", "name:de": null, "name:el": null, "name:en": null, "name:ru": null, "natural": null, "noexit": null, "oneway": null, "operator": null, "outdoor_seating": "yes", "overtaking": null, "parking": null, "place": null, "power": null, "ref": null, "religion": null, "service": null, "shop": null, "short_name": null, "smoothness": null, "source": null, "source:maxspeed": null, "source:ref": null, "surface": null, "surveillance": null, "surveillance:type": null, "surveillance:zone": null, "tracktype": null, "tunnel": null, "voltage": null, "website": "http://www.tzitzikas.com/", "wikidata": null, "zone:traffic": null, "label": "amenity:restaurant" }, "geometry": { "type": "Point", "coordinates": [ 24.154313, 35.4306862 ] } }
]
}
