{
"type": "FeatureCollection",
"name": "patch_50129_features",
"crs": { "type": "name", "properties": { "name": "urn:ogc:def:crs:OGC:1.3:CRS84" } },
"features": [
{ "type": "Feature", "properties": { "@type": "node", "@id": 2967900934, "access": null, "addr:city": null, "addr:postcode": null, "addr:street": null, "air_conditioning": null, "amenity": "fuel", "angle": null, "bar": null, "barrier": null, "brand": "Aegean", "brand:wikidata": "Q28146598", "building": null, "cables": null, "camera:direction": null, "camera:mount": null, "camera:type": null, "cuisine": null, "denomination": null, "diet:vegan": null, "diet:vegetarian": null, "fee": null, "generator:method": null, "generator:output:electricity": null, "generator:source": null, "generator:type": null, "height": null, "highway": null, "int_name": null, "int_ref": null, "landuse": null, "lanes": null, "layer": null, "leisure": null, "line_attachment": null, "lit": null, "man_made": null, "maxspeed": null, "name": "Aegean", "name:de": null, "name:el": null, "name:en": null, "name:ru": null, "natural": null, "noexit": null, "oneway": null, "operator": "Aegean", "outdoor_seating": null, "overtaking": null, "parking": null, "place": null, "power": null, "ref": null, "religion": null, "service": null, "shop": null, "short_name": null, "smoothness": null, "source": null, "source:maxspeed": null, "source:ref": null, "surface": null, "surveillance": null, "surveillance:type": null, "surveillance:zone": null, "tracktype": null, "tunnel": null, "voltage": null, "website": null, "wikidata": null, "zone:traffic": null, "label": "amenity:fuel" }, "geometry": { "type": "Point", "coordinates": [ 24.1455237, 35.4233485 ] } },
{ "type": "Feature", "properties": { "@type": "node", "@id": 9144201844, "access": null, "addr:city": "Armenoi", "addr:postcode": "730 03", "addr:street": "Armenoi 730 03", "air_conditioning": "no", "amenity": "restaurant", "angle": null, "bar": "yes", "barrier": null, "brand": null, "brand:wikidata": null, "building": null, "cables": null, "camera:direction": null, "camera:mount": null, "camera:type": null, "cuisine": "greek", "denomination": null, "diet:vegan": "yes", "diet:vegetarian": "yes", "fee": null, "generator:method": null, "generator:output:electricity": null, "generator:source": null, "generator:type": null, "height": null, "highway": null, "int_name": null, "int_ref": null, "landuse": null, "lanes": null, "layer": null, "leisure": null, "line_attachment": null, "lit": null, "man_made": null, "maxspeed": null, "name": "Tzitzikas", "name:de": null, "name:el": null, "name:en": null, "name:ru": null, "natural": null, "noexit": null, "oneway": null, "operator": null, "outdoor_seating": "yes", "overtaking": null, "parking": null, "place": null, "power": null, "ref": null, "religion": null, "service": null, "shop": null, "short_name": null, "smoothness": null, "source": null, "source:maxspeed": null, "source:ref": null, "surface": null, "surveillance": null, "surveillance:type": null, "surveillance:zone": null, "tracktype": null, "tunnel": null, "voltage": null, "website": "http://www.tzitzikas.com/", "wikidata": null, "zone:traffic": null, "label": "amenity:restaurant" }, "geometry": { "type": "Point", "coordinates": [ 24.154313, 35.4306862 ] } },
{ "type": "Feature", "properties": { "@type": "way", "@id": 100031553, "access": null, "addr:city": null, "addr:postcode": null, "addr:street": null, "air_conditioning": null, "amenity": null, "angle": null, "bar": null, "barrier": null, "brand": null, "brand:wikidata": null, "building": null, "cables": null, "camera:direction": null, "camera:mount": null, "camera:type": null, "cuisine": null, "denomination": null, "diet:vegan": null, "diet:vegetarian": null, "fee": null, "generator:method": null, "generator:output:electricity": null, "generator:source": null, "generator:type": null, "height": null, "highway": null, "int_name": null, "int_ref": null, "landuse": "residential", "lanes": null, "layer": null, "leisure": null, "line_attachment": null, "lit": null, "man_made": null, "maxspeed": null, "name": null, "name:de": null, "name:el": null, "name:en": null, "name:ru": null, "natural": null, "noexit": null, "oneway": null, "operator": null, "outdoor_seating": null, "overtaking": null, "parking": null, "place": null, "power": null, "ref": null, "religion": null, "service": null, "shop": null, "short_name": null, "smoothness": null, "source": null, "source:maxspeed": null, "source:ref": null, "surface": null, "surveillance": null, "surveillance:type": null, "surveillance:zone": null, "tracktype": null, "tunnel": null, "voltage": null, "website": null, "wikidata": null, "zone:traffic": null, "label": "landuse:residential" }, "geometry": { "type": "Polygon", "coordinates": [ [ [ 24.1555655, 35.4300555 ], [ 24.1561755, 35.4310878 ], [ 24.1565618, 35.4326357 ], [ 24.158877, 35.4331667 ], [ 24.1599905, 35.431612 ], [ 24.1603345, 35.4299834 ], [ 24.1608332, 35.4291319 ], [ 24.1610189, 35.4288725 ], [ 24.1605282, 35.4282564 ], [ 24.1603292, 35.4279106 ], [ 24.1603292, 35.4272945 ], [ 24.1601568, 35.4270135 ], [ 24.1594936, 35.426646 ], [ 24.1586978, 35.4269919 ], [ 24.1579019, 35.4272621 ], [ 24.156867, 35.4274958 ], [ 24.1571261, 35.4287344 ], [ 24.1558543, 35.4286532 ], [ 24.1534827, 35.4273612 ], [ 24.1532582, 35.4280634 ], [ 24.1555655, 35.4300555 ] ] ] } },
{ "type": "Feature", "properties": { "@type": "way", "@id": 100031611, "access": null, "addr:city": null, "addr:postcode": null, "addr:street": null, "air_conditioning": null, "amenity": null, "angle": null, "bar": null, "barrier": null, "brand": null, "brand:wikidata": null, "building": null, "cables": null, "camera:direction": null, "camera:mount": null, "camera:type": null, "cuisine": null, "denomination": null, "diet:vegan": null, "diet:vegetarian": null, "fee": null, "generator:method": null, "generator:output:electricity": null, "generator:source": null, "generator:type": null, "height": null, "highway": null, "int_name": null, "int_ref": null, "landuse": "residential", "lanes": null, "layer": null, "leisure": null, "line_attachment": null, "lit": null, "man_made": null, "maxspeed": null, "name": null, "name:de": null, "name:el": null, "name:en": null, "name:ru": null, "natural": null, "noexit": null, "oneway": null, "operator": null, "outdoor_seating": null, "overtaking": null, "parking": null, "place": null, "power": null, "ref": null, "religion": null, "service": null, "shop": null, "short_name": null, "smoothness": null, "source": "Bing", "source:maxspeed": null, "source:ref": null, "surface": null, "surveillance": null, "surveillance:type": null, "surveillance:zone": null, "tracktype": null, "tunnel": null, "voltage": null, "website": null, "wikidata": null, "zone:traffic": null, "label": "landuse:residential" }, "geometry": { "type": "Polygon", "coordinates": [ [ [ 24.1443994, 35.4245376 ], [ 24.1450707, 35.4244713 ], [ 24.1451474, 35.4247568 ], [ 24.145588, 35.4247082 ], [ 24.1454541, 35.4242046 ], [ 24.1461616, 35.4240785 ], [ 24.1461136, 35.4234045 ], [ 24.1460057, 35.4230138 ], [ 24.1454839, 35.4229231 ], [ 24.1453223, 35.4229152 ], [ 24.1452048, 35.4223534 ], [ 24.145243, 35.4222552 ], [ 24.1472131, 35.421338 ], [ 24.1473369, 35.4217209 ], [ 24.1478342, 35.4215883 ], [ 24.1478627, 35.421006 ], [ 24.1482451, 35.4208858 ], [ 24.1480795, 35.4200539 ], [ 24.1473363, 35.4203275 ], [ 24.1467969, 35.420093 ], [ 24.1463533, 35.4202981 ], [ 24.1455502, 35.419839 ], [ 24.1452146, 35.4200051 ], [ 24.1452505, 35.4202298 ], [ 24.1448909, 35.4203958 ], [ 24.1446114, 35.420309 ], [ 24.1442314, 35.4203408 ], [ 24.1442073, 35.4206058 ], [ 24.144178104603057, 35.420602393351835 ], [ 24.144178104603057, 35.424232905014449 ], [ 24.1443994, 35.4245376 ] ] ] } },
{ "type": "Feature", "properties": { "@type": "way", "@id": 531350557, "access": null, "addr:city": null, "addr:postcode": null, "addr:street": null, "air_conditioning": null, "amenity": null, "angle": null, "bar": null, "barrier": null, "brand": null, "brand:wikidata": null, "building": null, "cables": null, "camera:direction": null, "camera:mount": null, "camera:type": null, "cuisine": null, "denomination": null, "diet:vegan": null, "diet:vegetarian": null, "fee": null, "generator:method": null, "generator:output:electricity": null, "generator:source": null, "generator:type": null, "height": null, "highway": null, "int_name": null, "int_ref": null, "landuse": "orchard", "lanes": null, "layer": null, "leisure": null, "line_attachment": null, "lit": null, "man_made": null, "maxspeed": null, "name": null, "name:de": null, "name:el": null, "name:en": null, "name:ru": null, "natural": null, "noexit": null, "oneway": null, "operator": null, "outdoor_seating": null, "overtaking": null, "parking": null, "place": null, "power": null, "ref": null, "religion": null, "service": null, "shop": null, "short_name": null, "smoothness": null, "source": null, "source:maxspeed": null, "source:ref": null, "surface": null, "surveillance": null, "surveillance:type": null, "surveillance:zone": null, "tracktype": null, "tunnel": null, "voltage": null, "website": null, "wikidata": null, "zone:traffic": null, "label": "landuse:orchard" }, "geometry": { "type": "Polygon", "coordinates": [ [ [ 24.1482657, 35.4126487 ], [ 24.1495205, 35.4127191 ], [ 24.1495205, 35.4123169 ], [ 24.1490377, 35.4122907 ], [ 24.1486198, 35.4121678 ], [ 24.1483301, 35.4121241 ], [ 24.1482652, 35.4123868 ], [ 24.1482657, 35.4126487 ] ] ] } },
{ "type": "Feature", "properties": { "@type": "way", "@id": 531350558, "access": null, "addr:city": null, "addr:postcode": null, "addr:street": null, "air_conditioning": null, "amenity": null, "angle": null, "bar": null, "barrier": null, "brand": null, "brand:wikidata": null, "building": null, "cables": null, "camera:direction": null, "camera:mount": null, "camera:type": null, "cuisine": null, "denomination": null, "diet:vegan": null, "diet:vegetarian": null, "fee": null, "generator:method": null, "generator:output:electricity": null, "generator:source": null, "generator:type": null, "height": null, "highway": null, "int_name": null, "int_ref": null, "landuse": "orchard", "lanes": null, "layer": null, "leisure": null, "line_attachment": null, "lit": null, "man_made": null, "maxspeed": null, "name": null, "name:de": null, "name:el": null, "name:en": null, "name:ru": null, "natural": null, "noexit": null, "oneway": null, "operator": null, "outdoor_seating": null, "overtaking": null, "parking": null, "place": null, "power": null, "ref": null, "religion": null, "service": null, "shop": null, "short_name": null, "smoothness": null, "source": null, "source:maxspeed": null, "source:ref": null, "surface": null, "surveillance": null, "surveillance:type": null, "surveillance:zone": null, "tracktype": null, "tunnel": null, "voltage": null, "website": null, "wikidata": null, "zone:traffic": null, "label": "landuse:orchard" }, "geometry": { "type": "Polygon", "coordinates": [ [ [ 24.1479653, 35.4143888 ], [ 24.1481263, 35.4147822 ], [ 24.1494025, 35.4146952 ], [ 24.1496605, 35.4146074 ], [ 24.1498423, 35.4144679 ], [ 24.1496492, 35.4138208 ], [ 24.149049, 35.4136193 ], [ 24.1483618, 35.4136197 ], [ 24.1480614, 35.4136547 ], [ 24.1477722, 35.4137505 ], [ 24.1479653, 35.4143888 ] ] ] } },
{ "type": "Feature", "properties": { "@type": "way", "@id": 819052626, "access": "yes", "addr:city": null, "addr:postcode": null, "addr:street": null, "air_conditioning": null, "amenity": "parking", "angle": null, "bar": null, "barrier": null, "brand": null, "brand:wikidata": null, "building": null, "cables": null, "camera:direction": null, "camera:mount": null, "camera:type": null, "cuisine": null, "denomination": null, "diet:vegan": null, "diet:vegetarian": null, "fee": "no", "generator:method": null, "generator:output:electricity": null, "generator:source": null, "generator:type": null, "height": null, "highway": null, "int_name": null, "int_ref": null, "landuse": null, "lanes": null, "layer": null, "leisure": null, "line_attachment": null, "lit": null, "man_made": null, "maxspeed": null, "name": null, "name:de": null, "name:el": null, "name:en": null, "name:ru": null, "natural": null, "noexit": null, "oneway": null, "operator": null, "outdoor_seating": null, "overtaking": null, "parking": "surface", "place": null, "power": null, "ref": null, "religion": null, "service": null, "shop": null, "short_name": null, "smoothness": null, "source": null, "source:maxspeed": null, "source:ref": null, "surface": null, "surveillance": null, "surveillance:type": null, "surveillance:zone": null, "tracktype": null, "tunnel": null, "voltage": null, "website": null, "wikidata": null, "zone:traffic": null, "label": "amenity:parking" }, "geometry": { "type": "Polygon", "coordinates": [ [ [ 24.1661892, 35.4344692 ], [ 24.1661841, 35.4343211 ], [ 24.1661699, 35.4341281 ], [ 24.1661367, 35.4339641 ], [ 24.1661222, 35.4338458 ], [ 24.1660657, 35.433557 ], [ 24.1660159, 35.4332984 ], [ 24.1659781, 35.433119 ], [ 24.1659188, 35.4328894 ], [ 24.165922, 35.433163 ], [ 24.1659676, 35.4335365 ], [ 24.1660162, 35.4338408 ], [ 24.166086, 35.4341377 ], [ 24.1661285, 35.4344074 ], [ 24.166146843464535, 35.434496202275994 ], [ 24.166187892974939, 35.434496202275994 ], [ 24.1661892, 35.4344692 ] ] ] } },
{ "type": "Feature", "properties": { "@type": "way", "@id": 819052630, "access": "yes", "addr:city": null, "addr:postcode": null, "addr:street": null, "air_conditioning": null, "amenity": "parking", "angle": null, "bar": null, "barrier": null, "brand": null, "brand:wikidata": null, "building": null, "cables": null, "camera:direction": null, "camera:mount": null, "camera:type": null, "cuisine": null, "denomination": null, "diet:vegan": null, "diet:vegetarian": null, "fee": "no", "generator:method": null, "generator:output:electricity": null, "generator:source": null, "generator:type": null, "height": null, "highway": null, "int_name": null, "int_ref": null, "landuse": null, "lanes": null, "layer": null, "leisure": null, "line_attachment": null, "lit": null, "man_made": null, "maxspeed": null, "name": null, "name:de": null, "name:el": null, "name:en": null, "name:ru": null, "natural": null, "noexit": null, "oneway": null, "operator": null, "outdoor_seating": null, "overtaking": null, "parking": "surface", "place": null, "power": null, "ref": null, "religion": null, "service": null, "shop": null, "short_name": null, "smoothness": null, "source": null, "source:maxspeed": null, "source:ref": null, "surface": null, "surveillance": null, "surveillance:type": null, "surveillance:zone": null, "tracktype": null, "tunnel": null, "voltage": null, "website": null, "wikidata": null, "zone:traffic": null, "label": "amenity:parking" }, "geometry": { "type": "Polygon", "coordinates": [ [ [ 24.1678437, 35.4293538 ], [ 24.1684314, 35.4288972 ], [ 24.1684156, 35.4288855 ], [ 24.1682787, 35.4289688 ], [ 24.1681291, 35.4290876 ], [ 24.1679546, 35.4292192 ], [ 24.1678192, 35.4293428 ], [ 24.1678437, 35.4293538 ] ] ] } },
{ "type": "Feature", "properties": { "@type": "way", "@id": 1068085611, "access": "yes", "addr:city": null, "addr:postcode": null, "addr:street": null, "air_conditioning": null, "amenity": "parking", "angle": null, "bar": null, "barrier": null, "brand": null, "brand:wikidata": null, "building": null, "cables": null, "camera:direction": null, "camera:mount": null, "camera:type": null, "cuisine": null, "denomination": null, "diet:vegan": null, "diet:vegetarian": null, "fee": "no", "generator:method": null, "generator:output:electricity": null, "generator:source": null, "generator:type": null, "height": null, "highway": null, "int_name": null, "int_ref": null, "landuse": null, "lanes": null, "layer": null, "leisure": null, "line_attachment": null, "lit": null, "man_made": null, "maxspeed": null, "name": null, "name:de": null, "name:el": null, "name:en": null, "name:ru": null, "natural": null, "noexit": null, "oneway": null, "operator": null, "outdoor_seating": null, "overtaking": null, "parking": "surface", "place": null, "power": null, "ref": null, "religion": null, "service": null, "shop": null, "short_name": null, "smoothness": null, "source": null, "source:maxspeed": null, "source:ref": null, "surface": null, "surveillance": null, "surveillance:type": null, "surveillance:zone": null, "tracktype": null, "tunnel": null, "voltage": null, "website": null, "wikidata": null, "zone:traffic": null, "label": "amenity:parking" }, "geometry": { "type": "Polygon", "coordinates": [ [ [ 24.1636348, 35.4220057 ], [ 24.1643563, 35.4222473 ], [ 24.1644126, 35.4221872 ], [ 24.1634068, 35.4218123 ], [ 24.1633773, 35.4218669 ], [ 24.1636348, 35.4220057 ] ] ] } },
{ "type": "Feature", "properties": { "@type": "way", "@id": 1068085612, "access": "yes", "addr:city": null, "addr:postcode": null, "addr:street": null, "air_conditioning": null, "amenity": "parking", "angle": null, "bar": null, "barrier": null, "brand": null, "brand:wikidata": null, "building": null, "cables": null, "camera:direction": null, "camera:mount": null, "camera:type": null, "cuisine": null, "denomination": null, "diet:vegan": null, "diet:vegetarian": null, "fee": "no", "generator:method": null, "generator:output:electricity": null, "generator:source": null, "generator:type": null, "height": null, "highway": null, "int_name": null, "int_ref": null, "landuse": null, "lanes": null, "layer": null, "leisure": null, "line_attachment": null, "lit": null, "man_made": null, "maxspeed": null, "name": null, "name:de": null, "name:el": null, "name:en": null, "name:ru": null, "natural": null, "noexit": null, "oneway": null, "operator": null, "outdoor_seating": null, "overtaking": null, "parking": "surface", "place": null, "power": null, "ref": null, "religion": null, "service": null, "shop": null, "short_name": null, "smoothness": null, "source": null, "source:maxspeed": null, "source:ref": null, "surface": null, "surveillance": null, "surveillance:type": null, "surveillance:zone": null, "tracktype": null, "tunnel": null, "voltage": null, "website": null, "wikidata": null, "zone:traffic": null, "label": "amenity:parking" }, "geometry": { "type": "Polygon", "coordinates": [ [ [ 24.1511592, 35.4169221 ], [ 24.1517077, 35.4170215 ], [ 24.1517546, 35.4169811 ], [ 24.1511478, 35.4168565 ], [ 24.1511592, 35.4169221 ] ] ] } },
{ "type": "Feature", "properties": { "@type": "way", "@id": 1151284774, "access": null, "addr:city": null, "addr:postcode": null, "addr:street": null, "air_conditioning": null, "amenity": null, "angle": null, "bar": null, "barrier": null, "brand": null, "brand:wikidata": null, "building": null, "cables": null, "camera:direction": null, "camera:mount": null, "camera:type": null, "cuisine": null, "denomination": null, "diet:vegan": null, "diet:vegetarian": null, "fee": null, "generator:method": null, "generator:output:electricity": null, "generator:source": null, "generator:type": null, "height": null, "highway": null, "int_name": null, "int_ref": null, "landuse": null, "lanes": null, "layer": null, "leisure": null, "line_attachment": null, "lit": null, "man_made": null, "maxspeed": null, "name": null, "name:de": null, "name:el": null, "name:en": null, "name:ru": null, "natural": "wood", "noexit": null, "oneway": null, "operator": null, "outdoor_seating": null, "overtaking": null, "parking": null, "place": null, "power": null, "ref": null, "religion": null, "service": null, "shop": null, "short_name": null, "smoothness": null, "source": null, "source:maxspeed": null, "source:ref": null, "surface": null, "surveillance": null, "surveillance:type": null, "surveillance:zone": null, "tracktype": null, "tunnel": null, "voltage": null, "website": null, "wikidata": null, "zone:traffic": null, "label": "natural:wood" }, "geometry": { "type": "Polygon", "coordinates": [ [ [ 24.146402, 35.4125307 ], [ 24.1464909, 35.412642 ], [ 24.1465545, 35.4127455 ], [ 24.1465672, 35.4128232 ], [ 24.1465577, 35.4129164 ], [ 24.1466371, 35.4129733 ], [ 24.1467387, 35.4130225 ], [ 24.1468086, 35.4130717 ], [ 24.1469102, 35.4130096 ], [ 24.1469357, 35.4129267 ], [ 24.1469325, 35.4128284 ], [ 24.1469357, 35.4127559 ], [ 24.1470564, 35.4127714 ], [ 24.1471421, 35.4127326 ], [ 24.1471866, 35.4126575 ], [ 24.1472025, 35.4125773 ], [ 24.1472755, 35.4125229 ], [ 24.1473168, 35.4124426 ], [ 24.1472851, 35.4124116 ], [ 24.147212, 35.4124478 ], [ 24.1471516, 35.4123779 ], [ 24.1471326, 35.4123054 ], [ 24.1470595, 35.4122459 ], [ 24.1469769, 35.4122355 ], [ 24.1469293, 35.4122899 ], [ 24.1469134, 35.4123883 ], [ 24.1464592, 35.412365 ], [ 24.1463639, 35.4124245 ], [ 24.146402, 35.4125307 ] ] ] } },
{ "type": "Feature", "properties": { "@type": "way", "@id": 1151284788, "access": null, "addr:city": null, "addr:postcode": null, "addr:street": null, "air_conditioning": null, "amenity": null, "angle": null, "bar": null, "barrier": null, "brand": null, "brand:wikidata": null, "building": "yes", "cables": null, "camera:direction": null, "camera:mount": null, "camera:type": null, "cuisine": null, "denomination": null, "diet:vegan": null, "diet:vegetarian": null, "fee": null, "generator:method": null, "generator:output:electricity": null, "generator:source": null, "generator:type": null, "height": null, "highway": null, "int_name": null, "int_ref": null, "landuse": null, "lanes": null, "layer": null, "leisure": null, "line_attachment": null, "lit": null, "man_made": null, "maxspeed": null, "name": null, "name:de": null, "name:el": null, "name:en": null, "name:ru": null, "natural": null, "noexit": null, "oneway": null, "operator": null, "outdoor_seating": null, "overtaking": null, "parking": null, "place": null, "power": null, "ref": null, "religion": null, "service": null, "shop": null, "short_name": null, "smoothness": null, "source": "microsoft/BuildingFootprints", "source:maxspeed": null, "source:ref": null, "surface": null, "surveillance": null, "surveillance:type": null, "surveillance:zone": null, "tracktype": null, "tunnel": null, "voltage": null, "website": null, "wikidata": null, "zone:traffic": null, "label": "building:yes" }, "geometry": { "type": "Polygon", "coordinates": [ [ [ 24.1453769, 35.4231044 ], [ 24.145527, 35.4231008 ], [ 24.1455241, 35.42302 ], [ 24.145374, 35.4230236 ], [ 24.1453769, 35.4231044 ] ] ] } },
{ "type": "Feature", "properties": { "@type": "way", "@id": 1225663193, "access": null, "addr:city": "Armenoi", "addr:postcode": "730 03", "addr:street": null, "air_conditioning": null, "amenity": "place_of_worship", "angle": null, "bar": null, "barrier": null, "brand": null, "brand:wikidata": null, "building": "yes", "cables": null, "camera:direction": null, "camera:mount": null, "camera:type": null, "cuisine": null, "denomination": "orthodox", "diet:vegan": null, "diet:vegetarian": null, "fee": null, "generator:method": null, "generator:output:electricity": null, "generator:source": null, "generator:type": null, "height": null, "highway": null, "int_name": null, "int_ref": null, "landuse": null, "lanes": null, "layer": null, "leisure": null, "line_attachment": null, "lit": null, "man_made": null, "maxspeed": null, "name": "Εκκλησία Άγιος Νικόλαος", "name:de": null, "name:el": null, "name:en": null, "name:ru": null, "natural": null, "noexit": null, "oneway": null, "operator": null, "outdoor_seating": null, "overtaking": null, "parking": null, "place": null, "power": null, "ref": null, "religion": "christian", "service": null, "shop": null, "short_name": null, "smoothness": null, "source": null, "source:maxspeed": null, "source:ref": null, "surface": null, "surveillance": null, "surveillance:type": null, "surveillance:zone": null, "tracktype": null, "tunnel": null, "voltage": null, "website": null, "wikidata": null, "zone:traffic": null, "label": "building:yes;amenity:place_of_worship" }, "geometry": { "type": "Polygon", "coordinates": [ [ [ 24.1555147, 35.4291328 ], [ 24.155735, 35.4289712 ], [ 24.1556094, 35.4288576 ], [ 24.1553892, 35.4290192 ], [ 24.1555147, 35.4291328 ] ] ] } },
{ "type": "Feature", "properties": { "@type": "way", "@id": 1225663194, "access": null, "addr:city": null, "addr:postcode": null, "addr:street": null, "air_conditioning": null, "amenity": null, "angle": null, "bar": null, "barrier": null, "brand": null, "brand:wikidata": null, "building": "yes", "cables": null, "camera:direction": null, "camera:mount": null, "camera:type": null, "cuisine": null, "denomination": null, "diet:vegan": null, "diet:vegetarian": null, "fee": null, "generator:method": null, "generator:output:electricity": null, "generator:source": null, "generator:type": null, "height": null, "highway": null, "int_name": null, "int_ref": null, "landuse": null, "lanes": null, "layer": null, "leisure": null, "line_attachment": null, "lit": null, "man_made": null, "maxspeed": null, "name": null, "name:de": null, "name:el": null, "name:en": null, "name:ru": null, "natural": null, "noexit": null, "oneway": null, "operator": null, "outdoor_seating": null, "overtaking": null, "parking": null, "place": null, "power": null, "ref": null, "religion": null, "service": null, "shop": null, "short_name": null, "smoothness": null, "source": null, "source:maxspeed": null, "source:ref": null, "surface": null, "surveillance": null, "surveillance:type": null, "surveillance:zone": null, "tracktype": null, "tunnel": null, "voltage": null, "website": null, "wikidata": null, "zone:traffic": null, "label": "building:yes" }, "geometry": { "type": "Polygon", "coordinates": [ [ [ 24.1550314, 35.4293544 ], [ 24.1551707, 35.4292826 ], [ 24.1550862, 35.4291736 ], [ 24.1549469, 35.4292454 ], [ 24.1550314, 35.4293544 ] ] ] } },
{ "type": "Feature", "properties": { "@type": "way", "@id": 1225663195, "access": null, "addr:city": null, "addr:postcode": null, "addr:street": null, "air_conditioning": null, "amenity": "restaurant", "angle": null, "bar": null, "barrier": null, "brand": null, "brand:wikidata": null, "building": "yes", "cables": null, "camera:direction": null, "camera:mount": null, "camera:type": null, "cuisine": "greek", "denomination": null, "diet:vegan": null, "diet:vegetarian": null, "fee": null, "generator:method": null, "generator:output:electricity": null, "generator:source": null, "generator:type": null, "height": null, "highway": null, "int_name": null, "int_ref": null, "landuse": null, "lanes": null, "layer": null, "leisure": null, "line_attachment": null, "lit": null, "man_made": null, "maxspeed": null, "name": "Ταβέρνα Δροσοσταλιά", "name:de": null, "name:el": null, "name:en": null, "name:ru": null, "natural": null, "noexit": null, "oneway": null, "operator": null, "outdoor_seating": null, "overtaking": null, "parking": null, "place": null, "power": null, "ref": null, "religion": null, "service": null, "shop": null, "short_name": null, "smoothness": null, "source": null, "source:maxspeed": null, "source:ref": null, "surface": null, "surveillance": null, "surveillance:type": null, "surveillance:zone": null, "tracktype": null, "tunnel": null, "voltage": null, "website": null, "wikidata": null, "zone:traffic": null, "label": "building:yes;amenity:restaurant" }, "geometry": { "type": "Polygon", "coordinates": [ [ [ 24.1552906, 35.4295589 ], [ 24.1555394, 35.4294715 ], [ 24.1554826, 35.4293641 ], [ 24.1552338, 35.4294516 ], [ 24.1552906, 35.4295589 ] ] ] } },
{ "type": "Feature", "properties": { "@type": "way", "@id": 1225664081, "access": null, "addr:city": null, "addr:postcode": null, "addr:street": null, "air_conditioning": null, "amenity": "place_of_worship", "angle": null, "bar": null, "barrier": null, "brand": null, "brand:wikidata": null, "building": "yes", "cables": null, "camera:direction": null, "camera:mount": null, "camera:type": null, "cuisine": null, "denomination": null, "diet:vegan": null, "diet:vegetarian": null, "fee": null, "generator:method": null, "generator:output:electricity": null, "generator:source": null, "generator:type": null, "height": null, "highway": null, "int_name": null, "int_ref": null, "landuse": null, "lanes": null, "layer": null, "leisure": null, "line_attachment": null, "lit": null, "man_made": null, "maxspeed": null, "name": null, "name:de": null, "name:el": null, "name:en": null, "name:ru": null, "natural": null, "noexit": null, "oneway": null, "operator": null, "outdoor_seating": null, "overtaking": null, "parking": null, "place": null, "power": null, "ref": null, "religion": null, "service": null, "shop": null, "short_name": null, "smoothness": null, "source": null, "source:maxspeed": null, "source:ref": null, "surface": null, "surveillance": null, "surveillance:type": null, "surveillance:zone": null, "tracktype": null, "tunnel": null, "voltage": null, "website": null, "wikidata": null, "zone:traffic": null, "label": "building:yes;amenity:place_of_worship" }, "geometry": { "type": "Polygon", "coordinates": [ [ [ 24.1587823, 35.433024 ], [ 24.1588333, 35.4329243 ], [ 24.1586695, 35.4328818 ], [ 24.1586327, 35.4329872 ], [ 24.1587823, 35.433024 ] ] ] } },
{ "type": "Feature", "properties": { "@type": "way", "@id": 1225664082, "access": null, "addr:city": null, "addr:postcode": null, "addr:street": null, "air_conditioning": null, "amenity": null, "angle": null, "bar": null, "barrier": null, "brand": null, "brand:wikidata": null, "building": null, "cables": null, "camera:direction": null, "camera:mount": null, "camera:type": null, "cuisine": null, "denomination": null, "diet:vegan": null, "diet:vegetarian": null, "fee": null, "generator:method": null, "generator:output:electricity": null, "generator:source": null, "generator:type": null, "height": null, "highway": null, "int_name": null, "int_ref": null, "landuse": "cemetery", "lanes": null, "layer": null, "leisure": null, "line_attachment": null, "lit": null, "man_made": null, "maxspeed": null, "name": null, "name:de": null, "name:el": null, "name:en": null, "name:ru": null, "natural": null, "noexit": null, "oneway": null, "operator": null, "outdoor_seating": null, "overtaking": null, "parking": null, "place": null, "power": null, "ref": null, "religion": null, "service": null, "shop": null, "short_name": null, "smoothness": null, "source": null, "source:maxspeed": null, "source:ref": null, "surface": null, "surveillance": null, "surveillance:type": null, "surveillance:zone": null, "tracktype": null, "tunnel": null, "voltage": null, "website": null, "wikidata": null, "zone:traffic": null, "label": "landuse:cemetery" }, "geometry": { "type": "Polygon", "coordinates": [ [ [ 24.1588283, 35.4331046 ], [ 24.1589028, 35.4329523 ], [ 24.1588578, 35.4324926 ], [ 24.1587176, 35.4323431 ], [ 24.1586085, 35.4322839 ], [ 24.1585445, 35.4322924 ], [ 24.1586241, 35.4326477 ], [ 24.1584804, 35.4330229 ], [ 24.1588283, 35.4331046 ] ] ] } },
{ "type": "Feature", "properties": { "@type": "way", "@id": 1225665310, "access": null, "addr:city": null, "addr:postcode": null, "addr:street": null, "air_conditioning": null, "amenity": "restaurant", "angle": null, "bar": null, "barrier": null, "brand": null, "brand:wikidata": null, "building": "yes", "cables": null, "camera:direction": null, "camera:mount": null, "camera:type": null, "cuisine": "greek", "denomination": null, "diet:vegan": null, "diet:vegetarian": null, "fee": null, "generator:method": null, "generator:output:electricity": null, "generator:source": null, "generator:type": null, "height": null, "highway": null, "int_name": null, "int_ref": null, "landuse": null, "lanes": null, "layer": null, "leisure": null, "line_attachment": null, "lit": null, "man_made": null, "maxspeed": null, "name": null, "name:de": null, "name:el": null, "name:en": null, "name:ru": null, "natural": null, "noexit": null, "oneway": null, "operator": null, "outdoor_seating": null, "overtaking": null, "parking": null, "place": null, "power": null, "ref": null, "religion": null, "service": null, "shop": null, "short_name": null, "smoothness": null, "source": null, "source:maxspeed": null, "source:ref": null, "surface": null, "surveillance": null, "surveillance:type": null, "surveillance:zone": null, "tracktype": null, "tunnel": null, "voltage": null, "website": null, "wikidata": null, "zone:traffic": null, "label": "building:yes;amenity:restaurant" }, "geometry": { "type": "Polygon", "coordinates": [ [ [ 24.1559247, 35.4298348 ], [ 24.1559247, 35.4298892 ], [ 24.1559689, 35.4299269 ], [ 24.1560977, 35.4298508 ], [ 24.1559758, 35.429725 ], [ 24.1558844, 35.4297895 ], [ 24.1559247, 35.4298348 ] ] ] } },
{ "type": "Feature", "properties": { "@type": "way", "@id": 1225665311, "access": null, "addr:city": null, "addr:postcode": null, "addr:street": null, "air_conditioning": null, "amenity": "place_of_worship", "angle": null, "bar": null, "barrier": null, "brand": null, "brand:wikidata": null, "building": "yes", "cables": null, "camera:direction": null, "camera:mount": null, "camera:type": null, "cuisine": null, "denomination": null, "diet:vegan": null, "diet:vegetarian": null, "fee": null, "generator:method": null, "generator:output:electricity": null, "generator:source": null, "generator:type": null, "height": null, "highway": null, "int_name": null, "int_ref": null, "landuse": null, "lanes": null, "layer": null, "leisure": null, "line_attachment": null, "lit": null, "man_made": null, "maxspeed": null, "name": "Αγίου Ιωάννη του Θεολόγου", "name:de": null, "name:el": null, "name:en": null, "name:ru": null, "natural": null, "noexit": null, "oneway": null, "operator": null, "outdoor_seating": null, "overtaking": null, "parking": null, "place": null, "power": null, "ref": null, "religion": "christian", "service": null, "shop": null, "short_name": null, "smoothness": null, "source": null, "source:maxspeed": null, "source:ref": null, "surface": null, "surveillance": null, "surveillance:type": null, "surveillance:zone": null, "tracktype": null, "tunnel": null, "voltage": null, "website": null, "wikidata": null, "zone:traffic": null, "label": "building:yes;amenity:place_of_worship" }, "geometry": { "type": "Polygon", "coordinates": [ [ [ 24.1560072, 35.4299822 ], [ 24.1561508, 35.4299529 ], [ 24.1561342, 35.4298989 ], [ 24.1559906, 35.4299282 ], [ 24.1560072, 35.4299822 ] ] ] } },
{ "type": "Feature", "properties": { "@type": "way", "@id": 1225666849, "access": null, "addr:city": null, "addr:postcode": null, "addr:street": null, "air_conditioning": null, "amenity": null, "angle": null, "bar": null, "barrier": null, "brand": null, "brand:wikidata": null, "building": "yes", "cables": null, "camera:direction": null, "camera:mount": null, "camera:type": null, "cuisine": null, "denomination": null, "diet:vegan": null, "diet:vegetarian": null, "fee": null, "generator:method": null, "generator:output:electricity": null, "generator:source": null, "generator:type": null, "height": null, "highway": null, "int_name": null, "int_ref": null, "landuse": null, "lanes": null, "layer": null, "leisure": null, "line_attachment": null, "lit": null, "man_made": null, "maxspeed": null, "name": null, "name:de": null, "name:el": null, "name:en": null, "name:ru": null, "natural": null, "noexit": null, "oneway": null, "operator": null, "outdoor_seating": null, "overtaking": null, "parking": null, "place": null, "power": null, "ref": null, "religion": null, "service": null, "shop": null, "short_name": null, "smoothness": null, "source": null, "source:maxspeed": null, "source:ref": null, "surface": null, "surveillance": null, "surveillance:type": null, "surveillance:zone": null, "tracktype": null, "tunnel": null, "voltage": null, "website": null, "wikidata": null, "zone:traffic": null, "label": "building:yes" }, "geometry": { "type": "Polygon", "coordinates": [ [ [ 24.1557576, 35.4292556 ], [ 24.1559286, 35.4292364 ], [ 24.155904, 35.4291106 ], [ 24.1558106, 35.4291322 ], [ 24.1558136, 35.4291467 ], [ 24.1557389, 35.4291571 ], [ 24.1557576, 35.4292556 ] ] ] } },
{ "type": "Feature", "properties": { "@type": "way", "@id": 1225666850, "access": null, "addr:city": "Armenoi", "addr:postcode": "730 03", "addr:street": null, "air_conditioning": null, "amenity": null, "angle": null, "bar": null, "barrier": null, "brand": null, "brand:wikidata": null, "building": "yes", "cables": null, "camera:direction": null, "camera:mount": null, "camera:type": null, "cuisine": null, "denomination": null, "diet:vegan": null, "diet:vegetarian": null, "fee": null, "generator:method": null, "generator:output:electricity": null, "generator:source": null, "generator:type": null, "height": null, "highway": null, "int_name": null, "int_ref": null, "landuse": null, "lanes": null, "layer": null, "leisure": null, "line_attachment": null, "lit": null, "man_made": null, "maxspeed": null, "name": "Καραβελακης", "name:de": null, "name:el": null, "name:en": null, "name:ru": null, "natural": null, "noexit": null, "oneway": null, "operator": null, "outdoor_seating": null, "overtaking": null, "parking": null, "place": null, "power": null, "ref": null, "religion": null, "service": null, "shop": "convenience", "short_name": null, "smoothness": null, "source": null, "source:maxspeed": null, "source:ref": null, "surface": null, "surveillance": null, "surveillance:type": null, "surveillance:zone": null, "tracktype": null, "tunnel": null, "voltage": null, "website": null, "wikidata": null, "zone:traffic": null, "label": "shop:convenience;building:yes" }, "geometry": { "type": "Polygon", "coordinates": [ [ [ 24.156116, 35.4297391 ], [ 24.1562257, 35.4296587 ], [ 24.1561766, 35.4296142 ], [ 24.1560669, 35.4296946 ], [ 24.156116, 35.4297391 ] ] ] } },
{ "type": "Feature", "properties": { "@type": "way", "@id": 1225671277, "access": null, "addr:city": null, "addr:postcode": null, "addr:street": null, "air_conditioning": null, "amenity": "cafe", "angle": null, "bar": null, "barrier": null, "brand": null, "brand:wikidata": null, "building": "yes", "cables": null, "camera:direction": null, "camera:mount": null, "camera:type": null, "cuisine": null, "denomination": null, "diet:vegan": null, "diet:vegetarian": null, "fee": null, "generator:method": null, "generator:output:electricity": null, "generator:source": null, "generator:type": null, "height": null, "highway": null, "int_name": null, "int_ref": null, "landuse": null, "lanes": null, "layer": null, "leisure": null, "line_attachment": null, "lit": null, "man_made": null, "maxspeed": null, "name": "του Μιχάλη", "name:de": null, "name:el": null, "name:en": null, "name:ru": null, "natural": null, "noexit": null, "oneway": null, "operator": null, "outdoor_seating": null, "overtaking": null, "parking": null, "place": null, "power": null, "ref": null, "religion": null, "service": null, "shop": null, "short_name": null, "smoothness": null, "source": null, "source:maxspeed": null, "source:ref": null, "surface": null, "surveillance": null, "surveillance:type": null, "surveillance:zone": null, "tracktype": null, "tunnel": null, "voltage": null, "website": null, "wikidata": null, "zone:traffic": null, "label": "building:yes;amenity:cafe" }, "geometry": { "type": "Polygon", "coordinates": [ [ [ 24.1563055, 35.430093 ], [ 24.1563637, 35.4300612 ], [ 24.1563265, 35.4300161 ], [ 24.1562683, 35.4300479 ], [ 24.1563055, 35.430093 ] ] ] } },
{ "type": "Feature", "properties": { "@type": "way", "@id": 1225671278, "access": null, "addr:city": "Armenoi", "addr:postcode": "730 03", "addr:street": null, "air_conditioning": null, "amenity": null, "angle": null, "bar": null, "barrier": null, "brand": null, "brand:wikidata": null, "building": "yes", "cables": null, "camera:direction": null, "camera:mount": null, "camera:type": null, "cuisine": null, "denomination": null, "diet:vegan": null, "diet:vegetarian": null, "fee": null, "generator:method": null, "generator:output:electricity": null, "generator:source": null, "generator:type": null, "height": null, "highway": null, "int_name": null, "int_ref": null, "landuse": null, "lanes": null, "layer": null, "leisure": null, "line_attachment": null, "lit": null, "man_made": null, "maxspeed": null, "name": "Κρεοπωλείον Γαλακτοκομικά \"Ο Κουτσούπης\"", "name:de": null, "name:el": null, "name:en": null, "name:ru": null, "natural": null, "noexit": null, "oneway": null, "operator": null, "outdoor_seating": null, "overtaking": null, "parking": null, "place": null, "power": null, "ref": null, "religion": null, "service": null, "shop": "butcher", "short_name": null, "smoothness": null, "source": null, "source:maxspeed": null, "source:ref": null, "surface": null, "surveillance": null, "surveillance:type": null, "surveillance:zone": null, "tracktype": null, "tunnel": null, "voltage": null, "website": null, "wikidata": null, "zone:traffic": null, "label": "shop:butcher;building:yes" }, "geometry": { "type": "Polygon", "coordinates": [ [ [ 24.1560292, 35.4301429 ], [ 24.1561186, 35.4301233 ], [ 24.1560956, 35.4300538 ], [ 24.1560062, 35.4300735 ], [ 24.1560292, 35.4301429 ] ] ] } },
{ "type": "Feature", "properties": { "@type": "way", "@id": 1225671279, "access": "yes", "addr:city": null, "addr:postcode": null, "addr:street": null, "air_conditioning": null, "amenity": "parking", "angle": null, "bar": null, "barrier": null, "brand": null, "brand:wikidata": null, "building": null, "cables": null, "camera:direction": null, "camera:mount": null, "camera:type": null, "cuisine": null, "denomination": null, "diet:vegan": null, "diet:vegetarian": null, "fee": "no", "generator:method": null, "generator:output:electricity": null, "generator:source": null, "generator:type": null, "height": null, "highway": null, "int_name": null, "int_ref": null, "landuse": null, "lanes": null, "layer": null, "leisure": null, "line_attachment": null, "lit": null, "man_made": null, "maxspeed": null, "name": null, "name:de": null, "name:el": null, "name:en": null, "name:ru": null, "natural": null, "noexit": null, "oneway": null, "operator": null, "outdoor_seating": null, "overtaking": null, "parking": "surface", "place": null, "power": null, "ref": null, "religion": null, "service": null, "shop": null, "short_name": null, "smoothness": null, "source": null, "source:maxspeed": null, "source:ref": null, "surface": null, "surveillance": null, "surveillance:type": null, "surveillance:zone": null, "tracktype": null, "tunnel": null, "voltage": null, "website": null, "wikidata": null, "zone:traffic": null, "label": "amenity:parking" }, "geometry": { "type": "Polygon", "coordinates": [ [ [ 24.1560024, 35.4306227 ], [ 24.1563561, 35.4305292 ], [ 24.1563014, 35.4303814 ], [ 24.1559089, 35.430493 ], [ 24.1558639, 35.4305804 ], [ 24.1560024, 35.4306227 ] ] ] } },
{ "type": "Feature", "properties": { "@type": "way", "@id": 1225671280, "access": null, "addr:city": null, "addr:postcode": null, "addr:street": null, "air_conditioning": null, "amenity": null, "angle": null, "bar": null, "barrier": null, "brand": null, "brand:wikidata": null, "building": "yes", "cables": null, "camera:direction": null, "camera:mount": null, "camera:type": null, "cuisine": null, "denomination": null, "diet:vegan": null, "diet:vegetarian": null, "fee": null, "generator:method": null, "generator:output:electricity": null, "generator:source": null, "generator:type": null, "height": null, "highway": null, "int_name": null, "int_ref": null, "landuse": null, "lanes": null, "layer": null, "leisure": null, "line_attachment": null, "lit": null, "man_made": null, "maxspeed": null, "name": null, "name:de": null, "name:el": null, "name:en": null, "name:ru": null, "natural": null, "noexit": null, "oneway": null, "operator": null, "outdoor_seating": null, "overtaking": null, "parking": null, "place": null, "power": null, "ref": null, "religion": null, "service": null, "shop": null, "short_name": null, "smoothness": null, "source": null, "source:maxspeed": null, "source:ref": null, "surface": null, "surveillance": null, "surveillance:type": null, "surveillance:zone": null, "tracktype": null, "tunnel": null, "voltage": null, "website": null, "wikidata": null, "zone:traffic": null, "label": "building:yes" }, "geometry": { "type": "Polygon", "coordinates": [ [ [ 24.1535378, 35.4310178 ], [ 24.1537228, 35.4310138 ], [ 24.1537198, 35.4309245 ], [ 24.1535349, 35.4309286 ], [ 24.1535378, 35.4310178 ] ] ] } },
{ "type": "Feature", "properties": { "@type": "way", "@id": 1225671281, "access": null, "addr:city": null, "addr:postcode": null, "addr:street": null, "air_conditioning": null, "amenity": null, "angle": null, "bar": null, "barrier": null, "brand": null, "brand:wikidata": null, "building": "yes", "cables": null, "camera:direction": null, "camera:mount": null, "camera:type": null, "cuisine": null, "denomination": null, "diet:vegan": null, "diet:vegetarian": null, "fee": null, "generator:method": null, "generator:output:electricity": null, "generator:source": null, "generator:type": null, "height": null, "highway": null, "int_name": null, "int_ref": null, "landuse": null, "lanes": null, "layer": null, "leisure": null, "line_attachment": null, "lit": null, "man_made": null, "maxspeed": null, "name": null, "name:de": null, "name:el": null, "name:en": null, "name:ru": null, "natural": null, "noexit": null, "oneway": null, "operator": null, "outdoor_seating": null, "overtaking": null, "parking": null, "place": null, "power": null, "ref": null, "religion": null, "service": null, "shop": null, "short_name": null, "smoothness": null, "source": null, "source:maxspeed": null, "source:ref": null, "surface": null, "surveillance": null, "surveillance:type": null, "surveillance:zone": null, "tracktype": null, "tunnel": null, "voltage": null, "website": null, "wikidata": null, "zone:traffic": null, "label": "building:yes" }, "geometry": { "type": "Polygon", "coordinates": [ [ [ 24.1577699, 35.4344068 ], [ 24.1579094, 35.4343067 ], [ 24.157862, 35.4342629 ], [ 24.1577225, 35.434363 ], [ 24.1577699, 35.4344068 ] ] ] } },
{ "type": "Feature", "properties": { "@type": "way", "@id": 1225671282, "access": null, "addr:city": null, "addr:postcode": null, "addr:street": null, "air_conditioning": null, "amenity": null, "angle": null, "bar": null, "barrier": null, "brand": null, "brand:wikidata": null, "building": "yes", "cables": null, "camera:direction": null, "camera:mount": null, "camera:type": null, "cuisine": null, "denomination": null, "diet:vegan": null, "diet:vegetarian": null, "fee": null, "generator:method": null, "generator:output:electricity": null, "generator:source": null, "generator:type": null, "height": null, "highway": null, "int_name": null, "int_ref": null, "landuse": null, "lanes": null, "layer": null, "leisure": null, "line_attachment": null, "lit": null, "man_made": null, "maxspeed": null, "name": null, "name:de": null, "name:el": null, "name:en": null, "name:ru": null, "natural": null, "noexit": null, "oneway": null, "operator": null, "outdoor_seating": null, "overtaking": null, "parking": null, "place": null, "power": null, "ref": null, "religion": null, "service": null, "shop": null, "short_name": null, "smoothness": null, "source": null, "source:maxspeed": null, "source:ref": null, "surface": null, "surveillance": null, "surveillance:type": null, "surveillance:zone": null, "tracktype": null, "tunnel": null, "voltage": null, "website": null, "wikidata": null, "zone:traffic": null, "label": "building:yes" }, "geometry": { "type": "Polygon", "coordinates": [ [ [ 24.1579035, 35.4342057 ], [ 24.1579555, 35.4341744 ], [ 24.1579117, 35.434126 ], [ 24.1578596, 35.4341573 ], [ 24.1579035, 35.4342057 ] ] ] } },
{ "type": "Feature", "properties": { "@type": "way", "@id": 1225671284, "access": null, "addr:city": null, "addr:postcode": null, "addr:street": null, "air_conditioning": null, "amenity": "events_venue", "angle": null, "bar": null, "barrier": null, "brand": null, "brand:wikidata": null, "building": "yes", "cables": null, "camera:direction": null, "camera:mount": null, "camera:type": null, "cuisine": null, "denomination": null, "diet:vegan": null, "diet:vegetarian": null, "fee": null, "generator:method": null, "generator:output:electricity": null, "generator:source": null, "generator:type": null, "height": null, "highway": null, "int_name": null, "int_ref": null, "landuse": null, "lanes": null, "layer": null, "leisure": null, "line_attachment": null, "lit": null, "man_made": null, "maxspeed": null, "name": "Κτήμα Ρωξανη", "name:de": null, "name:el": null, "name:en": null, "name:ru": null, "natural": null, "noexit": null, "oneway": null, "operator": null, "outdoor_seating": null, "overtaking": null, "parking": null, "place": null, "power": null, "ref": null, "religion": null, "service": null, "shop": null, "short_name": null, "smoothness": null, "source": null, "source:maxspeed": null, "source:ref": null, "surface": null, "surveillance": null, "surveillance:type": null, "surveillance:zone": null, "tracktype": null, "tunnel": null, "voltage": null, "website": null, "wikidata": null, "zone:traffic": null, "label": "building:yes;amenity:events_venue" }, "geometry": { "type": "Polygon", "coordinates": [ [ [ 24.1588344, 35.4291603 ], [ 24.1589281, 35.4291502 ], [ 24.1589135, 35.4290604 ], [ 24.1588198, 35.4290705 ], [ 24.1588344, 35.4291603 ] ] ] } },
{ "type": "Feature", "properties": { "@type": "way", "@id": 1225671285, "access": null, "addr:city": null, "addr:postcode": null, "addr:street": null, "air_conditioning": null, "amenity": null, "angle": null, "bar": null, "barrier": null, "brand": null, "brand:wikidata": null, "building": "yes", "cables": null, "camera:direction": null, "camera:mount": null, "camera:type": null, "cuisine": null, "denomination": null, "diet:vegan": null, "diet:vegetarian": null, "fee": null, "generator:method": null, "generator:output:electricity": null, "generator:source": null, "generator:type": null, "height": null, "highway": null, "int_name": null, "int_ref": null, "landuse": null, "lanes": null, "layer": null, "leisure": null, "line_attachment": null, "lit": null, "man_made": null, "maxspeed": null, "name": null, "name:de": null, "name:el": null, "name:en": null, "name:ru": null, "natural": null, "noexit": null, "oneway": null, "operator": null, "outdoor_seating": null, "overtaking": null, "parking": null, "place": null, "power": null, "ref": null, "religion": null, "service": null, "shop": null, "short_name": null, "smoothness": null, "source": null, "source:maxspeed": null, "source:ref": null, "surface": null, "surveillance": null, "surveillance:type": null, "surveillance:zone": null, "tracktype": null, "tunnel": null, "voltage": null, "website": null, "wikidata": null, "zone:traffic": null, "label": "building:yes" }, "geometry": { "type": "Polygon", "coordinates": [ [ [ 24.1591268, 35.4290271 ], [ 24.1592401, 35.4289778 ], [ 24.159188, 35.4288984 ], [ 24.1590747, 35.4289476 ], [ 24.1591268, 35.4290271 ] ] ] } },
{ "type": "Feature", "properties": { "@type": "way", "@id": 1225671286, "access": null, "addr:city": null, "addr:postcode": null, "addr:street": null, "air_conditioning": null, "amenity": null, "angle": null, "bar": null, "barrier": null, "brand": null, "brand:wikidata": null, "building": "yes", "cables": null, "camera:direction": null, "camera:mount": null, "camera:type": null, "cuisine": null, "denomination": null, "diet:vegan": null, "diet:vegetarian": null, "fee": null, "generator:method": null, "generator:output:electricity": null, "generator:source": null, "generator:type": null, "height": null, "highway": null, "int_name": null, "int_ref": null, "landuse": null, "lanes": null, "layer": null, "leisure": null, "line_attachment": null, "lit": null, "man_made": null, "maxspeed": null, "name": null, "name:de": null, "name:el": null, "name:en": null, "name:ru": null, "natural": null, "noexit": null, "oneway": null, "operator": null, "outdoor_seating": null, "overtaking": null, "parking": null, "place": null, "power": null, "ref": null, "religion": null, "service": null, "shop": null, "short_name": null, "smoothness": null, "source": null, "source:maxspeed": null, "source:ref": null, "surface": null, "surveillance": null, "surveillance:type": null, "surveillance:zone": null, "tracktype": null, "tunnel": null, "voltage": null, "website": null, "wikidata": null, "zone:traffic": null, "label": "building:yes" }, "geometry": { "type": "Polygon", "coordinates": [ [ [ 24.159143, 35.4291879 ], [ 24.1592526, 35.4291513 ], [ 24.1592169, 35.4290804 ], [ 24.1591073, 35.4291171 ], [ 24.159143, 35.4291879 ] ] ] } },
{ "type": "Feature", "properties": { "@type": "way", "@id": 1311531283, "access": null, "addr:city": null, "addr:postcode": null, "addr:street": null, "air_conditioning": null, "amenity": null, "angle": null, "bar": null, "barrier": null, "brand": null, "brand:wikidata": null, "building": null, "cables": null, "camera:direction": null, "camera:mount": null, "camera:type": null, "cuisine": null, "denomination": null, "diet:vegan": null, "diet:vegetarian": null, "fee": null, "generator:method": null, "generator:output:electricity": null, "generator:source": null, "generator:type": null, "height": null, "highway": null, "int_name": null, "int_ref": null, "landuse": null, "lanes": null, "layer": null, "leisure": "swimming_pool", "line_attachment": null, "lit": null, "man_made": null, "maxspeed": null, "name": null, "name:de": null, "name:el": null, "name:en": null, "name:ru": null, "natural": null, "noexit": null, "oneway": null, "operator": null, "outdoor_seating": null, "overtaking": null, "parking": null, "place": null, "power": null, "ref": null, "religion": null, "service": null, "shop": null, "short_name": null, "smoothness": null, "source": null, "source:maxspeed": null, "source:ref": null, "surface": null, "surveillance": null, "surveillance:type": null, "surveillance:zone": null, "tracktype": null, "tunnel": null, "voltage": null, "website": null, "wikidata": null, "zone:traffic": null, "label": "leisure:swimming_pool" }, "geometry": { "type": "Polygon", "coordinates": [ [ [ 24.1591757, 35.4294676 ], [ 24.1591927, 35.4294723 ], [ 24.1592113, 35.4294644 ], [ 24.1592647, 35.4294234 ], [ 24.1592299, 35.4293957 ], [ 24.1591716, 35.4294393 ], [ 24.1591676, 35.4294558 ], [ 24.1591757, 35.4294676 ] ] ] } },
{ "type": "Feature", "properties": { "@type": "way", "@id": 1311531284, "access": null, "addr:city": null, "addr:postcode": null, "addr:street": null, "air_conditioning": null, "amenity": null, "angle": null, "bar": null, "barrier": null, "brand": null, "brand:wikidata": null, "building": null, "cables": null, "camera:direction": null, "camera:mount": null, "camera:type": null, "cuisine": null, "denomination": null, "diet:vegan": null, "diet:vegetarian": null, "fee": null, "generator:method": null, "generator:output:electricity": null, "generator:source": null, "generator:type": null, "height": null, "highway": null, "int_name": null, "int_ref": null, "landuse": null, "lanes": null, "layer": null, "leisure": "swimming_pool", "line_attachment": null, "lit": null, "man_made": null, "maxspeed": null, "name": null, "name:de": null, "name:el": null, "name:en": null, "name:ru": null, "natural": null, "noexit": null, "oneway": null, "operator": null, "outdoor_seating": null, "overtaking": null, "parking": null, "place": null, "power": null, "ref": null, "religion": null, "service": null, "shop": null, "short_name": null, "smoothness": null, "source": null, "source:maxspeed": null, "source:ref": null, "surface": null, "surveillance": null, "surveillance:type": null, "surveillance:zone": null, "tracktype": null, "tunnel": null, "voltage": null, "website": null, "wikidata": null, "zone:traffic": null, "label": "leisure:swimming_pool" }, "geometry": { "type": "Polygon", "coordinates": [ [ [ 24.1551247, 35.4268487 ], [ 24.1551317, 35.4268453 ], [ 24.1551519, 35.4268647 ], [ 24.1551763, 35.426851 ], [ 24.1551798, 35.4268328 ], [ 24.155177, 35.4268243 ], [ 24.1552063, 35.4268061 ], [ 24.1551798, 35.4267743 ], [ 24.1550975, 35.4268175 ], [ 24.1551247, 35.4268487 ] ] ] } },
{ "type": "Feature", "properties": { "@type": "way", "@id": 1311531285, "access": null, "addr:city": null, "addr:postcode": null, "addr:street": null, "air_conditioning": null, "amenity": null, "angle": null, "bar": null, "barrier": null, "brand": null, "brand:wikidata": null, "building": null, "cables": null, "camera:direction": null, "camera:mount": null, "camera:type": null, "cuisine": null, "denomination": null, "diet:vegan": null, "diet:vegetarian": null, "fee": null, "generator:method": null, "generator:output:electricity": null, "generator:source": null, "generator:type": null, "height": null, "highway": null, "int_name": null, "int_ref": null, "landuse": null, "lanes": null, "layer": null, "leisure": "swimming_pool", "line_attachment": null, "lit": null, "man_made": null, "maxspeed": null, "name": null, "name:de": null, "name:el": null, "name:en": null, "name:ru": null, "natural": null, "noexit": null, "oneway": null, "operator": null, "outdoor_seating": null, "overtaking": null, "parking": null, "place": null, "power": null, "ref": null, "religion": null, "service": null, "shop": null, "short_name": null, "smoothness": null, "source": null, "source:maxspeed": null, "source:ref": null, "surface": null, "surveillance": null, "surveillance:type": null, "surveillance:zone": null, "tracktype": null, "tunnel": null, "voltage": null, "website": null, "wikidata": null, "zone:traffic": null, "label": "leisure:swimming_pool" }, "geometry": { "type": "Polygon", "coordinates": [ [ [ 24.1565212, 35.4258048 ], [ 24.15661, 35.425781 ], [ 24.1565973, 35.425749 ], [ 24.156506, 35.4257666 ], [ 24.1565212, 35.4258048 ] ] ] } },
{ "type": "Feature", "properties": { "@type": "way", "@id": 1311531286, "access": null, "addr:city": null, "addr:postcode": null, "addr:street": null, "air_conditioning": null, "amenity": null, "angle": null, "bar": null, "barrier": null, "brand": null, "brand:wikidata": null, "building": null, "cables": null, "camera:direction": null, "camera:mount": null, "camera:type": null, "cuisine": null, "denomination": null, "diet:vegan": null, "diet:vegetarian": null, "fee": null, "generator:method": null, "generator:output:electricity": null, "generator:source": null, "generator:type": null, "height": null, "highway": null, "int_name": null, "int_ref": null, "landuse": null, "lanes": null, "layer": null, "leisure": "swimming_pool", "line_attachment": null, "lit": null, "man_made": null, "maxspeed": null, "name": null, "name:de": null, "name:el": null, "name:en": null, "name:ru": null, "natural": null, "noexit": null, "oneway": null, "operator": null, "outdoor_seating": null, "overtaking": null, "parking": null, "place": null, "power": null, "ref": null, "religion": null, "service": null, "shop": null, "short_name": null, "smoothness": null, "source": null, "source:maxspeed": null, "source:ref": null, "surface": null, "surveillance": null, "surveillance:type": null, "surveillance:zone": null, "tracktype": null, "tunnel": null, "voltage": null, "website": null, "wikidata": null, "zone:traffic": null, "label": "leisure:swimming_pool" }, "geometry": { "type": "Polygon", "coordinates": [ [ [ 24.1587048, 35.4258934 ], [ 24.1587693, 35.4258275 ], [ 24.1587376, 35.4258089 ], [ 24.1586742, 35.4258685 ], [ 24.1587048, 35.4258934 ] ] ] } },
{ "type": "Feature", "properties": { "@type": "way", "@id": 1311531287, "access": null, "addr:city": null, "addr:postcode": null, "addr:street": null, "air_conditioning": null, "amenity": null, "angle": null, "bar": null, "barrier": null, "brand": null, "brand:wikidata": null, "building": null, "cables": null, "camera:direction": null, "camera:mount": null, "camera:type": null, "cuisine": null, "denomination": null, "diet:vegan": null, "diet:vegetarian": null, "fee": null, "generator:method": null, "generator:output:electricity": null, "generator:source": null, "generator:type": null, "height": null, "highway": null, "int_name": null, "int_ref": null, "landuse": null, "lanes": null, "layer": null, "leisure": "swimming_pool", "line_attachment": null, "lit": null, "man_made": null, "maxspeed": null, "name": null, "name:de": null, "name:el": null, "name:en": null, "name:ru": null, "natural": null, "noexit": null, "oneway": null, "operator": null, "outdoor_seating": null, "overtaking": null, "parking": null, "place": null, "power": null, "ref": null, "religion": null, "service": null, "shop": null, "short_name": null, "smoothness": null, "source": null, "source:maxspeed": null, "source:ref": null, "surface": null, "surveillance": null, "surveillance:type": null, "surveillance:zone": null, "tracktype": null, "tunnel": null, "voltage": null, "website": null, "wikidata": null, "zone:traffic": null, "label": "leisure:swimming_pool" }, "geometry": { "type": "Polygon", "coordinates": [ [ [ 24.1595959, 35.4250329 ], [ 24.1596043, 35.4250397 ], [ 24.1596175, 35.4250454 ], [ 24.1596294, 35.4250465 ], [ 24.1596412, 35.4251062 ], [ 24.1596907, 35.4251011 ], [ 24.1596803, 35.4250215 ], [ 24.1596468, 35.4250227 ], [ 24.1596322, 35.4250119 ], [ 24.1596175, 35.4250073 ], [ 24.1596029, 35.4250107 ], [ 24.1595959, 35.4250193 ], [ 24.1595959, 35.4250329 ] ] ] } },
{ "type": "Feature", "properties": { "@type": "way", "@id": 1311531288, "access": null, "addr:city": null, "addr:postcode": null, "addr:street": null, "air_conditioning": null, "amenity": null, "angle": null, "bar": null, "barrier": null, "brand": null, "brand:wikidata": null, "building": null, "cables": null, "camera:direction": null, "camera:mount": null, "camera:type": null, "cuisine": null, "denomination": null, "diet:vegan": null, "diet:vegetarian": null, "fee": null, "generator:method": null, "generator:output:electricity": null, "generator:source": null, "generator:type": null, "height": null, "highway": null, "int_name": null, "int_ref": null, "landuse": null, "lanes": null, "layer": null, "leisure": "swimming_pool", "line_attachment": null, "lit": null, "man_made": null, "maxspeed": null, "name": null, "name:de": null, "name:el": null, "name:en": null, "name:ru": null, "natural": null, "noexit": null, "oneway": null, "operator": null, "outdoor_seating": null, "overtaking": null, "parking": null, "place": null, "power": null, "ref": null, "religion": null, "service": null, "shop": null, "short_name": null, "smoothness": null, "source": null, "source:maxspeed": null, "source:ref": null, "surface": null, "surveillance": null, "surveillance:type": null, "surveillance:zone": null, "tracktype": null, "tunnel": null, "voltage": null, "website": null, "wikidata": null, "zone:traffic": null, "label": "leisure:swimming_pool" }, "geometry": { "type": "Polygon", "coordinates": [ [ [ 24.1594024, 35.4246551 ], [ 24.1594512, 35.4246454 ], [ 24.1594665, 35.4246846 ], [ 24.1595167, 35.4246698 ], [ 24.1594895, 35.4245977 ], [ 24.1593898, 35.4246233 ], [ 24.1594024, 35.4246551 ] ] ] } },
{ "type": "Feature", "properties": { "@type": "way", "@id": 1311531289, "access": null, "addr:city": null, "addr:postcode": null, "addr:street": null, "air_conditioning": null, "amenity": null, "angle": null, "bar": null, "barrier": null, "brand": null, "brand:wikidata": null, "building": null, "cables": null, "camera:direction": null, "camera:mount": null, "camera:type": null, "cuisine": null, "denomination": null, "diet:vegan": null, "diet:vegetarian": null, "fee": null, "generator:method": null, "generator:output:electricity": null, "generator:source": null, "generator:type": null, "height": null, "highway": null, "int_name": null, "int_ref": null, "landuse": null, "lanes": null, "layer": null, "leisure": "swimming_pool", "line_attachment": null, "lit": null, "man_made": null, "maxspeed": null, "name": null, "name:de": null, "name:el": null, "name:en": null, "name:ru": null, "natural": null, "noexit": null, "oneway": null, "operator": null, "outdoor_seating": null, "overtaking": null, "parking": null, "place": null, "power": null, "ref": null, "religion": null, "service": null, "shop": null, "short_name": null, "smoothness": null, "source": null, "source:maxspeed": null, "source:ref": null, "surface": null, "surveillance": null, "surveillance:type": null, "surveillance:zone": null, "tracktype": null, "tunnel": null, "voltage": null, "website": null, "wikidata": null, "zone:traffic": null, "label": "leisure:swimming_pool" }, "geometry": { "type": "Polygon", "coordinates": [ [ [ 24.159944, 35.4257888 ], [ 24.1599789, 35.4257783 ], [ 24.1599529, 35.4257235 ], [ 24.1599189, 35.4257327 ], [ 24.159944, 35.4257888 ] ] ] } },
{ "type": "Feature", "properties": { "@type": "way", "@id": 1311531290, "access": null, "addr:city": null, "addr:postcode": null, "addr:street": null, "air_conditioning": null, "amenity": null, "angle": null, "bar": null, "barrier": null, "brand": null, "brand:wikidata": null, "building": null, "cables": null, "camera:direction": null, "camera:mount": null, "camera:type": null, "cuisine": null, "denomination": null, "diet:vegan": null, "diet:vegetarian": null, "fee": null, "generator:method": null, "generator:output:electricity": null, "generator:source": null, "generator:type": null, "height": null, "highway": null, "int_name": null, "int_ref": null, "landuse": null, "lanes": null, "layer": null, "leisure": "swimming_pool", "line_attachment": null, "lit": null, "man_made": null, "maxspeed": null, "name": null, "name:de": null, "name:el": null, "name:en": null, "name:ru": null, "natural": null, "noexit": null, "oneway": null, "operator": null, "outdoor_seating": null, "overtaking": null, "parking": null, "place": null, "power": null, "ref": null, "religion": null, "service": null, "shop": null, "short_name": null, "smoothness": null, "source": null, "source:maxspeed": null, "source:ref": null, "surface": null, "surveillance": null, "surveillance:type": null, "surveillance:zone": null, "tracktype": null, "tunnel": null, "voltage": null, "website": null, "wikidata": null, "zone:traffic": null, "label": "leisure:swimming_pool" }, "geometry": { "type": "Polygon", "coordinates": [ [ [ 24.1631845, 35.4245973 ], [ 24.1632871, 35.4245759 ], [ 24.1632751, 35.4245385 ], [ 24.1631703, 35.424559 ], [ 24.1631845, 35.4245973 ] ] ] } },
{ "type": "Feature", "properties": { "@type": "way", "@id": 1311531291, "access": null, "addr:city": null, "addr:postcode": null, "addr:street": null, "air_conditioning": null, "amenity": null, "angle": null, "bar": null, "barrier": null, "brand": null, "brand:wikidata": null, "building": null, "cables": null, "camera:direction": null, "camera:mount": null, "camera:type": null, "cuisine": null, "denomination": null, "diet:vegan": null, "diet:vegetarian": null, "fee": null, "generator:method": null, "generator:output:electricity": null, "generator:source": null, "generator:type": null, "height": null, "highway": null, "int_name": null, "int_ref": null, "landuse": null, "lanes": null, "layer": null, "leisure": "swimming_pool", "line_attachment": null, "lit": null, "man_made": null, "maxspeed": null, "name": null, "name:de": null, "name:el": null, "name:en": null, "name:ru": null, "natural": null, "noexit": null, "oneway": null, "operator": null, "outdoor_seating": null, "overtaking": null, "parking": null, "place": null, "power": null, "ref": null, "religion": null, "service": null, "shop": null, "short_name": null, "smoothness": null, "source": null, "source:maxspeed": null, "source:ref": null, "surface": null, "surveillance": null, "surveillance:type": null, "surveillance:zone": null, "tracktype": null, "tunnel": null, "voltage": null, "website": null, "wikidata": null, "zone:traffic": null, "label": "leisure:swimming_pool" }, "geometry": { "type": "Polygon", "coordinates": [ [ [ 24.165534, 35.4239618 ], [ 24.1655808, 35.4239125 ], [ 24.1655651, 35.4238984 ], [ 24.1655099, 35.4239259 ], [ 24.165534, 35.4239618 ] ] ] } },
{ "type": "Feature", "properties": { "@type": "way", "@id": 1311531292, "access": null, "addr:city": null, "addr:postcode": null, "addr:street": null, "air_conditioning": null, "amenity": null, "angle": null, "bar": null, "barrier": null, "brand": null, "brand:wikidata": null, "building": null, "cables": null, "camera:direction": null, "camera:mount": null, "camera:type": null, "cuisine": null, "denomination": null, "diet:vegan": null, "diet:vegetarian": null, "fee": null, "generator:method": null, "generator:output:electricity": null, "generator:source": null, "generator:type": null, "height": null, "highway": null, "int_name": null, "int_ref": null, "landuse": null, "lanes": null, "layer": null, "leisure": "swimming_pool", "line_attachment": null, "lit": null, "man_made": null, "maxspeed": null, "name": null, "name:de": null, "name:el": null, "name:en": null, "name:ru": null, "natural": null, "noexit": null, "oneway": null, "operator": null, "outdoor_seating": null, "overtaking": null, "parking": null, "place": null, "power": null, "ref": null, "religion": null, "service": null, "shop": null, "short_name": null, "smoothness": null, "source": null, "source:maxspeed": null, "source:ref": null, "surface": null, "surveillance": null, "surveillance:type": null, "surveillance:zone": null, "tracktype": null, "tunnel": null, "voltage": null, "website": null, "wikidata": null, "zone:traffic": null, "label": "leisure:swimming_pool" }, "geometry": { "type": "Polygon", "coordinates": [ [ [ 24.1655846, 35.4239093 ], [ 24.1655972, 35.4238993 ], [ 24.1655969, 35.4238915 ], [ 24.1655919, 35.4238878 ], [ 24.1655846, 35.423885 ], [ 24.16557, 35.423895 ], [ 24.1655846, 35.4239093 ] ] ] } },
{ "type": "Feature", "properties": { "@type": "way", "@id": 1311531839, "access": null, "addr:city": null, "addr:postcode": null, "addr:street": null, "air_conditioning": null, "amenity": null, "angle": null, "bar": null, "barrier": null, "brand": null, "brand:wikidata": null, "building": null, "cables": null, "camera:direction": null, "camera:mount": null, "camera:type": null, "cuisine": null, "denomination": null, "diet:vegan": null, "diet:vegetarian": null, "fee": null, "generator:method": null, "generator:output:electricity": null, "generator:source": null, "generator:type": null, "height": null, "highway": null, "int_name": null, "int_ref": null, "landuse": null, "lanes": null, "layer": null, "leisure": "swimming_pool", "line_attachment": null, "lit": null, "man_made": null, "maxspeed": null, "name": null, "name:de": null, "name:el": null, "name:en": null, "name:ru": null, "natural": null, "noexit": null, "oneway": null, "operator": null, "outdoor_seating": null, "overtaking": null, "parking": null, "place": null, "power": null, "ref": null, "religion": null, "service": null, "shop": null, "short_name": null, "smoothness": null, "source": null, "source:maxspeed": null, "source:ref": null, "surface": null, "surveillance": null, "surveillance:type": null, "surveillance:zone": null, "tracktype": null, "tunnel": null, "voltage": null, "website": null, "wikidata": null, "zone:traffic": null, "label": "leisure:swimming_pool" }, "geometry": { "type": "Polygon", "coordinates": [ [ [ 24.1695601, 35.4244923 ], [ 24.1696137, 35.4244762 ], [ 24.1695657, 35.4243904 ], [ 24.1695196, 35.4244049 ], [ 24.1695601, 35.4244923 ] ] ] } },
{ "type": "Feature", "properties": { "@type": "way", "@id": 1367352556, "access": null, "addr:city": null, "addr:postcode": null, "addr:street": null, "air_conditioning": null, "amenity": null, "angle": null, "bar": null, "barrier": null, "brand": null, "brand:wikidata": null, "building": "yes", "cables": null, "camera:direction": null, "camera:mount": null, "camera:type": null, "cuisine": null, "denomination": null, "diet:vegan": null, "diet:vegetarian": null, "fee": null, "generator:method": null, "generator:output:electricity": null, "generator:source": null, "generator:type": null, "height": null, "highway": null, "int_name": null, "int_ref": null, "landuse": null, "lanes": null, "layer": null, "leisure": null, "line_attachment": null, "lit": null, "man_made": null, "maxspeed": null, "name": null, "name:de": null, "name:el": null, "name:en": null, "name:ru": null, "natural": null, "noexit": null, "oneway": null, "operator": null, "outdoor_seating": null, "overtaking": null, "parking": null, "place": null, "power": null, "ref": null, "religion": null, "service": null, "shop": null, "short_name": null, "smoothness": null, "source": null, "source:maxspeed": null, "source:ref": null, "surface": null, "surveillance": null, "surveillance:type": null, "surveillance:zone": null, "tracktype": null, "tunnel": null, "voltage": null, "website": null, "wikidata": null, "zone:traffic": null, "label": "building:yes" }, "geometry": { "type": "Polygon", "coordinates": [ [ [ 24.1553438, 35.4298253 ], [ 24.1554483, 35.4297863 ], [ 24.1554347, 35.4297617 ], [ 24.1554581, 35.4297513 ], [ 24.1554288, 35.429698 ], [ 24.1552989, 35.4297505 ], [ 24.1553438, 35.4298253 ] ] ] } },
{ "type": "Feature", "properties": { "@type": "way", "@id": 1367352557, "access": null, "addr:city": null, "addr:postcode": null, "addr:street": null, "air_conditioning": null, "amenity": null, "angle": null, "bar": null, "barrier": null, "brand": null, "brand:wikidata": null, "building": "yes", "cables": null, "camera:direction": null, "camera:mount": null, "camera:type": null, "cuisine": null, "denomination": null, "diet:vegan": null, "diet:vegetarian": null, "fee": null, "generator:method": null, "generator:output:electricity": null, "generator:source": null, "generator:type": null, "height": null, "highway": null, "int_name": null, "int_ref": null, "landuse": null, "lanes": null, "layer": null, "leisure": null, "line_attachment": null, "lit": null, "man_made": null, "maxspeed": null, "name": null, "name:de": null, "name:el": null, "name:en": null, "name:ru": null, "natural": null, "noexit": null, "oneway": null, "operator": null, "outdoor_seating": null, "overtaking": null, "parking": null, "place": null, "power": null, "ref": null, "religion": null, "service": null, "shop": null, "short_name": null, "smoothness": null, "source": null, "source:maxspeed": null, "source:ref": null, "surface": null, "surveillance": null, "surveillance:type": null, "surveillance:zone": null, "tracktype": null, "tunnel": null, "voltage": null, "website": null, "wikidata": null, "zone:traffic": null, "label": "building:yes" }, "geometry": { "type": "Polygon", "coordinates": [ [ [ 24.1557707, 35.4297991 ], [ 24.1558792, 35.429729 ], [ 24.1558137, 35.4296637 ], [ 24.1557004, 35.4297378 ], [ 24.1557707, 35.4297991 ] ] ] } },
{ "type": "Feature", "properties": { "@type": "way", "@id": 1446931037, "access": null, "addr:city": null, "addr:postcode": null, "addr:street": null, "air_conditioning": null, "amenity": null, "angle": null, "bar": null, "barrier": null, "brand": null, "brand:wikidata": null, "building": "yes", "cables": null, "camera:direction": null, "camera:mount": null, "camera:type": null, "cuisine": null, "denomination": null, "diet:vegan": null, "diet:vegetarian": null, "fee": null, "generator:method": null, "generator:output:electricity": null, "generator:source": null, "generator:type": null, "height": null, "highway": null, "int_name": null, "int_ref": null, "landuse": null, "lanes": null, "layer": null, "leisure": null, "line_attachment": null, "lit": null, "man_made": null, "maxspeed": null, "name": null, "name:de": null, "name:el": null, "name:en": null, "name:ru": null, "natural": null, "noexit": null, "oneway": null, "operator": null, "outdoor_seating": null, "overtaking": null, "parking": null, "place": null, "power": null, "ref": null, "religion": null, "service": null, "shop": null, "short_name": null, "smoothness": null, "source": null, "source:maxspeed": null, "source:ref": null, "surface": null, "surveillance": null, "surveillance:type": null, "surveillance:zone": null, "tracktype": null, "tunnel": null, "voltage": null, "website": null, "wikidata": null, "zone:traffic": null, "label": "building:yes" }, "geometry": { "type": "Polygon", "coordinates": [ [ [ 24.1466689, 35.4334636 ], [ 24.1467926, 35.4334494 ], [ 24.146786, 35.4334113 ], [ 24.1466623, 35.4334255 ], [ 24.1466689, 35.4334636 ] ] ] } }
]
}
