{
"type": "FeatureCollection",
"name": "patch_19932_polygon",
"crs": { "type": "name", "properties": { "name": "urn:ogc:def:crs:OGC:1.3:CRS84" } },
"features": [
{ "type": "Feature", "properties": { "element": "relation", "id": 6697775, "ele": null, "natural": "wood", "name": null, "source": null, "waterway": null, "boat": null, "int_name": null, "intermittent": null, "landuse": null, "leaf_type": null, "type": "multipolygon", "label": "natural:wood" }, "geometry": { "type": "Polygon", "coordinates": [ [ [ 20.7458859, 40.3218 ], [ 20.746022, 40.3219713 ], [ 20.7461581, 40.321848 ], [ 20.7464557, 40.3214859 ], [ 20.746744, 40.3214808 ], [ 20.746968, 40.3212466 ], [ 20.7475017, 40.3208845 ], [ 20.7482338, 40.3195223 ], [ 20.7483256, 40.3189159 ], [ 20.7482994, 40.3185058 ], [ 20.7482702, 40.3182619 ], [ 20.7481874, 40.3181816 ], [ 20.7480777, 40.3181258 ], [ 20.7479648, 40.3181291 ], [ 20.7478411, 40.3182019 ], [ 20.7477793, 40.3182608 ], [ 20.7478033, 40.3184055 ], [ 20.7477654, 40.318507 ], [ 20.7476146, 40.3185012 ], [ 20.7476856, 40.3183638 ], [ 20.7475956, 40.3183245 ], [ 20.7474513, 40.3183662 ], [ 20.7473929, 40.3184734 ], [ 20.7471762, 40.3183781 ], [ 20.7471312, 40.3184627 ], [ 20.7471425, 40.3187153 ], [ 20.7469919, 40.3186505 ], [ 20.7469271, 40.3186347 ], [ 20.7468191, 40.318047 ], [ 20.7466888, 40.3177407 ], [ 20.7468973, 40.3175835 ], [ 20.7469019, 40.3174344 ], [ 20.7464129, 40.3173877 ], [ 20.7462168, 40.317082 ], [ 20.7460957, 40.3170791 ], [ 20.7459554, 40.3170691 ], [ 20.7458152, 40.3171327 ], [ 20.7457769, 40.3174496 ], [ 20.7460743, 40.3177021 ], [ 20.7460298, 40.3180615 ], [ 20.7458566, 40.3185109 ], [ 20.7455533, 40.3192385 ], [ 20.7455903, 40.3205628 ], [ 20.7450157, 40.3199811 ], [ 20.7450008, 40.3197212 ], [ 20.7452434, 40.3194776 ], [ 20.7450247, 40.3191031 ], [ 20.7447759, 40.3191081 ], [ 20.7447416, 40.319334 ], [ 20.744387, 40.3192155 ], [ 20.7439895, 40.3190071 ], [ 20.7439518, 40.3189734 ], [ 20.744075, 40.3187842 ], [ 20.7443966, 40.3186595 ], [ 20.7442944, 40.3184653 ], [ 20.7441922, 40.3182466 ], [ 20.7440683, 40.3182365 ], [ 20.7439015, 40.3182755 ], [ 20.7437614, 40.3185353 ], [ 20.7439114, 40.319017 ], [ 20.7437501, 40.3190324 ], [ 20.7436343, 40.3189405 ], [ 20.7434755, 40.3187995 ], [ 20.7433703, 40.3188774 ], [ 20.7435656, 40.3191843 ], [ 20.7430798, 40.3189655 ], [ 20.7428945, 40.3190249 ], [ 20.7437042, 40.3194544 ], [ 20.7434868, 40.3195588 ], [ 20.7436235, 40.3197613 ], [ 20.7437028, 40.3199497 ], [ 20.7430097, 40.3200276 ], [ 20.7426814, 40.3201547 ], [ 20.7427608, 40.3199627 ], [ 20.7421031, 40.3198668 ], [ 20.7417742, 40.3197942 ], [ 20.7412021, 40.3191935 ], [ 20.7408499, 40.3191041 ], [ 20.7404583, 40.3193669 ], [ 20.7402438, 40.3195765 ], [ 20.7402438, 40.3196752 ], [ 20.7404154, 40.3197411 ], [ 20.7402277, 40.3199666 ], [ 20.7401579, 40.3202657 ], [ 20.7392996, 40.3207933 ], [ 20.7387283, 40.321145 ], [ 20.7383729, 40.3210101 ], [ 20.7382006, 40.3209876 ], [ 20.7380068, 40.3210305 ], [ 20.7379183, 40.3222534 ], [ 20.738097822480327, 40.322612205171055 ], [ 20.73880609776004, 40.322612205171055 ], [ 20.7385153, 40.3224 ], [ 20.7386836, 40.3223013 ], [ 20.738875, 40.3222969 ], [ 20.7391308, 40.3223988 ], [ 20.739262005765777, 40.322612205171055 ], [ 20.743163937992044, 40.322612205171055 ], [ 20.7435573, 40.3225259 ], [ 20.743818768433304, 40.322612205171055 ], [ 20.743876759932107, 40.322612205171055 ], [ 20.7438929, 40.3224599 ], [ 20.7443814, 40.3224962 ], [ 20.7448511, 40.3222953 ], [ 20.7453503, 40.3219738 ], [ 20.7458282, 40.3216539 ], [ 20.7458859, 40.3218 ] ], [ [ 20.7471419, 40.3193783 ], [ 20.7471634, 40.3195539 ], [ 20.7470668, 40.3199586 ], [ 20.7468924, 40.3200091 ], [ 20.7467234, 40.3200024 ], [ 20.7467286, 40.3195993 ], [ 20.7467647, 40.3193074 ], [ 20.7471333, 40.3190359 ], [ 20.7471419, 40.3193783 ] ], [ [ 20.7455832, 40.3210526 ], [ 20.7454605, 40.3210344 ], [ 20.7452848, 40.3210881 ], [ 20.7453773, 40.3213871 ], [ 20.7452659, 40.3214407 ], [ 20.7450379, 40.321139 ], [ 20.7449064, 40.3208863 ], [ 20.7449973, 40.3206036 ], [ 20.7455978, 40.3207463 ], [ 20.7457274, 40.3212017 ], [ 20.7455832, 40.3210526 ] ] ] } },
{ "type": "Feature", "properties": { "element": "relation", "id": 20510376, "ele": null, "natural": "wood", "name": null, "source": null, "waterway": null, "boat": null, "int_name": null, "intermittent": null, "landuse": null, "leaf_type": null, "type": "multipolygon", "label": "natural:wood" }, "geometry": { "type": "Polygon", "coordinates": [ [ [ 20.7213292, 40.2998541 ], [ 20.7222694, 40.2999279 ], [ 20.7227883, 40.2999687 ], [ 20.724226, 40.3002632 ], [ 20.725492, 40.3008196 ], [ 20.725945, 40.3015261 ], [ 20.7269296, 40.3030616 ], [ 20.7273588, 40.3032907 ], [ 20.7281742, 40.3033234 ], [ 20.7294617, 40.3031598 ], [ 20.7305775, 40.3027507 ], [ 20.7307277, 40.3022106 ], [ 20.730041, 40.3012124 ], [ 20.7297942, 40.3008933 ], [ 20.72929, 40.3007051 ], [ 20.7287428, 40.3006642 ], [ 20.7281957, 40.3005251 ], [ 20.7277987, 40.3001405 ], [ 20.7281742, 40.2996741 ], [ 20.728568330752033, 40.299479627589456 ], [ 20.720417338760086, 40.299479627589456 ], [ 20.7213292, 40.2998541 ] ] ] } },
{ "type": "Feature", "properties": { "element": "way", "id": 432058712, "ele": null, "natural": "wood", "name": null, "source": null, "waterway": null, "boat": null, "int_name": null, "intermittent": null, "landuse": null, "leaf_type": null, "type": null, "label": "natural:wood" }, "geometry": { "type": "Polygon", "coordinates": [ [ [ 20.7206019, 40.3030219 ], [ 20.7213717, 40.3028992 ], [ 20.7217526, 40.3028337 ], [ 20.7231902, 40.3028828 ], [ 20.7239949, 40.3030792 ], [ 20.7242953, 40.3027683 ], [ 20.7255828, 40.301991 ], [ 20.725945, 40.3015261 ], [ 20.725492, 40.3008196 ], [ 20.724226, 40.3002632 ], [ 20.7227883, 40.2999687 ], [ 20.7222694, 40.2999279 ], [ 20.7213292, 40.2998541 ], [ 20.720417338760086, 40.299479627589456 ], [ 20.720129327167392, 40.299479627589456 ], [ 20.720129327167392, 40.303206168961921 ], [ 20.7206019, 40.3030219 ] ] ] } },
{ "type": "Feature", "properties": { "element": "way", "id": 432639236, "ele": null, "natural": null, "name": null, "source": null, "waterway": null, "boat": null, "int_name": null, "intermittent": null, "landuse": "forest", "leaf_type": null, "type": null, "label": "landuse:forest" }, "geometry": { "type": "Polygon", "coordinates": [ [ [ 20.74506, 40.3189096 ], [ 20.7451405, 40.318881 ], [ 20.74528, 40.3187624 ], [ 20.7454087, 40.3187051 ], [ 20.7454892, 40.3186029 ], [ 20.7455965, 40.3184679 ], [ 20.7456501, 40.3182675 ], [ 20.7457467, 40.3180344 ], [ 20.7457789, 40.3177849 ], [ 20.7455482, 40.3177317 ], [ 20.7455107, 40.3175354 ], [ 20.7453926, 40.3175088 ], [ 20.7452746, 40.3175394 ], [ 20.7451083, 40.3174535 ], [ 20.74506, 40.3175497 ], [ 20.7450815, 40.3177031 ], [ 20.745001, 40.3176581 ], [ 20.7449474, 40.3177889 ], [ 20.7448401, 40.3179157 ], [ 20.7449796, 40.3180834 ], [ 20.7449152, 40.3182225 ], [ 20.7447972, 40.3181898 ], [ 20.7447435, 40.3182184 ], [ 20.7448347, 40.3186274 ], [ 20.7447274, 40.3187951 ], [ 20.7449688, 40.3189383 ], [ 20.74506, 40.3189096 ] ] ] } },
{ "type": "Feature", "properties": { "element": "way", "id": 432639460, "ele": null, "natural": null, "name": null, "source": null, "waterway": null, "boat": null, "int_name": null, "intermittent": null, "landuse": "forest", "leaf_type": null, "type": null, "label": "landuse:forest" }, "geometry": { "type": "Polygon", "coordinates": [ [ [ 20.7427668, 40.3180753 ], [ 20.7427802, 40.3180405 ], [ 20.7428258, 40.317928 ], [ 20.7428553, 40.3178503 ], [ 20.742933, 40.3177583 ], [ 20.7430564, 40.3177869 ], [ 20.7431691, 40.3178626 ], [ 20.7432683, 40.3178217 ], [ 20.7433086, 40.3177521 ], [ 20.7431744, 40.317656 ], [ 20.7432549, 40.3176253 ], [ 20.7433019, 40.3175722 ], [ 20.7433166, 40.3175149 ], [ 20.7432361, 40.3174638 ], [ 20.743153, 40.317519 ], [ 20.743094, 40.3174863 ], [ 20.7430162, 40.3173963 ], [ 20.7429652, 40.3174985 ], [ 20.7429317, 40.3173891 ], [ 20.7428606, 40.317427 ], [ 20.7427024, 40.3172797 ], [ 20.7426246, 40.3173063 ], [ 20.7425683, 40.3172122 ], [ 20.7425039, 40.3172449 ], [ 20.7425388, 40.3173779 ], [ 20.7424181, 40.3173656 ], [ 20.7423215, 40.3172981 ], [ 20.7422679, 40.3173799 ], [ 20.7423349, 40.3174065 ], [ 20.7423269, 40.3174617 ], [ 20.7422035, 40.3174904 ], [ 20.7420721, 40.317519 ], [ 20.7420426, 40.317566 ], [ 20.7420506, 40.3176172 ], [ 20.7421203, 40.3177235 ], [ 20.742182, 40.3177399 ], [ 20.7421686, 40.3178483 ], [ 20.7422625, 40.3178564 ], [ 20.7422759, 40.3177378 ], [ 20.7423805, 40.3176887 ], [ 20.742343, 40.3178503 ], [ 20.7424395, 40.3179301 ], [ 20.74252, 40.3179157 ], [ 20.7425763, 40.3179791 ], [ 20.7426273, 40.3179771 ], [ 20.7426005, 40.3181121 ], [ 20.7427426, 40.3181284 ], [ 20.7427668, 40.3180753 ] ] ] } },
{ "type": "Feature", "properties": { "element": "way", "id": 452029201, "ele": null, "natural": "wood", "name": null, "source": null, "waterway": null, "boat": null, "int_name": null, "intermittent": null, "landuse": null, "leaf_type": null, "type": null, "label": "natural:wood" }, "geometry": { "type": "Polygon", "coordinates": [ [ [ 20.7458127, 40.3222973 ], [ 20.7457116, 40.3222042 ], [ 20.7456599, 40.3223739 ], [ 20.74571, 40.3225213 ], [ 20.7458127, 40.3222973 ] ] ] } },
{ "type": "Feature", "properties": { "element": "way", "id": 1189573304, "ele": null, "natural": "heath", "name": null, "source": "Bing", "waterway": null, "boat": null, "int_name": null, "intermittent": null, "landuse": null, "leaf_type": null, "type": null, "label": "natural:heath" }, "geometry": { "type": "Polygon", "coordinates": [ [ [ 20.7382165, 40.3127559 ], [ 20.7384029, 40.3127324 ], [ 20.7385598, 40.3127191 ], [ 20.7386845, 40.3127201 ], [ 20.7388012, 40.312713 ], [ 20.73893, 40.3126864 ], [ 20.7389809, 40.3126128 ], [ 20.7389823, 40.3125504 ], [ 20.7389313, 40.3124563 ], [ 20.738938, 40.3123694 ], [ 20.7389984, 40.3122722 ], [ 20.7391056, 40.3121986 ], [ 20.7392478, 40.3121659 ], [ 20.7394195, 40.3121659 ], [ 20.739567, 40.3121045 ], [ 20.7396863, 40.3120564 ], [ 20.7398848, 40.3120421 ], [ 20.7400739, 40.3120616 ], [ 20.7401852, 40.3121096 ], [ 20.7403113, 40.312126 ], [ 20.7402965, 40.3120309 ], [ 20.7403046, 40.3119552 ], [ 20.7403596, 40.311899 ], [ 20.7404883, 40.3119194 ], [ 20.7406063, 40.3119378 ], [ 20.7407163, 40.3119153 ], [ 20.7407163, 40.3118458 ], [ 20.7407498, 40.3117732 ], [ 20.740727, 40.3116903 ], [ 20.7405902, 40.3116862 ], [ 20.7404937, 40.3116822 ], [ 20.7403743, 40.3116198 ], [ 20.7403609, 40.3115686 ], [ 20.7403596, 40.3114654 ], [ 20.7402724, 40.3114091 ], [ 20.7401396, 40.3114081 ], [ 20.7399841, 40.311404 ], [ 20.7398432, 40.3114132 ], [ 20.7396944, 40.3113856 ], [ 20.7395723, 40.3113784 ], [ 20.7393819, 40.3112823 ], [ 20.7392693, 40.3111862 ], [ 20.7391593, 40.3110512 ], [ 20.7389823, 40.3109735 ], [ 20.7389152, 40.3108753 ], [ 20.7388535, 40.3107669 ], [ 20.738773, 40.3106728 ], [ 20.7387275, 40.3106033 ], [ 20.7386523, 40.3105317 ], [ 20.7386523, 40.310409 ], [ 20.738584, 40.3103384 ], [ 20.7385504, 40.3102515 ], [ 20.7384619, 40.3101656 ], [ 20.7383305, 40.310139 ], [ 20.7381722, 40.310094 ], [ 20.738081, 40.3099958 ], [ 20.7379496, 40.3099222 ], [ 20.737794, 40.3098894 ], [ 20.7375942, 40.3098884 ], [ 20.7374159, 40.3099222 ], [ 20.7372388, 40.3099426 ], [ 20.7371235, 40.3099038 ], [ 20.7369411, 40.3098833 ], [ 20.7367091, 40.3098393 ], [ 20.7365227, 40.3098281 ], [ 20.7363899, 40.3098148 ], [ 20.7362249, 40.309826 ], [ 20.7360882, 40.3098035 ], [ 20.7358387, 40.3097994 ], [ 20.7357207, 40.3098342 ], [ 20.7355665, 40.3098332 ], [ 20.7355088, 40.3098751 ], [ 20.7355691, 40.3099436 ], [ 20.7355691, 40.3100295 ], [ 20.7355732, 40.3101267 ], [ 20.7356429, 40.3102085 ], [ 20.7356496, 40.3102954 ], [ 20.7356027, 40.3103844 ], [ 20.7356027, 40.3104928 ], [ 20.7355276, 40.3105767 ], [ 20.7355745, 40.3106329 ], [ 20.7356711, 40.3106329 ], [ 20.7357918, 40.3106738 ], [ 20.7359393, 40.3107577 ], [ 20.736119, 40.3108497 ], [ 20.7362719, 40.3108538 ], [ 20.736406, 40.3108763 ], [ 20.736528, 40.3109346 ], [ 20.7366742, 40.3109765 ], [ 20.7368593, 40.3110461 ], [ 20.73698, 40.3111483 ], [ 20.7371624, 40.3112711 ], [ 20.7372911, 40.311404 ], [ 20.7372925, 40.3114827 ], [ 20.7373729, 40.3115318 ], [ 20.7374829, 40.3116505 ], [ 20.7375057, 40.3117681 ], [ 20.7375701, 40.311856 ], [ 20.7376398, 40.3119828 ], [ 20.7377592, 40.3120472 ], [ 20.7379067, 40.3121065 ], [ 20.7380274, 40.3121331 ], [ 20.7381414, 40.3122119 ], [ 20.7381521, 40.3123326 ], [ 20.7381789, 40.3124471 ], [ 20.7381655, 40.3125657 ], [ 20.7381414, 40.3126864 ], [ 20.7380663, 40.3127518 ], [ 20.7381213, 40.3127999 ], [ 20.7382165, 40.3127559 ] ] ] } },
{ "type": "Feature", "properties": { "element": "way", "id": 1189912995, "ele": null, "natural": "wood", "name": null, "source": "http://geodata.gov.gr/", "waterway": null, "boat": null, "int_name": null, "intermittent": null, "landuse": null, "leaf_type": "broadleaved", "type": null, "label": "natural:wood" }, "geometry": { "type": "Polygon", "coordinates": [ [ [ 20.732856, 40.299938 ], [ 20.732805, 40.300373 ], [ 20.733595, 40.301137 ], [ 20.733858, 40.301346 ], [ 20.73403, 40.301581 ], [ 20.734321, 40.301836 ], [ 20.734701, 40.302094 ], [ 20.73499, 40.302399 ], [ 20.735251, 40.302653 ], [ 20.735481, 40.30293 ], [ 20.735782, 40.303423 ], [ 20.73554, 40.303918 ], [ 20.735597, 40.305004 ], [ 20.737338, 40.305053 ], [ 20.739567, 40.306283 ], [ 20.740401, 40.307058 ], [ 20.740699, 40.30765 ], [ 20.740901, 40.307989 ], [ 20.741429, 40.308338 ], [ 20.74261, 40.308705 ], [ 20.744024, 40.308745 ], [ 20.745548, 40.308788 ], [ 20.746551, 40.308315 ], [ 20.746658, 40.307562 ], [ 20.746836, 40.307501 ], [ 20.746943, 40.307202 ], [ 20.747014, 40.306836 ], [ 20.746937, 40.306447 ], [ 20.746919, 40.306055 ], [ 20.746869, 40.305734 ], [ 20.746853, 40.305302 ], [ 20.746834, 40.304959 ], [ 20.746783, 40.304661 ], [ 20.746762, 40.304386 ], [ 20.746712, 40.304088 ], [ 20.746665, 40.303673 ], [ 20.746793, 40.303402 ], [ 20.746921, 40.303131 ], [ 20.747314, 40.302998 ], [ 20.747762, 40.302983 ], [ 20.748024, 40.303219 ], [ 20.748343, 40.303521 ], [ 20.748746, 40.304008 ], [ 20.749094, 40.304355 ], [ 20.749328, 40.304519 ], [ 20.749626, 40.304527 ], [ 20.749986, 40.304488 ], [ 20.750166787456084, 40.304328930517535 ], [ 20.750166787456084, 40.303039689944214 ], [ 20.749926, 40.302588 ], [ 20.749758, 40.302241 ], [ 20.749588, 40.30194 ], [ 20.749249, 40.301319 ], [ 20.74902, 40.300993 ], [ 20.748937, 40.300761 ], [ 20.748624, 40.300276 ], [ 20.748453, 40.300024 ], [ 20.748349, 40.299517 ], [ 20.748334771054701, 40.299479627589456 ], [ 20.732727878544971, 40.299479627589456 ], [ 20.732856, 40.299938 ] ] ] } }
]
}
