{
"type": "FeatureCollection",
"name": "patch_19932_multipolygon",
"crs": { "type": "name", "properties": { "name": "urn:ogc:def:crs:OGC:1.3:CRS84" } },
"features": [
{ "type": "Feature", "properties": { "element": "way", "id": 432059812, "ele": null, "natural": "wood", "name": null, "source": null, "waterway": null, "boat": null, "int_name": null, "intermittent": null, "landuse": null, "leaf_type": null, "type": null, "label": "natural:wood" }, "geometry": { "type": "MultiPolygon", "coordinates": [ [ [ [ 20.746787, 40.3225509 ], [ 20.7467001, 40.3224878 ], [ 20.7466079, 40.3224492 ], [ 20.7463511, 40.3225008 ], [ 20.7461191, 40.3225366 ], [ 20.7459521, 40.3224676 ], [ 20.74571, 40.3225213 ], [ 20.7456825, 40.3225365 ], [ 20.745625137491537, 40.322612205171055 ], [ 20.746767557584707, 40.322612205171055 ], [ 20.746787, 40.3225509 ] ] ], [ [ [ 20.7499479, 40.3208587 ], [ 20.7496314, 40.3208505 ], [ 20.7493149, 40.3209579 ], [ 20.7492077, 40.3209507 ], [ 20.7491822, 40.3209109 ], [ 20.749323, 40.3207667 ], [ 20.7493954, 40.3205765 ], [ 20.7498166, 40.3202063 ], [ 20.7498005, 40.3201337 ], [ 20.7496798, 40.3201082 ], [ 20.7494088, 40.3202421 ], [ 20.7492653, 40.3204093 ], [ 20.7490843, 40.320556 ], [ 20.748934, 40.320779 ], [ 20.7488482, 40.3208996 ], [ 20.7484298, 40.3211859 ], [ 20.7481831, 40.3213004 ], [ 20.7479122, 40.3212932 ], [ 20.7478827, 40.3213434 ], [ 20.7475527, 40.3213515 ], [ 20.7474119, 40.3214017 ], [ 20.7472664, 40.3214666 ], [ 20.7471048, 40.3215765 ], [ 20.7469291, 40.3217667 ], [ 20.7467903, 40.3217575 ], [ 20.7466217, 40.3218653 ], [ 20.7467186, 40.321965 ], [ 20.7468205, 40.3220397 ], [ 20.7468285, 40.3221711 ], [ 20.7467843, 40.3222511 ], [ 20.746799, 40.3223229 ], [ 20.7469519, 40.3224517 ], [ 20.747000686499167, 40.322612205171055 ], [ 20.750166787456084, 40.322612205171055 ], [ 20.750166787456084, 40.320926613896326 ], [ 20.7499479, 40.3208587 ] ] ] ] } }
]
}
