{
"type": "FeatureCollection",
"name": "patch_9804_linestring",
"crs": { "type": "name", "properties": { "name": "urn:ogc:def:crs:OGC:1.3:CRS84" } },
"features": [
{ "type": "Feature", "properties": { "osm_id": 136247451, "name": null, "label": "natural:coastline", "natural": "coastline" }, "geometry": { "type": "LineString", "coordinates": [ [ 23.33178, 39.043779000132247 ], [ 23.332609, 39.044948000132422 ], [ 23.332953, 39.045623000132508 ], [ 23.333464, 39.045917000132562 ], [ 23.333721, 39.045846000132549 ], [ 23.334029, 39.045302000132473 ], [ 23.334617, 39.044905000132417 ], [ 23.335249, 39.04467200013238 ], [ 23.335392, 39.044290000132328 ], [ 23.335651, 39.044074000132305 ], [ 23.335977, 39.044130000132299 ], [ 23.336114, 39.044495000132351 ], [ 23.336109, 39.045022000132441 ], [ 23.33615, 39.045605000132525 ], [ 23.3368, 39.045991000132574 ], [ 23.337448, 39.04650400013265 ], [ 23.337845, 39.046488000132634 ], [ 23.338234, 39.046089000132589 ], [ 23.338922, 39.046112000132595 ], [ 23.339434, 39.046333000132627 ], [ 23.339896, 39.046791000132693 ], [ 23.33999, 39.047929000132854 ], [ 23.340608, 39.048032000132864 ], [ 23.341081, 39.048275000132904 ], [ 23.341115, 39.048708000132969 ], [ 23.340714, 39.049197000133049 ], [ 23.340127, 39.049576000133101 ], [ 23.33896, 39.0496240001331 ], [ 23.3387, 39.049950000133158 ], [ 23.3383478, 39.050161600133187 ], [ 23.3381876, 39.050354700133198 ], [ 23.338057, 39.050421200133208 ], [ 23.337435, 39.050471000133228 ], [ 23.337274, 39.050197000133181 ], [ 23.33737, 39.050041600133163 ], [ 23.3375031, 39.04999670013315 ], [ 23.3375245, 39.049805100133121 ], [ 23.3375031, 39.049667600133112 ], [ 23.3372846, 39.049758200133112 ], [ 23.3372938, 39.049559300133083 ], [ 23.3371168, 39.049480100133081 ], [ 23.3368379, 39.04970510013311 ], [ 23.336556, 39.049592000133082 ], [ 23.336298, 39.049773000133115 ], [ 23.336389, 39.050046000133158 ], [ 23.336129, 39.050336000133207 ], [ 23.335685, 39.050443000133221 ], [ 23.335429, 39.050296000133194 ], [ 23.335316, 39.049967000133144 ], [ 23.334944, 39.049783000133118 ], [ 23.334871, 39.050165000133177 ], [ 23.334681, 39.050464000133218 ], [ 23.3345192, 39.049999700133156 ], [ 23.334238, 39.049557000133099 ], [ 23.333524, 39.049393000133065 ], [ 23.333318, 39.049010000133016 ], [ 23.333277, 39.048355000132915 ], [ 23.333069, 39.048190000132905 ], [ 23.332627, 39.048023000132865 ], [ 23.332419, 39.047786000132838 ], [ 23.332682, 39.047132000132734 ], [ 23.332548, 39.046512000132644 ], [ 23.331849, 39.046399000132631 ], [ 23.331008, 39.046531000132646 ], [ 23.330481, 39.046646000132675 ], [ 23.3301095, 39.046199400132608 ], [ 23.3300856, 39.045757000132554 ], [ 23.3303231, 39.045363700132484 ], [ 23.3304992, 39.044784300132392 ], [ 23.3315317, 39.043984300132273 ], [ 23.33178, 39.043779000132247 ] ] } },
{ "type": "Feature", "properties": { "osm_id": 8886120, "name": null, "label": "natural:coastline", "natural": "coastline" }, "geometry": { "type": "LineString", "coordinates": [ [ 23.3466602, 39.041622600131944 ], [ 23.3467996, 39.041772600131971 ], [ 23.3470142, 39.041855900131971 ], [ 23.3471, 39.041964200132 ], [ 23.3473253, 39.041985100131996 ], [ 23.3471483, 39.042218400132036 ], [ 23.3471912, 39.042285100132055 ], [ 23.3469122, 39.042626700132089 ], [ 23.3462239, 39.043033100132142 ], [ 23.3459807, 39.043073100132148 ], [ 23.3458018, 39.042712100132086 ], [ 23.3459744, 39.042468300132064 ], [ 23.3463114, 39.041878800131975 ], [ 23.3466602, 39.041622600131944 ] ] } }
]
}
