{
"type": "FeatureCollection",
"name": "patch_9804_features",
"crs": { "type": "name", "properties": { "name": "urn:ogc:def:crs:OGC:1.3:CRS84" } },
"features": [
{ "type": "Feature", "properties": { "osm_id": 415669197, "name": null, "label": "natural:wood", "natural": "wood", "building": null }, "geometry": { "type": "Polygon", "coordinates": [ [ [ 23.3308887, 39.046311800132628 ], [ 23.3312321, 39.046270100132602 ], [ 23.3316505, 39.04599520013258 ], [ 23.3321011, 39.046241000132611 ], [ 23.3322835, 39.046282600132614 ], [ 23.3325624, 39.046316000132627 ], [ 23.3327341, 39.046457600132648 ], [ 23.3328199, 39.046732600132678 ], [ 23.3328628, 39.047140900132746 ], [ 23.3327555, 39.047415800132782 ], [ 23.3326697, 39.047649100132823 ], [ 23.3329487, 39.047940800132849 ], [ 23.3332383, 39.047982400132867 ], [ 23.3334637, 39.048324100132916 ], [ 23.3335602, 39.048615700132956 ], [ 23.3336353, 39.049098900133018 ], [ 23.3339357, 39.049323900133054 ], [ 23.3344722, 39.04954890013309 ], [ 23.3346867, 39.049798800133118 ], [ 23.3349335, 39.049673900133115 ], [ 23.3352554, 39.049715500133111 ], [ 23.3355021, 39.049873800133135 ], [ 23.3355236, 39.050140400133159 ], [ 23.3357382, 39.050240400133184 ], [ 23.3359957, 39.05017380013318 ], [ 23.3359742, 39.049990500133156 ], [ 23.3361137, 39.049740500133119 ], [ 23.3363282, 39.049432200133054 ], [ 23.3365536, 39.049357200133066 ], [ 23.3368003, 39.049490500133068 ], [ 23.3369505, 39.049415600133081 ], [ 23.3371329, 39.049198900133042 ], [ 23.3374119, 39.049490500133068 ], [ 23.3376908, 39.049657200133105 ], [ 23.3376908, 39.049890500133138 ], [ 23.3376157, 39.050123800133179 ], [ 23.3377552, 39.050207100133186 ], [ 23.3380663, 39.049948800133158 ], [ 23.3383238, 39.049690500133124 ], [ 23.3383667, 39.049448900133079 ], [ 23.3384633, 39.049190600133031 ], [ 23.3386135, 39.049098900133018 ], [ 23.3388603, 39.049240600133047 ], [ 23.3391821, 39.04930720013305 ], [ 23.3395898, 39.049332200133058 ], [ 23.3399761, 39.049357200133066 ], [ 23.3404481, 39.04908230013303 ], [ 23.3403194, 39.048765700132968 ], [ 23.3405018, 39.048615700132956 ], [ 23.3405769, 39.048399000132925 ], [ 23.3403623, 39.048299100132915 ], [ 23.3397293, 39.04814070013289 ], [ 23.3397186, 39.047915800132856 ], [ 23.3395362, 39.047732500132824 ], [ 23.3395684, 39.047507500132795 ], [ 23.3393752, 39.046690900132681 ], [ 23.3392143, 39.046549300132654 ], [ 23.338989, 39.046582600132666 ], [ 23.3388388, 39.04649100013264 ], [ 23.3387744, 39.046349300132633 ], [ 23.3385384, 39.046441000132639 ], [ 23.3383882, 39.046324300132618 ], [ 23.3381522, 39.04635760013263 ], [ 23.3378732, 39.046607600132667 ], [ 23.3375943, 39.046665900132666 ], [ 23.3371115, 39.046524300132653 ], [ 23.3363926, 39.046191000132602 ], [ 23.3362961, 39.045895200132556 ], [ 23.3360278, 39.045786900132541 ], [ 23.3359635, 39.045328600132464 ], [ 23.3357811, 39.045261900132466 ], [ 23.3359527, 39.04512860013245 ], [ 23.3359098, 39.04487030013243 ], [ 23.3356631, 39.044495300132368 ], [ 23.3354592, 39.044662000132384 ], [ 23.335073, 39.04489530013241 ], [ 23.3345365, 39.045111900132447 ], [ 23.3342469, 39.045361900132484 ], [ 23.3340108, 39.045686900132537 ], [ 23.3336997, 39.046045200132582 ], [ 23.3334851, 39.046070200132583 ], [ 23.3329058, 39.045878500132567 ], [ 23.3325732, 39.045445200132498 ], [ 23.3324015, 39.044961900132414 ], [ 23.3319187, 39.044537000132351 ], [ 23.3316827, 39.044578600132368 ], [ 23.3315432, 39.044803600132404 ], [ 23.331629, 39.045220300132463 ], [ 23.3314681, 39.045311900132475 ], [ 23.3309853, 39.045361900132484 ], [ 23.3306527, 39.045570200132516 ], [ 23.3305991, 39.045986800132575 ], [ 23.3308887, 39.046311800132628 ] ] ] } },
{ "type": "Feature", "properties": { "osm_id": 415669201, "name": null, "label": "building:yes", "natural": null, "building": "yes" }, "geometry": { "type": "Polygon", "coordinates": [ [ [ 23.3386135, 39.049455100133088 ], [ 23.3386725, 39.049359300133062 ], [ 23.3385169, 39.049334300133054 ], [ 23.3384955, 39.049446800133076 ], [ 23.3386135, 39.049455100133088 ] ] ] } },
{ "type": "Feature", "properties": { "osm_id": 136247451, "name": null, "label": "natural:coastline", "natural": "coastline", "building": null }, "geometry": { "type": "LineString", "coordinates": [ [ 23.33178, 39.043779000132247 ], [ 23.332609, 39.044948000132422 ], [ 23.332953, 39.045623000132508 ], [ 23.333464, 39.045917000132562 ], [ 23.333721, 39.045846000132549 ], [ 23.334029, 39.045302000132473 ], [ 23.334617, 39.044905000132417 ], [ 23.335249, 39.04467200013238 ], [ 23.335392, 39.044290000132328 ], [ 23.335651, 39.044074000132305 ], [ 23.335977, 39.044130000132299 ], [ 23.336114, 39.044495000132351 ], [ 23.336109, 39.045022000132441 ], [ 23.33615, 39.045605000132525 ], [ 23.3368, 39.045991000132574 ], [ 23.337448, 39.04650400013265 ], [ 23.337845, 39.046488000132634 ], [ 23.338234, 39.046089000132589 ], [ 23.338922, 39.046112000132595 ], [ 23.339434, 39.046333000132627 ], [ 23.339896, 39.046791000132693 ], [ 23.33999, 39.047929000132854 ], [ 23.340608, 39.048032000132864 ], [ 23.341081, 39.048275000132904 ], [ 23.341115, 39.048708000132969 ], [ 23.340714, 39.049197000133049 ], [ 23.340127, 39.049576000133101 ], [ 23.33896, 39.0496240001331 ], [ 23.3387, 39.049950000133158 ], [ 23.3383478, 39.050161600133187 ], [ 23.3381876, 39.050354700133198 ], [ 23.338057, 39.050421200133208 ], [ 23.337435, 39.050471000133228 ], [ 23.337274, 39.050197000133181 ], [ 23.33737, 39.050041600133163 ], [ 23.3375031, 39.04999670013315 ], [ 23.3375245, 39.049805100133121 ], [ 23.3375031, 39.049667600133112 ], [ 23.3372846, 39.049758200133112 ], [ 23.3372938, 39.049559300133083 ], [ 23.3371168, 39.049480100133081 ], [ 23.3368379, 39.04970510013311 ], [ 23.336556, 39.049592000133082 ], [ 23.336298, 39.049773000133115 ], [ 23.336389, 39.050046000133158 ], [ 23.336129, 39.050336000133207 ], [ 23.335685, 39.050443000133221 ], [ 23.335429, 39.050296000133194 ], [ 23.335316, 39.049967000133144 ], [ 23.334944, 39.049783000133118 ], [ 23.334871, 39.050165000133177 ], [ 23.334681, 39.050464000133218 ], [ 23.3345192, 39.049999700133156 ], [ 23.334238, 39.049557000133099 ], [ 23.333524, 39.049393000133065 ], [ 23.333318, 39.049010000133016 ], [ 23.333277, 39.048355000132915 ], [ 23.333069, 39.048190000132905 ], [ 23.332627, 39.048023000132865 ], [ 23.332419, 39.047786000132838 ], [ 23.332682, 39.047132000132734 ], [ 23.332548, 39.046512000132644 ], [ 23.331849, 39.046399000132631 ], [ 23.331008, 39.046531000132646 ], [ 23.330481, 39.046646000132675 ], [ 23.3301095, 39.046199400132608 ], [ 23.3300856, 39.045757000132554 ], [ 23.3303231, 39.045363700132484 ], [ 23.3304992, 39.044784300132392 ], [ 23.3315317, 39.043984300132273 ], [ 23.33178, 39.043779000132247 ] ] } },
{ "type": "Feature", "properties": { "osm_id": 8886120, "name": null, "label": "natural:coastline", "natural": "coastline", "building": null }, "geometry": { "type": "LineString", "coordinates": [ [ 23.3466602, 39.041622600131944 ], [ 23.3467996, 39.041772600131971 ], [ 23.3470142, 39.041855900131971 ], [ 23.3471, 39.041964200132 ], [ 23.3473253, 39.041985100131996 ], [ 23.3471483, 39.042218400132036 ], [ 23.3471912, 39.042285100132055 ], [ 23.3469122, 39.042626700132089 ], [ 23.3462239, 39.043033100132142 ], [ 23.3459807, 39.043073100132148 ], [ 23.3458018, 39.042712100132086 ], [ 23.3459744, 39.042468300132064 ], [ 23.3463114, 39.041878800131975 ], [ 23.3466602, 39.041622600131944 ] ] } }
]
}
