{
"type": "FeatureCollection",
"name": "patch_46522_multipolygon",
"crs": { "type": "name", "properties": { "name": "urn:ogc:def:crs:OGC:1.3:CRS84" } },
"features": [
{ "type": "Feature", "properties": { "element": "relation", "id": 9559943, "amenity": null, "int_name": null, "name": null, "leisure": null, "name:el": null, "name:en": null, "seamark:harbour:category": null, "seamark:type": null, "denotation": null, "leaf_cycle": null, "natural": "wood", "ele": null, "direction": null, "tourism": null, "denomination": null, "religion": null, "man_made": null, "access": null, "historic": null, "historic:civilization": null, "source": null, "landuse": null, "building": null, "image": null, "height": null, "area": null, "type": "multipolygon", "label": "natural:wood" }, "geometry": { "type": "MultiPolygon", "coordinates": [ [ [ [ 19.8441676, 39.5558634 ], [ 19.8439268, 39.5559786 ], [ 19.8438496, 39.5560936 ], [ 19.844423762719522, 39.556570733288495 ], [ 19.844423762719522, 39.555878489280083 ], [ 19.8441676, 39.5558634 ] ] ], [ [ [ 19.8439037, 39.5584853 ], [ 19.8438066, 39.5589076 ], [ 19.8439678, 39.5593123 ], [ 19.843929, 39.5596545 ], [ 19.8434089, 39.5599147 ], [ 19.8423653, 39.5600055 ], [ 19.8410077, 39.5606765 ], [ 19.8401745, 39.5613618 ], [ 19.8396383, 39.5621483 ], [ 19.8392157, 39.5618561 ], [ 19.8379996, 39.5620316 ], [ 19.8375897, 39.5625582 ], [ 19.8375124, 39.5630902 ], [ 19.8375391, 39.5636065 ], [ 19.8376434, 39.5639678 ], [ 19.8379135, 39.5641373 ], [ 19.8378928, 39.5643525 ], [ 19.8380792, 39.5643549 ], [ 19.8382558, 39.5639446 ], [ 19.8385114, 39.5638695 ], [ 19.8389501, 39.5641324 ], [ 19.8399987, 39.5646535 ], [ 19.8400854, 39.5654646 ], [ 19.8403588, 39.5655654 ], [ 19.8404165, 39.56588 ], [ 19.8407264, 39.566094 ], [ 19.8415157, 39.5661262 ], [ 19.8420692, 39.566754 ], [ 19.8414874, 39.5672454 ], [ 19.8415512, 39.5676023 ], [ 19.8415578, 39.5683325 ], [ 19.8411518, 39.5684928 ], [ 19.8408247, 39.5684589 ], [ 19.8404495, 39.568035 ], [ 19.840141, 39.5676755 ], [ 19.8412867, 39.5666744 ], [ 19.8411452, 39.5665953 ], [ 19.8409143, 39.5665714 ], [ 19.8407193, 39.5665062 ], [ 19.840566, 39.5664126 ], [ 19.8401722, 39.5660651 ], [ 19.839951, 39.5661413 ], [ 19.8394191, 39.5667287 ], [ 19.839911, 39.5670668 ], [ 19.8396137, 39.5676411 ], [ 19.8389803, 39.5674604 ], [ 19.8387157, 39.5679809 ], [ 19.8387594, 39.5682445 ], [ 19.8387952, 39.5689059 ], [ 19.8393668, 39.5689122 ], [ 19.8395847, 39.5686325 ], [ 19.8400708, 39.5688792 ], [ 19.8401555, 39.5690248 ], [ 19.8407515, 39.5694135 ], [ 19.8408839, 39.5697322 ], [ 19.8405336, 39.5700923 ], [ 19.8399487, 39.5698983 ], [ 19.8395407, 39.570097 ], [ 19.8395495, 39.5706327 ], [ 19.83911, 39.5710916 ], [ 19.838410141946017, 39.571298357102592 ], [ 19.844423762719522, 39.571298357102592 ], [ 19.844423762719522, 39.570054066253022 ], [ 19.8439962, 39.5697422 ], [ 19.8438943, 39.5693742 ], [ 19.844061, 39.5688006 ], [ 19.844423762719522, 39.569029964793025 ], [ 19.844423762719522, 39.557949846456879 ], [ 19.8439037, 39.5584853 ] ] ], [ [ [ 19.8374841, 39.571091 ], [ 19.8367709, 39.5708614 ], [ 19.836568, 39.5705468 ], [ 19.8364821, 39.5702615 ], [ 19.8363264, 39.5699672 ], [ 19.8366007, 39.5697004 ], [ 19.8373267, 39.5689976 ], [ 19.8381243, 39.5682807 ], [ 19.8378983, 39.5680393 ], [ 19.8372211, 39.5679567 ], [ 19.836779, 39.5674565 ], [ 19.8365846, 39.5671497 ], [ 19.8365644, 39.5669945 ], [ 19.8373242, 39.5667035 ], [ 19.8375383, 39.5663976 ], [ 19.8371885, 39.5658395 ], [ 19.8376003, 39.5652422 ], [ 19.8375301, 39.5645807 ], [ 19.8371039, 39.5642489 ], [ 19.8367856, 39.5638667 ], [ 19.8369331, 39.5633723 ], [ 19.8365393, 39.563175 ], [ 19.8358822, 39.5630866 ], [ 19.8357035, 39.5627687 ], [ 19.8357055, 39.5622525 ], [ 19.835563, 39.562084 ], [ 19.8352557, 39.5620966 ], [ 19.8347883, 39.5624842 ], [ 19.8346699, 39.5632257 ], [ 19.834314, 39.5637508 ], [ 19.8344403, 39.5646559 ], [ 19.8344522, 39.5651948 ], [ 19.8343318, 39.5660195 ], [ 19.8339849, 39.5666209 ], [ 19.8337021, 39.5668432 ], [ 19.8335051, 39.5668049 ], [ 19.8329439, 39.5665347 ], [ 19.8325923, 39.5666197 ], [ 19.8323458, 39.5670045 ], [ 19.8323311, 39.5689189 ], [ 19.8317847, 39.5692986 ], [ 19.8316087, 39.5696374 ], [ 19.8319585, 39.5703788 ], [ 19.8317681, 39.5709125 ], [ 19.831584582597547, 39.571298357102592 ], [ 19.83815386091365, 39.571298357102592 ], [ 19.8374841, 39.571091 ] ] ] ] } }
]
}
