{
"type": "FeatureCollection",
"name": "patch_63550_linestring",
"crs": { "type": "name", "properties": { "name": "urn:ogc:def:crs:OGC:1.3:CRS84" } },
"features": [
{ "type": "Feature", "properties": { "osm_id": 85105840, "name": "Αλιάκμονας", "label": "waterway:river", "waterway": "river" }, "geometry": { "type": "LineString", "coordinates": [ [ 22.604771110968031, 40.530465134267878 ], [ 22.6048663, 40.530197000336472 ], [ 22.6049414, 40.530026800336451 ], [ 22.6050326, 40.529882000336436 ], [ 22.6051345, 40.529730100336415 ], [ 22.6052405, 40.52960680033641 ], [ 22.6055422, 40.529294900336353 ], [ 22.6059848, 40.528656800336279 ], [ 22.6062074, 40.528371400336241 ], [ 22.6063496, 40.528185800336225 ], [ 22.6064113, 40.528067600336207 ], [ 22.6064676, 40.527926900336183 ], [ 22.6064837, 40.527776100336162 ], [ 22.6065534, 40.527421300336137 ], [ 22.6066098, 40.527170600336092 ], [ 22.6067331, 40.526862700336054 ], [ 22.6069504, 40.526522200336018 ], [ 22.6072347, 40.52608800033596 ], [ 22.6073018, 40.525957500335934 ], [ 22.6073393, 40.52582090033593 ], [ 22.60735, 40.525731200335919 ], [ 22.60735, 40.525484500335878 ], [ 22.6073205, 40.525237800335852 ], [ 22.6072991, 40.525105300335845 ], [ 22.6070604, 40.524646500335791 ], [ 22.6068565, 40.524395800335746 ], [ 22.6066406, 40.524162300335711 ], [ 22.606599, 40.524093000335711 ], [ 22.6065595, 40.524019600335698 ], [ 22.6065461, 40.523941100335691 ], [ 22.6065642, 40.523755600335676 ], [ 22.6065937, 40.523584300335656 ], [ 22.6067653, 40.523003200335573 ], [ 22.6068753, 40.522505800335502 ], [ 22.6069987, 40.522081700335455 ], [ 22.6072025, 40.521455700335387 ], [ 22.6073098, 40.52118860033535 ], [ 22.6074949, 40.520903200335319 ], [ 22.6077229, 40.520624900335271 ], [ 22.6078556, 40.520495400335271 ], [ 22.6079991, 40.520399600335253 ], [ 22.6081534, 40.520298600335238 ], [ 22.6087582, 40.519971400335201 ], [ 22.6090533, 40.519816400335181 ], [ 22.60919, 40.519722600335157 ], [ 22.6093134, 40.519594200335149 ], [ 22.6094797, 40.519355600335118 ], [ 22.6096943, 40.519002900335074 ], [ 22.609764, 40.518847900335061 ], [ 22.6097962, 40.518721500335033 ], [ 22.6097962, 40.518586900335016 ], [ 22.6096782, 40.51819950033498 ], [ 22.6094341, 40.517532700334883 ], [ 22.6092893, 40.517037200334819 ], [ 22.6092973, 40.516833300334802 ], [ 22.6093617, 40.516621300334769 ], [ 22.6094636, 40.516382700334752 ], [ 22.6096594, 40.516142100334719 ], [ 22.6097855, 40.515979000334696 ], [ 22.6098633, 40.51587090033469 ], [ 22.6099759, 40.515691500334654 ], [ 22.6100188, 40.515601700334649 ], [ 22.6101154, 40.515428400334635 ], [ 22.6102294, 40.515208200334605 ], [ 22.6103997, 40.514961500334572 ], [ 22.610731, 40.514627600334528 ], [ 22.6109858, 40.514397600334512 ], [ 22.611258, 40.514180500334476 ], [ 22.611549, 40.513989800334443 ], [ 22.6118682, 40.51384910033444 ], [ 22.6122048, 40.513737000334402 ], [ 22.6128593, 40.513525900334386 ], [ 22.6132536, 40.513385200334383 ], [ 22.6136586, 40.513193500334332 ], [ 22.6139617, 40.513036500334316 ], [ 22.614007213605621, 40.513001889448731 ] ] } },
{ "type": "Feature", "properties": { "osm_id": 807924216, "name": null, "label": "waterway:canal", "waterway": "canal" }, "geometry": { "type": "LineString", "coordinates": [ [ 22.622215861171885, 40.535631954133294 ], [ 22.6225039, 40.535397900337124 ] ] } },
{ "type": "Feature", "properties": { "osm_id": 807924218, "name": null, "label": "waterway:canal", "waterway": "canal" }, "geometry": { "type": "LineString", "coordinates": [ [ 22.6225039, 40.535397900337124 ], [ 22.6226091, 40.535315700337108 ] ] } },
{ "type": "Feature", "properties": { "osm_id": 161791073, "name": null, "label": "waterway:river", "waterway": "river" }, "geometry": { "type": "LineString", "coordinates": [ [ 22.621457097412272, 40.535631954133294 ], [ 22.6227581, 40.534548300337001 ], [ 22.6255691, 40.532167300336724 ], [ 22.6302683, 40.528236800336231 ], [ 22.635537396534854, 40.523769598138642 ] ] } },
{ "type": "Feature", "properties": { "osm_id": 807924199, "name": null, "label": "waterway:drain", "waterway": "drain" }, "geometry": { "type": "LineString", "coordinates": [ [ 22.6348292, 40.52543030033587 ], [ 22.635537396534854, 40.525832985084513 ] ] } },
{ "type": "Feature", "properties": { "osm_id": 807924190, "name": null, "label": "waterway:drain", "waterway": "drain" }, "geometry": { "type": "LineString", "coordinates": [ [ 22.6332876, 40.526728100336037 ], [ 22.6352382, 40.527850500336179 ], [ 22.635537396534854, 40.52801993855082 ] ] } },
{ "type": "Feature", "properties": { "osm_id": 807924202, "name": null, "label": "waterway:drain", "waterway": "drain" }, "geometry": { "type": "LineString", "coordinates": [ [ 22.6349092, 40.525213200335848 ], [ 22.6350641, 40.525084700335825 ], [ 22.6355054, 40.524745800335779 ], [ 22.635537396534854, 40.52472432899058 ] ] } },
{ "type": "Feature", "properties": { "osm_id": 807924219, "name": null, "label": "waterway:canal", "waterway": "canal" }, "geometry": { "type": "LineString", "coordinates": [ [ 22.6226091, 40.535315700337108 ], [ 22.6240715, 40.534023100336938 ], [ 22.6259536, 40.532503300336764 ], [ 22.6280647, 40.530752000336541 ], [ 22.6285306, 40.5303624003365 ], [ 22.6297845, 40.529328900336367 ], [ 22.6311333, 40.528195500336217 ], [ 22.6321034, 40.527393800336121 ], [ 22.6339249, 40.525886900335948 ], [ 22.6350112, 40.52501790033584 ], [ 22.6354941, 40.524650800335785 ], [ 22.635537396534854, 40.524624878188845 ] ] } }
]
}
