{
"type": "FeatureCollection",
"name": "patch_63550_polygon",
"crs": { "type": "name", "properties": { "name": "urn:ogc:def:crs:OGC:1.3:CRS84" } },
"features": [
{ "type": "Feature", "properties": { "osm_id": 139733365, "name": "Στέργιος-Αλιάκμονας (Αιγινίου)", "label": "leisure:nature_reserve", "leisure": "nature_reserve", "landuse": null, "natural": null, "water": null }, "geometry": { "type": "Polygon", "coordinates": [ [ [ 22.6048028, 40.532235500336718 ], [ 22.6059243, 40.531123000336585 ], [ 22.6062896, 40.530690500336533 ], [ 22.6064757, 40.530255800336484 ], [ 22.6067577, 40.52948450033638 ], [ 22.6069517, 40.528617500336274 ], [ 22.6071775, 40.527633800336147 ], [ 22.6073414, 40.526793500336048 ], [ 22.607505, 40.525948700335945 ], [ 22.6077313, 40.524942400335817 ], [ 22.607954, 40.524147900335727 ], [ 22.6082377, 40.523254900335594 ], [ 22.6083952, 40.522756900335544 ], [ 22.6086144, 40.522164900335461 ], [ 22.6088352, 40.521455900335376 ], [ 22.6090565, 40.520728900335293 ], [ 22.6092769, 40.520042400335214 ], [ 22.6096148, 40.519451900335127 ], [ 22.6100839, 40.518811400335039 ], [ 22.6105304, 40.518201700334977 ], [ 22.6112038, 40.517155800334848 ], [ 22.611906, 40.516177800334717 ], [ 22.6128799, 40.514995900334569 ], [ 22.6137277, 40.51418180033447 ], [ 22.6145485, 40.513227700334362 ], [ 22.614729296515062, 40.513001889448731 ], [ 22.604771110968031, 40.513001889448731 ], [ 22.604771110968031, 40.532280748909258 ], [ 22.6048028, 40.532235500336718 ] ] ] } },
{ "type": "Feature", "properties": { "osm_id": 1422245014, "name": null, "label": "landuse:farmland", "leisure": null, "landuse": "farmland", "natural": null, "water": null }, "geometry": { "type": "Polygon", "coordinates": [ [ [ 22.6057524, 40.522806700335543 ], [ 22.6059313, 40.522812900335559 ], [ 22.6060651, 40.522754500335537 ], [ 22.6061865, 40.522477600335506 ], [ 22.6062565, 40.521945100335444 ], [ 22.6065461, 40.521082500335339 ], [ 22.606873, 40.520081400335208 ], [ 22.6071298, 40.5192684003351 ], [ 22.607396, 40.518732300335053 ], [ 22.6081479, 40.517085100334832 ], [ 22.6082973, 40.51662710033478 ], [ 22.6085729, 40.516201100334726 ], [ 22.6098104, 40.514770300334533 ], [ 22.6104549, 40.514347800334491 ], [ 22.6112441, 40.513801100334426 ], [ 22.6118185, 40.513520600334388 ], [ 22.6128132, 40.513247200334362 ], [ 22.61324948699545, 40.513001889448731 ], [ 22.604771110968031, 40.513001889448731 ], [ 22.604771110968031, 40.52244864413457 ], [ 22.6057524, 40.522806700335543 ] ] ] } },
{ "type": "Feature", "properties": { "osm_id": 1422249149, "name": null, "label": "natural:wood", "leisure": null, "landuse": null, "natural": "wood", "water": null }, "geometry": { "type": "Polygon", "coordinates": [ [ [ 22.6066205, 40.522799400335551 ], [ 22.6067063, 40.522318200335491 ], [ 22.6067305, 40.522032700335444 ], [ 22.606768, 40.521837000335431 ], [ 22.6068538, 40.521565800335395 ], [ 22.6069987, 40.521060200335327 ], [ 22.6070892, 40.520791600335293 ], [ 22.6074037, 40.52029760033524 ], [ 22.6075137, 40.520176300335216 ], [ 22.6076813, 40.520060100335201 ], [ 22.6078798, 40.519991800335205 ], [ 22.6081775, 40.519931600335191 ], [ 22.60849, 40.519894900335188 ], [ 22.6086509, 40.519862300335177 ], [ 22.60884, 40.519802100335177 ], [ 22.6089245, 40.519757300335172 ], [ 22.6090586, 40.519668600335159 ], [ 22.609186, 40.519508500335135 ], [ 22.6094006, 40.519127200335092 ], [ 22.6094717, 40.518911100335075 ], [ 22.6095656, 40.518689900335033 ], [ 22.6095843, 40.518590000335017 ], [ 22.6095857, 40.518512500335007 ], [ 22.6095374, 40.518319800335007 ], [ 22.609477, 40.518131200334956 ], [ 22.6094234, 40.517967000334934 ], [ 22.6092705, 40.517719300334917 ], [ 22.6090854, 40.517309500334868 ], [ 22.6090372, 40.517153500334842 ], [ 22.6090157, 40.517053600334833 ], [ 22.6090224, 40.516925100334817 ], [ 22.6090264, 40.516768100334794 ], [ 22.6090975, 40.516545800334775 ], [ 22.6092732, 40.516233900334733 ], [ 22.6096098, 40.515917800334684 ], [ 22.609874, 40.515624200334642 ], [ 22.6099625, 40.515474300334638 ], [ 22.6100188, 40.515339700334621 ], [ 22.6100618, 40.515232700334607 ], [ 22.6101235, 40.515133800334588 ], [ 22.6102482, 40.514952300334571 ], [ 22.6103421, 40.514762600334535 ], [ 22.6104413, 40.514615800334525 ], [ 22.610368, 40.514611400334537 ], [ 22.6102406, 40.51472170033454 ], [ 22.6097947, 40.515176400334603 ], [ 22.6093912, 40.515617700334651 ], [ 22.6089134, 40.516171900334726 ], [ 22.6085701, 40.516769200334799 ], [ 22.6080994, 40.517778200334924 ], [ 22.6075048, 40.519080400335085 ], [ 22.6072854, 40.519567400335156 ], [ 22.6069067, 40.520804900335307 ], [ 22.6066908, 40.521469500335385 ], [ 22.6065528, 40.521945700335451 ], [ 22.6064466, 40.522532200335519 ], [ 22.6066205, 40.522799400335551 ] ] ] } },
{ "type": "Feature", "properties": { "osm_id": 488520994, "name": null, "label": "natural:wetland", "leisure": null, "landuse": null, "natural": "wetland", "water": null }, "geometry": { "type": "MultiPolygon", "coordinates": [ [ [ [ 22.6049278, 40.51367750033441 ], [ 22.604771110968031, 40.513602280790835 ], [ 22.604771110968031, 40.513951485602114 ], [ 22.6049278, 40.51367750033441 ] ] ], [ [ [ 22.6064195, 40.513114800334336 ], [ 22.6059035, 40.513822500334435 ], [ 22.6060493, 40.513924800334436 ], [ 22.6052194, 40.515058800334586 ], [ 22.604771110968031, 40.514793735312992 ], [ 22.604771110968031, 40.516242947259869 ], [ 22.6050624, 40.516073400334705 ], [ 22.6058475, 40.515476600334623 ], [ 22.60624, 40.515118500334587 ], [ 22.6065653, 40.514717800334545 ], [ 22.6068681, 40.51418910033447 ], [ 22.6068905, 40.513694600334404 ], [ 22.6068793, 40.513183000334337 ], [ 22.606968572552862, 40.513001889448731 ], [ 22.606563755573983, 40.513001889448731 ], [ 22.6064195, 40.513114800334336 ] ] ] ] } },
{ "type": "Feature", "properties": { "osm_id": 1422249151, "name": null, "label": "natural:wood", "leisure": null, "landuse": null, "natural": "wood", "water": null }, "geometry": { "type": "Polygon", "coordinates": [ [ [ 22.6047778, 40.530075700336447 ], [ 22.6048583, 40.529961500336441 ], [ 22.6049956, 40.529565800336393 ], [ 22.6051937, 40.529540400336387 ], [ 22.6053572, 40.529332600336367 ], [ 22.6055369, 40.529054300336327 ], [ 22.6058185, 40.528673100336292 ], [ 22.6061538, 40.528304100336236 ], [ 22.6062477, 40.528141000336205 ], [ 22.6063147, 40.527994200336195 ], [ 22.606363, 40.527753600336169 ], [ 22.6064193, 40.527441700336119 ], [ 22.6064005, 40.527121600336095 ], [ 22.6063764, 40.526465100335997 ], [ 22.6063442, 40.526063500335951 ], [ 22.6062825, 40.525519200335893 ], [ 22.6062423, 40.524991100335825 ], [ 22.6062316, 40.524681200335792 ], [ 22.6062101, 40.524355000335753 ], [ 22.6062235, 40.524157200335708 ], [ 22.6062798, 40.523875900335682 ], [ 22.6063952, 40.523572100335649 ], [ 22.6065186, 40.523221400335601 ], [ 22.6065772, 40.522978800335572 ], [ 22.6064064, 40.523111100335598 ], [ 22.6063045, 40.523278300335605 ], [ 22.6061972, 40.52365550033565 ], [ 22.606127, 40.52391250033569 ], [ 22.6059571, 40.524321400335737 ], [ 22.6057695, 40.524824500335811 ], [ 22.605812, 40.525341000335864 ], [ 22.6058509, 40.52595700033595 ], [ 22.6054121, 40.526869000336056 ], [ 22.6052634, 40.527616900336149 ], [ 22.6050334, 40.528321700336242 ], [ 22.604771110968031, 40.528823707172769 ], [ 22.604771110968031, 40.530092001648796 ], [ 22.6047778, 40.530075700336447 ] ] ] } },
{ "type": "Feature", "properties": { "osm_id": 1422245029, "name": null, "label": "natural:heath", "leisure": null, "landuse": null, "natural": "heath", "water": null }, "geometry": { "type": "Polygon", "coordinates": [ [ [ 22.6050334, 40.528321700336242 ], [ 22.6052634, 40.527616900336149 ], [ 22.6054121, 40.526869000336056 ], [ 22.6058509, 40.52595700033595 ], [ 22.605812, 40.525341000335864 ], [ 22.6057695, 40.524824500335811 ], [ 22.6059571, 40.524321400335737 ], [ 22.606127, 40.52391250033569 ], [ 22.6062332, 40.523180700335601 ], [ 22.6059996, 40.522949300335569 ], [ 22.6057058, 40.522841700335569 ], [ 22.604771110968031, 40.522503543517196 ], [ 22.604771110968031, 40.528823707172769 ], [ 22.6050334, 40.528321700336242 ] ] ] } },
{ "type": "Feature", "properties": { "osm_id": 1422245023, "name": null, "label": "landuse:farmland", "leisure": null, "landuse": "farmland", "natural": null, "water": null }, "geometry": { "type": "Polygon", "coordinates": [ [ [ 22.6196588, 40.535622600337156 ], [ 22.6194854, 40.535477400337122 ], [ 22.6204587, 40.53475380033705 ], [ 22.6213117, 40.533968400336946 ], [ 22.6217647, 40.533667100336899 ], [ 22.6225079, 40.532916600336819 ], [ 22.6227415, 40.53291400033681 ], [ 22.6235378, 40.532419000336731 ], [ 22.6242881, 40.531878300336693 ], [ 22.6247022, 40.531523300336623 ], [ 22.6251906, 40.530684000336528 ], [ 22.6256896, 40.53010030033645 ], [ 22.6233538, 40.5280074003362 ], [ 22.6239696, 40.527574300336148 ], [ 22.6245677, 40.527181500336084 ], [ 22.6246527, 40.526936700336066 ], [ 22.6245288, 40.526815700336044 ], [ 22.6234706, 40.526245300335979 ], [ 22.6231273, 40.52652240033602 ], [ 22.6226778, 40.526767200336046 ], [ 22.6216585, 40.527100800336093 ], [ 22.6211949, 40.527197700336103 ], [ 22.6209153, 40.527176100336099 ], [ 22.6204162, 40.52696360033606 ], [ 22.6200836, 40.526796800336051 ], [ 22.6196341, 40.527146500336094 ], [ 22.619627, 40.527211100336103 ], [ 22.6204269, 40.528163400336211 ], [ 22.6203525, 40.528217200336229 ], [ 22.6194076, 40.527423600336135 ], [ 22.6192908, 40.527407500336125 ], [ 22.6191492, 40.527437100336137 ], [ 22.6186466, 40.527628100336152 ], [ 22.6166116, 40.528693400336287 ], [ 22.6105313, 40.531762700336657 ], [ 22.604771110968031, 40.534703535272811 ], [ 22.604771110968031, 40.535631954133294 ], [ 22.61965634274631, 40.535631954133294 ], [ 22.6196588, 40.535622600337156 ] ] ] } },
{ "type": "Feature", "properties": { "osm_id": 1424540777, "name": null, "label": "natural:heath", "leisure": null, "landuse": null, "natural": "heath", "water": null }, "geometry": { "type": "Polygon", "coordinates": [ [ [ 22.6207327, 40.535341900337102 ], [ 22.6222288, 40.534133000336972 ], [ 22.6234495, 40.533078000336836 ], [ 22.6246891, 40.532121500336721 ], [ 22.6257991, 40.5311875003366 ], [ 22.6265498, 40.530608700336529 ], [ 22.6273897, 40.529877900336437 ], [ 22.6276217, 40.52980750033641 ], [ 22.630772, 40.527085700336087 ], [ 22.63096, 40.526751600336034 ], [ 22.6307952, 40.526546400336024 ], [ 22.6307952, 40.526349300336008 ], [ 22.63123, 40.526010600335937 ], [ 22.6314164, 40.52587100033594 ], [ 22.6316648, 40.52551590033589 ], [ 22.6318404, 40.525160700335846 ], [ 22.6319665, 40.524877200335801 ], [ 22.6324632, 40.524320100335736 ], [ 22.6322512, 40.523473000335642 ], [ 22.6315244, 40.523132300335583 ], [ 22.6297996, 40.523012200335586 ], [ 22.6273116, 40.525101300335848 ], [ 22.6267749, 40.525700800335919 ], [ 22.6266855, 40.527202600336103 ], [ 22.6267099, 40.527999900336198 ], [ 22.6266448, 40.5288404003363 ], [ 22.6256896, 40.53010030033645 ], [ 22.6251906, 40.530684000336528 ], [ 22.6247022, 40.531523300336623 ], [ 22.6242881, 40.531878300336693 ], [ 22.6235378, 40.532419000336731 ], [ 22.6227415, 40.53291400033681 ], [ 22.6225079, 40.532916600336819 ], [ 22.6217647, 40.533667100336899 ], [ 22.6213117, 40.533968400336946 ], [ 22.6204587, 40.53475380033705 ], [ 22.6194854, 40.535477400337122 ], [ 22.6196588, 40.535622600337156 ], [ 22.61965634274631, 40.535631954133294 ], [ 22.620377931599418, 40.535631954133294 ], [ 22.6207327, 40.535341900337102 ] ] ] } },
{ "type": "Feature", "properties": { "osm_id": 1422249165, "name": null, "label": "natural:grassland", "leisure": null, "landuse": null, "natural": "grassland", "water": null }, "geometry": { "type": "Polygon", "coordinates": [ [ [ 22.6196341, 40.527146500336094 ], [ 22.6200836, 40.526796800336051 ], [ 22.6204162, 40.52696360033606 ], [ 22.6209153, 40.527176100336099 ], [ 22.6211949, 40.527197700336103 ], [ 22.6216585, 40.527100800336093 ], [ 22.6226778, 40.526767200336046 ], [ 22.6231273, 40.52652240033602 ], [ 22.6234706, 40.526245300335979 ], [ 22.6245288, 40.526815700336044 ], [ 22.6246527, 40.526936700336066 ], [ 22.6245677, 40.527181500336084 ], [ 22.6239696, 40.527574300336148 ], [ 22.6233538, 40.5280074003362 ], [ 22.6256896, 40.53010030033645 ], [ 22.6266448, 40.5288404003363 ], [ 22.6267099, 40.527999900336198 ], [ 22.6266855, 40.527202600336103 ], [ 22.6267749, 40.525700800335919 ], [ 22.6273116, 40.525101300335848 ], [ 22.6297996, 40.523012200335586 ], [ 22.6290516, 40.522369400335513 ], [ 22.6295638, 40.521714300335418 ], [ 22.6298403, 40.521164200335349 ], [ 22.6302712, 40.519909400335195 ], [ 22.630629, 40.519322300335105 ], [ 22.6263709, 40.517585400334902 ], [ 22.6260264, 40.51744490033488 ], [ 22.6253523, 40.518197600334986 ], [ 22.6249017, 40.519926700335184 ], [ 22.6260121, 40.520163200335205 ], [ 22.6244774, 40.522672900335536 ], [ 22.6243676, 40.522772500335535 ], [ 22.6235855, 40.523361600335619 ], [ 22.622053, 40.524505000335758 ], [ 22.6206232, 40.525597200335909 ], [ 22.6197171, 40.526272500335985 ], [ 22.6195756, 40.526433900335988 ], [ 22.6194198, 40.526840100336059 ], [ 22.619342, 40.527068700336081 ], [ 22.6196341, 40.527146500336094 ] ] ] } },
{ "type": "Feature", "properties": { "osm_id": 1422245022, "name": null, "label": "landuse:farmland", "leisure": null, "landuse": "farmland", "natural": null, "water": null }, "geometry": { "type": "Polygon", "coordinates": [ [ [ 22.6265943, 40.513681500334414 ], [ 22.6258331, 40.513344200334373 ], [ 22.6241332, 40.51532170033461 ], [ 22.6233907, 40.514963200334563 ], [ 22.6218169, 40.516606900334779 ], [ 22.6238483, 40.517561900334897 ], [ 22.6221531, 40.519312100335114 ], [ 22.6216908, 40.519226900335099 ], [ 22.6181509, 40.518406900335009 ], [ 22.6178801, 40.518612800335028 ], [ 22.6166192, 40.517995000334942 ], [ 22.6151901, 40.518808000335042 ], [ 22.6151575, 40.518772500335054 ], [ 22.6153769, 40.518644700335045 ], [ 22.616325, 40.517693300334905 ], [ 22.6171282, 40.518058900334964 ], [ 22.6173057, 40.518098000334959 ], [ 22.6177727, 40.517398600334886 ], [ 22.6176279, 40.51716790033484 ], [ 22.6167499, 40.516688600334788 ], [ 22.6138032, 40.514771400334546 ], [ 22.6118762, 40.516915200334815 ], [ 22.6114373, 40.517291900334861 ], [ 22.6108852, 40.517996800334963 ], [ 22.610142, 40.519121400335095 ], [ 22.6095403, 40.520111500335219 ], [ 22.6093209, 40.520665700335286 ], [ 22.6087404, 40.522667300335534 ], [ 22.6081529, 40.524744200335796 ], [ 22.6077582, 40.526450000335998 ], [ 22.6078219, 40.526961100336074 ], [ 22.6078077, 40.527340400336129 ], [ 22.6076945, 40.527633700336153 ], [ 22.6071141, 40.528610200336281 ], [ 22.6069265, 40.529417200336383 ], [ 22.6067283, 40.530458200336504 ], [ 22.6060098, 40.531875900336679 ], [ 22.6054542, 40.532785000336801 ], [ 22.6051817, 40.533158900336836 ], [ 22.604771110968031, 40.533628995565913 ], [ 22.604771110968031, 40.534611699783156 ], [ 22.6052171, 40.534390900336994 ], [ 22.619342, 40.527068700336081 ], [ 22.6194198, 40.526840100336059 ], [ 22.6195756, 40.526433900335988 ], [ 22.6197171, 40.526272500335985 ], [ 22.6206232, 40.525597200335909 ], [ 22.622053, 40.524505000335758 ], [ 22.6235855, 40.523361600335619 ], [ 22.6243676, 40.522772500335535 ], [ 22.6244774, 40.522672900335536 ], [ 22.6260121, 40.520163200335205 ], [ 22.6249017, 40.519926700335184 ], [ 22.6253523, 40.518197600334986 ], [ 22.6260264, 40.51744490033488 ], [ 22.626806, 40.516574600334771 ], [ 22.6277287, 40.515701800334661 ], [ 22.6285495, 40.514902500334543 ], [ 22.6289679, 40.514421300334504 ], [ 22.6297243, 40.513874800334428 ], [ 22.6311888, 40.513116200334331 ], [ 22.630999000771418, 40.513001889448731 ], [ 22.627141835793601, 40.513001889448731 ], [ 22.6265943, 40.513681500334414 ] ] ] } },
{ "type": "Feature", "properties": { "osm_id": -13013631, "name": null, "label": "water:river;natural:water", "leisure": null, "landuse": null, "natural": "water", "water": "river" }, "geometry": { "type": "Polygon", "coordinates": [ [ [ 22.6134293, 40.513100700334334 ], [ 22.6131155, 40.513229200334344 ], [ 22.6126528, 40.513414800334367 ], [ 22.6122035, 40.513559600334382 ], [ 22.6118736, 40.513683900334421 ], [ 22.611549, 40.513832800334448 ], [ 22.6112232, 40.51402750033445 ], [ 22.6109266, 40.514211800334479 ], [ 22.6107752, 40.514305900334485 ], [ 22.6106626, 40.51437930033449 ], [ 22.61057, 40.514452700334509 ], [ 22.6105151, 40.514515900334523 ], [ 22.6104413, 40.514615800334525 ], [ 22.6103421, 40.514762600334535 ], [ 22.6102482, 40.514952300334571 ], [ 22.6101235, 40.515133800334588 ], [ 22.6100618, 40.515232700334607 ], [ 22.6100188, 40.515339700334621 ], [ 22.6099625, 40.515474300334638 ], [ 22.609874, 40.515624200334642 ], [ 22.6096098, 40.515917800334684 ], [ 22.6092732, 40.516233900334733 ], [ 22.6090975, 40.516545800334775 ], [ 22.6090264, 40.516768100334794 ], [ 22.6090224, 40.516925100334817 ], [ 22.6090157, 40.517053600334833 ], [ 22.6090372, 40.517153500334842 ], [ 22.6090854, 40.517309500334868 ], [ 22.6092705, 40.517719300334917 ], [ 22.6094234, 40.517967000334934 ], [ 22.609477, 40.518131200334956 ], [ 22.6095374, 40.518319800335007 ], [ 22.6095857, 40.518512500335007 ], [ 22.6095843, 40.518590000335017 ], [ 22.6095656, 40.518689900335033 ], [ 22.6094717, 40.518911100335075 ], [ 22.6094006, 40.519127200335092 ], [ 22.609186, 40.519508500335135 ], [ 22.6090586, 40.519668600335159 ], [ 22.6089245, 40.519757300335172 ], [ 22.60884, 40.519802100335177 ], [ 22.6086509, 40.519862300335177 ], [ 22.60849, 40.519894900335188 ], [ 22.6081775, 40.519931600335191 ], [ 22.6078798, 40.519991800335205 ], [ 22.6076813, 40.520060100335201 ], [ 22.6075137, 40.520176300335216 ], [ 22.6074037, 40.52029760033524 ], [ 22.6070892, 40.520791600335293 ], [ 22.6069987, 40.521060200335327 ], [ 22.6068538, 40.521565800335395 ], [ 22.606768, 40.521837000335431 ], [ 22.6067305, 40.522032700335444 ], [ 22.6067063, 40.522318200335491 ], [ 22.6066205, 40.522799400335551 ], [ 22.6065772, 40.522978800335572 ], [ 22.6065186, 40.523221400335601 ], [ 22.6063952, 40.523572100335649 ], [ 22.6062798, 40.523875900335682 ], [ 22.6062235, 40.524157200335708 ], [ 22.6062101, 40.524355000335753 ], [ 22.6062316, 40.524681200335792 ], [ 22.6062423, 40.524991100335825 ], [ 22.6062825, 40.525519200335893 ], [ 22.6063442, 40.526063500335951 ], [ 22.6063764, 40.526465100335997 ], [ 22.6064005, 40.527121600336095 ], [ 22.6064193, 40.527441700336119 ], [ 22.606363, 40.527753600336169 ], [ 22.6063147, 40.527994200336195 ], [ 22.6062477, 40.528141000336205 ], [ 22.6061538, 40.528304100336236 ], [ 22.6058185, 40.528673100336292 ], [ 22.6055369, 40.529054300336327 ], [ 22.6053572, 40.529332600336367 ], [ 22.6051937, 40.529540400336387 ], [ 22.6049843, 40.529806600336428 ], [ 22.6048583, 40.529961500336441 ], [ 22.6047778, 40.530075700336447 ], [ 22.604771110968031, 40.530092001648796 ], [ 22.604771110968031, 40.53097313790181 ], [ 22.6047818, 40.530896300336565 ], [ 22.6048341, 40.530664900336525 ], [ 22.60492, 40.530454900336508 ], [ 22.6049696, 40.530318300336496 ], [ 22.6049736, 40.530230600336466 ], [ 22.6049736, 40.530150100336471 ], [ 22.604979, 40.530043100336449 ], [ 22.6050273, 40.529942200336443 ], [ 22.6052231, 40.529717900336415 ], [ 22.6054296, 40.529531400336374 ], [ 22.6056509, 40.529309200336357 ], [ 22.6058118, 40.529105300336333 ], [ 22.6059204, 40.528936100336317 ], [ 22.6061229, 40.528571700336272 ], [ 22.6062001, 40.52845390033626 ], [ 22.6062725, 40.528412100336254 ], [ 22.6063214, 40.528405000336242 ], [ 22.6063717, 40.528409600336246 ], [ 22.6063985, 40.528426400336251 ], [ 22.606414, 40.52845650033624 ], [ 22.6064073, 40.528511500336265 ], [ 22.6063657, 40.528978900336313 ], [ 22.6063201, 40.529203200336347 ], [ 22.6061484, 40.529714900336408 ], [ 22.605954, 40.530311200336484 ], [ 22.6058158, 40.530648600336526 ], [ 22.6055704, 40.531167400336599 ], [ 22.6054162, 40.531524100336625 ], [ 22.605325, 40.531846200336673 ], [ 22.6052955, 40.53194410033668 ], [ 22.6052257, 40.532056200336704 ], [ 22.6051694, 40.532131600336712 ], [ 22.604975, 40.532456800336753 ], [ 22.6048449, 40.532739100336784 ], [ 22.604771110968031, 40.532792957258124 ], [ 22.604771110968031, 40.533051823265112 ], [ 22.6047926, 40.533046000336824 ], [ 22.604861, 40.532988900336825 ], [ 22.6049307, 40.53287880033681 ], [ 22.6052357, 40.53246870033675 ], [ 22.6053759, 40.532236600336724 ], [ 22.6055852, 40.531835000336685 ], [ 22.6059446, 40.531156200336596 ], [ 22.6061913, 40.53073210033655 ], [ 22.6063201, 40.530520100336503 ], [ 22.6063818, 40.530401900336493 ], [ 22.606414, 40.530300000336489 ], [ 22.6064327, 40.530136900336473 ], [ 22.6064113, 40.52993710033644 ], [ 22.6064113, 40.529833100336432 ], [ 22.6064703, 40.529574200336398 ], [ 22.6066393, 40.528976900336325 ], [ 22.6067868, 40.528528300336262 ], [ 22.6069048, 40.528179700336224 ], [ 22.606988, 40.52799010033619 ], [ 22.6070577, 40.527861700336189 ], [ 22.6071516, 40.527694500336153 ], [ 22.6072025, 40.527582400336151 ], [ 22.6073447, 40.52733570033611 ], [ 22.6073849, 40.527221500336104 ], [ 22.6074332, 40.526805600336054 ], [ 22.6074386, 40.526636400336031 ], [ 22.6074064, 40.52651200033602 ], [ 22.6073796, 40.526355100336005 ], [ 22.6074091, 40.526141000335961 ], [ 22.6074198, 40.525945300335934 ], [ 22.6074547, 40.525767900335921 ], [ 22.6075304, 40.525299900335867 ], [ 22.607578, 40.525068600335828 ], [ 22.6075619, 40.524832100335793 ], [ 22.6074895, 40.524652700335785 ], [ 22.6073125, 40.52449570033577 ], [ 22.6070335, 40.524281600335748 ], [ 22.6068941, 40.524185800335729 ], [ 22.6067787, 40.524098100335713 ], [ 22.606701, 40.523967600335688 ], [ 22.6067331, 40.523859600335669 ], [ 22.6068136, 40.523651600335661 ], [ 22.6069182, 40.523378400335609 ], [ 22.6070604, 40.522791200335554 ], [ 22.6071918, 40.522108200335452 ], [ 22.6073688, 40.521614800335406 ], [ 22.6075485, 40.521222300335367 ], [ 22.6076424, 40.521069300335334 ], [ 22.6078489, 40.520790000335296 ], [ 22.6080716, 40.520533100335264 ], [ 22.60827, 40.520402600335238 ], [ 22.608657, 40.520209900335217 ], [ 22.6087951, 40.520157400335222 ], [ 22.6089647, 40.520083000335198 ], [ 22.6091062, 40.520006000335201 ], [ 22.6091833, 40.519951500335189 ], [ 22.6093644, 40.519783800335169 ], [ 22.6100839, 40.518811400335039 ], [ 22.6101087, 40.51871540033504 ], [ 22.6101127, 40.518633800335024 ], [ 22.6101087, 40.518575700335028 ], [ 22.6100859, 40.518501300335004 ], [ 22.6098445, 40.517985400334936 ], [ 22.6096943, 40.517598000334885 ], [ 22.6096219, 40.517402200334871 ], [ 22.6095977, 40.517316600334873 ], [ 22.6095736, 40.517171800334836 ], [ 22.6095736, 40.516970000334823 ], [ 22.609583, 40.516681400334797 ], [ 22.6096219, 40.516531600334766 ], [ 22.6096702, 40.516434700334749 ], [ 22.6097439, 40.516331700334739 ], [ 22.6098807, 40.516173700334718 ], [ 22.6101556, 40.515857600334684 ], [ 22.610271, 40.515737300334656 ], [ 22.6103367, 40.515625200334647 ], [ 22.6103769, 40.51550280033463 ], [ 22.6104695, 40.515072600334584 ], [ 22.6105553, 40.514927800334569 ], [ 22.6106384, 40.51484320033456 ], [ 22.6111025, 40.514528100334523 ], [ 22.6113801, 40.514321200334493 ], [ 22.6116845, 40.514120300334476 ], [ 22.6120104, 40.513978600334454 ], [ 22.6123765, 40.513856300334425 ], [ 22.6131463, 40.513599300334398 ], [ 22.6135057, 40.513460700334377 ], [ 22.6138209, 40.513324000334357 ], [ 22.6139671, 40.513235300334358 ], [ 22.6140717, 40.513154800334341 ], [ 22.6141548, 40.513081400334322 ], [ 22.614257317354436, 40.513001889448731 ], [ 22.613714409775422, 40.513001889448731 ], [ 22.6134293, 40.513100700334334 ] ], [ [ 22.6064596, 40.524803500335778 ], [ 22.6064844, 40.524552800335769 ], [ 22.6065142, 40.524415600335743 ], [ 22.6065337, 40.524383300335742 ], [ 22.6065608, 40.524367000335751 ], [ 22.6065803, 40.524366500335738 ], [ 22.606601, 40.524372300335763 ], [ 22.6066212, 40.524385800335743 ], [ 22.6066916, 40.524449800335752 ], [ 22.606823, 40.52464860033578 ], [ 22.607, 40.524928900335823 ], [ 22.6070778, 40.525215400335853 ], [ 22.6071717, 40.525780100335929 ], [ 22.6071623, 40.525913700335934 ], [ 22.6071449, 40.525970700335954 ], [ 22.6071019, 40.526029900335942 ], [ 22.6068331, 40.526273500335989 ], [ 22.606768, 40.526309700335979 ], [ 22.6067284, 40.526309700335979 ], [ 22.6066983, 40.526297500335986 ], [ 22.6066795, 40.526257200335991 ], [ 22.6066312, 40.526020700335948 ], [ 22.606532, 40.52546000033589 ], [ 22.6064542, 40.524964600335821 ], [ 22.6064596, 40.524803500335778 ] ], [ [ 22.6066849, 40.527533500336133 ], [ 22.6067787, 40.527262300336105 ], [ 22.6068096, 40.527185800336092 ], [ 22.6068451, 40.5271670003361 ], [ 22.6068934, 40.527175100336102 ], [ 22.6069236, 40.527198600336092 ], [ 22.606988, 40.527272500336117 ], [ 22.6070429, 40.52737490033612 ], [ 22.6070342, 40.527448300336133 ], [ 22.606996, 40.527522200336136 ], [ 22.6067586, 40.527717400336165 ], [ 22.606705, 40.527726600336159 ], [ 22.6066768, 40.527720500336173 ], [ 22.6066527, 40.527695500336165 ], [ 22.6066426, 40.527658800336155 ], [ 22.6066849, 40.527533500336133 ] ], [ [ 22.6070121, 40.526699600336045 ], [ 22.6070503, 40.526555400336022 ], [ 22.6070629, 40.526504600336018 ], [ 22.6070761, 40.526485400336 ], [ 22.6070949, 40.526477000336016 ], [ 22.6071117, 40.526476700336012 ], [ 22.6071241, 40.526482300336006 ], [ 22.607283, 40.526681800336029 ], [ 22.6073568, 40.526833100336063 ], [ 22.6073688, 40.526926900336065 ], [ 22.6073527, 40.527036000336082 ], [ 22.6073179, 40.527217400336099 ], [ 22.6072635, 40.527360700336125 ], [ 22.6072032, 40.527404000336112 ], [ 22.6071724, 40.527404500336139 ], [ 22.6071422, 40.527389700336123 ], [ 22.6071113, 40.527341800336117 ], [ 22.6070094, 40.527082900336083 ], [ 22.6069786, 40.526881100336055 ], [ 22.6070121, 40.526699600336045 ] ], [ [ 22.6076712, 40.520294500335233 ], [ 22.6077007, 40.52024410033524 ], [ 22.6077926, 40.520161000335222 ], [ 22.6078784, 40.520110000335215 ], [ 22.6079824, 40.520082000335222 ], [ 22.6080508, 40.520077400335204 ], [ 22.6081011, 40.520089100335213 ], [ 22.6081312, 40.520113100335216 ], [ 22.608146, 40.520141600335229 ], [ 22.6081406, 40.520180400335221 ], [ 22.6081272, 40.520209400335226 ], [ 22.6080675, 40.520253300335234 ], [ 22.6078275, 40.520356200335236 ], [ 22.6077437, 40.520375100335258 ], [ 22.6077128, 40.520370500335247 ], [ 22.6076907, 40.520361300335246 ], [ 22.6076692, 40.520333300335238 ], [ 22.6076712, 40.520294500335233 ] ] ] } },
{ "type": "Feature", "properties": { "osm_id": 1422252198, "name": null, "label": "natural:wood", "leisure": null, "landuse": null, "natural": "wood", "water": null }, "geometry": { "type": "Polygon", "coordinates": [ [ [ 22.6128132, 40.513247200334362 ], [ 22.6119627, 40.513568600334402 ], [ 22.6113416, 40.51385620033443 ], [ 22.610926, 40.514161600334468 ], [ 22.6109266, 40.514211800334479 ], [ 22.6112232, 40.51402750033445 ], [ 22.611549, 40.513832800334448 ], [ 22.6118736, 40.513683900334421 ], [ 22.6122035, 40.513559600334382 ], [ 22.6126528, 40.513414800334367 ], [ 22.6131155, 40.513229200334344 ], [ 22.6134293, 40.513100700334334 ], [ 22.613714409775422, 40.513001889448731 ], [ 22.61324948699545, 40.513001889448731 ], [ 22.6128132, 40.513247200334362 ] ] ] } },
{ "type": "Feature", "properties": { "osm_id": 1422249164, "name": null, "label": "natural:grassland", "leisure": null, "landuse": null, "natural": "grassland", "water": null }, "geometry": { "type": "Polygon", "coordinates": [ [ [ 22.6138032, 40.514771400334546 ], [ 22.6167499, 40.516688600334788 ], [ 22.6176279, 40.51716790033484 ], [ 22.6177727, 40.517398600334886 ], [ 22.6173057, 40.518098000334959 ], [ 22.6171282, 40.518058900334964 ], [ 22.616325, 40.517693300334905 ], [ 22.6153769, 40.518644700335045 ], [ 22.6151575, 40.518772500335054 ], [ 22.6151901, 40.518808000335042 ], [ 22.6166192, 40.517995000334942 ], [ 22.6178801, 40.518612800335028 ], [ 22.6181509, 40.518406900335009 ], [ 22.6216908, 40.519226900335099 ], [ 22.6221531, 40.519312100335114 ], [ 22.6238483, 40.517561900334897 ], [ 22.6218169, 40.516606900334779 ], [ 22.6233907, 40.514963200334563 ], [ 22.6241332, 40.51532170033461 ], [ 22.6258331, 40.513344200334373 ], [ 22.6265943, 40.513681500334414 ], [ 22.627141835793601, 40.513001889448731 ], [ 22.615440367507702, 40.513001889448731 ], [ 22.6138032, 40.514771400334546 ] ] ] } },
{ "type": "Feature", "properties": { "osm_id": 1424540779, "name": null, "label": "natural:heath", "leisure": null, "landuse": null, "natural": "heath", "water": null }, "geometry": { "type": "Polygon", "coordinates": [ [ [ 22.6263709, 40.517585400334902 ], [ 22.6265119, 40.517521100334903 ], [ 22.6268293, 40.517413800334872 ], [ 22.6270339, 40.517172500334844 ], [ 22.6270621, 40.51692050033482 ], [ 22.6273724, 40.516550600334753 ], [ 22.6279014, 40.516212700334741 ], [ 22.6283458, 40.515810600334682 ], [ 22.6288465, 40.515483500334632 ], [ 22.6290229, 40.515183200334597 ], [ 22.629039, 40.514934100334564 ], [ 22.6290511, 40.514748900334546 ], [ 22.6294249, 40.51428240033448 ], [ 22.6309836, 40.513333300334367 ], [ 22.6310657, 40.513246500334361 ], [ 22.6311888, 40.513116200334331 ], [ 22.6297243, 40.513874800334428 ], [ 22.6289679, 40.514421300334504 ], [ 22.6285495, 40.514902500334543 ], [ 22.6277287, 40.515701800334661 ], [ 22.626806, 40.516574600334771 ], [ 22.6260264, 40.51744490033488 ], [ 22.6263709, 40.517585400334902 ] ] ] } },
{ "type": "Feature", "properties": { "osm_id": 138271243, "name": "Δέλτα Αλιάκμονα (Κλειδίου)", "label": "leisure:nature_reserve", "leisure": "nature_reserve", "landuse": null, "natural": null, "water": null }, "geometry": { "type": "Polygon", "coordinates": [ [ [ 22.6145485, 40.513227700334362 ], [ 22.6137277, 40.51418180033447 ], [ 22.6128799, 40.514995900334569 ], [ 22.611906, 40.516177800334717 ], [ 22.6112038, 40.517155800334848 ], [ 22.6105304, 40.518201700334977 ], [ 22.6100839, 40.518811400335039 ], [ 22.6096148, 40.519451900335127 ], [ 22.6092769, 40.520042400335214 ], [ 22.6090565, 40.520728900335293 ], [ 22.6088352, 40.521455900335376 ], [ 22.6086144, 40.522164900335461 ], [ 22.6083952, 40.522756900335544 ], [ 22.6082377, 40.523254900335594 ], [ 22.607954, 40.524147900335727 ], [ 22.6077313, 40.524942400335817 ], [ 22.607505, 40.525948700335945 ], [ 22.6073414, 40.526793500336048 ], [ 22.6071775, 40.527633800336147 ], [ 22.6069517, 40.528617500336274 ], [ 22.6067577, 40.52948450033638 ], [ 22.6064757, 40.530255800336484 ], [ 22.6062896, 40.530690500336533 ], [ 22.6059243, 40.531123000336585 ], [ 22.6048028, 40.532235500336718 ], [ 22.604771110968031, 40.532280748909258 ], [ 22.604771110968031, 40.535631954133294 ], [ 22.623022308181312, 40.535631954133294 ], [ 22.6238028, 40.534744900337039 ], [ 22.6246977, 40.533962800336937 ], [ 22.6261889, 40.532633800336761 ], [ 22.6276796, 40.53157950033664 ], [ 22.6291113, 40.530249700336476 ], [ 22.6308405, 40.529148700336329 ], [ 22.6323314, 40.52784210033618 ], [ 22.6332853, 40.527087600336081 ], [ 22.6340604, 40.526560800336028 ], [ 22.6348949, 40.525962600335944 ], [ 22.6354317, 40.525414900335882 ], [ 22.635537396534854, 40.525322494608659 ], [ 22.635537396534854, 40.513001889448731 ], [ 22.614729296515062, 40.513001889448731 ], [ 22.6145485, 40.513227700334362 ] ] ] } },
{ "type": "Feature", "properties": { "osm_id": 1424540780, "name": null, "label": "natural:water", "leisure": null, "landuse": null, "natural": "water", "water": null }, "geometry": { "type": "Polygon", "coordinates": [ [ [ 22.6322965, 40.51304260033433 ], [ 22.6322283, 40.513065600334329 ], [ 22.632179, 40.513117500334339 ], [ 22.6320711, 40.513127100334344 ], [ 22.6319742, 40.513154900334371 ], [ 22.6318726, 40.513191100334339 ], [ 22.6317614, 40.513208000334352 ], [ 22.6316693, 40.513175400334354 ], [ 22.6314057, 40.513206800334352 ], [ 22.6310657, 40.513246500334361 ], [ 22.6309836, 40.513333300334367 ], [ 22.6312137, 40.513343900334377 ], [ 22.6316423, 40.513259900334354 ], [ 22.6318947, 40.513237900334353 ], [ 22.6322365, 40.513220000334357 ], [ 22.6325204, 40.513239900334355 ], [ 22.6323811, 40.513188000334353 ], [ 22.6323442, 40.513130000334336 ], [ 22.6323784, 40.513048100334338 ], [ 22.6324257, 40.513018100334328 ], [ 22.6324941, 40.513002100334319 ], [ 22.632494393379144, 40.513001889448731 ], [ 22.632352505588635, 40.513001889448731 ], [ 22.6322965, 40.51304260033433 ] ] ] } },
{ "type": "Feature", "properties": { "osm_id": 1422786110, "name": null, "label": "water:river;natural:water", "leisure": null, "landuse": null, "natural": "water", "water": "river" }, "geometry": { "type": "Polygon", "coordinates": [ [ [ 22.6301086, 40.516740000334799 ], [ 22.6301926, 40.516674300334785 ], [ 22.6303094, 40.516592700334776 ], [ 22.6304308, 40.516541200334771 ], [ 22.6305896, 40.516484400334747 ], [ 22.6307554, 40.516416900334761 ], [ 22.6308418, 40.516415200334748 ], [ 22.6308324, 40.516454200334756 ], [ 22.6306176, 40.516514600334759 ], [ 22.6305826, 40.516569600334776 ], [ 22.630641, 40.516612200334777 ], [ 22.6308208, 40.516578500334774 ], [ 22.6308721, 40.516523400334755 ], [ 22.6308768, 40.516454200334756 ], [ 22.6309398, 40.516415200334748 ], [ 22.6309679, 40.516445300334759 ], [ 22.6310543, 40.516487900334766 ], [ 22.6312457, 40.516487900334766 ], [ 22.6317361, 40.516454200334756 ], [ 22.6315376, 40.516457800334749 ], [ 22.6312014, 40.516459500334747 ], [ 22.6310309, 40.516418700334761 ], [ 22.6310146, 40.516345900334741 ], [ 22.6308698, 40.516345900334741 ], [ 22.630732, 40.516338800334751 ], [ 22.6308138, 40.516276700334728 ], [ 22.6309936, 40.516237600334726 ], [ 22.6311547, 40.516209200334728 ], [ 22.631199, 40.516163100334715 ], [ 22.6312971, 40.5160992003347 ], [ 22.6313718, 40.516083200334705 ], [ 22.6314419, 40.516086800334719 ], [ 22.6313905, 40.5160584003347 ], [ 22.6313321, 40.5160584003347 ], [ 22.6312364, 40.516090300334717 ], [ 22.631115, 40.516163100334715 ], [ 22.6310169, 40.516202100334716 ], [ 22.6308955, 40.516219900334733 ], [ 22.6308138, 40.51625010033473 ], [ 22.6306993, 40.516315700334737 ], [ 22.6303257, 40.516507500334768 ], [ 22.630181, 40.516596200334774 ], [ 22.6301156, 40.516614000334776 ], [ 22.6300689, 40.51665480033477 ], [ 22.6301483, 40.516640600334789 ], [ 22.6301086, 40.516676100334791 ], [ 22.6300455, 40.516771900334803 ], [ 22.6300012, 40.516889100334808 ], [ 22.6301086, 40.516740000334799 ] ] ] } },
{ "type": "Feature", "properties": { "osm_id": 1422786107, "name": null, "label": "water:river;natural:water", "leisure": null, "landuse": null, "natural": "water", "water": "river" }, "geometry": { "type": "Polygon", "coordinates": [ [ [ 22.6278772, 40.516613000334779 ], [ 22.6289017, 40.517010000334828 ], [ 22.6292267, 40.51713530033485 ], [ 22.6295179, 40.517199700334849 ], [ 22.62992, 40.517230200334858 ], [ 22.6302169, 40.517220800334854 ], [ 22.6311428, 40.517157600334848 ], [ 22.6314956, 40.517136500334843 ], [ 22.6317944, 40.517077900334833 ], [ 22.6321179, 40.516991300334823 ], [ 22.6322104, 40.516979600334814 ], [ 22.6322843, 40.516986600334832 ], [ 22.6323043, 40.517006500334823 ], [ 22.632292, 40.517034600334831 ], [ 22.6322273, 40.517061500334826 ], [ 22.6320486, 40.517092000334834 ], [ 22.6319423, 40.517120100334843 ], [ 22.6318068, 40.517216100334849 ], [ 22.6316465, 40.517353100334859 ], [ 22.6314447, 40.517565100334885 ], [ 22.6314571, 40.517572100334903 ], [ 22.6316542, 40.517371900334879 ], [ 22.6318145, 40.517229000334844 ], [ 22.6319608, 40.51713530033485 ], [ 22.6320409, 40.517117800334837 ], [ 22.6322643, 40.51707440033482 ], [ 22.6323968, 40.517011200334828 ], [ 22.6326879, 40.516902300334813 ], [ 22.6327742, 40.516885900334813 ], [ 22.6327912, 40.516908100334817 ], [ 22.6327449, 40.516984200334825 ], [ 22.6327511, 40.517048700334833 ], [ 22.6326371, 40.517141200334834 ], [ 22.632634, 40.517175100334846 ], [ 22.6325293, 40.517288700334852 ], [ 22.6324384, 40.517355500334872 ], [ 22.6323013, 40.517387100334872 ], [ 22.6321688, 40.517458600334884 ], [ 22.632309, 40.517397700334861 ], [ 22.6324153, 40.517382400334874 ], [ 22.6325015, 40.517346100334869 ], [ 22.6325293, 40.517360200334878 ], [ 22.6324599, 40.51752180033489 ], [ 22.6323752, 40.517638900334909 ], [ 22.6320363, 40.517915300334934 ], [ 22.6321903, 40.517811100334939 ], [ 22.6323706, 40.517664700334912 ], [ 22.6324908, 40.517508900334889 ], [ 22.6325555, 40.517361300334869 ], [ 22.6325616, 40.517314500334862 ], [ 22.6326063, 40.517267700334855 ], [ 22.6326402, 40.517234900334856 ], [ 22.632671, 40.517184500334857 ], [ 22.6327157, 40.517133000334852 ], [ 22.6327773, 40.517100200334845 ], [ 22.6328343, 40.517088500334829 ], [ 22.6328343, 40.517126000334841 ], [ 22.6328143, 40.517165800334837 ], [ 22.6327696, 40.517211400334858 ], [ 22.6327311, 40.517254800334868 ], [ 22.6327634, 40.517244200334858 ], [ 22.632825, 40.517197400334851 ], [ 22.6328713, 40.517172800334841 ], [ 22.6329113, 40.517092000334834 ], [ 22.6329313, 40.517001800334832 ], [ 22.6329252, 40.516917500334813 ], [ 22.632939, 40.516863600334808 ], [ 22.6329699, 40.516833200334808 ], [ 22.6330962, 40.516795700334796 ], [ 22.6331886, 40.516771100334807 ], [ 22.6331932, 40.516792200334798 ], [ 22.6331532, 40.516827300334803 ], [ 22.633107, 40.516888200334812 ], [ 22.6330761, 40.516973700334816 ], [ 22.6330253, 40.517029900334826 ], [ 22.6329899, 40.517102500334843 ], [ 22.6329329, 40.517193900334853 ], [ 22.6328343, 40.517234900334856 ], [ 22.6327619, 40.517315700334869 ], [ 22.6326941, 40.51742460033487 ], [ 22.6325987, 40.517497200334894 ], [ 22.6326899, 40.517450300334886 ], [ 22.6327489, 40.517366700334868 ], [ 22.6327784, 40.517327900334863 ], [ 22.6328428, 40.51725450033485 ], [ 22.6329474, 40.51721370033485 ], [ 22.6330305, 40.517097500334842 ], [ 22.6330842, 40.517034300334835 ], [ 22.6331217, 40.516926200334808 ], [ 22.6331888, 40.516842600334805 ], [ 22.6333041, 40.516799800334802 ], [ 22.6335777, 40.516748800334796 ], [ 22.6338217, 40.516749800334786 ], [ 22.633884, 40.516515500334748 ], [ 22.6338021, 40.516500600334773 ], [ 22.633705, 40.516478300334761 ], [ 22.6335602, 40.516472500334757 ], [ 22.6330888, 40.516456100334757 ], [ 22.632847, 40.516458400334756 ], [ 22.6326837, 40.516473600334756 ], [ 22.6326544, 40.516464300334768 ], [ 22.6325019, 40.516484200334759 ], [ 22.6325111, 40.516508800334762 ], [ 22.6325928, 40.51651350033476 ], [ 22.6326975, 40.516524000334762 ], [ 22.6326806, 40.516562600334773 ], [ 22.6325034, 40.516610700334773 ], [ 22.6326729, 40.516589600334775 ], [ 22.6327545, 40.516511100334768 ], [ 22.6329825, 40.516511100334768 ], [ 22.633457, 40.516524000334762 ], [ 22.6336665, 40.516554400334755 ], [ 22.6336696, 40.516565000334765 ], [ 22.6336326, 40.516580200334758 ], [ 22.6335217, 40.516590700334774 ], [ 22.6333137, 40.516616500334777 ], [ 22.6330888, 40.516665700334777 ], [ 22.6329348, 40.51669970033479 ], [ 22.6328439, 40.516743000334792 ], [ 22.6327915, 40.516771100334807 ], [ 22.6327622, 40.5168027003348 ], [ 22.6326528, 40.516812100334811 ], [ 22.6326128, 40.51682850033481 ], [ 22.6325881, 40.516869500334813 ], [ 22.6324664, 40.516925700334824 ], [ 22.632374, 40.516945600334807 ], [ 22.6322415, 40.516937400334818 ], [ 22.6321291, 40.516959700334823 ], [ 22.6319642, 40.517011200334828 ], [ 22.6317763, 40.517054500334837 ], [ 22.6315129, 40.517101400334838 ], [ 22.6311324, 40.517126000334841 ], [ 22.6305192, 40.517161100334839 ], [ 22.6302234, 40.517192700334846 ], [ 22.6299184, 40.517203200334833 ], [ 22.6295425, 40.517172800334841 ], [ 22.6292699, 40.517117800334837 ], [ 22.6291143, 40.517060400334834 ], [ 22.6287168, 40.51689290033481 ], [ 22.6280097, 40.51660250033477 ], [ 22.6278757, 40.516566200334772 ], [ 22.6278618, 40.516587200334754 ], [ 22.6278772, 40.516613000334779 ] ] ] } },
{ "type": "Feature", "properties": { "osm_id": 1422786108, "name": null, "label": "water:river;natural:water", "leisure": null, "landuse": null, "natural": "water", "water": "river" }, "geometry": { "type": "Polygon", "coordinates": [ [ [ 22.6324693, 40.515189700334588 ], [ 22.6325628, 40.515231400334592 ], [ 22.6326217, 40.515299400334612 ], [ 22.6327173, 40.515365800334621 ], [ 22.6327376, 40.515458600334632 ], [ 22.6327945, 40.515542000334634 ], [ 22.6328738, 40.515636300334656 ], [ 22.6329835, 40.515721300334661 ], [ 22.6331502, 40.515792300334681 ], [ 22.6333169, 40.515857300334666 ], [ 22.633697, 40.516013300334691 ], [ 22.6339023, 40.5160736003347 ], [ 22.6340985, 40.516155000334713 ], [ 22.6341195, 40.516119600334711 ], [ 22.6339723, 40.516067700334709 ], [ 22.6337612, 40.516012700334706 ], [ 22.6336118, 40.515957600334694 ], [ 22.6334223, 40.515879200334687 ], [ 22.6332375, 40.515801900334687 ], [ 22.6331327, 40.515753800334672 ], [ 22.6330033, 40.515687100334667 ], [ 22.6328893, 40.515618000334648 ], [ 22.6328153, 40.515532500334629 ], [ 22.6327553, 40.515448200334632 ], [ 22.6327352, 40.515369700334617 ], [ 22.6327091, 40.515338100334624 ], [ 22.6326289, 40.51529010033461 ], [ 22.6325781, 40.515224500334597 ], [ 22.6324774, 40.515178800334603 ], [ 22.6322416, 40.515149500334601 ], [ 22.6324693, 40.515189700334588 ] ] ] } },
{ "type": "Feature", "properties": { "osm_id": 1422786109, "name": null, "label": "water:river;natural:water", "leisure": null, "landuse": null, "natural": "water", "water": "river" }, "geometry": { "type": "Polygon", "coordinates": [ [ [ 22.6319973, 40.516202400334734 ], [ 22.6322592, 40.516207100334732 ], [ 22.6323732, 40.516235200334719 ], [ 22.6325165, 40.516224600334731 ], [ 22.6325719, 40.516242200334737 ], [ 22.633031, 40.516249200334734 ], [ 22.6334146, 40.516303100334738 ], [ 22.6338259, 40.51635700033475 ], [ 22.6339168, 40.516393300334748 ], [ 22.6339368, 40.516426700334748 ], [ 22.6340985, 40.516155000334713 ], [ 22.6338213, 40.516174300334725 ], [ 22.6334732, 40.516147400334724 ], [ 22.6332852, 40.516118100334715 ], [ 22.6330819, 40.516041900334699 ], [ 22.6329494, 40.515962300334692 ], [ 22.63288, 40.515909600334687 ], [ 22.6328246, 40.515862800334681 ], [ 22.6328184, 40.515842900334697 ], [ 22.6327984, 40.515846400334674 ], [ 22.6327599, 40.515842900334697 ], [ 22.632726, 40.51581590033468 ], [ 22.6327229, 40.515785500334694 ], [ 22.6327337, 40.515728100334655 ], [ 22.6327275, 40.515688300334659 ], [ 22.6326998, 40.515647300334642 ], [ 22.6326582, 40.515625000334644 ], [ 22.6327013, 40.515675400334665 ], [ 22.6327091, 40.515702300334667 ], [ 22.6326906, 40.51570930033467 ], [ 22.6326736, 40.515697600334676 ], [ 22.6325488, 40.515611000334644 ], [ 22.6324734, 40.515539500334647 ], [ 22.6323424, 40.515450500334644 ], [ 22.6324811, 40.515581700334636 ], [ 22.6326829, 40.515744500334662 ], [ 22.6326613, 40.515787800334664 ], [ 22.6326659, 40.515835800334685 ], [ 22.6326906, 40.515871000334684 ], [ 22.6327753, 40.515893200334688 ], [ 22.6328523, 40.515948300334685 ], [ 22.6330634, 40.516097000334717 ], [ 22.6331358, 40.516138000334713 ], [ 22.633108, 40.516145000334724 ], [ 22.6329987, 40.516132100334701 ], [ 22.6328492, 40.516097000334717 ], [ 22.6327291, 40.516038400334708 ], [ 22.6326798, 40.515986900334688 ], [ 22.6326228, 40.5159295003347 ], [ 22.6326243, 40.516002100334688 ], [ 22.6325473, 40.516024400334693 ], [ 22.6325889, 40.516045500334691 ], [ 22.6325304, 40.516060700334705 ], [ 22.6324502, 40.516050100334702 ], [ 22.6322546, 40.516045500334691 ], [ 22.632404, 40.516077100334705 ], [ 22.6324918, 40.516091100334705 ], [ 22.6326536, 40.51609580033471 ], [ 22.6327183, 40.516129800334724 ], [ 22.6328939, 40.516163700334715 ], [ 22.6328908, 40.516189500334725 ], [ 22.6327676, 40.51620120033472 ], [ 22.6325766, 40.516174300334725 ], [ 22.632461, 40.516181300334708 ], [ 22.632384, 40.516196500334722 ], [ 22.63227, 40.516179000334716 ], [ 22.6320759, 40.516183700334722 ], [ 22.6317447, 40.516207100334732 ], [ 22.6319973, 40.516202400334734 ] ] ] } },
{ "type": "Feature", "properties": { "osm_id": 1422786104, "name": null, "label": "water:river;natural:water", "leisure": null, "landuse": null, "natural": "water", "water": "river" }, "geometry": { "type": "Polygon", "coordinates": [ [ [ 22.6354242, 40.515957300334691 ], [ 22.6348631, 40.515836700334674 ], [ 22.6341314, 40.515543100334639 ], [ 22.6336964, 40.515329900334606 ], [ 22.6332979, 40.515113500334593 ], [ 22.6330377, 40.514943500334567 ], [ 22.6327369, 40.51482610033456 ], [ 22.6324442, 40.51484460033457 ], [ 22.63231, 40.514807500334555 ], [ 22.6320986, 40.514730300334534 ], [ 22.6319116, 40.514591200334522 ], [ 22.6318222, 40.514530900334513 ], [ 22.6318364, 40.514501600334512 ], [ 22.6318364, 40.514449000334501 ], [ 22.6318323, 40.514424300334504 ], [ 22.6319918, 40.514384900334512 ], [ 22.632305, 40.514298800334487 ], [ 22.6325758, 40.514154900334468 ], [ 22.63282, 40.514033800334452 ], [ 22.6332323, 40.513939600334453 ], [ 22.6328164, 40.514021700334453 ], [ 22.6325192, 40.514141400334474 ], [ 22.6322484, 40.514292100334487 ], [ 22.6318396, 40.514387600334494 ], [ 22.6314556, 40.514489900334503 ], [ 22.6313424, 40.514473700334506 ], [ 22.6312804, 40.514399700334486 ], [ 22.6312291, 40.514343200334494 ], [ 22.6311052, 40.514348600334486 ], [ 22.6309831, 40.514433400334497 ], [ 22.6309265, 40.514534300334518 ], [ 22.6309371, 40.514635200334517 ], [ 22.6309867, 40.51468090033454 ], [ 22.6310008, 40.514723900334538 ], [ 22.6309478, 40.514803300334549 ], [ 22.6307478, 40.515067000334589 ], [ 22.6305708, 40.515259400334607 ], [ 22.6302965, 40.515381800334616 ], [ 22.6302193, 40.515394300334634 ], [ 22.6299143, 40.515495000334639 ], [ 22.6296216, 40.515588700334646 ], [ 22.6293166, 40.515764300334673 ], [ 22.629144, 40.515881500334679 ], [ 22.629027, 40.516003300334702 ], [ 22.6289345, 40.516139100334712 ], [ 22.6289376, 40.516221100334732 ], [ 22.62899, 40.516251500334739 ], [ 22.6290824, 40.516223400334724 ], [ 22.6292888, 40.516015000334697 ], [ 22.6294583, 40.515876800334681 ], [ 22.6297264, 40.51572690033467 ], [ 22.6299759, 40.515621500334653 ], [ 22.6301146, 40.515598000334641 ], [ 22.6302409, 40.515670600334644 ], [ 22.6305089, 40.515640200334637 ], [ 22.6305151, 40.515614400334655 ], [ 22.6303518, 40.515600400334648 ], [ 22.6302501, 40.515586300334654 ], [ 22.6302317, 40.515546500334636 ], [ 22.6302686, 40.515487900334634 ], [ 22.6304319, 40.515403600334629 ], [ 22.630586, 40.515352100334631 ], [ 22.6306784, 40.515321600334623 ], [ 22.6307215, 40.515298200334612 ], [ 22.6306969, 40.515253700334604 ], [ 22.6306538, 40.515230300334601 ], [ 22.6307277, 40.515131900334588 ], [ 22.6308263, 40.515038200334587 ], [ 22.6309742, 40.514839100334569 ], [ 22.6310574, 40.514738400334537 ], [ 22.631082, 40.51467520033453 ], [ 22.631159, 40.514618900334547 ], [ 22.6314764, 40.51452760033451 ], [ 22.6318141, 40.514431300334508 ], [ 22.6318158, 40.51447430033452 ], [ 22.6317946, 40.514502600334509 ], [ 22.6317787, 40.51452540033452 ], [ 22.6317769, 40.514548300334525 ], [ 22.6318229, 40.514575200334512 ], [ 22.6318689, 40.514599400334532 ], [ 22.6319362, 40.51463570033453 ], [ 22.6319893, 40.514677500334535 ], [ 22.6320547, 40.514752800334534 ], [ 22.6321344, 40.514787800334553 ], [ 22.6322688, 40.514845600334553 ], [ 22.6323326, 40.514860400334555 ], [ 22.6323467, 40.514872500334562 ], [ 22.6322193, 40.514877900334568 ], [ 22.6320264, 40.514844300334552 ], [ 22.6318583, 40.514768900334545 ], [ 22.6317043, 40.514708400334534 ], [ 22.6315999, 40.51467610033454 ], [ 22.6313929, 40.514692300334531 ], [ 22.6312389, 40.514782400334546 ], [ 22.6314106, 40.514704400334537 ], [ 22.6315964, 40.51469490033454 ], [ 22.6316867, 40.514719200334532 ], [ 22.631876, 40.514810600334549 ], [ 22.6319521, 40.514861800334558 ], [ 22.6321184, 40.514912900334558 ], [ 22.6322954, 40.514923600334569 ], [ 22.6324405, 40.514916900334569 ], [ 22.6326263, 40.514896700334567 ], [ 22.6327343, 40.514904800334556 ], [ 22.6329926, 40.515043400334577 ], [ 22.6331731, 40.515153700334587 ], [ 22.6334102, 40.515319200334616 ], [ 22.63375, 40.515504800334639 ], [ 22.6341234, 40.515682400334669 ], [ 22.6344525, 40.515803500334684 ], [ 22.6347003, 40.515932600334686 ], [ 22.6349728, 40.516083300334707 ], [ 22.6350342, 40.516175200334722 ], [ 22.635537396534854, 40.516032048308539 ], [ 22.635537396534854, 40.51597148243124 ], [ 22.6354242, 40.515957300334691 ] ] ] } },
{ "type": "Feature", "properties": { "osm_id": 1424540781, "name": null, "label": "natural:wetland", "leisure": null, "landuse": null, "natural": "wetland", "water": null }, "geometry": { "type": "Polygon", "coordinates": [ [ [ 22.6324941, 40.513002100334319 ], [ 22.6324257, 40.513018100334328 ], [ 22.6323784, 40.513048100334338 ], [ 22.6323442, 40.513130000334336 ], [ 22.6323811, 40.513188000334353 ], [ 22.6325204, 40.513239900334355 ], [ 22.6322365, 40.513220000334357 ], [ 22.6318947, 40.513237900334353 ], [ 22.6316423, 40.513259900334354 ], [ 22.6312137, 40.513343900334377 ], [ 22.6309836, 40.513333300334367 ], [ 22.6294249, 40.51428240033448 ], [ 22.6290511, 40.514748900334546 ], [ 22.629039, 40.514934100334564 ], [ 22.6298089, 40.514599500334519 ], [ 22.6303118, 40.514208700334471 ], [ 22.6314964, 40.513846200334434 ], [ 22.6320849, 40.513744200334401 ], [ 22.6327443, 40.513588400334399 ], [ 22.6332509, 40.51357430033439 ], [ 22.6340406, 40.513401500334375 ], [ 22.6348006, 40.513393000334368 ], [ 22.6354711, 40.513548800334398 ], [ 22.635537396534854, 40.513581677820397 ], [ 22.635537396534854, 40.513001889448731 ], [ 22.632494393379144, 40.513001889448731 ], [ 22.6324941, 40.513002100334319 ] ] ] } },
{ "type": "Feature", "properties": { "osm_id": 1422786103, "name": null, "label": "water:river;natural:water", "leisure": null, "landuse": null, "natural": "water", "water": "river" }, "geometry": { "type": "MultiPolygon", "coordinates": [ [ [ [ 22.6355096, 40.514696300334528 ], [ 22.6355136, 40.51463750033453 ], [ 22.6354323, 40.514640600334523 ], [ 22.6354323, 40.514677700334545 ], [ 22.6355096, 40.514823000334559 ], [ 22.635537396534854, 40.514846400242092 ], [ 22.635537396534854, 40.514766134010294 ], [ 22.6355096, 40.514696300334528 ] ] ], [ [ [ 22.6355299, 40.515144400334592 ], [ 22.6354811, 40.515153700334587 ], [ 22.635537396534854, 40.515180464264915 ], [ 22.635537396534854, 40.515104418816314 ], [ 22.6355299, 40.515144400334592 ] ] ], [ [ [ 22.6355014, 40.514965200334558 ], [ 22.6354892, 40.515030100334585 ], [ 22.635537396534854, 40.515100321106118 ], [ 22.635537396534854, 40.515017463764835 ], [ 22.6355014, 40.514965200334558 ] ] ] ] } },
{ "type": "Feature", "properties": { "osm_id": 1422786106, "name": null, "label": "water:river;natural:water", "leisure": null, "landuse": null, "natural": "water", "water": "river" }, "geometry": { "type": "Polygon", "coordinates": [ [ [ 22.6328535, 40.517741900334926 ], [ 22.6329501, 40.517664400334915 ], [ 22.6330198, 40.51754000033489 ], [ 22.6330708, 40.517497200334894 ], [ 22.6332317, 40.517427800334879 ], [ 22.6333229, 40.51739320033488 ], [ 22.6334597, 40.517403400334864 ], [ 22.6337091, 40.51736870033487 ], [ 22.6338003, 40.517366700334868 ], [ 22.6336179, 40.517464500334881 ], [ 22.6335723, 40.51755020033491 ], [ 22.6335401, 40.517633800334906 ], [ 22.6335348, 40.517719400334904 ], [ 22.6335053, 40.517768400334916 ], [ 22.6335348, 40.517854000334928 ], [ 22.6335294, 40.517770400334918 ], [ 22.6335616, 40.517717400334909 ], [ 22.6335991, 40.517648100334902 ], [ 22.6336179, 40.517697000334913 ], [ 22.6336367, 40.517633800334906 ], [ 22.6336769, 40.517542000334899 ], [ 22.6337386, 40.517487000334889 ], [ 22.6338888, 40.517425800334877 ], [ 22.6340095, 40.517427800334879 ], [ 22.6343207, 40.517340200334864 ], [ 22.6346935, 40.517299400334871 ], [ 22.6347659, 40.51731160033485 ], [ 22.6347632, 40.517332000334861 ], [ 22.6346774, 40.517403400334864 ], [ 22.6345218, 40.517476800334876 ], [ 22.6342938, 40.517548100334892 ], [ 22.6341705, 40.5176236003349 ], [ 22.63409, 40.517625600334902 ], [ 22.6340524, 40.517690900334912 ], [ 22.6338915, 40.517878500334938 ], [ 22.6340632, 40.517707200334904 ], [ 22.6341007, 40.51765010033489 ], [ 22.6341651, 40.517641900334908 ], [ 22.6342617, 40.517588900334893 ], [ 22.634487, 40.517525700334886 ], [ 22.6346989, 40.517434000334887 ], [ 22.6349134, 40.517346300334864 ], [ 22.6350364, 40.517331600334863 ], [ 22.6349116, 40.517271300334855 ], [ 22.6349062, 40.517059300334836 ], [ 22.6348812, 40.517101600334833 ], [ 22.634731, 40.517154600334841 ], [ 22.6344065, 40.517181100334852 ], [ 22.6342456, 40.51721370033485 ], [ 22.6336555, 40.517321800334862 ], [ 22.6334275, 40.517346300334864 ], [ 22.6332424, 40.517336100334873 ], [ 22.6330976, 40.517350400334884 ], [ 22.6330466, 40.517395200334875 ], [ 22.6329796, 40.517503300334894 ], [ 22.6329366, 40.517597100334896 ], [ 22.6328884, 40.517684800334912 ], [ 22.6327784, 40.517768400334916 ], [ 22.6328535, 40.517741900334926 ] ] ] } },
{ "type": "Feature", "properties": { "osm_id": 1422786105, "name": null, "label": "water:river;natural:water", "leisure": null, "landuse": null, "natural": "water", "water": "river" }, "geometry": { "type": "Polygon", "coordinates": [ [ [ 22.6351601, 40.517391300334872 ], [ 22.6350583, 40.517456400334886 ], [ 22.6350422, 40.517499200334889 ], [ 22.6349027, 40.517605200334906 ], [ 22.6347096, 40.517727600334908 ], [ 22.6343287, 40.517929400334943 ], [ 22.634157, 40.518074200334958 ], [ 22.6341436, 40.51814760033497 ], [ 22.6341463, 40.518237300334988 ], [ 22.6341007, 40.518288300334987 ], [ 22.6341061, 40.518320900334992 ], [ 22.6342241, 40.518310700334979 ], [ 22.6342643, 40.518329100334988 ], [ 22.6342456, 40.518351500334987 ], [ 22.6342536, 40.518412700334991 ], [ 22.634326, 40.518422900335004 ], [ 22.6343663, 40.518482000335005 ], [ 22.6343475, 40.518524800335022 ], [ 22.634326, 40.518557500335028 ], [ 22.6343743, 40.518575800335014 ], [ 22.6344387, 40.518610500335029 ], [ 22.6344387, 40.518665500335025 ], [ 22.6344199, 40.518714500335051 ], [ 22.6344548, 40.51876340033504 ], [ 22.6345004, 40.51876340033504 ], [ 22.6344601, 40.518718500335034 ], [ 22.6344977, 40.518647200335032 ], [ 22.634546, 40.518600300335038 ], [ 22.6346586, 40.51855130033502 ], [ 22.6347552, 40.518608400335019 ], [ 22.6349268, 40.518626800335028 ], [ 22.6350717, 40.518624700335025 ], [ 22.6352058, 40.518653300335032 ], [ 22.6353935, 40.518745000335052 ], [ 22.635537396534854, 40.518805050967735 ], [ 22.635537396534854, 40.518680167352414 ], [ 22.6354445, 40.518647200335032 ], [ 22.6352728, 40.518575800335014 ], [ 22.6351119, 40.51854930033501 ], [ 22.6349, 40.518528900335014 ], [ 22.6347927, 40.518467700335002 ], [ 22.6347498, 40.518345400334994 ], [ 22.6347605, 40.518198600334983 ], [ 22.6348491, 40.518096600334964 ], [ 22.6350502, 40.517994700334953 ], [ 22.6351629, 40.517917200334942 ], [ 22.635537396534854, 40.517644964933702 ], [ 22.635537396534854, 40.517573464397259 ], [ 22.6351601, 40.517391300334872 ] ] ] } },
{ "type": "Feature", "properties": { "osm_id": 16315770, "name": null, "label": "water:river;natural:water", "leisure": null, "landuse": null, "natural": "water", "water": "river" }, "geometry": { "type": "Polygon", "coordinates": [ [ [ 22.6350342, 40.516175200334722 ], [ 22.6343653, 40.516156500334716 ], [ 22.6341195, 40.516119600334711 ], [ 22.6340985, 40.516155000334713 ], [ 22.6339368, 40.516426700334748 ], [ 22.633884, 40.516515500334748 ], [ 22.6338217, 40.516749800334786 ], [ 22.6349062, 40.517059300334836 ], [ 22.6349116, 40.517271300334855 ], [ 22.6350364, 40.517331600334863 ], [ 22.6351601, 40.517391300334872 ], [ 22.635537396534854, 40.517573464397259 ], [ 22.635537396534854, 40.516032048308539 ], [ 22.6350342, 40.516175200334722 ] ] ] } },
{ "type": "Feature", "properties": { "osm_id": 1422613796, "name": null, "label": "natural:water", "leisure": null, "landuse": null, "natural": "water", "water": null }, "geometry": { "type": "Polygon", "coordinates": [ [ [ 22.6312846, 40.513060000334328 ], [ 22.6312332, 40.513107900334333 ], [ 22.631534752791719, 40.513001889448731 ], [ 22.631436009393713, 40.513001889448731 ], [ 22.6312846, 40.513060000334328 ] ] ] } },
{ "type": "Feature", "properties": { "osm_id": 16315768, "name": null, "label": "water:river;natural:water", "leisure": null, "landuse": null, "natural": "water", "water": "river" }, "geometry": { "type": "Polygon", "coordinates": [ [ [ 22.6353547, 40.523607200335654 ], [ 22.6317623, 40.52630150033599 ], [ 22.630772, 40.527085700336087 ], [ 22.6276217, 40.52980750033641 ], [ 22.6271468, 40.53021780033648 ], [ 22.6259166, 40.531514300336632 ], [ 22.6254411, 40.531879800336689 ], [ 22.6245189, 40.532693300336774 ], [ 22.6243671, 40.532906700336802 ], [ 22.6225378, 40.53426160033699 ], [ 22.6214453, 40.535181000337097 ], [ 22.62086235018301, 40.535631954133294 ], [ 22.622012805339697, 40.535631954133294 ], [ 22.6223565, 40.535379900337119 ], [ 22.62355, 40.534376200337 ], [ 22.6240062, 40.533900500336948 ], [ 22.6247877, 40.533333900336871 ], [ 22.6249233, 40.533225000336863 ], [ 22.6259901, 40.532230100336719 ], [ 22.6262709, 40.532034700336695 ], [ 22.6274112, 40.531109800336601 ], [ 22.6281662, 40.5304603003365 ], [ 22.6290977, 40.529696000336415 ], [ 22.6304771, 40.528630400336269 ], [ 22.6311648, 40.528005700336195 ], [ 22.6329462, 40.526530200336012 ], [ 22.635465, 40.524443500335749 ], [ 22.635537396534854, 40.52440442221112 ], [ 22.635537396534854, 40.523434012922138 ], [ 22.6353547, 40.523607200335654 ] ] ] } },
{ "type": "Feature", "properties": { "osm_id": 30614255, "name": null, "label": "landuse:farmland", "leisure": null, "landuse": "farmland", "natural": null, "water": null }, "geometry": { "type": "Polygon", "coordinates": [ [ [ 22.6334629, 40.526532400336023 ], [ 22.6315736, 40.527959600336189 ], [ 22.6306657, 40.528705000336288 ], [ 22.6294177, 40.529593300336401 ], [ 22.6283268, 40.530547900336508 ], [ 22.6275215, 40.531228500336603 ], [ 22.6263313, 40.532129900336713 ], [ 22.6258822, 40.53263360033678 ], [ 22.6249794, 40.533450900336888 ], [ 22.6240432, 40.534198000336971 ], [ 22.6237134, 40.534462000337008 ], [ 22.622391, 40.535531200337154 ], [ 22.622266957014428, 40.535631954133294 ], [ 22.635537396534854, 40.535631954133294 ], [ 22.635537396534854, 40.524982047576373 ], [ 22.6334629, 40.526532400336023 ] ] ] } }
]
}
