{
"type": "FeatureCollection",
"name": "patch_88130_point",
"crs": { "type": "name", "properties": { "name": "urn:ogc:def:crs:OGC:1.3:CRS84" } },
"features": [
{ "type": "Feature", "properties": { "@type": "node", "@id": 1344970271, "access": null, "addr:city": "Μαραθιά", "addr:country": null, "addr:postcode": null, "amenity": "fuel", "barrier": null, "boat": null, "brand": "ΑΠ", "brand:wikidata": null, "brand:wikipedia": null, "bridge": null, "building": null, "cables": null, "car_wash": null, "crossing": null, "crossing:island": null, "crossing:markings": null, "cuisine": null, "date": null, "denomination": null, "direction": null, "distance": null, "dual_carriageway": null, "dual_carriageway:description": null, "footway": null, "ford": null, "fuel:diesel": null, "fuel:lpg": null, "fuel:octane_100": null, "fuel:octane_95": null, "fuel:octane_98": null, "highway": null, "int_name": null, "landuse": null, "lanes": null, "layer": null, "lit": null, "maxspeed": null, "name": "ΑΠ", "name:el": null, "name:en": null, "name:fr": null, "name:ru": null, "noexit": null, "oneway": null, "operator": "ΠΑΓΚΑΛΙΔΗΣ", "outdoor_seating": null, "phone": null, "place": null, "placement": null, "plant:method": null, "plant:output:electricity": null, "plant:source": null, "power": null, "ref": null, "religion": null, "self_service": null, "service": null, "shop": null, "smoothness": null, "source": null, "source:ref": null, "surface": null, "tracktype": null, "traffic_sign": null, "traffic_signals": null, "traffic_signals:direction": null, "tunnel": null, "turn:lanes": null, "voltage": null, "waterway": null, "website": null, "width": null, "wikidata": null, "label": "amenity:fuel" }, "geometry": { "type": "Point", "coordinates": [ 21.3080842, 37.7985998 ] } },
{ "type": "Feature", "properties": { "@type": "node", "@id": 9779182443, "access": null, "addr:city": null, "addr:country": null, "addr:postcode": null, "amenity": "cafe", "barrier": null, "boat": null, "brand": null, "brand:wikidata": null, "brand:wikipedia": null, "bridge": null, "building": null, "cables": null, "car_wash": null, "crossing": null, "crossing:island": null, "crossing:markings": null, "cuisine": null, "date": null, "denomination": null, "direction": null, "distance": null, "dual_carriageway": null, "dual_carriageway:description": null, "footway": null, "ford": null, "fuel:diesel": null, "fuel:lpg": null, "fuel:octane_100": null, "fuel:octane_95": null, "fuel:octane_98": null, "highway": null, "int_name": null, "landuse": null, "lanes": null, "layer": null, "lit": null, "maxspeed": null, "name": null, "name:el": null, "name:en": null, "name:fr": null, "name:ru": null, "noexit": null, "oneway": null, "operator": null, "outdoor_seating": "yes", "phone": null, "place": null, "placement": null, "plant:method": null, "plant:output:electricity": null, "plant:source": null, "power": null, "ref": null, "religion": null, "self_service": null, "service": null, "shop": null, "smoothness": null, "source": null, "source:ref": null, "surface": null, "tracktype": null, "traffic_sign": null, "traffic_signals": null, "traffic_signals:direction": null, "tunnel": null, "turn:lanes": null, "voltage": null, "waterway": null, "website": null, "width": null, "wikidata": null, "label": "amenity:cafe" }, "geometry": { "type": "Point", "coordinates": [ 21.3095917, 37.796793 ] } },
{ "type": "Feature", "properties": { "@type": "node", "@id": 9779182444, "access": null, "addr:city": null, "addr:country": null, "addr:postcode": null, "amenity": "fast_food", "barrier": null, "boat": null, "brand": null, "brand:wikidata": null, "brand:wikipedia": null, "bridge": null, "building": null, "cables": null, "car_wash": null, "crossing": null, "crossing:island": null, "crossing:markings": null, "cuisine": "kebab;barbecue", "date": null, "denomination": null, "direction": null, "distance": null, "dual_carriageway": null, "dual_carriageway:description": null, "footway": null, "ford": null, "fuel:diesel": null, "fuel:lpg": null, "fuel:octane_100": null, "fuel:octane_95": null, "fuel:octane_98": null, "highway": null, "int_name": null, "landuse": null, "lanes": null, "layer": null, "lit": null, "maxspeed": null, "name": null, "name:el": null, "name:en": null, "name:fr": null, "name:ru": null, "noexit": null, "oneway": null, "operator": null, "outdoor_seating": "yes", "phone": null, "place": null, "placement": null, "plant:method": null, "plant:output:electricity": null, "plant:source": null, "power": null, "ref": null, "religion": null, "self_service": null, "service": null, "shop": null, "smoothness": null, "source": null, "source:ref": null, "surface": null, "tracktype": null, "traffic_sign": null, "traffic_signals": null, "traffic_signals:direction": null, "tunnel": null, "turn:lanes": null, "voltage": null, "waterway": null, "website": null, "width": null, "wikidata": null, "label": "amenity:fast_food" }, "geometry": { "type": "Point", "coordinates": [ 21.3090552, 37.7967452 ] } },
{ "type": "Feature", "properties": { "@type": "node", "@id": 9779182480, "access": null, "addr:city": null, "addr:country": null, "addr:postcode": null, "amenity": "cafe", "barrier": null, "boat": null, "brand": null, "brand:wikidata": null, "brand:wikipedia": null, "bridge": null, "building": null, "cables": null, "car_wash": null, "crossing": null, "crossing:island": null, "crossing:markings": null, "cuisine": null, "date": null, "denomination": null, "direction": null, "distance": null, "dual_carriageway": null, "dual_carriageway:description": null, "footway": null, "ford": null, "fuel:diesel": null, "fuel:lpg": null, "fuel:octane_100": null, "fuel:octane_95": null, "fuel:octane_98": null, "highway": null, "int_name": null, "landuse": null, "lanes": null, "layer": null, "lit": null, "maxspeed": null, "name": null, "name:el": null, "name:en": null, "name:fr": null, "name:ru": null, "noexit": null, "oneway": null, "operator": null, "outdoor_seating": "yes", "phone": null, "place": null, "placement": null, "plant:method": null, "plant:output:electricity": null, "plant:source": null, "power": null, "ref": null, "religion": null, "self_service": null, "service": null, "shop": null, "smoothness": null, "source": null, "source:ref": null, "surface": null, "tracktype": null, "traffic_sign": null, "traffic_signals": null, "traffic_signals:direction": null, "tunnel": null, "turn:lanes": null, "voltage": null, "waterway": null, "website": null, "width": null, "wikidata": null, "label": "amenity:cafe" }, "geometry": { "type": "Point", "coordinates": [ 21.3091552, 37.7966222 ] } }
]
}
