{
"type": "FeatureCollection",
"name": "patch_96771_point",
"crs": { "type": "name", "properties": { "name": "urn:ogc:def:crs:OGC:1.3:CRS84" } },
"features": [
{ "type": "Feature", "properties": { "osm_id": 951583724, "name": null, "label": "tourism:viewpoint", "tourism": "viewpoint", "amenity": null, "leisure": null, "natural": null, "shop": null, "historic": null }, "geometry": { "type": "Point", "coordinates": [ 23.4034211, 40.133721400285275 ] } },
{ "type": "Feature", "properties": { "osm_id": 2475520382, "name": "Thokos", "label": "amenity:bar", "tourism": null, "amenity": "bar", "leisure": null, "natural": null, "shop": null, "historic": null }, "geometry": { "type": "Point", "coordinates": [ 23.4027815, 40.133415400285237 ] } },
{ "type": "Feature", "properties": { "osm_id": 951583740, "name": null, "label": "leisure:marina", "tourism": null, "amenity": null, "leisure": "marina", "natural": null, "shop": null, "historic": null }, "geometry": { "type": "Point", "coordinates": [ 23.4023063, 40.133893800285307 ] } },
{ "type": "Feature", "properties": { "osm_id": 2511256229, "name": "Villa Madeleine", "label": "tourism:hotel", "tourism": "hotel", "amenity": null, "leisure": null, "natural": null, "shop": null, "historic": null }, "geometry": { "type": "Point", "coordinates": [ 23.4034042, 40.132338700285082 ] } },
{ "type": "Feature", "properties": { "osm_id": 11233054192, "name": "Small beach", "label": "natural:beach", "tourism": null, "amenity": null, "leisure": null, "natural": "beach", "shop": null, "historic": null }, "geometry": { "type": "Point", "coordinates": [ 23.406681, 40.131727700285012 ] } },
{ "type": "Feature", "properties": { "osm_id": 4416274084, "name": null, "label": "shop:greengrocer", "tourism": null, "amenity": null, "leisure": null, "natural": null, "shop": "greengrocer", "historic": null }, "geometry": { "type": "Point", "coordinates": [ 23.4080012, 40.123128500283869 ] } },
{ "type": "Feature", "properties": { "osm_id": 10098440322, "name": "VillaGiannisAnna", "label": "tourism:apartment", "tourism": "apartment", "amenity": null, "leisure": null, "natural": null, "shop": null, "historic": null }, "geometry": { "type": "Point", "coordinates": [ 23.3859229, 40.12391640028396 ] } },
{ "type": "Feature", "properties": { "osm_id": 5059034521, "name": null, "label": "amenity:restaurant", "tourism": null, "amenity": "restaurant", "leisure": null, "natural": null, "shop": null, "historic": null }, "geometry": { "type": "Point", "coordinates": [ 23.3955744, 40.133345600285217 ] } },
{ "type": "Feature", "properties": { "osm_id": 9964119988, "name": null, "label": "shop:supermarket", "tourism": null, "amenity": null, "leisure": null, "natural": null, "shop": "supermarket", "historic": null }, "geometry": { "type": "Point", "coordinates": [ 23.3961221, 40.133451000285227 ] } },
{ "type": "Feature", "properties": { "osm_id": 9958694296, "name": null, "label": "shop:pastry", "tourism": null, "amenity": null, "leisure": null, "natural": null, "shop": "pastry", "historic": null }, "geometry": { "type": "Point", "coordinates": [ 23.3969915, 40.133535200285237 ] } },
{ "type": "Feature", "properties": { "osm_id": 2834815965, "name": "Cozzy", "label": "amenity:cafe", "tourism": null, "amenity": "cafe", "leisure": null, "natural": null, "shop": null, "historic": null }, "geometry": { "type": "Point", "coordinates": [ 23.4006566, 40.133574700285266 ] } },
{ "type": "Feature", "properties": { "osm_id": 951583739, "name": "Hideout of apostel Paul", "label": "amenity:place_of_worship;tourism:attraction", "tourism": "attraction", "amenity": "place_of_worship", "leisure": null, "natural": null, "shop": null, "historic": null }, "geometry": { "type": "Point", "coordinates": [ 23.4006621, 40.13322480028522 ] } },
{ "type": "Feature", "properties": { "osm_id": 9935390525, "name": null, "label": "amenity:drinking_water", "tourism": null, "amenity": "drinking_water", "leisure": null, "natural": null, "shop": null, "historic": null }, "geometry": { "type": "Point", "coordinates": [ 23.4006087, 40.133195600285205 ] } },
{ "type": "Feature", "properties": { "osm_id": 2834818126, "name": null, "label": "amenity:telephone", "tourism": null, "amenity": "telephone", "leisure": null, "natural": null, "shop": null, "historic": null }, "geometry": { "type": "Point", "coordinates": [ 23.4009951, 40.133293600285221 ] } },
{ "type": "Feature", "properties": { "osm_id": 2474309036, "name": "Africa beach bar", "label": "amenity:cafe", "tourism": null, "amenity": "cafe", "leisure": null, "natural": null, "shop": null, "historic": null }, "geometry": { "type": "Point", "coordinates": [ 23.400806, 40.134155600285332 ] } },
{ "type": "Feature", "properties": { "osm_id": 2474309043, "name": "Vicky's", "label": "amenity:restaurant", "tourism": null, "amenity": "restaurant", "leisure": null, "natural": null, "shop": null, "historic": null }, "geometry": { "type": "Point", "coordinates": [ 23.4009279, 40.1338014002853 ] } },
{ "type": "Feature", "properties": { "osm_id": 4393900892, "name": "Mavos", "label": "amenity:restaurant", "tourism": null, "amenity": "restaurant", "leisure": null, "natural": null, "shop": null, "historic": null }, "geometry": { "type": "Point", "coordinates": [ 23.4008823, 40.133950400285308 ] } },
{ "type": "Feature", "properties": { "osm_id": 2474309119, "name": null, "label": "shop:convenience", "tourism": null, "amenity": null, "leisure": null, "natural": null, "shop": "convenience", "historic": null }, "geometry": { "type": "Point", "coordinates": [ 23.4006872, 40.133945500285307 ] } },
{ "type": "Feature", "properties": { "osm_id": 11246119984, "name": "Africa cafe", "label": "amenity:ice_cream", "tourism": null, "amenity": "ice_cream", "leisure": null, "natural": null, "shop": null, "historic": null }, "geometry": { "type": "Point", "coordinates": [ 23.4006264, 40.134014800285321 ] } },
{ "type": "Feature", "properties": { "osm_id": 11246119983, "name": "Fratello di Thokos Pizza", "label": "amenity:fast_food", "tourism": null, "amenity": "fast_food", "leisure": null, "natural": null, "shop": null, "historic": null }, "geometry": { "type": "Point", "coordinates": [ 23.4004831, 40.133704900285281 ] } },
{ "type": "Feature", "properties": { "osm_id": 2834815973, "name": "ψαροταβερνα ΤΑ ΚΥΜΑΤΑ", "label": "amenity:restaurant", "tourism": null, "amenity": "restaurant", "leisure": null, "natural": null, "shop": null, "historic": null }, "geometry": { "type": "Point", "coordinates": [ 23.4005408, 40.134112000285327 ] } },
{ "type": "Feature", "properties": { "osm_id": 11246119985, "name": "Nostimi Talassa", "label": "amenity:restaurant", "tourism": null, "amenity": "restaurant", "leisure": null, "natural": null, "shop": null, "historic": null }, "geometry": { "type": "Point", "coordinates": [ 23.4003432, 40.134208900285337 ] } },
{ "type": "Feature", "properties": { "osm_id": 11243148583, "name": "Ikonio", "label": "amenity:cafe", "tourism": null, "amenity": "cafe", "leisure": null, "natural": null, "shop": null, "historic": null }, "geometry": { "type": "Point", "coordinates": [ 23.4001948, 40.134373500285371 ] } },
{ "type": "Feature", "properties": { "osm_id": 10120751117, "name": "The Laundry Room", "label": "shop:laundry", "tourism": null, "amenity": null, "leisure": null, "natural": null, "shop": "laundry", "historic": null }, "geometry": { "type": "Point", "coordinates": [ 23.39999, 40.134167300285334 ] } },
{ "type": "Feature", "properties": { "osm_id": 2834818130, "name": null, "label": "amenity:taxi", "tourism": null, "amenity": "taxi", "leisure": null, "natural": null, "shop": null, "historic": null }, "geometry": { "type": "Point", "coordinates": [ 23.4000765, 40.134100000285315 ] } },
{ "type": "Feature", "properties": { "osm_id": 9964752000, "name": "Savva's Corner Creperie", "label": "amenity:restaurant", "tourism": null, "amenity": "restaurant", "leisure": null, "natural": null, "shop": null, "historic": null }, "geometry": { "type": "Point", "coordinates": [ 23.4000721, 40.133984700285318 ] } },
{ "type": "Feature", "properties": { "osm_id": 2511256226, "name": "Alexandros Hotel **", "label": "tourism:hotel", "tourism": "hotel", "amenity": null, "leisure": null, "natural": null, "shop": null, "historic": null }, "geometry": { "type": "Point", "coordinates": [ 23.400252, 40.133879800285293 ] } },
{ "type": "Feature", "properties": { "osm_id": 2834818132, "name": null, "label": "amenity:pharmacy", "tourism": null, "amenity": "pharmacy", "leisure": null, "natural": null, "shop": null, "historic": null }, "geometry": { "type": "Point", "coordinates": [ 23.4003425, 40.133840600285289 ] } },
{ "type": "Feature", "properties": { "osm_id": 11107654518, "name": null, "label": "amenity:restaurant", "tourism": null, "amenity": "restaurant", "leisure": null, "natural": null, "shop": null, "historic": null }, "geometry": { "type": "Point", "coordinates": [ 23.397164, 40.133390300285221 ] } },
{ "type": "Feature", "properties": { "osm_id": 3287906390, "name": null, "label": "amenity:atm", "tourism": null, "amenity": "atm", "leisure": null, "natural": null, "shop": null, "historic": null }, "geometry": { "type": "Point", "coordinates": [ 23.3975387, 40.132999400285193 ] } },
{ "type": "Feature", "properties": { "osm_id": 9958750580, "name": null, "label": "leisure:playground", "tourism": null, "amenity": null, "leisure": "playground", "natural": null, "shop": null, "historic": null }, "geometry": { "type": "Point", "coordinates": [ 23.3977667, 40.133192700285207 ] } },
{ "type": "Feature", "properties": { "osm_id": 11244218931, "name": "Apyupw", "label": "amenity:restaurant", "tourism": null, "amenity": "restaurant", "leisure": null, "natural": null, "shop": null, "historic": null }, "geometry": { "type": "Point", "coordinates": [ 23.3975938, 40.133902500285288 ] } },
{ "type": "Feature", "properties": { "osm_id": 9964112142, "name": null, "label": "amenity:pharmacy", "tourism": null, "amenity": "pharmacy", "leisure": null, "natural": null, "shop": null, "historic": null }, "geometry": { "type": "Point", "coordinates": [ 23.397504, 40.13386070028529 ] } },
{ "type": "Feature", "properties": { "osm_id": 3287906391, "name": null, "label": "shop:seafood", "tourism": null, "amenity": null, "leisure": null, "natural": null, "shop": "seafood", "historic": null }, "geometry": { "type": "Point", "coordinates": [ 23.3972226, 40.133620500285261 ] } },
{ "type": "Feature", "properties": { "osm_id": 5633596421, "name": null, "label": "tourism:attraction", "tourism": "attraction", "amenity": null, "leisure": null, "natural": null, "shop": null, "historic": null }, "geometry": { "type": "Point", "coordinates": [ 23.397784, 40.135082400285462 ] } },
{ "type": "Feature", "properties": { "osm_id": 9958769140, "name": "Kiwi Kastle", "label": "tourism:hotel", "tourism": "hotel", "amenity": null, "leisure": null, "natural": null, "shop": null, "historic": null }, "geometry": { "type": "Point", "coordinates": [ 23.3981744, 40.135551000285517 ] } },
{ "type": "Feature", "properties": { "osm_id": 2511256227, "name": "Hotel Kiwi", "label": "tourism:hotel", "tourism": "hotel", "amenity": null, "leisure": null, "natural": null, "shop": null, "historic": null }, "geometry": { "type": "Point", "coordinates": [ 23.3984433, 40.135276300285483 ] } },
{ "type": "Feature", "properties": { "osm_id": 2834818154, "name": null, "label": "historic:wayside_shrine", "tourism": null, "amenity": null, "leisure": null, "natural": null, "shop": null, "historic": "wayside_shrine" }, "geometry": { "type": "Point", "coordinates": [ 23.3968976, 40.136162800285604 ] } },
{ "type": "Feature", "properties": { "osm_id": 9958752656, "name": null, "label": "shop:supermarket", "tourism": null, "amenity": null, "leisure": null, "natural": null, "shop": "supermarket", "historic": null }, "geometry": { "type": "Point", "coordinates": [ 23.3966831, 40.135265900285489 ] } },
{ "type": "Feature", "properties": { "osm_id": 2268086424, "name": "Villa Apollon Hotel **", "label": "tourism:hotel", "tourism": "hotel", "amenity": null, "leisure": null, "natural": null, "shop": null, "historic": null }, "geometry": { "type": "Point", "coordinates": [ 23.395191, 40.136678000285684 ] } }
]
}
