{
"type": "FeatureCollection",
"name": "patch_34831_linestring",
"crs": { "type": "name", "properties": { "name": "urn:ogc:def:crs:OGC:1.3:CRS84" } },
"features": [
{ "type": "Feature", "properties": { "element": "way", "id": 447745284, "amenity": null, "brand": null, "name": null, "operator": null, "brand:wikidata": null, "brand:wikipedia": null, "landuse": null, "building": null, "denomination": null, "religion": null, "intermittent": "yes", "waterway": "stream", "leisure": null, "sport": null, "layer": null, "natural": null, "label": "waterway:stream" }, "geometry": { "type": "LineString", "coordinates": [ [ 20.945750161688309, 38.704304743433426 ], [ 20.945724, 38.7042763 ], [ 20.9456489, 38.704 ], [ 20.9453377, 38.7037028 ], [ 20.9452036, 38.7035144 ], [ 20.9451698, 38.703358 ], [ 20.9451071, 38.7030455 ], [ 20.9449515, 38.7027399 ], [ 20.9447047, 38.7023171 ], [ 20.9447691, 38.7017603 ], [ 20.9445223, 38.7012747 ], [ 20.9444365, 38.7007807 ], [ 20.9443614, 38.7004332 ], [ 20.9440395, 38.6996252 ], [ 20.943943, 38.6988297 ], [ 20.9440342, 38.698185 ], [ 20.9439644, 38.6980175 ], [ 20.9437445, 38.6977956 ], [ 20.9437177, 38.6974607 ], [ 20.9437284, 38.6971844 ], [ 20.943546, 38.6966945 ], [ 20.9433583, 38.6964977 ], [ 20.943428, 38.6959367 ], [ 20.9433958, 38.6957064 ], [ 20.943192, 38.6953338 ], [ 20.9430632, 38.6950072 ], [ 20.9428969, 38.6940275 ], [ 20.9427735, 38.6929724 ], [ 20.9426233, 38.6923402 ], [ 20.9424356, 38.6921476 ], [ 20.9423658, 38.691955 ], [ 20.9422049, 38.691733 ], [ 20.9421566, 38.6910631 ], [ 20.9420333, 38.6907658 ], [ 20.9420279, 38.6903806 ], [ 20.9422478, 38.6899954 ], [ 20.9422317, 38.6894636 ], [ 20.9422586, 38.6891035 ], [ 20.9422156, 38.6887979 ], [ 20.9424517, 38.6885969 ], [ 20.9425804, 38.6883205 ], [ 20.9426824, 38.6873909 ], [ 20.9427253, 38.6866121 ], [ 20.9422478, 38.6858961 ], [ 20.9417597, 38.6852093 ], [ 20.9414593, 38.6847487 ], [ 20.9413144, 38.6846105 ], [ 20.9412599, 38.6845881 ], [ 20.9411106, 38.6845268 ], [ 20.9408477, 38.6839698 ], [ 20.9408102, 38.6836809 ], [ 20.9405366, 38.6834171 ], [ 20.9404829, 38.6832203 ], [ 20.9403005, 38.6829648 ], [ 20.9402684, 38.6828099 ], [ 20.9400752, 38.6826089 ], [ 20.939968, 38.682253 ], [ 20.9397373, 38.6818719 ], [ 20.9395334, 38.6814782 ], [ 20.9390667, 38.6812395 ], [ 20.939039507020979, 38.681218272913824 ] ] } }
]
}
