{
"type": "FeatureCollection",
"name": "patch_34831_multipolygon",
"crs": { "type": "name", "properties": { "name": "urn:ogc:def:crs:OGC:1.3:CRS84" } },
"features": [
{ "type": "Feature", "properties": { "element": "way", "id": 103015695, "amenity": null, "brand": null, "name": null, "operator": null, "brand:wikidata": null, "brand:wikipedia": null, "landuse": "residential", "building": null, "denomination": null, "religion": null, "intermittent": null, "waterway": null, "leisure": null, "sport": null, "layer": null, "natural": null, "label": "landuse:residential" }, "geometry": { "type": "MultiPolygon", "coordinates": [ [ [ [ 20.9493849, 38.7035898 ], [ 20.9482973, 38.7019546 ], [ 20.9474496, 38.7010059 ], [ 20.9457222, 38.701318 ], [ 20.9464419, 38.702716 ], [ 20.9458121, 38.7028626 ], [ 20.9455302, 38.7029282 ], [ 20.9451144, 38.702404 ], [ 20.9437548, 38.7025288 ], [ 20.943131, 38.7041265 ], [ 20.942948287881062, 38.704304743433426 ], [ 20.949787630065771, 38.704304743433426 ], [ 20.9493849, 38.7035898 ] ] ], [ [ [ 20.9393243, 38.7037396 ], [ 20.939997445010942, 38.704304743433426 ], [ 20.941446994988159, 38.704304743433426 ], [ 20.9406519, 38.7031279 ], [ 20.940172, 38.7015926 ], [ 20.940316, 38.7010684 ], [ 20.9407319, 38.7002071 ], [ 20.9399641, 38.699508 ], [ 20.9383967, 38.6998451 ], [ 20.9375329, 38.7008312 ], [ 20.937261, 38.7017799 ], [ 20.9381087, 38.7026411 ], [ 20.937750891652644, 38.704304743433426 ], [ 20.939284826398204, 38.704304743433426 ], [ 20.9393243, 38.7037396 ] ] ] ] } }
]
}
