{
"type": "FeatureCollection",
"name": "patch_37478_polygon",
"crs": { "type": "name", "properties": { "name": "urn:ogc:def:crs:OGC:1.3:CRS84" } },
"features": [
{ "type": "Feature", "properties": { "element": "way", "id": 136247652, "ele": null, "man_made": null, "name": null, "natural": "wood", "leaf_type": "needleleaved", "source": "http://geodata.gov.gr/", "leisure": null, "sport": null, "landuse": null, "amenity": null, "building": null, "religion": null, "waterway": null, "label": "natural:wood" }, "geometry": { "type": "Polygon", "coordinates": [ [ [ 23.799424, 38.606718 ], [ 23.79889, 38.606638 ], [ 23.799125, 38.606141 ], [ 23.800396, 38.605514 ], [ 23.801967, 38.606788 ], [ 23.802145789490876, 38.606928734800753 ], [ 23.804453741135383, 38.606928734800753 ], [ 23.803899, 38.606346 ], [ 23.802335, 38.605098 ], [ 23.80357, 38.605047 ], [ 23.804807, 38.604919 ], [ 23.805241, 38.60471 ], [ 23.805076, 38.604133 ], [ 23.804242, 38.603686 ], [ 23.803608, 38.603423 ], [ 23.802941, 38.603133 ], [ 23.80224, 38.60287 ], [ 23.801006, 38.602475 ], [ 23.799704, 38.602158 ], [ 23.79907, 38.601947 ], [ 23.798904, 38.601501 ], [ 23.799406, 38.601371 ], [ 23.800843, 38.601085 ], [ 23.802379, 38.600931 ], [ 23.803682, 38.601064 ], [ 23.804317, 38.600908 ], [ 23.803784, 38.600356 ], [ 23.803017, 38.599621 ], [ 23.802415, 38.599147 ], [ 23.801571, 38.598834 ], [ 23.800988, 38.59868 ], [ 23.800404, 38.598527 ], [ 23.799229, 38.598471 ], [ 23.797844, 38.599011 ], [ 23.796598, 38.599606 ], [ 23.796249, 38.600691 ], [ 23.79673, 38.601669 ], [ 23.797281, 38.602484 ], [ 23.796243, 38.602591 ], [ 23.795138, 38.602263 ], [ 23.795139, 38.601612 ], [ 23.795212, 38.600472 ], [ 23.795006830576209, 38.600148420636529 ], [ 23.795006830576209, 38.606015772201459 ], [ 23.795827, 38.606017 ], [ 23.796764, 38.605337 ], [ 23.797969, 38.604553 ], [ 23.798837, 38.604502 ], [ 23.79897, 38.604869 ], [ 23.797229, 38.606229 ], [ 23.796425942460044, 38.606928734800753 ], [ 23.800191034725014, 38.606928734800753 ], [ 23.799424, 38.606718 ] ] ] } },
{ "type": "Feature", "properties": { "element": "way", "id": 331256854, "ele": null, "man_made": null, "name": null, "natural": null, "leaf_type": null, "source": null, "leisure": "pitch", "sport": "soccer", "landuse": null, "amenity": null, "building": null, "religion": null, "waterway": null, "label": "sport:soccer;leisure:pitch" }, "geometry": { "type": "Polygon", "coordinates": [ [ [ 23.8055122, 38.5941883 ], [ 23.8060092, 38.5933909 ], [ 23.8054234, 38.5932014 ], [ 23.8049577, 38.5940044 ], [ 23.8055122, 38.5941883 ] ] ] } },
{ "type": "Feature", "properties": { "element": "way", "id": 331259511, "ele": null, "man_made": null, "name": null, "natural": null, "leaf_type": null, "source": null, "leisure": null, "sport": null, "landuse": "residential", "amenity": null, "building": null, "religion": null, "waterway": null, "label": "landuse:residential" }, "geometry": { "type": "Polygon", "coordinates": [ [ [ 23.8018699, 38.5849508 ], [ 23.8023956, 38.5855882 ], [ 23.8026531, 38.5862004 ], [ 23.8022562, 38.5865023 ], [ 23.80143, 38.5871984 ], [ 23.8015266, 38.5875757 ], [ 23.8023098, 38.5878609 ], [ 23.8026531, 38.5879783 ], [ 23.8033934, 38.5879615 ], [ 23.8038655, 38.588037 ], [ 23.8047131, 38.5880789 ], [ 23.8053139, 38.5884479 ], [ 23.8069232, 38.5894375 ], [ 23.8074382, 38.589731 ], [ 23.8079424, 38.58984 ], [ 23.8083609, 38.5892278 ], [ 23.8080814, 38.58879 ], [ 23.8071955, 38.5877768 ], [ 23.8070066, 38.5867077 ], [ 23.8065377, 38.5859745 ], [ 23.805945, 38.5853737 ], [ 23.8052924, 38.5850431 ], [ 23.8048311, 38.5846321 ], [ 23.804694929666713, 38.584591463505014 ], [ 23.8018699, 38.584591463505014 ], [ 23.8018699, 38.5849508 ] ] ] } },
{ "type": "Feature", "properties": { "element": "way", "id": 331261168, "ele": null, "man_made": null, "name": null, "natural": null, "leaf_type": null, "source": null, "leisure": null, "sport": null, "landuse": "cemetery", "amenity": null, "building": null, "religion": null, "waterway": null, "label": "landuse:cemetery" }, "geometry": { "type": "Polygon", "coordinates": [ [ [ 23.8031146, 38.5866065 ], [ 23.803165, 38.5865577 ], [ 23.8030713, 38.5864846 ], [ 23.8029849, 38.586432 ], [ 23.8027953, 38.5863701 ], [ 23.8028001, 38.5864208 ], [ 23.8028577, 38.586539 ], [ 23.8029345, 38.5866441 ], [ 23.8030041, 38.5866929 ], [ 23.8031146, 38.5866065 ] ] ] } },
{ "type": "Feature", "properties": { "element": "way", "id": 493680952, "ele": null, "man_made": null, "name": "Αγία Παρασκευή", "natural": null, "leaf_type": null, "source": null, "leisure": null, "sport": null, "landuse": null, "amenity": "place_of_worship", "building": "yes", "religion": "christian", "waterway": null, "label": "building:yes;amenity:place_of_worship" }, "geometry": { "type": "Polygon", "coordinates": [ [ [ 23.7993636, 38.5889636 ], [ 23.7993889, 38.5889222 ], [ 23.7993085, 38.5888935 ], [ 23.7992878, 38.5889366 ], [ 23.7993636, 38.5889636 ] ] ] } }
]
}
