{
"type": "FeatureCollection",
"name": "patch_37478_point",
"crs": { "type": "name", "properties": { "name": "urn:ogc:def:crs:OGC:1.3:CRS84" } },
"features": [
{ "type": "Feature", "properties": { "element": "node", "id": 8777439928, "ele": "592", "man_made": "survey_point", "name": "Βράχος Ζαχαρούς", "natural": "peak", "leaf_type": null, "source": null, "leisure": null, "sport": null, "landuse": null, "amenity": null, "building": null, "religion": null, "waterway": null, "label": "natural:peak" }, "geometry": { "type": "Point", "coordinates": [ 23.81529, 38.6006901 ] } }
]
}
