{
"type": "FeatureCollection",
"name": "patch_93050_point",
"crs": { "type": "name", "properties": { "name": "urn:ogc:def:crs:OGC:1.3:CRS84" } },
"features": [
{ "type": "Feature", "properties": { "@type": "node", "@id": 4237989075, "access": null, "addr:postcode": null, "admin_level": null, "amenity": null, "area": null, "barrier": null, "boundary": null, "brand": null, "brand:wikidata": null, "brand:wikipedia": null, "building": null, "castle_type": null, "ele": null, "email": null, "fence_type": null, "ford": null, "healthcare": null, "highway": null, "historic": "archaeological_site", "historic:civilization": null, "int_name": null, "intermittent": null, "landuse": null, "lanes": null, "layer": null, "leisure": null, "lit": null, "man_made": null, "memorial": null, "name": "Μυκηναϊκό φράγμα της Τίρυνθας", "name:de": "Mykenischer Staudamm bei Tiryns", "name:el": "Μυκηναϊκό φράγμα της Τίρυνθας", "name:en": "Mycenaean Dam of Tiryns", "name:fr": null, "name:ru": null, "natural": null, "noexit": null, "old_name": null, "old_name:en": null, "oneway": null, "operator": null, "phone": null, "place": null, "plant:method": null, "plant:output:electricity": null, "plant:source": null, "population": null, "population:date": null, "power": null, "reg_ref": null, "religion": null, "service": null, "smoothness": null, "source": "survey", "source:population": null, "source:ref": null, "source:url": null, "start_date": null, "surface": null, "tourism": null, "tower:type": null, "tracktype": null, "waterway": null, "website": null, "wikidata": "Q19946222", "wikipedia": null, "label": "historic:archaeological_site" }, "geometry": { "type": "Point", "coordinates": [ 22.8438334, 37.607969 ] } },
{ "type": "Feature", "properties": { "@type": "node", "@id": 8921556785, "access": null, "addr:postcode": null, "admin_level": null, "amenity": null, "area": null, "barrier": null, "boundary": null, "brand": null, "brand:wikidata": null, "brand:wikipedia": null, "building": null, "castle_type": "towerhouse", "ele": null, "email": null, "fence_type": null, "ford": null, "healthcare": null, "highway": null, "historic": "castle", "historic:civilization": "ottoman", "int_name": null, "intermittent": null, "landuse": null, "lanes": null, "layer": null, "leisure": null, "lit": null, "man_made": null, "memorial": null, "name": "Πύργος Αγίου Αδριανού", "name:de": null, "name:el": "Πύργος Αγίου Αδριανού", "name:en": "Tower of Agios Adrianos", "name:fr": null, "name:ru": null, "natural": null, "noexit": null, "old_name": null, "old_name:en": null, "oneway": null, "operator": null, "phone": null, "place": null, "plant:method": null, "plant:output:electricity": null, "plant:source": null, "population": null, "population:date": null, "power": null, "reg_ref": null, "religion": null, "service": null, "smoothness": null, "source": "https://www.kastra.eu/castlegr.php?kastro=rio", "source:population": null, "source:ref": null, "source:url": null, "start_date": "1750", "surface": null, "tourism": null, "tower:type": null, "tracktype": null, "waterway": null, "website": null, "wikidata": "Q56398382", "wikipedia": null, "label": "historic:castle" }, "geometry": { "type": "Point", "coordinates": [ 22.8450541, 37.5980259 ] } },
{ "type": "Feature", "properties": { "@type": "node", "@id": 9191299730, "access": null, "addr:postcode": null, "admin_level": null, "amenity": "fuel", "area": null, "barrier": null, "boundary": null, "brand": "ΕΛΙΝΟΙΛ", "brand:wikidata": "Q12876543", "brand:wikipedia": "el:ΕΛΙΝΟΙΛ", "building": null, "castle_type": null, "ele": null, "email": null, "fence_type": null, "ford": null, "healthcare": null, "highway": null, "historic": null, "historic:civilization": null, "int_name": null, "intermittent": null, "landuse": null, "lanes": null, "layer": null, "leisure": null, "lit": null, "man_made": null, "memorial": null, "name": "ΕΛΙΝΟΙΛ", "name:de": null, "name:el": null, "name:en": null, "name:fr": null, "name:ru": null, "natural": null, "noexit": null, "old_name": null, "old_name:en": null, "oneway": null, "operator": "ΣΤΑΥΡΟΠΟΥΛΟΣ ΙΩΑΝΝΗΣ", "phone": null, "place": null, "plant:method": null, "plant:output:electricity": null, "plant:source": null, "population": null, "population:date": null, "power": null, "reg_ref": null, "religion": null, "service": null, "smoothness": null, "source": null, "source:population": null, "source:ref": null, "source:url": null, "start_date": null, "surface": null, "tourism": null, "tower:type": null, "tracktype": null, "waterway": null, "website": null, "wikidata": null, "wikipedia": null, "label": "amenity:fuel" }, "geometry": { "type": "Point", "coordinates": [ 22.8546596, 37.6114709 ] } },
{ "type": "Feature", "properties": { "@type": "node", "@id": 9368513304, "access": null, "addr:postcode": null, "admin_level": null, "amenity": null, "area": null, "barrier": null, "boundary": null, "brand": null, "brand:wikidata": null, "brand:wikipedia": null, "building": null, "castle_type": null, "ele": null, "email": null, "fence_type": null, "ford": null, "healthcare": null, "highway": null, "historic": "memorial", "historic:civilization": null, "int_name": null, "intermittent": null, "landuse": null, "lanes": null, "layer": null, "leisure": null, "lit": null, "man_made": null, "memorial": "bust", "name": "Θεόδωρος Κολοκοτρώνης", "name:de": null, "name:el": null, "name:en": null, "name:fr": null, "name:ru": null, "natural": null, "noexit": null, "old_name": null, "old_name:en": null, "oneway": null, "operator": null, "phone": null, "place": null, "plant:method": null, "plant:output:electricity": null, "plant:source": null, "population": null, "population:date": null, "power": null, "reg_ref": null, "religion": null, "service": null, "smoothness": null, "source": null, "source:population": null, "source:ref": null, "source:url": null, "start_date": null, "surface": null, "tourism": null, "tower:type": null, "tracktype": null, "waterway": null, "website": null, "wikidata": null, "wikipedia": null, "label": "historic:memorial" }, "geometry": { "type": "Point", "coordinates": [ 22.8588433, 37.6161352 ] } },
{ "type": "Feature", "properties": { "@type": "node", "@id": 9368693658, "access": null, "addr:postcode": null, "admin_level": null, "amenity": null, "area": null, "barrier": null, "boundary": null, "brand": null, "brand:wikidata": null, "brand:wikipedia": null, "building": null, "castle_type": null, "ele": null, "email": "info@karayiannis-villas.gr", "fence_type": null, "ford": null, "healthcare": null, "highway": null, "historic": null, "historic:civilization": null, "int_name": null, "intermittent": null, "landuse": null, "lanes": null, "layer": null, "leisure": null, "lit": null, "man_made": null, "memorial": null, "name": "Karayannis Villas", "name:de": null, "name:el": null, "name:en": null, "name:fr": null, "name:ru": null, "natural": null, "noexit": null, "old_name": null, "old_name:en": null, "oneway": null, "operator": null, "phone": null, "place": null, "plant:method": null, "plant:output:electricity": null, "plant:source": null, "population": null, "population:date": null, "power": null, "reg_ref": null, "religion": null, "service": null, "smoothness": null, "source": null, "source:population": null, "source:ref": null, "source:url": null, "start_date": null, "surface": null, "tourism": "hotel", "tower:type": null, "tracktype": null, "waterway": null, "website": "https://www.karayiannis-villas.gr/", "wikidata": null, "wikipedia": null, "label": "tourism:hotel" }, "geometry": { "type": "Point", "coordinates": [ 22.8515339, 37.6157478 ] } },
{ "type": "Feature", "properties": { "@type": "node", "@id": 9368695233, "access": null, "addr:postcode": null, "admin_level": null, "amenity": null, "area": null, "barrier": null, "boundary": null, "brand": null, "brand:wikidata": null, "brand:wikipedia": null, "building": null, "castle_type": null, "ele": null, "email": "info@anassia.com", "fence_type": null, "ford": null, "healthcare": null, "highway": null, "historic": null, "historic:civilization": null, "int_name": null, "intermittent": null, "landuse": null, "lanes": null, "layer": null, "leisure": null, "lit": null, "man_made": null, "memorial": null, "name": "Anassia Villas", "name:de": null, "name:el": null, "name:en": null, "name:fr": null, "name:ru": null, "natural": null, "noexit": null, "old_name": null, "old_name:en": null, "oneway": null, "operator": null, "phone": "+30 27520 91242", "place": null, "plant:method": null, "plant:output:electricity": null, "plant:source": null, "population": null, "population:date": null, "power": null, "reg_ref": null, "religion": null, "service": null, "smoothness": null, "source": null, "source:population": null, "source:ref": null, "source:url": null, "start_date": null, "surface": null, "tourism": "hotel", "tower:type": null, "tracktype": null, "waterway": null, "website": "https://anassia.com/", "wikidata": "Q111857946", "wikipedia": null, "label": "tourism:hotel" }, "geometry": { "type": "Point", "coordinates": [ 22.8491578, 37.6126964 ] } },
{ "type": "Feature", "properties": { "@type": "node", "@id": 9970933817, "access": null, "addr:postcode": "21100", "admin_level": null, "amenity": "pharmacy", "area": null, "barrier": null, "boundary": null, "brand": null, "brand:wikidata": null, "brand:wikipedia": null, "building": null, "castle_type": null, "ele": null, "email": null, "fence_type": null, "ford": null, "healthcare": "pharmacy", "highway": null, "historic": null, "historic:civilization": null, "int_name": null, "intermittent": null, "landuse": null, "lanes": null, "layer": null, "leisure": null, "lit": null, "man_made": null, "memorial": null, "name": "Φαρμακειο Παπαιωαννου", "name:de": null, "name:el": "Φαρμακειο Παπαιωαννου", "name:en": "Papaioannou Pharmacy", "name:fr": null, "name:ru": null, "natural": null, "noexit": null, "old_name": null, "old_name:en": null, "oneway": null, "operator": null, "phone": "+302752097170", "place": null, "plant:method": null, "plant:output:electricity": null, "plant:source": null, "population": null, "population:date": null, "power": null, "reg_ref": null, "religion": null, "service": null, "smoothness": null, "source": null, "source:population": null, "source:ref": null, "source:url": null, "start_date": null, "surface": null, "tourism": null, "tower:type": null, "tracktype": null, "waterway": null, "website": null, "wikidata": null, "wikipedia": null, "label": "amenity:pharmacy" }, "geometry": { "type": "Point", "coordinates": [ 22.8444952, 37.5991949 ] } }
]
}
