{
"type": "FeatureCollection",
"name": "patch_38806_point",
"crs": { "type": "name", "properties": { "name": "urn:ogc:def:crs:OGC:1.3:CRS84" } },
"features": [
{ "type": "Feature", "properties": { "element": "node", "id": 12205076246, "amenity": "bar", "name": "La La Bar", "healthcare": null, "phone": null, "website": null, "denomination": null, "religion": null, "leaf_type": null, "natural": null, "source": null, "landuse": null, "name:el": null, "name:mk": null, "boat": null, "waterway": null, "type": null, "label": "amenity:bar" }, "geometry": { "type": "Point", "coordinates": [ 21.4287867, 40.4547888 ] } },
{ "type": "Feature", "properties": { "element": "node", "id": 12205076247, "amenity": "pharmacy", "name": "Φαρμακείο Σαμαρά Δ Γεώργιου", "healthcare": "pharmacy", "phone": "2467096291", "website": "https://www.facebook.com/Georgesamarasfarmakeio/", "denomination": null, "religion": null, "leaf_type": null, "natural": null, "source": null, "landuse": null, "name:el": null, "name:mk": null, "boat": null, "waterway": null, "type": null, "label": "amenity:pharmacy" }, "geometry": { "type": "Point", "coordinates": [ 21.4287116, 40.4556766 ] } },
{ "type": "Feature", "properties": { "element": "node", "id": 12205076248, "amenity": "place_of_worship", "name": "Ιερός Ναός Αγίου Γεωργίου", "healthcare": null, "phone": null, "website": null, "denomination": "greek_orthodox", "religion": "christian", "leaf_type": null, "natural": null, "source": null, "landuse": null, "name:el": null, "name:mk": null, "boat": null, "waterway": null, "type": null, "label": "amenity:place_of_worship" }, "geometry": { "type": "Point", "coordinates": [ 21.4291971, 40.456095 ] } }
]
}
