{
"type": "FeatureCollection",
"name": "patch_76236_linestring",
"crs": { "type": "name", "properties": { "name": "urn:ogc:def:crs:OGC:1.3:CRS84" } },
"features": [
{ "type": "Feature", "properties": { "element": "way", "id": 1333681419, "amenity": null, "backrest": null, "material": null, "ele": null, "building": null, "denomination": null, "name": null, "religion": null, "natural": null, "landuse": null, "leaf_type": null, "source": null, "leisure": null, "sport": null, "surface": null, "isced:level": null, "operator": null, "mapillary": null, "waterway": "stream", "width": "0.5", "layer": null, "tunnel": null, "shelter_type": null, "label": "waterway:stream" }, "geometry": { "type": "LineString", "coordinates": [ [ 21.6718764, 40.2594571 ], [ 21.671889, 40.2592413 ], [ 21.6719415, 40.2589461 ], [ 21.6719626, 40.2587407 ], [ 21.6720088, 40.2584888 ], [ 21.6720446, 40.2583106 ], [ 21.6720677, 40.2581181 ], [ 21.6720866, 40.2579496 ], [ 21.6721939, 40.2577715 ], [ 21.6722906, 40.2575982 ], [ 21.6723894, 40.2574137 ], [ 21.672442, 40.2573366 ], [ 21.6724651, 40.2572018 ], [ 21.6725093, 40.2570221 ], [ 21.6724861, 40.2569018 ], [ 21.6724966, 40.2567686 ], [ 21.6725282, 40.2566803 ], [ 21.6725892, 40.2564942 ], [ 21.672627, 40.2563353 ], [ 21.6726817, 40.2561749 ], [ 21.6727153, 40.2560994 ] ] } },
{ "type": "Feature", "properties": { "element": "way", "id": 1333681420, "amenity": null, "backrest": null, "material": null, "ele": null, "building": null, "denomination": null, "name": null, "religion": null, "natural": null, "landuse": null, "leaf_type": null, "source": null, "leisure": null, "sport": null, "surface": null, "isced:level": null, "operator": null, "mapillary": null, "waterway": "stream", "width": "0.5", "layer": "-1", "tunnel": "culvert", "shelter_type": null, "label": "waterway:stream" }, "geometry": { "type": "LineString", "coordinates": [ [ 21.6718706, 40.2595406 ], [ 21.6718764, 40.2594571 ] ] } },
{ "type": "Feature", "properties": { "element": "way", "id": 1333681421, "amenity": null, "backrest": null, "material": null, "ele": null, "building": null, "denomination": null, "name": null, "religion": null, "natural": null, "landuse": null, "leaf_type": null, "source": null, "leisure": null, "sport": null, "surface": null, "isced:level": null, "operator": null, "mapillary": null, "waterway": "stream", "width": "0.5", "layer": null, "tunnel": null, "shelter_type": null, "label": "waterway:stream" }, "geometry": { "type": "LineString", "coordinates": [ [ 21.6727595, 40.2560433 ], [ 21.6728541, 40.2559149 ], [ 21.6729613, 40.2558186 ], [ 21.6730686, 40.2557111 ], [ 21.6732473, 40.2555282 ], [ 21.6733356, 40.2554174 ], [ 21.6734029, 40.2552489 ], [ 21.6734344, 40.2551575 ], [ 21.6734197, 40.2550708 ], [ 21.6734407, 40.2549296 ], [ 21.6735417, 40.254798 ], [ 21.6736847, 40.2546376 ], [ 21.6738066, 40.2545124 ], [ 21.6738571, 40.2544667 ], [ 21.6739937, 40.2543543 ], [ 21.6740957, 40.2542524 ], [ 21.6741199, 40.2541979 ], [ 21.674121, 40.2541176 ], [ 21.6741273, 40.2539941 ], [ 21.6741315, 40.2538986 ], [ 21.6741378, 40.2538424 ], [ 21.674163, 40.2537959 ], [ 21.6744563, 40.2534099 ], [ 21.6745467, 40.2533277 ] ] } },
{ "type": "Feature", "properties": { "element": "way", "id": 1333681422, "amenity": null, "backrest": null, "material": null, "ele": null, "building": null, "denomination": null, "name": null, "religion": null, "natural": null, "landuse": null, "leaf_type": null, "source": null, "leisure": null, "sport": null, "surface": null, "isced:level": null, "operator": null, "mapillary": null, "waterway": "stream", "width": "0.5", "layer": "-1", "tunnel": "culvert", "shelter_type": null, "label": "waterway:stream" }, "geometry": { "type": "LineString", "coordinates": [ [ 21.6727153, 40.2560994 ], [ 21.6727595, 40.2560433 ] ] } },
{ "type": "Feature", "properties": { "element": "way", "id": 1333681423, "amenity": null, "backrest": null, "material": null, "ele": null, "building": null, "denomination": null, "name": null, "religion": null, "natural": null, "landuse": null, "leaf_type": null, "source": null, "leisure": null, "sport": null, "surface": null, "isced:level": null, "operator": null, "mapillary": null, "waterway": "stream", "width": "0.5", "layer": null, "tunnel": null, "shelter_type": null, "label": "waterway:stream" }, "geometry": { "type": "LineString", "coordinates": [ [ 21.6746351, 40.2532687 ], [ 21.6748243, 40.2531339 ], [ 21.6750598, 40.2529847 ], [ 21.6751975, 40.2529173 ] ] } },
{ "type": "Feature", "properties": { "element": "way", "id": 1333681424, "amenity": null, "backrest": null, "material": null, "ele": null, "building": null, "denomination": null, "name": null, "religion": null, "natural": null, "landuse": null, "leaf_type": null, "source": null, "leisure": null, "sport": null, "surface": null, "isced:level": null, "operator": null, "mapillary": null, "waterway": "stream", "width": "0.5", "layer": "-1", "tunnel": "culvert", "shelter_type": null, "label": "waterway:stream" }, "geometry": { "type": "LineString", "coordinates": [ [ 21.6745467, 40.2533277 ], [ 21.6746351, 40.2532687 ] ] } },
{ "type": "Feature", "properties": { "element": "way", "id": 1333681425, "amenity": null, "backrest": null, "material": null, "ele": null, "building": null, "denomination": null, "name": null, "religion": null, "natural": null, "landuse": null, "leaf_type": null, "source": null, "leisure": null, "sport": null, "surface": null, "isced:level": null, "operator": null, "mapillary": null, "waterway": "stream", "width": "0.5", "layer": null, "tunnel": null, "shelter_type": null, "label": "waterway:stream" }, "geometry": { "type": "LineString", "coordinates": [ [ 21.6754246, 40.2527881 ], [ 21.6756464, 40.2526862 ] ] } },
{ "type": "Feature", "properties": { "element": "way", "id": 1333681426, "amenity": null, "backrest": null, "material": null, "ele": null, "building": null, "denomination": null, "name": null, "religion": null, "natural": null, "landuse": null, "leaf_type": null, "source": null, "leisure": null, "sport": null, "surface": null, "isced:level": null, "operator": null, "mapillary": null, "waterway": "stream", "width": "0.5", "layer": "-1", "tunnel": "culvert", "shelter_type": null, "label": "waterway:stream" }, "geometry": { "type": "LineString", "coordinates": [ [ 21.6751975, 40.2529173 ], [ 21.6754246, 40.2527881 ] ] } },
{ "type": "Feature", "properties": { "element": "way", "id": 1333681427, "amenity": null, "backrest": null, "material": null, "ele": null, "building": null, "denomination": null, "name": null, "religion": null, "natural": null, "landuse": null, "leaf_type": null, "source": null, "leisure": null, "sport": null, "surface": null, "isced:level": null, "operator": null, "mapillary": null, "waterway": "stream", "width": "0.5", "layer": null, "tunnel": null, "shelter_type": null, "label": "waterway:stream" }, "geometry": { "type": "LineString", "coordinates": [ [ 21.671168127903329, 40.267363850965772 ], [ 21.6711993, 40.2671548 ], [ 21.6712456, 40.2669558 ], [ 21.6712666, 40.2667809 ], [ 21.671275, 40.2666831 ], [ 21.6713213, 40.2666205 ], [ 21.6714432, 40.266598 ], [ 21.6716745, 40.2665772 ], [ 21.6718427, 40.2665595 ], [ 21.6718869, 40.2665194 ], [ 21.672013, 40.2663157 ], [ 21.6720929, 40.266221 ], [ 21.6721287, 40.2661536 ], [ 21.6721266, 40.2660846 ], [ 21.672095, 40.265998 ], [ 21.6719689, 40.2658183 ], [ 21.6719121, 40.2656995 ], [ 21.6718722, 40.2656001 ], [ 21.6717691, 40.26543 ], [ 21.6717081, 40.265369 ], [ 21.6716997, 40.2653177 ], [ 21.6716976, 40.2651749 ], [ 21.6716661, 40.2650016 ], [ 21.6716367, 40.2648476 ], [ 21.6716114, 40.2646615 ], [ 21.6716261, 40.2645443 ], [ 21.6716346, 40.2643598 ], [ 21.6716871, 40.264217 ], [ 21.6717523, 40.2639587 ], [ 21.6718154, 40.263795 ], [ 21.671849, 40.2637228 ], [ 21.671931, 40.2635046 ], [ 21.6719878, 40.2632623 ], [ 21.671992, 40.26315 ], [ 21.6719857, 40.2629976 ], [ 21.6719584, 40.2628789 ], [ 21.6719436, 40.2627489 ], [ 21.6719752, 40.2626302 ], [ 21.6720151, 40.2624777 ], [ 21.6720719, 40.2623462 ], [ 21.6720908, 40.2622146 ], [ 21.6720803, 40.2620718 ], [ 21.6720383, 40.2613369 ], [ 21.6719983, 40.2610786 ], [ 21.6718932, 40.2607785 ], [ 21.6718427, 40.2606421 ], [ 21.6718175, 40.2604817 ], [ 21.6718175, 40.2603597 ], [ 21.6717859, 40.2601912 ], [ 21.6718007, 40.2600468 ], [ 21.6718049, 40.259896 ], [ 21.6718364, 40.2597484 ], [ 21.6718658, 40.2596088 ], [ 21.6718706, 40.2595406 ] ] } }
]
}
