{
"type": "FeatureCollection",
"name": "patch_76236_features",
"crs": { "type": "name", "properties": { "name": "urn:ogc:def:crs:OGC:1.3:CRS84" } },
"features": [
{ "type": "Feature", "properties": { "element": "node", "id": 12336831595, "amenity": "bench", "backrest": "yes", "material": "wood", "ele": null, "building": null, "denomination": null, "name": null, "religion": null, "natural": null, "landuse": null, "leaf_type": null, "source": null, "leisure": null, "sport": null, "surface": null, "isced:level": null, "operator": null, "mapillary": null, "waterway": null, "width": null, "layer": null, "tunnel": null, "shelter_type": null, "label": "amenity:bench" }, "geometry": { "type": "Point", "coordinates": [ 21.6785387, 40.2496161 ] } },
{ "type": "Feature", "properties": { "element": "node", "id": 12336831596, "amenity": "bench", "backrest": "yes", "material": "wood", "ele": null, "building": null, "denomination": null, "name": null, "religion": null, "natural": null, "landuse": null, "leaf_type": null, "source": null, "leisure": null, "sport": null, "surface": null, "isced:level": null, "operator": null, "mapillary": null, "waterway": null, "width": null, "layer": null, "tunnel": null, "shelter_type": null, "label": "amenity:bench" }, "geometry": { "type": "Point", "coordinates": [ 21.6785421, 40.2495818 ] } },
{ "type": "Feature", "properties": { "element": "node", "id": 12336867108, "amenity": "water_point", "backrest": null, "material": null, "ele": "756", "building": null, "denomination": null, "name": null, "religion": null, "natural": null, "landuse": null, "leaf_type": null, "source": null, "leisure": null, "sport": null, "surface": null, "isced:level": null, "operator": null, "mapillary": null, "waterway": null, "width": null, "layer": null, "tunnel": null, "shelter_type": null, "label": "amenity:water_point" }, "geometry": { "type": "Point", "coordinates": [ 21.6780613, 40.249819 ] } },
{ "type": "Feature", "properties": { "element": "node", "id": 12337837852, "amenity": "watering_place", "backrest": null, "material": null, "ele": null, "building": null, "denomination": null, "name": null, "religion": null, "natural": null, "landuse": null, "leaf_type": null, "source": null, "leisure": null, "sport": null, "surface": null, "isced:level": null, "operator": null, "mapillary": null, "waterway": null, "width": null, "layer": null, "tunnel": null, "shelter_type": null, "label": "amenity:watering_place" }, "geometry": { "type": "Point", "coordinates": [ 21.677829, 40.2450816 ] } },
{ "type": "Feature", "properties": { "element": "node", "id": 12337837888, "amenity": "bench", "backrest": "yes", "material": "wood", "ele": null, "building": null, "denomination": null, "name": null, "religion": null, "natural": null, "landuse": null, "leaf_type": null, "source": null, "leisure": null, "sport": null, "surface": null, "isced:level": null, "operator": null, "mapillary": null, "waterway": null, "width": null, "layer": null, "tunnel": null, "shelter_type": null, "label": "amenity:bench" }, "geometry": { "type": "Point", "coordinates": [ 21.6772282, 40.2455194 ] } },
{ "type": "Feature", "properties": { "element": "node", "id": 12337837889, "amenity": "bench", "backrest": "yes", "material": "wood", "ele": null, "building": null, "denomination": null, "name": null, "religion": null, "natural": null, "landuse": null, "leaf_type": null, "source": null, "leisure": null, "sport": null, "surface": null, "isced:level": null, "operator": null, "mapillary": null, "waterway": null, "width": null, "layer": null, "tunnel": null, "shelter_type": null, "label": "amenity:bench" }, "geometry": { "type": "Point", "coordinates": [ 21.6772187, 40.2455414 ] } },
{ "type": "Feature", "properties": { "element": "node", "id": 12338119301, "amenity": "watering_place", "backrest": null, "material": null, "ele": null, "building": null, "denomination": null, "name": null, "religion": null, "natural": null, "landuse": null, "leaf_type": null, "source": null, "leisure": null, "sport": null, "surface": null, "isced:level": null, "operator": null, "mapillary": null, "waterway": null, "width": null, "layer": null, "tunnel": null, "shelter_type": null, "label": "amenity:watering_place" }, "geometry": { "type": "Point", "coordinates": [ 21.6634594, 40.2472145 ] } },
{ "type": "Feature", "properties": { "element": "node", "id": 12338995149, "amenity": "place_of_worship", "backrest": null, "material": null, "ele": null, "building": "chapel", "denomination": "greek_orthodox", "name": "Αγία Μαρίνα", "religion": "christian", "natural": null, "landuse": null, "leaf_type": null, "source": null, "leisure": null, "sport": null, "surface": null, "isced:level": null, "operator": null, "mapillary": null, "waterway": null, "width": null, "layer": null, "tunnel": null, "shelter_type": null, "label": "building:chapel;amenity:place_of_worship" }, "geometry": { "type": "Point", "coordinates": [ 21.6669277, 40.2543351 ] } },
{ "type": "Feature", "properties": { "element": "node", "id": 12338995165, "amenity": "bench", "backrest": "yes", "material": "wood", "ele": null, "building": null, "denomination": null, "name": null, "religion": null, "natural": null, "landuse": null, "leaf_type": null, "source": null, "leisure": null, "sport": null, "surface": null, "isced:level": null, "operator": null, "mapillary": null, "waterway": null, "width": null, "layer": null, "tunnel": null, "shelter_type": null, "label": "amenity:bench" }, "geometry": { "type": "Point", "coordinates": [ 21.6780477, 40.249793 ] } },
{ "type": "Feature", "properties": { "element": "way", "id": 37639570, "amenity": null, "backrest": null, "material": null, "ele": null, "building": null, "denomination": null, "name": null, "religion": null, "natural": null, "landuse": "farmland", "leaf_type": null, "source": null, "leisure": null, "sport": null, "surface": null, "isced:level": null, "operator": null, "mapillary": null, "waterway": null, "width": null, "layer": null, "tunnel": null, "shelter_type": null, "label": "landuse:farmland" }, "geometry": { "type": "Polygon", "coordinates": [ [ [ 21.6713007, 40.2547377 ], [ 21.6702707, 40.2532965 ], [ 21.6682108, 40.2532965 ], [ 21.6668375, 40.2546066 ], [ 21.6664941, 40.2557857 ], [ 21.6651208, 40.2572268 ], [ 21.6640909, 40.2582748 ], [ 21.6628893, 40.2593228 ], [ 21.6606577, 40.2598468 ], [ 21.6582544, 40.2598468 ], [ 21.6568811, 40.2599778 ], [ 21.6551496, 40.2601023 ], [ 21.6550449, 40.2618602 ], [ 21.6543583, 40.2623842 ], [ 21.6543583, 40.2634322 ], [ 21.6531566, 40.265004 ], [ 21.6531566, 40.2664449 ], [ 21.653022838030601, 40.267363850965772 ], [ 21.675404805123708, 40.267363850965772 ], [ 21.6754226, 40.2673118 ], [ 21.6754843, 40.2671752 ], [ 21.6756088, 40.2669701 ], [ 21.6757484, 40.2667593 ], [ 21.6760011, 40.2664672 ], [ 21.6761756, 40.2662543 ], [ 21.6763161, 40.2660644 ], [ 21.6765255, 40.2657306 ], [ 21.6765863, 40.2656493 ], [ 21.6766547, 40.2655737 ], [ 21.67674, 40.2654996 ], [ 21.6768165, 40.265411 ], [ 21.6768779, 40.2653223 ], [ 21.6769442, 40.2652111 ], [ 21.6769909, 40.2650977 ], [ 21.6770262, 40.2649814 ], [ 21.6770479, 40.2648611 ], [ 21.6770649, 40.2646953 ], [ 21.6770696, 40.2645451 ], [ 21.6770668, 40.2643978 ], [ 21.6770535, 40.2641894 ], [ 21.6770371, 40.2640495 ], [ 21.6770356, 40.2639037 ], [ 21.6770555, 40.2637274 ], [ 21.677084, 40.2635936 ], [ 21.6771126, 40.2634511 ], [ 21.6771592, 40.2632331 ], [ 21.6771653, 40.2631209 ], [ 21.6771564, 40.2630116 ], [ 21.6771271, 40.2629139 ], [ 21.6770725, 40.2628106 ], [ 21.6769717, 40.262653 ], [ 21.6768596, 40.2624954 ], [ 21.6764672, 40.261955 ], [ 21.6764078, 40.2618157 ], [ 21.6763817, 40.2616886 ], [ 21.676383, 40.2615758 ], [ 21.6763986, 40.261474 ], [ 21.6785802, 40.2601047 ], [ 21.6784228, 40.2599194 ], [ 21.6782982, 40.259748 ], [ 21.678166, 40.2595766 ], [ 21.6780242, 40.2593981 ], [ 21.6778595, 40.2591992 ], [ 21.6776218, 40.258959 ], [ 21.6774907, 40.2587997 ], [ 21.6774327, 40.2587127 ], [ 21.6773923, 40.2586138 ], [ 21.6773672, 40.2584973 ], [ 21.6773355, 40.2582417 ], [ 21.6773057, 40.2581042 ], [ 21.6772607, 40.2579434 ], [ 21.6771858, 40.2577211 ], [ 21.6771094, 40.257499 ], [ 21.6770369, 40.2572914 ], [ 21.6769759, 40.2571216 ], [ 21.6769457, 40.2569803 ], [ 21.6769312, 40.256832 ], [ 21.6766367, 40.256832 ], [ 21.6766979, 40.2564846 ], [ 21.6761083, 40.2564332 ], [ 21.6758426, 40.2563868 ], [ 21.6757474, 40.2565239 ], [ 21.6754225, 40.2564525 ], [ 21.675514, 40.2558988 ], [ 21.6755434, 40.2555434 ], [ 21.6752806, 40.2555506 ], [ 21.6752911, 40.2552508 ], [ 21.6755056, 40.255257 ], [ 21.6754887, 40.2547515 ], [ 21.6755245, 40.2544659 ], [ 21.6755529, 40.2542434 ], [ 21.6743513, 40.2541442 ], [ 21.6728751, 40.2557017 ], [ 21.6713007, 40.2547377 ] ] ] } },
{ "type": "Feature", "properties": { "element": "way", "id": 37639582, "amenity": null, "backrest": null, "material": null, "ele": null, "building": null, "denomination": null, "name": null, "religion": null, "natural": null, "landuse": "farmland", "leaf_type": null, "source": null, "leisure": null, "sport": null, "surface": null, "isced:level": null, "operator": null, "mapillary": null, "waterway": null, "width": null, "layer": null, "tunnel": null, "shelter_type": null, "label": "landuse:farmland" }, "geometry": { "type": "Polygon", "coordinates": [ [ [ 21.6798324, 40.2609506 ], [ 21.6785029, 40.2603068 ], [ 21.6764801, 40.2614407 ], [ 21.6764694, 40.2615547 ], [ 21.6764664, 40.2616371 ], [ 21.6764799, 40.2617321 ], [ 21.6765142, 40.2618299 ], [ 21.676558, 40.2619241 ], [ 21.6766173, 40.262023 ], [ 21.6766837, 40.2621237 ], [ 21.6768259, 40.2623251 ], [ 21.6771057, 40.2627243 ], [ 21.6771809, 40.2628495 ], [ 21.6772335, 40.2629661 ], [ 21.6772492, 40.2630518 ], [ 21.6772589, 40.2631406 ], [ 21.6772505, 40.263224 ], [ 21.6772347, 40.263313 ], [ 21.67718, 40.2635364 ], [ 21.6771479, 40.2637282 ], [ 21.6771295, 40.2638795 ], [ 21.6771243, 40.2640452 ], [ 21.6771328, 40.2641866 ], [ 21.6779099, 40.2641909 ], [ 21.6778552, 40.2645018 ], [ 21.6775515, 40.2644787 ], [ 21.6775515, 40.264424 ], [ 21.6771555, 40.2644183 ], [ 21.6771545, 40.2645763 ], [ 21.6771441, 40.2647385 ], [ 21.6771158, 40.2649496 ], [ 21.67708, 40.2650933 ], [ 21.677014, 40.265237 ], [ 21.6769211, 40.2653885 ], [ 21.6768483, 40.2654758 ], [ 21.676749, 40.2655689 ], [ 21.6766689, 40.2656562 ], [ 21.6765842, 40.2657732 ], [ 21.6764524, 40.2659899 ], [ 21.6763271, 40.2661732 ], [ 21.6762301, 40.266299 ], [ 21.6760474, 40.2665131 ], [ 21.6758967, 40.266684 ], [ 21.67581, 40.2667953 ], [ 21.6757385, 40.2669009 ], [ 21.6755886, 40.2671353 ], [ 21.675516, 40.2672776 ], [ 21.6754842233284, 40.267363850965772 ], [ 21.680790264656054, 40.267363850965772 ], [ 21.680790264656054, 40.261959290480171 ], [ 21.6798324, 40.2609506 ] ] ] } },
{ "type": "Feature", "properties": { "element": "way", "id": 136665191, "amenity": null, "backrest": null, "material": null, "ele": null, "building": null, "denomination": null, "name": null, "religion": null, "natural": "wood", "landuse": null, "leaf_type": "broadleaved", "source": "http://geodata.gov.gr/", "leisure": null, "sport": null, "surface": null, "isced:level": null, "operator": null, "mapillary": null, "waterway": null, "width": null, "layer": null, "tunnel": null, "shelter_type": null, "label": "natural:wood" }, "geometry": { "type": "Polygon", "coordinates": [ [ [ 21.650642, 40.250555 ], [ 21.650908, 40.250763 ], [ 21.651067, 40.250852 ], [ 21.651242, 40.251169 ], [ 21.651892, 40.25135 ], [ 21.652541, 40.25153 ], [ 21.653194, 40.251627 ], [ 21.653964, 40.251475 ], [ 21.654629, 40.251238 ], [ 21.655626, 40.250839 ], [ 21.65663, 40.250273 ], [ 21.65719, 40.249866 ], [ 21.657308, 40.249617 ], [ 21.657435, 40.249117 ], [ 21.658432, 40.248718 ], [ 21.659315, 40.248485 ], [ 21.6602, 40.248167 ], [ 21.660865, 40.24793 ], [ 21.661201, 40.247685 ], [ 21.66144, 40.247104 ], [ 21.661362, 40.246181 ], [ 21.661494, 40.245513 ], [ 21.661284, 40.245258 ], [ 21.660313, 40.244903 ], [ 21.65956, 40.244553 ], [ 21.659337674262211, 40.244474480195784 ], [ 21.650462897006168, 40.244474480195784 ], [ 21.650462897006168, 40.250352422341926 ], [ 21.650642, 40.250555 ] ] ] } },
{ "type": "Feature", "properties": { "element": "way", "id": 136665389, "amenity": null, "backrest": null, "material": null, "ele": null, "building": null, "denomination": null, "name": null, "religion": null, "natural": "wood", "landuse": null, "leaf_type": "broadleaved", "source": "http://geodata.gov.gr/", "leisure": null, "sport": null, "surface": null, "isced:level": null, "operator": null, "mapillary": null, "waterway": null, "width": null, "layer": null, "tunnel": null, "shelter_type": null, "label": "natural:wood" }, "geometry": { "type": "Polygon", "coordinates": [ [ [ 21.680474, 40.25843 ], [ 21.679862, 40.258283 ], [ 21.67946, 40.25841 ], [ 21.679325, 40.258577 ], [ 21.679656, 40.259058 ], [ 21.679671, 40.259079 ], [ 21.67977, 40.259222 ], [ 21.680004, 40.259562 ], [ 21.680427, 40.259968 ], [ 21.680790264656054, 40.260216162821216 ], [ 21.680790264656054, 40.258497228829746 ], [ 21.680474, 40.25843 ] ] ] } },
{ "type": "Feature", "properties": { "element": "way", "id": 537532745, "amenity": null, "backrest": null, "material": null, "ele": null, "building": null, "denomination": null, "name": null, "religion": null, "natural": null, "landuse": "military", "leaf_type": null, "source": null, "leisure": null, "sport": null, "surface": null, "isced:level": null, "operator": null, "mapillary": null, "waterway": null, "width": null, "layer": null, "tunnel": null, "shelter_type": null, "label": "landuse:military" }, "geometry": { "type": "Polygon", "coordinates": [ [ [ 21.6550581, 40.2609563 ], [ 21.6552395, 40.2609591 ], [ 21.6552503, 40.2605503 ], [ 21.6550697, 40.2605475 ], [ 21.6547746, 40.260543 ], [ 21.6547638, 40.2609518 ], [ 21.6550581, 40.2609563 ] ] ] } },
{ "type": "Feature", "properties": { "element": "way", "id": 537532750, "amenity": null, "backrest": null, "material": null, "ele": null, "building": null, "denomination": null, "name": null, "religion": null, "natural": null, "landuse": "military", "leaf_type": null, "source": null, "leisure": null, "sport": null, "surface": null, "isced:level": null, "operator": null, "mapillary": null, "waterway": null, "width": null, "layer": null, "tunnel": null, "shelter_type": null, "label": "landuse:military" }, "geometry": { "type": "Polygon", "coordinates": [ [ [ 21.6567714, 40.2571793 ], [ 21.656374, 40.2578531 ], [ 21.6563883, 40.258001 ], [ 21.6564079, 40.2582035 ], [ 21.6567684, 40.2584621 ], [ 21.6621079, 40.2583093 ], [ 21.662416, 40.2581094 ], [ 21.6623543, 40.2570748 ], [ 21.6620955, 40.2568703 ], [ 21.6571689, 40.2569996 ], [ 21.65679, 40.2571477 ], [ 21.6567714, 40.2571793 ] ] ] } },
{ "type": "Feature", "properties": { "element": "way", "id": 537532752, "amenity": null, "backrest": null, "material": null, "ele": null, "building": null, "denomination": null, "name": null, "religion": null, "natural": null, "landuse": "military", "leaf_type": null, "source": null, "leisure": null, "sport": null, "surface": null, "isced:level": null, "operator": null, "mapillary": null, "waterway": null, "width": null, "layer": null, "tunnel": null, "shelter_type": null, "label": "landuse:military" }, "geometry": { "type": "Polygon", "coordinates": [ [ [ 21.6562811, 40.2574396 ], [ 21.6562671, 40.2571713 ], [ 21.6562561, 40.2569607 ], [ 21.655798, 40.2569746 ], [ 21.655823, 40.2574535 ], [ 21.6562811, 40.2574396 ] ] ] } },
{ "type": "Feature", "properties": { "element": "way", "id": 663442057, "amenity": null, "backrest": null, "material": null, "ele": null, "building": null, "denomination": null, "name": null, "religion": null, "natural": null, "landuse": null, "leaf_type": null, "source": null, "leisure": "pitch", "sport": "basketball", "surface": "asphalt", "isced:level": null, "operator": null, "mapillary": null, "waterway": null, "width": null, "layer": null, "tunnel": null, "shelter_type": null, "label": "sport:basketball;leisure:pitch" }, "geometry": { "type": "Polygon", "coordinates": [ [ [ 21.676621, 40.2535177 ], [ 21.6768417, 40.253523 ], [ 21.6768533, 40.2532416 ], [ 21.6766326, 40.2532363 ], [ 21.676621, 40.2535177 ] ] ] } },
{ "type": "Feature", "properties": { "element": "way", "id": 1047664662, "amenity": null, "backrest": null, "material": null, "ele": null, "building": null, "denomination": null, "name": null, "religion": null, "natural": null, "landuse": "orchard", "leaf_type": null, "source": null, "leisure": null, "sport": null, "surface": null, "isced:level": null, "operator": null, "mapillary": null, "waterway": null, "width": null, "layer": null, "tunnel": null, "shelter_type": null, "label": "landuse:orchard" }, "geometry": { "type": "Polygon", "coordinates": [ [ [ 21.6532197, 40.2657756 ], [ 21.6531552, 40.2660109 ], [ 21.6530716, 40.2663172 ], [ 21.6545789, 40.266747 ], [ 21.6550308, 40.2659261 ], [ 21.6533058, 40.2654089 ], [ 21.6532197, 40.2657756 ] ] ] } },
{ "type": "Feature", "properties": { "element": "way", "id": 1280039430, "amenity": null, "backrest": null, "material": null, "ele": null, "building": null, "denomination": null, "name": null, "religion": null, "natural": null, "landuse": "farmyard", "leaf_type": null, "source": null, "leisure": null, "sport": null, "surface": null, "isced:level": null, "operator": null, "mapillary": null, "waterway": null, "width": null, "layer": null, "tunnel": null, "shelter_type": null, "label": "landuse:farmyard" }, "geometry": { "type": "Polygon", "coordinates": [ [ [ 21.6775515, 40.264424 ], [ 21.6775515, 40.2644787 ], [ 21.6778552, 40.2645018 ], [ 21.6779099, 40.2641909 ], [ 21.6771328, 40.2641866 ], [ 21.6771555, 40.2644183 ], [ 21.6775515, 40.264424 ] ] ] } },
{ "type": "Feature", "properties": { "element": "way", "id": 1280039431, "amenity": null, "backrest": null, "material": null, "ele": null, "building": null, "denomination": null, "name": null, "religion": null, "natural": null, "landuse": "farmyard", "leaf_type": null, "source": null, "leisure": null, "sport": null, "surface": null, "isced:level": null, "operator": null, "mapillary": null, "waterway": null, "width": null, "layer": null, "tunnel": null, "shelter_type": null, "label": "landuse:farmyard" }, "geometry": { "type": "Polygon", "coordinates": [ [ [ 21.6766979, 40.2564846 ], [ 21.6766367, 40.256832 ], [ 21.6769312, 40.256832 ], [ 21.6769282, 40.2565064 ], [ 21.6766979, 40.2564846 ] ] ] } },
{ "type": "Feature", "properties": { "element": "way", "id": 1317394005, "amenity": null, "backrest": null, "material": null, "ele": null, "building": null, "denomination": null, "name": null, "religion": null, "natural": null, "landuse": "residential", "leaf_type": null, "source": null, "leisure": null, "sport": null, "surface": null, "isced:level": null, "operator": null, "mapillary": null, "waterway": null, "width": null, "layer": null, "tunnel": null, "shelter_type": null, "label": "landuse:residential" }, "geometry": { "type": "Polygon", "coordinates": [ [ [ 21.6781623, 40.2470276 ], [ 21.6779552, 40.2471913 ], [ 21.6778616, 40.2475211 ], [ 21.677624, 40.247574 ], [ 21.6775725, 40.2477923 ], [ 21.677163, 40.2477414 ], [ 21.6770878, 40.2478685 ], [ 21.6770142, 40.2480948 ], [ 21.6767913, 40.2480764 ], [ 21.6767178, 40.2482136 ], [ 21.6768523, 40.2484118 ], [ 21.6763929, 40.2486325 ], [ 21.6765622, 40.2488924 ], [ 21.6765727, 40.2491019 ], [ 21.6758651, 40.2491324 ], [ 21.6758714, 40.2492832 ], [ 21.6762709, 40.2492656 ], [ 21.6766389, 40.2491909 ], [ 21.6768486, 40.2494438 ], [ 21.6772836, 40.2493904 ], [ 21.6775967, 40.2498257 ], [ 21.6774684, 40.2498955 ], [ 21.6773948, 40.2499765 ], [ 21.677194, 40.2501699 ], [ 21.6770999, 40.2502212 ], [ 21.6769964, 40.2501185 ], [ 21.6762615, 40.2501546 ], [ 21.6762775, 40.2503496 ], [ 21.676867, 40.2503986 ], [ 21.6770112, 40.2506093 ], [ 21.6770186, 40.251176 ], [ 21.6762077, 40.2514984 ], [ 21.6757904, 40.2516869 ], [ 21.675024, 40.2519599 ], [ 21.6747941, 40.2520053 ], [ 21.6749644, 40.2525318 ], [ 21.6742321, 40.2530062 ], [ 21.6743754, 40.253446 ], [ 21.6746203, 40.2536322 ], [ 21.6751534, 40.2537197 ], [ 21.6756843, 40.2536442 ], [ 21.6756822, 40.2538745 ], [ 21.6756317, 40.254258 ], [ 21.6755813, 40.2544771 ], [ 21.675945, 40.2545092 ], [ 21.6759976, 40.2552586 ], [ 21.6755765, 40.2552586 ], [ 21.6752911, 40.2552508 ], [ 21.6752806, 40.2555506 ], [ 21.6756054, 40.255541 ], [ 21.6755852, 40.2559095 ], [ 21.6760796, 40.2559935 ], [ 21.6758426, 40.2563868 ], [ 21.6761083, 40.2564332 ], [ 21.6769282, 40.2565064 ], [ 21.676914, 40.2561889 ], [ 21.6769481, 40.2555357 ], [ 21.6778974, 40.2554506 ], [ 21.6779725, 40.2552247 ], [ 21.6775276, 40.2543385 ], [ 21.6775276, 40.2537341 ], [ 21.6777234, 40.2527592 ], [ 21.678218, 40.2525755 ], [ 21.6795921, 40.2527456 ], [ 21.6796121, 40.2524054 ], [ 21.6776754, 40.2522106 ], [ 21.6771278, 40.2524042 ], [ 21.6769744, 40.2523932 ], [ 21.6771036, 40.2519761 ], [ 21.6771835, 40.2518028 ], [ 21.6774999, 40.2517787 ], [ 21.6780855, 40.2517017 ], [ 21.6780478, 40.2513176 ], [ 21.6777494, 40.2512583 ], [ 21.6779827, 40.2507076 ], [ 21.6783499, 40.2507712 ], [ 21.6782843, 40.250937 ], [ 21.6782889, 40.251076 ], [ 21.6785461, 40.2510964 ], [ 21.6785979, 40.2509817 ], [ 21.6787106, 40.2508254 ], [ 21.6787852, 40.250844 ], [ 21.6789274, 40.2511177 ], [ 21.6796448, 40.2511692 ], [ 21.6802279, 40.2506332 ], [ 21.6801987, 40.2503184 ], [ 21.6797412, 40.249673 ], [ 21.6799199, 40.2495836 ], [ 21.6801602, 40.2495225 ], [ 21.6800862, 40.2491415 ], [ 21.6799815, 40.2487606 ], [ 21.6798274, 40.2483514 ], [ 21.679772, 40.2481256 ], [ 21.6798891, 40.2480786 ], [ 21.6802465, 40.2480645 ], [ 21.6805484, 40.2480034 ], [ 21.680790264656054, 40.247799891162536 ], [ 21.680790264656054, 40.245661317402977 ], [ 21.6805476, 40.2458185 ], [ 21.6804731, 40.2459154 ], [ 21.680143, 40.2459178 ], [ 21.6799012, 40.2462187 ], [ 21.6803859, 40.2463487 ], [ 21.6801966, 40.2468727 ], [ 21.6797424, 40.2468607 ], [ 21.6793921, 40.2471258 ], [ 21.678846, 40.2468036 ], [ 21.6784283, 40.2470316 ], [ 21.6781623, 40.2470276 ] ] ] } },
{ "type": "Feature", "properties": { "element": "way", "id": 1333448557, "amenity": null, "backrest": null, "material": null, "ele": null, "building": null, "denomination": null, "name": null, "religion": null, "natural": null, "landuse": null, "leaf_type": null, "source": null, "leisure": "park", "sport": null, "surface": null, "isced:level": null, "operator": null, "mapillary": null, "waterway": null, "width": null, "layer": null, "tunnel": null, "shelter_type": null, "label": "leisure:park" }, "geometry": { "type": "Polygon", "coordinates": [ [ [ 21.678158, 40.2497191 ], [ 21.6780004, 40.2497599 ], [ 21.6781085, 40.2498863 ], [ 21.6781927, 40.249756 ], [ 21.678158, 40.2497191 ] ] ] } },
{ "type": "Feature", "properties": { "element": "way", "id": 1333448560, "amenity": null, "backrest": null, "material": null, "ele": null, "building": null, "denomination": "greek_orthodox", "name": "Κοιμητήρια Μεταμόρφωσης", "religion": "christian", "natural": null, "landuse": "cemetery", "leaf_type": null, "source": null, "leisure": null, "sport": null, "surface": null, "isced:level": null, "operator": null, "mapillary": null, "waterway": null, "width": null, "layer": null, "tunnel": null, "shelter_type": null, "label": "landuse:cemetery" }, "geometry": { "type": "Polygon", "coordinates": [ [ [ 21.6752774, 40.2500784 ], [ 21.675657, 40.2502164 ], [ 21.6758231, 40.2498321 ], [ 21.6757093, 40.2497955 ], [ 21.6755014, 40.2497286 ], [ 21.6752774, 40.2500784 ] ] ] } },
{ "type": "Feature", "properties": { "element": "way", "id": 1333448564, "amenity": "kindergarten", "backrest": null, "material": null, "ele": null, "building": null, "denomination": null, "name": "Νηπιαγωγείο Μεταμόρφωσης", "religion": null, "natural": null, "landuse": null, "leaf_type": null, "source": null, "leisure": null, "sport": null, "surface": null, "isced:level": "0", "operator": "Δήμος Κοζάνης", "mapillary": null, "waterway": null, "width": null, "layer": null, "tunnel": null, "shelter_type": null, "label": "amenity:kindergarten" }, "geometry": { "type": "Polygon", "coordinates": [ [ [ 21.6777202, 40.2504362 ], [ 21.6778774, 40.2501755 ], [ 21.6776093, 40.2500929 ], [ 21.6775333, 40.2501546 ], [ 21.6773635, 40.2503023 ], [ 21.6774371, 40.2503516 ], [ 21.6776808, 40.2505013 ], [ 21.6777202, 40.2504362 ] ] ] } },
{ "type": "Feature", "properties": { "element": "way", "id": 1333448565, "amenity": null, "backrest": null, "material": null, "ele": null, "building": "kindergarten", "denomination": null, "name": null, "religion": null, "natural": null, "landuse": null, "leaf_type": null, "source": null, "leisure": null, "sport": null, "surface": null, "isced:level": null, "operator": null, "mapillary": null, "waterway": null, "width": null, "layer": null, "tunnel": null, "shelter_type": null, "label": "building:kindergarten" }, "geometry": { "type": "Polygon", "coordinates": [ [ [ 21.6775918, 40.2502264 ], [ 21.677613, 40.250208 ], [ 21.6775333, 40.2501546 ], [ 21.6773635, 40.2503023 ], [ 21.6774371, 40.2503516 ], [ 21.6774694, 40.2503234 ], [ 21.6775453, 40.2503742 ], [ 21.677576, 40.2503475 ], [ 21.6776615, 40.2502731 ], [ 21.6775918, 40.2502264 ] ] ] } },
{ "type": "Feature", "properties": { "element": "way", "id": 1333448569, "amenity": null, "backrest": null, "material": null, "ele": null, "building": null, "denomination": null, "name": null, "religion": null, "natural": null, "landuse": null, "leaf_type": null, "source": null, "leisure": "playground", "sport": null, "surface": null, "isced:level": null, "operator": null, "mapillary": null, "waterway": null, "width": null, "layer": null, "tunnel": null, "shelter_type": null, "label": "leisure:playground" }, "geometry": { "type": "Polygon", "coordinates": [ [ [ 21.6767167, 40.2531732 ], [ 21.6767609, 40.2531187 ], [ 21.6767934, 40.2529943 ], [ 21.6763477, 40.2530416 ], [ 21.6763677, 40.2531797 ], [ 21.6767167, 40.2531732 ] ] ] } },
{ "type": "Feature", "properties": { "element": "way", "id": 1333560084, "amenity": "place_of_worship", "backrest": null, "material": null, "ele": null, "building": "chapel", "denomination": "greek_orthodox", "name": "Άγιος Νικάνορας", "religion": "christian", "natural": null, "landuse": null, "leaf_type": null, "source": null, "leisure": null, "sport": null, "surface": null, "isced:level": null, "operator": null, "mapillary": "1020854502648797", "waterway": null, "width": null, "layer": null, "tunnel": null, "shelter_type": null, "label": "building:chapel;amenity:place_of_worship" }, "geometry": { "type": "Polygon", "coordinates": [ [ [ 21.677241, 40.2455162 ], [ 21.6772497, 40.2455384 ], [ 21.6772581, 40.2455601 ], [ 21.6773425, 40.245541 ], [ 21.6773255, 40.2454971 ], [ 21.677241, 40.2455162 ] ] ] } },
{ "type": "Feature", "properties": { "element": "way", "id": 1333591848, "amenity": null, "backrest": null, "material": null, "ele": null, "building": null, "denomination": null, "name": null, "religion": null, "natural": null, "landuse": null, "leaf_type": null, "source": null, "leisure": "pitch", "sport": "soccer", "surface": "ground", "isced:level": null, "operator": null, "mapillary": null, "waterway": null, "width": null, "layer": null, "tunnel": null, "shelter_type": null, "label": "sport:soccer;leisure:pitch" }, "geometry": { "type": "Polygon", "coordinates": [ [ [ 21.6806897, 40.2448361 ], [ 21.6798812, 40.2453761 ], [ 21.6798465, 40.2454275 ], [ 21.6798528, 40.2454981 ], [ 21.6800273, 40.2457404 ], [ 21.6801682, 40.2458143 ], [ 21.6804037, 40.2458584 ], [ 21.6804347, 40.2458492 ], [ 21.6805688, 40.2457244 ], [ 21.680790264656054, 40.245589618250804 ], [ 21.680790264656054, 40.244810761650385 ], [ 21.6806897, 40.2448361 ] ] ] } },
{ "type": "Feature", "properties": { "element": "way", "id": 1333681412, "amenity": null, "backrest": null, "material": null, "ele": null, "building": null, "denomination": null, "name": null, "religion": null, "natural": null, "landuse": "religious", "leaf_type": null, "source": null, "leisure": null, "sport": null, "surface": null, "isced:level": null, "operator": null, "mapillary": null, "waterway": null, "width": null, "layer": null, "tunnel": null, "shelter_type": null, "label": "landuse:religious" }, "geometry": { "type": "Polygon", "coordinates": [ [ [ 21.6734506, 40.2565214 ], [ 21.6735099, 40.2563936 ], [ 21.6730374, 40.2562692 ], [ 21.6730254, 40.2563066 ], [ 21.6729877, 40.2564243 ], [ 21.673076, 40.2564427 ], [ 21.6732359, 40.2564765 ], [ 21.6734506, 40.2565214 ] ] ] } },
{ "type": "Feature", "properties": { "element": "way", "id": 1333681413, "amenity": null, "backrest": null, "material": null, "ele": null, "building": null, "denomination": null, "name": null, "religion": null, "natural": null, "landuse": "farmyard", "leaf_type": null, "source": null, "leisure": null, "sport": null, "surface": null, "isced:level": null, "operator": null, "mapillary": null, "waterway": null, "width": null, "layer": null, "tunnel": null, "shelter_type": null, "label": "landuse:farmyard" }, "geometry": { "type": "Polygon", "coordinates": [ [ [ 21.668859, 40.249345 ], [ 21.6682261, 40.2487737 ], [ 21.6675449, 40.2493755 ], [ 21.6679065, 40.2497542 ], [ 21.668859, 40.249345 ] ] ] } },
{ "type": "Feature", "properties": { "element": "way", "id": 1333681419, "amenity": null, "backrest": null, "material": null, "ele": null, "building": null, "denomination": null, "name": null, "religion": null, "natural": null, "landuse": null, "leaf_type": null, "source": null, "leisure": null, "sport": null, "surface": null, "isced:level": null, "operator": null, "mapillary": null, "waterway": "stream", "width": "0.5", "layer": null, "tunnel": null, "shelter_type": null, "label": "waterway:stream" }, "geometry": { "type": "LineString", "coordinates": [ [ 21.6718764, 40.2594571 ], [ 21.671889, 40.2592413 ], [ 21.6719415, 40.2589461 ], [ 21.6719626, 40.2587407 ], [ 21.6720088, 40.2584888 ], [ 21.6720446, 40.2583106 ], [ 21.6720677, 40.2581181 ], [ 21.6720866, 40.2579496 ], [ 21.6721939, 40.2577715 ], [ 21.6722906, 40.2575982 ], [ 21.6723894, 40.2574137 ], [ 21.672442, 40.2573366 ], [ 21.6724651, 40.2572018 ], [ 21.6725093, 40.2570221 ], [ 21.6724861, 40.2569018 ], [ 21.6724966, 40.2567686 ], [ 21.6725282, 40.2566803 ], [ 21.6725892, 40.2564942 ], [ 21.672627, 40.2563353 ], [ 21.6726817, 40.2561749 ], [ 21.6727153, 40.2560994 ] ] } },
{ "type": "Feature", "properties": { "element": "way", "id": 1333681420, "amenity": null, "backrest": null, "material": null, "ele": null, "building": null, "denomination": null, "name": null, "religion": null, "natural": null, "landuse": null, "leaf_type": null, "source": null, "leisure": null, "sport": null, "surface": null, "isced:level": null, "operator": null, "mapillary": null, "waterway": "stream", "width": "0.5", "layer": "-1", "tunnel": "culvert", "shelter_type": null, "label": "waterway:stream" }, "geometry": { "type": "LineString", "coordinates": [ [ 21.6718706, 40.2595406 ], [ 21.6718764, 40.2594571 ] ] } },
{ "type": "Feature", "properties": { "element": "way", "id": 1333681421, "amenity": null, "backrest": null, "material": null, "ele": null, "building": null, "denomination": null, "name": null, "religion": null, "natural": null, "landuse": null, "leaf_type": null, "source": null, "leisure": null, "sport": null, "surface": null, "isced:level": null, "operator": null, "mapillary": null, "waterway": "stream", "width": "0.5", "layer": null, "tunnel": null, "shelter_type": null, "label": "waterway:stream" }, "geometry": { "type": "LineString", "coordinates": [ [ 21.6727595, 40.2560433 ], [ 21.6728541, 40.2559149 ], [ 21.6729613, 40.2558186 ], [ 21.6730686, 40.2557111 ], [ 21.6732473, 40.2555282 ], [ 21.6733356, 40.2554174 ], [ 21.6734029, 40.2552489 ], [ 21.6734344, 40.2551575 ], [ 21.6734197, 40.2550708 ], [ 21.6734407, 40.2549296 ], [ 21.6735417, 40.254798 ], [ 21.6736847, 40.2546376 ], [ 21.6738066, 40.2545124 ], [ 21.6738571, 40.2544667 ], [ 21.6739937, 40.2543543 ], [ 21.6740957, 40.2542524 ], [ 21.6741199, 40.2541979 ], [ 21.674121, 40.2541176 ], [ 21.6741273, 40.2539941 ], [ 21.6741315, 40.2538986 ], [ 21.6741378, 40.2538424 ], [ 21.674163, 40.2537959 ], [ 21.6744563, 40.2534099 ], [ 21.6745467, 40.2533277 ] ] } },
{ "type": "Feature", "properties": { "element": "way", "id": 1333681422, "amenity": null, "backrest": null, "material": null, "ele": null, "building": null, "denomination": null, "name": null, "religion": null, "natural": null, "landuse": null, "leaf_type": null, "source": null, "leisure": null, "sport": null, "surface": null, "isced:level": null, "operator": null, "mapillary": null, "waterway": "stream", "width": "0.5", "layer": "-1", "tunnel": "culvert", "shelter_type": null, "label": "waterway:stream" }, "geometry": { "type": "LineString", "coordinates": [ [ 21.6727153, 40.2560994 ], [ 21.6727595, 40.2560433 ] ] } },
{ "type": "Feature", "properties": { "element": "way", "id": 1333681423, "amenity": null, "backrest": null, "material": null, "ele": null, "building": null, "denomination": null, "name": null, "religion": null, "natural": null, "landuse": null, "leaf_type": null, "source": null, "leisure": null, "sport": null, "surface": null, "isced:level": null, "operator": null, "mapillary": null, "waterway": "stream", "width": "0.5", "layer": null, "tunnel": null, "shelter_type": null, "label": "waterway:stream" }, "geometry": { "type": "LineString", "coordinates": [ [ 21.6746351, 40.2532687 ], [ 21.6748243, 40.2531339 ], [ 21.6750598, 40.2529847 ], [ 21.6751975, 40.2529173 ] ] } },
{ "type": "Feature", "properties": { "element": "way", "id": 1333681424, "amenity": null, "backrest": null, "material": null, "ele": null, "building": null, "denomination": null, "name": null, "religion": null, "natural": null, "landuse": null, "leaf_type": null, "source": null, "leisure": null, "sport": null, "surface": null, "isced:level": null, "operator": null, "mapillary": null, "waterway": "stream", "width": "0.5", "layer": "-1", "tunnel": "culvert", "shelter_type": null, "label": "waterway:stream" }, "geometry": { "type": "LineString", "coordinates": [ [ 21.6745467, 40.2533277 ], [ 21.6746351, 40.2532687 ] ] } },
{ "type": "Feature", "properties": { "element": "way", "id": 1333681425, "amenity": null, "backrest": null, "material": null, "ele": null, "building": null, "denomination": null, "name": null, "religion": null, "natural": null, "landuse": null, "leaf_type": null, "source": null, "leisure": null, "sport": null, "surface": null, "isced:level": null, "operator": null, "mapillary": null, "waterway": "stream", "width": "0.5", "layer": null, "tunnel": null, "shelter_type": null, "label": "waterway:stream" }, "geometry": { "type": "LineString", "coordinates": [ [ 21.6754246, 40.2527881 ], [ 21.6756464, 40.2526862 ] ] } },
{ "type": "Feature", "properties": { "element": "way", "id": 1333681426, "amenity": null, "backrest": null, "material": null, "ele": null, "building": null, "denomination": null, "name": null, "religion": null, "natural": null, "landuse": null, "leaf_type": null, "source": null, "leisure": null, "sport": null, "surface": null, "isced:level": null, "operator": null, "mapillary": null, "waterway": "stream", "width": "0.5", "layer": "-1", "tunnel": "culvert", "shelter_type": null, "label": "waterway:stream" }, "geometry": { "type": "LineString", "coordinates": [ [ 21.6751975, 40.2529173 ], [ 21.6754246, 40.2527881 ] ] } },
{ "type": "Feature", "properties": { "element": "way", "id": 1333681427, "amenity": null, "backrest": null, "material": null, "ele": null, "building": null, "denomination": null, "name": null, "religion": null, "natural": null, "landuse": null, "leaf_type": null, "source": null, "leisure": null, "sport": null, "surface": null, "isced:level": null, "operator": null, "mapillary": null, "waterway": "stream", "width": "0.5", "layer": null, "tunnel": null, "shelter_type": null, "label": "waterway:stream" }, "geometry": { "type": "LineString", "coordinates": [ [ 21.671168127903329, 40.267363850965772 ], [ 21.6711993, 40.2671548 ], [ 21.6712456, 40.2669558 ], [ 21.6712666, 40.2667809 ], [ 21.671275, 40.2666831 ], [ 21.6713213, 40.2666205 ], [ 21.6714432, 40.266598 ], [ 21.6716745, 40.2665772 ], [ 21.6718427, 40.2665595 ], [ 21.6718869, 40.2665194 ], [ 21.672013, 40.2663157 ], [ 21.6720929, 40.266221 ], [ 21.6721287, 40.2661536 ], [ 21.6721266, 40.2660846 ], [ 21.672095, 40.265998 ], [ 21.6719689, 40.2658183 ], [ 21.6719121, 40.2656995 ], [ 21.6718722, 40.2656001 ], [ 21.6717691, 40.26543 ], [ 21.6717081, 40.265369 ], [ 21.6716997, 40.2653177 ], [ 21.6716976, 40.2651749 ], [ 21.6716661, 40.2650016 ], [ 21.6716367, 40.2648476 ], [ 21.6716114, 40.2646615 ], [ 21.6716261, 40.2645443 ], [ 21.6716346, 40.2643598 ], [ 21.6716871, 40.264217 ], [ 21.6717523, 40.2639587 ], [ 21.6718154, 40.263795 ], [ 21.671849, 40.2637228 ], [ 21.671931, 40.2635046 ], [ 21.6719878, 40.2632623 ], [ 21.671992, 40.26315 ], [ 21.6719857, 40.2629976 ], [ 21.6719584, 40.2628789 ], [ 21.6719436, 40.2627489 ], [ 21.6719752, 40.2626302 ], [ 21.6720151, 40.2624777 ], [ 21.6720719, 40.2623462 ], [ 21.6720908, 40.2622146 ], [ 21.6720803, 40.2620718 ], [ 21.6720383, 40.2613369 ], [ 21.6719983, 40.2610786 ], [ 21.6718932, 40.2607785 ], [ 21.6718427, 40.2606421 ], [ 21.6718175, 40.2604817 ], [ 21.6718175, 40.2603597 ], [ 21.6717859, 40.2601912 ], [ 21.6718007, 40.2600468 ], [ 21.6718049, 40.259896 ], [ 21.6718364, 40.2597484 ], [ 21.6718658, 40.2596088 ], [ 21.6718706, 40.2595406 ] ] } },
{ "type": "Feature", "properties": { "element": "way", "id": 1333681429, "amenity": null, "backrest": null, "material": null, "ele": null, "building": null, "denomination": null, "name": null, "religion": null, "natural": null, "landuse": "farmyard", "leaf_type": null, "source": null, "leisure": null, "sport": null, "surface": null, "isced:level": null, "operator": null, "mapillary": null, "waterway": null, "width": null, "layer": null, "tunnel": null, "shelter_type": null, "label": "landuse:farmyard" }, "geometry": { "type": "Polygon", "coordinates": [ [ [ 21.6730602, 40.2510044 ], [ 21.6736542, 40.2506016 ], [ 21.67318, 40.2503938 ], [ 21.6728362, 40.2508953 ], [ 21.6730602, 40.2510044 ] ] ] } },
{ "type": "Feature", "properties": { "element": "way", "id": 1333681435, "amenity": "place_of_worship", "backrest": null, "material": null, "ele": null, "building": "church", "denomination": "greek_orthodox", "name": "Άγιος Νικόλαος", "religion": "christian", "natural": null, "landuse": null, "leaf_type": null, "source": null, "leisure": null, "sport": null, "surface": null, "isced:level": null, "operator": null, "mapillary": null, "waterway": null, "width": null, "layer": null, "tunnel": null, "shelter_type": null, "label": "building:church;amenity:place_of_worship" }, "geometry": { "type": "Polygon", "coordinates": [ [ [ 21.6773268, 40.2488146 ], [ 21.6773005, 40.2487063 ], [ 21.6770823, 40.2487372 ], [ 21.6771086, 40.2488455 ], [ 21.6773268, 40.2488146 ] ] ] } },
{ "type": "Feature", "properties": { "element": "way", "id": 1333681436, "amenity": "place_of_worship", "backrest": null, "material": null, "ele": null, "building": "chapel", "denomination": "greek_orthodox", "name": "Άγιος Αθανάσιος", "religion": "christian", "natural": null, "landuse": null, "leaf_type": null, "source": null, "leisure": null, "sport": null, "surface": null, "isced:level": null, "operator": null, "mapillary": null, "waterway": null, "width": null, "layer": null, "tunnel": null, "shelter_type": null, "label": "building:chapel;amenity:place_of_worship" }, "geometry": { "type": "Polygon", "coordinates": [ [ [ 21.6784585, 40.2509132 ], [ 21.6783112, 40.2508968 ], [ 21.6782948, 40.2509826 ], [ 21.6784421, 40.250999 ], [ 21.6784585, 40.2509132 ] ] ] } },
{ "type": "Feature", "properties": { "element": "way", "id": 1333681437, "amenity": "place_of_worship", "backrest": null, "material": null, "ele": null, "building": "chapel", "denomination": "greek_orthodox", "name": "Αγία Τριάδα", "religion": "christian", "natural": null, "landuse": null, "leaf_type": null, "source": null, "leisure": null, "sport": null, "surface": null, "isced:level": null, "operator": null, "mapillary": null, "waterway": null, "width": null, "layer": null, "tunnel": null, "shelter_type": null, "label": "building:chapel;amenity:place_of_worship" }, "geometry": { "type": "Polygon", "coordinates": [ [ [ 21.6731415, 40.2563846 ], [ 21.6731002, 40.2563759 ], [ 21.673076, 40.2564427 ], [ 21.6732359, 40.2564765 ], [ 21.6732602, 40.2564096 ], [ 21.6731415, 40.2563846 ] ] ] } },
{ "type": "Feature", "properties": { "element": "way", "id": 1333681438, "amenity": "place_of_worship", "backrest": null, "material": null, "ele": null, "building": "chapel", "denomination": "greek_orthodox", "name": "Προφήτης Ηλίας", "religion": "christian", "natural": null, "landuse": null, "leaf_type": null, "source": null, "leisure": null, "sport": null, "surface": null, "isced:level": null, "operator": null, "mapillary": null, "waterway": null, "width": null, "layer": null, "tunnel": null, "shelter_type": null, "label": "building:chapel;amenity:place_of_worship" }, "geometry": { "type": "Polygon", "coordinates": [ [ [ 21.6716602, 40.2529511 ], [ 21.671552, 40.2529357 ], [ 21.6715403, 40.2529833 ], [ 21.6716485, 40.2529987 ], [ 21.6716602, 40.2529511 ] ] ] } },
{ "type": "Feature", "properties": { "element": "way", "id": 1333681439, "amenity": "shelter", "backrest": null, "material": null, "ele": "758", "building": null, "denomination": null, "name": null, "religion": null, "natural": null, "landuse": null, "leaf_type": null, "source": null, "leisure": null, "sport": null, "surface": null, "isced:level": null, "operator": null, "mapillary": null, "waterway": null, "width": null, "layer": null, "tunnel": null, "shelter_type": "gazebo", "label": "amenity:shelter" }, "geometry": { "type": "Polygon", "coordinates": [ [ [ 21.6717565, 40.2531074 ], [ 21.6717671, 40.2530848 ], [ 21.6717468, 40.2530665 ], [ 21.6717159, 40.2530707 ], [ 21.6717053, 40.2530933 ], [ 21.6717256, 40.2531116 ], [ 21.6717565, 40.2531074 ] ] ] } },
{ "type": "Feature", "properties": { "element": "way", "id": 1333681440, "amenity": "place_of_worship", "backrest": null, "material": null, "ele": null, "building": "chapel", "denomination": "greek_orthodox", "name": "Άγιος Δημήτριος", "religion": "christian", "natural": null, "landuse": null, "leaf_type": null, "source": null, "leisure": null, "sport": null, "surface": null, "isced:level": null, "operator": null, "mapillary": null, "waterway": null, "width": null, "layer": null, "tunnel": null, "shelter_type": null, "label": "building:chapel;amenity:place_of_worship" }, "geometry": { "type": "Polygon", "coordinates": [ [ [ 21.6784655, 40.248464 ], [ 21.6783509, 40.2484896 ], [ 21.6783623, 40.2485193 ], [ 21.6783721, 40.2485449 ], [ 21.6784867, 40.2485194 ], [ 21.6784655, 40.248464 ] ] ] } }
]
}
