{
"type": "FeatureCollection",
"name": "patch_96033_point",
"crs": { "type": "name", "properties": { "name": "urn:ogc:def:crs:OGC:1.3:CRS84" } },
"features": [
{ "type": "Feature", "properties": { "element": "node", "id": 9156206114, "natural": null, "amenity": "fuel", "brand": "ΕΛΙΝΟΙΛ", "brand:wikidata": "Q12876543", "name": "ΕΛΙΝΟΙΛ", "operator": "ΒΑΣΙΛΕΙΟΥ ΣΠΥΡΙΔΩΝ", "landuse": null, "addr:city": null, "description": null, "religion": null, "building": null, "denomination": null, "leaf_type": null, "payment:cash": null, "payment:credit_cards": null, "shop": null, "building:levels": null, "height": null, "man_made": null, "crop": null, "source": null, "leisure": null, "sport": null, "waterway": null, "trees": null, "width": null, "layer": null, "tunnel": null, "wetland": null, "intermittent": null, "type": null, "water": null, "label": "amenity:fuel" }, "geometry": { "type": "Point", "coordinates": [ 23.2402081, 38.2669312 ] } }
]
}
