{
"type": "FeatureCollection",
"name": "patch_23825_features",
"crs": { "type": "name", "properties": { "name": "urn:ogc:def:crs:OGC:1.3:CRS84" } },
"features": [
{ "type": "Feature", "properties": { "element": "way", "id": 691370827, "boat": "no", "source": "Bing", "waterway": "stream", "layer": null, "tunnel": null, "natural": null, "water": null, "label": "waterway:stream" }, "geometry": { "type": "LineString", "coordinates": [ [ 22.6374228, 37.7593513 ], [ 22.637377, 37.7589343 ], [ 22.637377, 37.7588572 ], [ 22.6374136, 37.7587752 ], [ 22.6374807, 37.7587013 ], [ 22.6375082, 37.7586414 ], [ 22.6375153, 37.7585295 ], [ 22.6375542, 37.7584147 ], [ 22.6375719, 37.7582636 ], [ 22.6376002, 37.7581013 ], [ 22.6376144, 37.7578999 ], [ 22.637586, 37.7577656 ], [ 22.6375471, 37.7576341 ], [ 22.6375365, 37.7574858 ], [ 22.6374728, 37.7574074 ], [ 22.637356, 37.7573542 ], [ 22.6372003, 37.7573403 ], [ 22.6370658, 37.7572899 ], [ 22.6369277, 37.7572171 ], [ 22.6368039, 37.7571892 ], [ 22.6366859, 37.7571874 ], [ 22.636568, 37.7571488 ], [ 22.6364562, 37.7571038 ], [ 22.6363871, 37.7570508 ], [ 22.6363159, 37.7569913 ], [ 22.6362611, 37.7569158 ], [ 22.6362224, 37.7568451 ], [ 22.6361858, 37.7567888 ], [ 22.6361804, 37.7567555 ], [ 22.6361818, 37.7566265 ], [ 22.6361818, 37.7565783 ], [ 22.6361411, 37.7565317 ], [ 22.6360761, 37.7564867 ], [ 22.6360232, 37.7564128 ], [ 22.636021199239178, 37.756408142491203 ] ] } },
{ "type": "Feature", "properties": { "element": "way", "id": 732795913, "boat": "no", "source": "Bing", "waterway": "stream", "layer": "-1", "tunnel": "culvert", "natural": null, "water": null, "label": "waterway:stream" }, "geometry": { "type": "LineString", "coordinates": [ [ 22.6374686, 37.7599328 ], [ 22.6374228, 37.7593513 ] ] } },
{ "type": "Feature", "properties": { "element": "way", "id": 732795914, "boat": "no", "source": "Bing", "waterway": "stream", "layer": null, "tunnel": null, "natural": null, "water": null, "label": "waterway:stream" }, "geometry": { "type": "LineString", "coordinates": [ [ 22.6371844, 37.7603354 ], [ 22.6372862, 37.7603081 ], [ 22.6373666, 37.760289 ], [ 22.6374444, 37.7602593 ], [ 22.6374739, 37.760219 ], [ 22.6374686, 37.7599328 ] ] } },
{ "type": "Feature", "properties": { "element": "way", "id": 732795915, "boat": "no", "source": "Bing", "waterway": "stream", "layer": "-1", "tunnel": "culvert", "natural": null, "water": null, "label": "waterway:stream" }, "geometry": { "type": "LineString", "coordinates": [ [ 22.6369332, 37.760423 ], [ 22.6371844, 37.7603354 ] ] } },
{ "type": "Feature", "properties": { "element": "way", "id": 732795916, "boat": "no", "source": "Bing", "waterway": "stream", "layer": null, "tunnel": null, "natural": null, "water": null, "label": "waterway:stream" }, "geometry": { "type": "LineString", "coordinates": [ [ 22.6364475, 37.7605633 ], [ 22.6365175, 37.7605079 ], [ 22.6366249, 37.7604839 ], [ 22.6367324, 37.7604839 ], [ 22.6368398, 37.7604636 ], [ 22.6369332, 37.760423 ] ] } },
{ "type": "Feature", "properties": { "element": "way", "id": 772604709, "boat": null, "source": "Bing (2020-02-15)", "waterway": null, "layer": null, "tunnel": null, "natural": "wood", "water": null, "label": "natural:wood" }, "geometry": { "type": "Polygon", "coordinates": [ [ [ 22.627156, 37.7587925 ], [ 22.627143853132424, 37.758798368443479 ], [ 22.627143853132424, 37.758911373721055 ], [ 22.6274675, 37.7587925 ], [ 22.627156, 37.7587925 ] ] ] } },
{ "type": "Feature", "properties": { "element": "way", "id": 778007712, "boat": null, "source": "Maxar Premium Imagery (2020-03-03)", "waterway": null, "layer": null, "tunnel": null, "natural": "water", "water": "reservoir", "label": "water:reservoir;natural:water" }, "geometry": { "type": "Polygon", "coordinates": [ [ [ 22.6497412, 37.7590301 ], [ 22.6493435, 37.7591197 ], [ 22.6494037, 37.7592865 ], [ 22.6498013, 37.759197 ], [ 22.6497412, 37.7590301 ] ] ] } },
{ "type": "Feature", "properties": { "element": "way", "id": 778007713, "boat": null, "source": "Maxar Premium Imagery (2020-03-03)", "waterway": null, "layer": null, "tunnel": null, "natural": "wood", "water": null, "label": "natural:wood" }, "geometry": { "type": "Polygon", "coordinates": [ [ [ 22.6487875, 37.7589297 ], [ 22.6488787, 37.7589128 ], [ 22.6489806, 37.7588407 ], [ 22.6489162, 37.7588067 ], [ 22.6487982, 37.7587983 ], [ 22.6486909, 37.7588025 ], [ 22.6485836, 37.7588534 ], [ 22.6483476, 37.758934 ], [ 22.6480579, 37.7589933 ], [ 22.6477468, 37.7590527 ], [ 22.6475322, 37.7591248 ], [ 22.6473445, 37.7592012 ], [ 22.647264, 37.7592817 ], [ 22.647205, 37.7594429 ], [ 22.6471192, 37.7596889 ], [ 22.6470977, 37.7598924 ], [ 22.6471031, 37.7601087 ], [ 22.6471245, 37.7603462 ], [ 22.647146, 37.7605201 ], [ 22.6471943, 37.7606685 ], [ 22.6471943, 37.7608552 ], [ 22.6470816, 37.7609018 ], [ 22.6469475, 37.7609315 ], [ 22.6468939, 37.7610672 ], [ 22.646985, 37.7611902 ], [ 22.6471138, 37.761292 ], [ 22.6472694, 37.7613344 ], [ 22.6474088, 37.7613089 ], [ 22.6475805, 37.7613429 ], [ 22.6478219, 37.7613386 ], [ 22.648235, 37.7612792 ], [ 22.6486695, 37.7612284 ], [ 22.6491898, 37.7611605 ], [ 22.6493186, 37.7611096 ], [ 22.6493669, 37.7610375 ], [ 22.6494259, 37.7609654 ], [ 22.6495814, 37.7609018 ], [ 22.6496673, 37.7609485 ], [ 22.6497638, 37.7609612 ], [ 22.6498926, 37.7609485 ], [ 22.6498336, 37.7608594 ], [ 22.6498336, 37.7607661 ], [ 22.6499194, 37.7606049 ], [ 22.650091, 37.7604395 ], [ 22.6502091, 37.7603547 ], [ 22.6503539, 37.7604056 ], [ 22.6504719, 37.7604777 ], [ 22.6506221, 37.7605286 ], [ 22.6507026, 37.7604523 ], [ 22.6507348, 37.7603505 ], [ 22.6508743, 37.7602232 ], [ 22.6510298, 37.7600748 ], [ 22.6511747, 37.7599349 ], [ 22.6510245, 37.7599688 ], [ 22.6509064, 37.7600239 ], [ 22.6507991, 37.7601172 ], [ 22.6506811, 37.7601724 ], [ 22.6504666, 37.7601639 ], [ 22.6502627, 37.7601003 ], [ 22.6501018, 37.7600451 ], [ 22.6499623, 37.760007 ], [ 22.6498872, 37.7600833 ], [ 22.6498604, 37.7601893 ], [ 22.6497531, 37.7603165 ], [ 22.6496404, 37.7604395 ], [ 22.6495171, 37.7603505 ], [ 22.6494688, 37.7602826 ], [ 22.6494634, 37.7601342 ], [ 22.6494634, 37.7600451 ], [ 22.6494473, 37.7599306 ], [ 22.6493829, 37.7598712 ], [ 22.6493454, 37.7599306 ], [ 22.6492327, 37.7599518 ], [ 22.6491845, 37.7598585 ], [ 22.6492113, 37.7597822 ], [ 22.6491415, 37.7596762 ], [ 22.648986, 37.7595913 ], [ 22.6488787, 37.7595913 ], [ 22.648825, 37.759515 ], [ 22.6487821, 37.7593241 ], [ 22.6487392, 37.759163 ], [ 22.6486802, 37.7590782 ], [ 22.6486909, 37.7589509 ], [ 22.6487875, 37.7589297 ] ] ] } },
{ "type": "Feature", "properties": { "element": "way", "id": 949715199, "boat": null, "source": null, "waterway": null, "layer": null, "tunnel": null, "natural": "scrub", "water": null, "label": "natural:scrub" }, "geometry": { "type": "MultiPolygon", "coordinates": [ [ [ [ 22.6565729, 37.7625912 ], [ 22.656407, 37.7627706 ], [ 22.6564843, 37.7628312 ], [ 22.6565126, 37.7629094 ], [ 22.6565928, 37.7629439 ], [ 22.6566718, 37.76293 ], [ 22.6566671, 37.7628116 ], [ 22.656708605424704, 37.762813019226726 ], [ 22.656708605424704, 37.762540201182553 ], [ 22.6565729, 37.7625912 ] ] ], [ [ [ 22.6538466, 37.7564201 ], [ 22.6541225, 37.7566038 ], [ 22.6540131, 37.7567953 ], [ 22.6540059, 37.7571969 ], [ 22.6540949, 37.7573002 ], [ 22.6542498, 37.7574011 ], [ 22.6545124, 37.7575599 ], [ 22.6545497, 37.7576178 ], [ 22.6545296, 37.7576757 ], [ 22.6544981, 37.7578935 ], [ 22.6545096, 37.7580296 ], [ 22.6545641, 37.758092 ], [ 22.6546832, 37.7581839 ], [ 22.6547535, 37.758345 ], [ 22.6545196, 37.758472 ], [ 22.6544062, 37.7586399 ], [ 22.6544966, 37.7588373 ], [ 22.654686, 37.7588951 ], [ 22.6548023, 37.7590347 ], [ 22.6551265, 37.7593693 ], [ 22.6550146, 37.7595202 ], [ 22.6551495, 37.759603 ], [ 22.6552212, 37.7594794 ], [ 22.6553719, 37.759569 ], [ 22.6553317, 37.7596722 ], [ 22.6554379, 37.7597369 ], [ 22.6554336, 37.7598526 ], [ 22.6554724, 37.7599013 ], [ 22.6555771, 37.7598605 ], [ 22.6557077, 37.7599456 ], [ 22.6557034, 37.7600046 ], [ 22.6556001, 37.7600908 ], [ 22.6555305, 37.76036 ], [ 22.6556125, 37.7606262 ], [ 22.6558954, 37.7608646 ], [ 22.656032, 37.7609389 ], [ 22.6562025, 37.7613119 ], [ 22.6562374, 37.7616443 ], [ 22.656437, 37.7617377 ], [ 22.6565397, 37.7616979 ], [ 22.6565523, 37.7618557 ], [ 22.656498, 37.7619399 ], [ 22.6565155, 37.7619598 ], [ 22.656592, 37.7619353 ], [ 22.6566172, 37.761884 ], [ 22.6566724, 37.7618702 ], [ 22.656708605424704, 37.761834170543338 ], [ 22.656708605424704, 37.756408142491203 ], [ 22.653842396304363, 37.756408142491203 ], [ 22.6538466, 37.7564201 ] ] ], [ [ [ 22.6566573, 37.7654739 ], [ 22.6566764, 37.7656556 ], [ 22.656708605424704, 37.765737343005348 ], [ 22.656708605424704, 37.765343733627162 ], [ 22.6566573, 37.7654739 ] ] ] ] } },
{ "type": "Feature", "properties": { "element": "way", "id": 1245210996, "boat": null, "source": null, "waterway": null, "layer": null, "tunnel": null, "natural": "heath", "water": null, "label": "natural:heath" }, "geometry": { "type": "Polygon", "coordinates": [ [ [ 22.6362641, 37.7582569 ], [ 22.6363496, 37.7583708 ], [ 22.6364383, 37.7584863 ], [ 22.6365276, 37.7586008 ], [ 22.6366163, 37.7587137 ], [ 22.6367031, 37.7588251 ], [ 22.6367918, 37.7589406 ], [ 22.6368824, 37.759052 ], [ 22.6369758, 37.7591665 ], [ 22.6370657, 37.7592727 ], [ 22.637157, 37.759381 ], [ 22.6372509, 37.7594898 ], [ 22.637348, 37.7595982 ], [ 22.6374536, 37.7597093 ], [ 22.6375566, 37.759815 ], [ 22.6376562, 37.7599196 ], [ 22.6377571, 37.7600247 ], [ 22.6378658, 37.7601316 ], [ 22.637975, 37.7602391 ], [ 22.6380847, 37.7603406 ], [ 22.6381959, 37.760444 ], [ 22.6383025, 37.7605385 ], [ 22.6384165, 37.7606386 ], [ 22.6385379, 37.7607385 ], [ 22.6386559, 37.7608353 ], [ 22.6387738, 37.7609303 ], [ 22.6388918, 37.761023 ], [ 22.6390157, 37.7611162 ], [ 22.6391408, 37.7612081 ], [ 22.6392654, 37.7612986 ], [ 22.6393905, 37.7613855 ], [ 22.6395196, 37.7614737 ], [ 22.639647, 37.7615569 ], [ 22.6397772, 37.7616411 ], [ 22.6399086, 37.7617226 ], [ 22.6400441, 37.761808 ], [ 22.6401783, 37.7618873 ], [ 22.6403066, 37.7619622 ], [ 22.6404461, 37.7620401 ], [ 22.640576, 37.7621114 ], [ 22.6407194, 37.7621889 ], [ 22.6408585, 37.7622589 ], [ 22.6409981, 37.7623288 ], [ 22.6411412, 37.7623972 ], [ 22.6412862, 37.7624652 ], [ 22.641429, 37.7625309 ], [ 22.6415699, 37.7625946 ], [ 22.6417239, 37.7626609 ], [ 22.6418745, 37.7627228 ], [ 22.6420239, 37.7627842 ], [ 22.6421772, 37.7628445 ], [ 22.6423225, 37.7629024 ], [ 22.6424769, 37.7629607 ], [ 22.6426295, 37.76302 ], [ 22.6427816, 37.7630757 ], [ 22.6429355, 37.763133 ], [ 22.6430882, 37.7631881 ], [ 22.6432421, 37.7632428 ], [ 22.6433947, 37.7632974 ], [ 22.6435478, 37.7633506 ], [ 22.6500117, 37.7655691 ], [ 22.6501656, 37.7656267 ], [ 22.6503169, 37.7656829 ], [ 22.6504737, 37.7657413 ], [ 22.6506226, 37.7657966 ], [ 22.6507732, 37.765855 ], [ 22.6509217, 37.7659139 ], [ 22.6510728, 37.7659748 ], [ 22.6512243, 37.7660348 ], [ 22.6513755, 37.7660976 ], [ 22.6515231, 37.766159 ], [ 22.6516755, 37.7662238 ], [ 22.6518214, 37.7662862 ], [ 22.6519683, 37.7663504 ], [ 22.6521134, 37.7664145 ], [ 22.652254, 37.7664787 ], [ 22.652398, 37.7665447 ], [ 22.6525464, 37.7666149 ], [ 22.65269, 37.7666833 ], [ 22.6528307, 37.7667527 ], [ 22.6529755, 37.7668271 ], [ 22.6531146, 37.766897 ], [ 22.6532532, 37.7669678 ], [ 22.653387, 37.7670383 ], [ 22.6535298, 37.767113 ], [ 22.6536645, 37.7671841 ], [ 22.6538089, 37.7672608 ], [ 22.6539407, 37.7673329 ], [ 22.6540806, 37.7674105 ], [ 22.6542167, 37.7674896 ], [ 22.6543542, 37.7675697 ], [ 22.6544909, 37.7676487 ], [ 22.6546299, 37.7677295 ], [ 22.6547629, 37.7678085 ], [ 22.6548962, 37.7678895 ], [ 22.655025, 37.7679685 ], [ 22.6551557, 37.7680535 ], [ 22.6552872, 37.7681378 ], [ 22.6554156, 37.7682233 ], [ 22.6555443, 37.7683085 ], [ 22.6556744, 37.7683933 ], [ 22.6558022, 37.7684818 ], [ 22.6559274, 37.7685685 ], [ 22.6560528, 37.7686582 ], [ 22.6561771, 37.7687503 ], [ 22.656299, 37.7688397 ], [ 22.6564202, 37.7689296 ], [ 22.656542, 37.7690197 ], [ 22.6566655, 37.7691114 ], [ 22.656708605424704, 37.769144430180859 ], [ 22.656708605424704, 37.769099292264855 ], [ 22.6566932, 37.7690875 ], [ 22.6565737, 37.7689994 ], [ 22.6564479, 37.7689057 ], [ 22.6563267, 37.7688158 ], [ 22.6562048, 37.7687264 ], [ 22.6560805, 37.7686343 ], [ 22.6559551, 37.7685446 ], [ 22.6558306, 37.7684585 ], [ 22.6557048, 37.7683706 ], [ 22.655572, 37.7682846 ], [ 22.6554437, 37.7681998 ], [ 22.6553149, 37.7681139 ], [ 22.6551834, 37.7680296 ], [ 22.6550527, 37.7679446 ], [ 22.6549243, 37.7678659 ], [ 22.6547906, 37.7677846 ], [ 22.6546576, 37.7677056 ], [ 22.6545186, 37.7676248 ], [ 22.6543819, 37.7675458 ], [ 22.6542444, 37.7674657 ], [ 22.6541054, 37.767385 ], [ 22.6539684, 37.767309 ], [ 22.6538291, 37.7672329 ], [ 22.653554, 37.7670872 ], [ 22.6534096, 37.7670117 ], [ 22.6532756, 37.766941 ], [ 22.653137, 37.7668702 ], [ 22.6529928, 37.7667976 ], [ 22.6528548, 37.7667269 ], [ 22.6527073, 37.7666538 ], [ 22.6525637, 37.7665854 ], [ 22.6524257, 37.7665208 ], [ 22.6522766, 37.7664521 ], [ 22.6521307, 37.766385 ], [ 22.6519856, 37.7663209 ], [ 22.6518387, 37.7662567 ], [ 22.6516928, 37.7661943 ], [ 22.6515414, 37.7661301 ], [ 22.6513928, 37.7660681 ], [ 22.6512416, 37.7660053 ], [ 22.6510901, 37.7659453 ], [ 22.65094, 37.7658849 ], [ 22.6507905, 37.7658255 ], [ 22.6506399, 37.7657671 ], [ 22.650491, 37.7657118 ], [ 22.6503342, 37.7656534 ], [ 22.6501829, 37.7655972 ], [ 22.6500341, 37.7655423 ], [ 22.6435651, 37.7633211 ], [ 22.643412, 37.7632679 ], [ 22.64326, 37.7632136 ], [ 22.6431106, 37.7631613 ], [ 22.6429528, 37.7631035 ], [ 22.6427989, 37.7630462 ], [ 22.6426468, 37.7629905 ], [ 22.6424942, 37.7629312 ], [ 22.6423451, 37.7628758 ], [ 22.6421945, 37.762815 ], [ 22.6420412, 37.7627547 ], [ 22.6418918, 37.7626933 ], [ 22.6417412, 37.7626314 ], [ 22.6415925, 37.762568 ], [ 22.641447, 37.7625018 ], [ 22.6413035, 37.7624357 ], [ 22.6411636, 37.7623704 ], [ 22.6410205, 37.762302 ], [ 22.6408758, 37.7622294 ], [ 22.6407367, 37.7621594 ], [ 22.6406037, 37.7620875 ], [ 22.6404634, 37.7620106 ], [ 22.6403343, 37.7619383 ], [ 22.6402007, 37.7618605 ], [ 22.6400665, 37.7617812 ], [ 22.6399363, 37.7616986 ], [ 22.6398049, 37.7616172 ], [ 22.6396747, 37.761533 ], [ 22.6395473, 37.7614498 ], [ 22.6394182, 37.7613616 ], [ 22.6392931, 37.7612747 ], [ 22.6391685, 37.7611843 ], [ 22.6390474, 37.7610959 ], [ 22.6389195, 37.7609991 ], [ 22.6388055, 37.76091 ], [ 22.6386876, 37.760815 ], [ 22.6385696, 37.7607182 ], [ 22.6384494, 37.7606196 ], [ 22.638338, 37.7605223 ], [ 22.6382276, 37.7604237 ], [ 22.6381164, 37.7603203 ], [ 22.6380067, 37.7602188 ], [ 22.6378985, 37.7601124 ], [ 22.6377926, 37.7600085 ], [ 22.6376889, 37.7599004 ], [ 22.6375883, 37.7597947 ], [ 22.6374853, 37.7596889 ], [ 22.6373835, 37.759582 ], [ 22.6372864, 37.7594736 ], [ 22.6371925, 37.7593648 ], [ 22.6371012, 37.7592565 ], [ 22.6370079, 37.7591467 ], [ 22.6369179, 37.7590358 ], [ 22.6368273, 37.7589244 ], [ 22.6367386, 37.7588089 ], [ 22.6366518, 37.7586975 ], [ 22.6365631, 37.7585846 ], [ 22.6364738, 37.7584701 ], [ 22.6363851, 37.7583546 ], [ 22.6362996, 37.7582407 ], [ 22.634911522503874, 37.756408142491203 ], [ 22.634863751753663, 37.756408142491203 ], [ 22.6362641, 37.7582569 ] ] ] } }
]
}
