{
"type": "FeatureCollection",
"name": "patch_2795_linestring",
"crs": { "type": "name", "properties": { "name": "urn:ogc:def:crs:OGC:1.3:CRS84" } },
"features": [
{ "type": "Feature", "properties": { "element": "way", "id": 140680603, "boat": "no", "waterway": "stream", "natural": null, "landuse": null, "layer": null, "tunnel": null, "type": null, "leaf_type": null, "source": null, "label": "waterway:stream" }, "geometry": { "type": "LineString", "coordinates": [ [ 22.163176, 39.0532788 ], [ 22.1633063, 39.0533906 ], [ 22.1635775, 39.053539 ], [ 22.1637175, 39.0537634 ], [ 22.1638597, 39.0539808 ], [ 22.1641642, 39.0543467 ], [ 22.1644175, 39.0546556 ], [ 22.1645531, 39.0548903 ], [ 22.1646864, 39.055018 ], [ 22.1648931, 39.05498 ], [ 22.1651042, 39.0548955 ], [ 22.1653353, 39.0550197 ], [ 22.1652998, 39.0551837 ], [ 22.1652687, 39.0554408 ], [ 22.1653798, 39.0556117 ], [ 22.165562, 39.0557601 ], [ 22.1657909, 39.0558084 ], [ 22.1661087, 39.0560742 ], [ 22.1662332, 39.0562346 ], [ 22.1662843, 39.056497 ], [ 22.1663954, 39.0565712 ], [ 22.1666043, 39.0566367 ], [ 22.1667065, 39.0566212 ], [ 22.1667843, 39.0566678 ], [ 22.166891, 39.056899 ], [ 22.1669754, 39.0569957 ], [ 22.1671754, 39.0570371 ], [ 22.1674555, 39.0570388 ], [ 22.1676732, 39.0571458 ], [ 22.1680555, 39.0573477 ], [ 22.1687711, 39.0576842 ], [ 22.1690955, 39.0578275 ], [ 22.1691955, 39.0580156 ], [ 22.1693911, 39.0582727 ], [ 22.1695667, 39.0584159 ], [ 22.1696656, 39.0584015 ], [ 22.1697711, 39.0582554 ], [ 22.1699222, 39.0582537 ], [ 22.1700245, 39.0584263 ], [ 22.1702045, 39.0586782 ], [ 22.1704334, 39.0587559 ], [ 22.1707734, 39.0587714 ], [ 22.170788159363386, 39.058774556626851 ] ] } },
{ "type": "Feature", "properties": { "element": "way", "id": 1429216896, "boat": null, "waterway": "stream", "natural": null, "landuse": null, "layer": null, "tunnel": null, "type": null, "leaf_type": null, "source": null, "label": "waterway:stream" }, "geometry": { "type": "LineString", "coordinates": [ [ 22.15958, 39.0529361 ], [ 22.1596419, 39.0529856 ], [ 22.1597247, 39.0530672 ], [ 22.1598388, 39.0531593 ], [ 22.1599797, 39.0532253 ], [ 22.1601273, 39.0532878 ], [ 22.1602481, 39.0533538 ], [ 22.1603465, 39.0534163 ], [ 22.1604941, 39.0534528 ], [ 22.1606216, 39.053458 ], [ 22.1607379, 39.0534285 ], [ 22.1608296, 39.0533434 ], [ 22.1608721, 39.0532565 ], [ 22.160937, 39.0531975 ], [ 22.1610757, 39.0531419 ], [ 22.1611674, 39.0531263 ], [ 22.1613106, 39.0531228 ], [ 22.1614198, 39.0531485 ], [ 22.1615122, 39.0531804 ], [ 22.1616559, 39.0532142 ], [ 22.1618227, 39.0532262 ], [ 22.161992, 39.0532003 ], [ 22.162146, 39.0531345 ], [ 22.1623076, 39.0530867 ], [ 22.1624744, 39.0530947 ], [ 22.1626489, 39.0531126 ], [ 22.1627951, 39.0531365 ], [ 22.1629824, 39.0531764 ], [ 22.163176, 39.0532788 ] ] } },
{ "type": "Feature", "properties": { "element": "way", "id": 1429216897, "boat": null, "waterway": "stream", "natural": null, "landuse": null, "layer": null, "tunnel": null, "type": null, "leaf_type": null, "source": null, "label": "waterway:stream" }, "geometry": { "type": "LineString", "coordinates": [ [ 22.1573066, 39.0402373 ], [ 22.1573918, 39.0403308 ], [ 22.1574511, 39.0404344 ], [ 22.1575566, 39.0405409 ], [ 22.1576511, 39.0405941 ], [ 22.1577197, 39.0406689 ], [ 22.1577697, 39.0407769 ], [ 22.1578586, 39.0408689 ], [ 22.1579568, 39.040938 ], [ 22.1580624, 39.0409912 ], [ 22.1581346, 39.0410776 ], [ 22.1581605, 39.0411898 ], [ 22.1581513, 39.0412876 ], [ 22.1580938, 39.0413768 ], [ 22.1580494, 39.0414387 ], [ 22.1580494, 39.0415135 ], [ 22.1581087, 39.0415739 ], [ 22.1582457, 39.0415984 ], [ 22.1583624, 39.0416056 ], [ 22.1584792, 39.0416416 ], [ 22.1585718, 39.0416905 ], [ 22.1585996, 39.0417696 ], [ 22.1585699, 39.0418473 ], [ 22.1585088, 39.0419135 ], [ 22.1583847, 39.0419523 ], [ 22.1582643, 39.0419653 ], [ 22.1581809, 39.0420185 ], [ 22.1581309, 39.0421005 ], [ 22.1581383, 39.0422358 ], [ 22.1581476, 39.0423523 ], [ 22.1581883, 39.0424588 ], [ 22.1582661, 39.0425595 ], [ 22.1583736, 39.0426429 ], [ 22.1584403, 39.0427005 ], [ 22.1585014, 39.0427825 ], [ 22.1585551, 39.0428861 ], [ 22.1585458, 39.0429997 ], [ 22.1585162, 39.043099 ], [ 22.158531, 39.0431853 ], [ 22.1585959, 39.0432544 ], [ 22.1587422, 39.0432904 ], [ 22.1588645, 39.0433062 ], [ 22.1589756, 39.0433465 ], [ 22.159033, 39.0433896 ], [ 22.159059, 39.0434558 ], [ 22.159059, 39.0435306 ], [ 22.1590849, 39.0435752 ], [ 22.1591516, 39.0436069 ], [ 22.159259, 39.0436141 ], [ 22.159372, 39.0436357 ], [ 22.1594517, 39.043686 ], [ 22.159498, 39.0437594 ], [ 22.1595869, 39.0438241 ], [ 22.159724, 39.043873 ], [ 22.1598092, 39.0439176 ], [ 22.1598722, 39.0439881 ], [ 22.1598759, 39.0440773 ], [ 22.1598203, 39.0441867 ], [ 22.1597796, 39.0443449 ], [ 22.1597462, 39.0444859 ], [ 22.1597462, 39.0446068 ], [ 22.1597703, 39.0447118 ], [ 22.1598166, 39.0447967 ], [ 22.1598185, 39.0449032 ], [ 22.1597632, 39.0449775 ], [ 22.1597248, 39.0450782 ], [ 22.1596959, 39.0451603 ], [ 22.1596959, 39.0452698 ], [ 22.1596687, 39.0453568 ], [ 22.1595982, 39.045429 ], [ 22.159539, 39.0455123 ], [ 22.1595198, 39.0456218 ], [ 22.1595214, 39.0457275 ], [ 22.1595454, 39.0458121 ], [ 22.1595614, 39.0459103 ], [ 22.1595358, 39.0459899 ], [ 22.1595422, 39.0460757 ], [ 22.1595838, 39.0461665 ], [ 22.1595918, 39.0462834 ], [ 22.1595614, 39.0463991 ], [ 22.1595566, 39.0465633 ], [ 22.159555, 39.0467287 ], [ 22.1595534, 39.046863 ], [ 22.1595822, 39.0469688 ], [ 22.1595918, 39.0471752 ], [ 22.159595, 39.047276 ], [ 22.159595, 39.0473842 ], [ 22.159595, 39.0474874 ], [ 22.1596319, 39.047613 ], [ 22.1596319, 39.0477175 ], [ 22.1596111, 39.0478207 ], [ 22.1596271, 39.0479426 ], [ 22.1596447, 39.048077 ], [ 22.1596399, 39.0481914 ], [ 22.1596046, 39.0482934 ], [ 22.1595678, 39.0483904 ], [ 22.1595742, 39.048475 ], [ 22.1596143, 39.0485508 ], [ 22.1597055, 39.0486093 ], [ 22.1598289, 39.0486429 ], [ 22.1599394, 39.0486727 ], [ 22.1599938, 39.0487125 ], [ 22.1600515, 39.0487958 ], [ 22.1600643, 39.0488754 ], [ 22.1600226, 39.0489575 ], [ 22.1600322, 39.0490608 ], [ 22.1600114, 39.0491901 ], [ 22.1600018, 39.0492958 ], [ 22.1599666, 39.0493866 ], [ 22.1598833, 39.0494699 ], [ 22.1597936, 39.0495147 ], [ 22.1597296, 39.0495657 ], [ 22.1597184, 39.0496354 ], [ 22.1597376, 39.04971 ], [ 22.1597392, 39.0497883 ], [ 22.1597007, 39.0498766 ], [ 22.1596271, 39.0499737 ], [ 22.1595774, 39.0500868 ], [ 22.1595614, 39.0501888 ], [ 22.1595614, 39.050307 ], [ 22.159579, 39.0504537 ], [ 22.1595838, 39.0505918 ], [ 22.1595941, 39.0507723 ], [ 22.1595941, 39.0508678 ], [ 22.1595701, 39.0509754 ], [ 22.1595432, 39.0510918 ], [ 22.1595079, 39.0511774 ], [ 22.1595079, 39.0512543 ], [ 22.1595347, 39.0513201 ], [ 22.1595729, 39.0514003 ], [ 22.1595743, 39.0515122 ], [ 22.159539, 39.0516209 ], [ 22.1594867, 39.0517109 ], [ 22.1594344, 39.0517933 ], [ 22.1594273, 39.051869 ], [ 22.1594344, 39.0519744 ], [ 22.1594655, 39.0521105 ], [ 22.1594739, 39.0522072 ], [ 22.1594641, 39.0523136 ], [ 22.1594358, 39.0524179 ], [ 22.1593877, 39.0524992 ], [ 22.1593623, 39.0526177 ], [ 22.1593679, 39.0527045 ], [ 22.1593976, 39.0527868 ], [ 22.1594542, 39.052845 ] ] } },
{ "type": "Feature", "properties": { "element": "way", "id": 1429216898, "boat": null, "waterway": "stream", "natural": null, "landuse": null, "layer": "-1", "tunnel": "flooded", "type": null, "leaf_type": null, "source": null, "label": "waterway:stream" }, "geometry": { "type": "LineString", "coordinates": [ [ 22.1594542, 39.052845 ], [ 22.15958, 39.0529361 ] ] } }
]
}
