{
"type": "FeatureCollection",
"name": "patch_2795_features",
"crs": { "type": "name", "properties": { "name": "urn:ogc:def:crs:OGC:1.3:CRS84" } },
"features": [
{ "type": "Feature", "properties": { "element": "relation", "id": 1829653, "boat": null, "waterway": null, "natural": "wood", "landuse": null, "layer": null, "tunnel": null, "type": "multipolygon", "leaf_type": "broadleaved", "source": "http://geodata.gov.gr/", "label": "natural:wood" }, "geometry": { "type": "Polygon", "coordinates": [ [ [ 22.146636, 39.060474 ], [ 22.146642, 39.060235 ], [ 22.146647, 39.060045 ], [ 22.146589, 39.059901 ], [ 22.146413, 39.059612 ], [ 22.146235, 39.059418 ], [ 22.146057, 39.059225 ], [ 22.145944, 39.058841 ], [ 22.145833, 39.058411 ], [ 22.1453903, 39.0579504 ], [ 22.1452095, 39.0577727 ], [ 22.1452803, 39.0576517 ], [ 22.1452591, 39.0574868 ], [ 22.1451529, 39.0573494 ], [ 22.1451175, 39.05719 ], [ 22.1451812, 39.0569482 ], [ 22.1452733, 39.0567118 ], [ 22.1455068, 39.0566129 ], [ 22.1458112, 39.0564755 ], [ 22.1456838, 39.0562556 ], [ 22.1455139, 39.0560138 ], [ 22.1453157, 39.0560797 ], [ 22.1450467, 39.0561732 ], [ 22.1450467, 39.0559643 ], [ 22.1449689, 39.0558599 ], [ 22.1449193, 39.0557829 ], [ 22.1450821, 39.0556345 ], [ 22.1453653, 39.0554641 ], [ 22.1452095, 39.0553872 ], [ 22.1450043, 39.0553432 ], [ 22.1448698, 39.0552937 ], [ 22.1448698, 39.0551838 ], [ 22.1447848, 39.0550189 ], [ 22.1446645, 39.0550738 ], [ 22.1445159, 39.0552168 ], [ 22.1443531, 39.0550958 ], [ 22.1441619, 39.0549309 ], [ 22.1440373, 39.0547593 ], [ 22.1442823, 39.0545902 ], [ 22.1442577, 39.0544801 ], [ 22.1443132, 39.0543653 ], [ 22.1444302, 39.054327 ], [ 22.1446274, 39.0542983 ], [ 22.1447383, 39.0541882 ], [ 22.1447753, 39.0540494 ], [ 22.1448801, 39.0540207 ], [ 22.144991, 39.0540303 ], [ 22.1450896, 39.0537958 ], [ 22.1449848, 39.0537719 ], [ 22.1447568, 39.0538485 ], [ 22.1446028, 39.0538676 ], [ 22.1446336, 39.0537863 ], [ 22.1448061, 39.0537288 ], [ 22.1449109, 39.0536475 ], [ 22.1450526, 39.0535948 ], [ 22.145219, 39.0535948 ], [ 22.1453545, 39.053547 ], [ 22.1453977, 39.0534369 ], [ 22.1453977, 39.0532934 ], [ 22.1454223, 39.0531642 ], [ 22.1452744, 39.053035 ], [ 22.1452005, 39.0528866 ], [ 22.145028, 39.0528436 ], [ 22.1450326, 39.0526883 ], [ 22.14516, 39.0525563 ], [ 22.145337, 39.0524409 ], [ 22.1455068, 39.0523145 ], [ 22.1453086, 39.0520066 ], [ 22.1451104, 39.0519517 ], [ 22.1448132, 39.0519902 ], [ 22.1445937, 39.0521221 ], [ 22.1443743, 39.0520341 ], [ 22.1442115, 39.0518307 ], [ 22.1439637, 39.0516438 ], [ 22.1437585, 39.0515339 ], [ 22.1434895, 39.0514734 ], [ 22.1434046, 39.051314 ], [ 22.1432276, 39.0511766 ], [ 22.1431639, 39.0509897 ], [ 22.142945, 39.050887 ], [ 22.142251, 39.050232 ], [ 22.142075, 39.049942 ], [ 22.142081, 39.049727 ], [ 22.142176, 39.049586 ], [ 22.142461, 39.049232 ], [ 22.142666, 39.048447 ], [ 22.142504, 39.047585 ], [ 22.142154, 39.046934 ], [ 22.14134, 39.04642 ], [ 22.140833559712163, 39.04600823131566 ], [ 22.140833559712163, 39.051598305866086 ], [ 22.141598, 39.051487 ], [ 22.1421234, 39.0509128 ], [ 22.1423351, 39.0510356 ], [ 22.1424489, 39.051143 ], [ 22.1425993, 39.0511872 ], [ 22.1426562, 39.0512882 ], [ 22.1427498, 39.0514492 ], [ 22.142888, 39.0515502 ], [ 22.1431441, 39.0517239 ], [ 22.1433677, 39.0518502 ], [ 22.1436564, 39.0519196 ], [ 22.1437499, 39.0520428 ], [ 22.1437742, 39.0522038 ], [ 22.1436685, 39.0522985 ], [ 22.1438108, 39.0523332 ], [ 22.14401, 39.05239 ], [ 22.1441849, 39.052469 ], [ 22.1443637, 39.052469 ], [ 22.1445548, 39.0523837 ], [ 22.14475, 39.0523869 ], [ 22.1449166, 39.0524469 ], [ 22.1447825, 39.05257 ], [ 22.144754, 39.0527121 ], [ 22.1448, 39.052901 ], [ 22.1446582, 39.0528196 ], [ 22.144498, 39.0527526 ], [ 22.1443624, 39.0528148 ], [ 22.1443255, 39.0529393 ], [ 22.1444056, 39.0530685 ], [ 22.1444056, 39.0532312 ], [ 22.1442947, 39.0533939 ], [ 22.1441653, 39.0536092 ], [ 22.1441653, 39.0537336 ], [ 22.144079, 39.0538341 ], [ 22.1439496, 39.0538054 ], [ 22.143851, 39.0538915 ], [ 22.1437955, 39.0539968 ], [ 22.143814, 39.0541308 ], [ 22.14366, 39.0542504 ], [ 22.1434975, 39.0543705 ], [ 22.1433196, 39.0544637 ], [ 22.1433055, 39.0542823 ], [ 22.1431851, 39.0541394 ], [ 22.1429657, 39.054002 ], [ 22.1426896, 39.0537381 ], [ 22.1425268, 39.0535787 ], [ 22.1424631, 39.0534468 ], [ 22.1425339, 39.0532269 ], [ 22.1424207, 39.0530785 ], [ 22.1422649, 39.0530291 ], [ 22.142088, 39.0531555 ], [ 22.1418332, 39.0532819 ], [ 22.1416916, 39.0531665 ], [ 22.141635, 39.0529686 ], [ 22.1413943, 39.0529191 ], [ 22.1413306, 39.0531555 ], [ 22.1413943, 39.0534083 ], [ 22.14155, 39.0535952 ], [ 22.141642, 39.0537491 ], [ 22.1414722, 39.053903 ], [ 22.1414438, 39.0540295 ], [ 22.141642, 39.054035 ], [ 22.1418708, 39.0541193 ], [ 22.1419181, 39.0542768 ], [ 22.141922, 39.054561 ], [ 22.141674, 39.05516 ], [ 22.140889, 39.055629 ], [ 22.140833559712163, 39.05564560046642 ], [ 22.140833559712163, 39.056344503475799 ], [ 22.140859, 39.056321 ], [ 22.1415642, 39.0559258 ], [ 22.1419181, 39.0559093 ], [ 22.1422437, 39.0558324 ], [ 22.1424065, 39.0558324 ], [ 22.1426401, 39.0558928 ], [ 22.1428878, 39.0558928 ], [ 22.143178, 39.0559038 ], [ 22.1433338, 39.0558214 ], [ 22.1434541, 39.055574 ], [ 22.143447, 39.0555026 ], [ 22.1433125, 39.0554696 ], [ 22.1433196, 39.0552827 ], [ 22.1434258, 39.0551453 ], [ 22.1435886, 39.0550409 ], [ 22.1438788, 39.0550134 ], [ 22.1440912, 39.0551123 ], [ 22.1442894, 39.0552717 ], [ 22.1444309, 39.0555246 ], [ 22.1446362, 39.0558928 ], [ 22.1446928, 39.0562281 ], [ 22.1448627, 39.056492 ], [ 22.1448556, 39.0566953 ], [ 22.1448202, 39.0568932 ], [ 22.1447282, 39.0572725 ], [ 22.14455, 39.0573319 ], [ 22.1443835, 39.057301 ], [ 22.144142, 39.057621 ], [ 22.144133, 39.057954 ], [ 22.144592, 39.059118 ], [ 22.144127, 39.059349 ], [ 22.143584, 39.059054 ], [ 22.142734, 39.058632 ], [ 22.141731, 39.058592 ], [ 22.140833559712163, 39.058681654374411 ], [ 22.140833559712163, 39.060972039238223 ], [ 22.146292924717766, 39.060972039238223 ], [ 22.146636, 39.060474 ] ] ] } },
{ "type": "Feature", "properties": { "element": "relation", "id": 7327623, "boat": null, "waterway": null, "natural": "scrub", "landuse": null, "layer": null, "tunnel": null, "type": "multipolygon", "leaf_type": null, "source": null, "label": "natural:scrub" }, "geometry": { "type": "Polygon", "coordinates": [ [ [ 22.1594958, 39.0384842 ], [ 22.1597769, 39.0389867 ], [ 22.1597653, 39.0392188 ], [ 22.1598821, 39.0394842 ], [ 22.159925, 39.0400342 ], [ 22.1605043, 39.0403675 ], [ 22.1612554, 39.0401342 ], [ 22.1617081, 39.03982 ], [ 22.1619442, 39.0400867 ], [ 22.163017, 39.0399033 ], [ 22.1636586, 39.0400508 ], [ 22.1643024, 39.0404342 ], [ 22.1650126, 39.04057 ], [ 22.1658495, 39.04057 ], [ 22.1674159, 39.04122 ], [ 22.1682527, 39.0416866 ], [ 22.1689587, 39.0423341 ], [ 22.1696024, 39.0430007 ], [ 22.1703341, 39.0437032 ], [ 22.170788159363386, 39.043965934523342 ], [ 22.170788159363386, 39.038201021378683 ], [ 22.159497142078774, 39.038201021378683 ], [ 22.1594958, 39.0384842 ] ] ] } },
{ "type": "Feature", "properties": { "element": "way", "id": 140680603, "boat": "no", "waterway": "stream", "natural": null, "landuse": null, "layer": null, "tunnel": null, "type": null, "leaf_type": null, "source": null, "label": "waterway:stream" }, "geometry": { "type": "LineString", "coordinates": [ [ 22.163176, 39.0532788 ], [ 22.1633063, 39.0533906 ], [ 22.1635775, 39.053539 ], [ 22.1637175, 39.0537634 ], [ 22.1638597, 39.0539808 ], [ 22.1641642, 39.0543467 ], [ 22.1644175, 39.0546556 ], [ 22.1645531, 39.0548903 ], [ 22.1646864, 39.055018 ], [ 22.1648931, 39.05498 ], [ 22.1651042, 39.0548955 ], [ 22.1653353, 39.0550197 ], [ 22.1652998, 39.0551837 ], [ 22.1652687, 39.0554408 ], [ 22.1653798, 39.0556117 ], [ 22.165562, 39.0557601 ], [ 22.1657909, 39.0558084 ], [ 22.1661087, 39.0560742 ], [ 22.1662332, 39.0562346 ], [ 22.1662843, 39.056497 ], [ 22.1663954, 39.0565712 ], [ 22.1666043, 39.0566367 ], [ 22.1667065, 39.0566212 ], [ 22.1667843, 39.0566678 ], [ 22.166891, 39.056899 ], [ 22.1669754, 39.0569957 ], [ 22.1671754, 39.0570371 ], [ 22.1674555, 39.0570388 ], [ 22.1676732, 39.0571458 ], [ 22.1680555, 39.0573477 ], [ 22.1687711, 39.0576842 ], [ 22.1690955, 39.0578275 ], [ 22.1691955, 39.0580156 ], [ 22.1693911, 39.0582727 ], [ 22.1695667, 39.0584159 ], [ 22.1696656, 39.0584015 ], [ 22.1697711, 39.0582554 ], [ 22.1699222, 39.0582537 ], [ 22.1700245, 39.0584263 ], [ 22.1702045, 39.0586782 ], [ 22.1704334, 39.0587559 ], [ 22.1707734, 39.0587714 ], [ 22.170788159363386, 39.058774556626851 ] ] } },
{ "type": "Feature", "properties": { "element": "way", "id": 687245861, "boat": null, "waterway": null, "natural": null, "landuse": "farmland", "layer": null, "tunnel": null, "type": null, "leaf_type": null, "source": null, "label": "landuse:farmland" }, "geometry": { "type": "Polygon", "coordinates": [ [ [ 22.1675631, 39.0583745 ], [ 22.1672977, 39.0582948 ], [ 22.166558, 39.0581052 ], [ 22.1662678, 39.058762 ], [ 22.1673437, 39.0591028 ], [ 22.167871, 39.0584927 ], [ 22.1675631, 39.0583745 ] ] ] } },
{ "type": "Feature", "properties": { "element": "way", "id": 1429216892, "boat": null, "waterway": null, "natural": "wood", "landuse": null, "layer": null, "tunnel": null, "type": null, "leaf_type": null, "source": null, "label": "natural:wood" }, "geometry": { "type": "Polygon", "coordinates": [ [ [ 22.1602249, 39.0535304 ], [ 22.1602791, 39.0536204 ], [ 22.160397, 39.0537047 ], [ 22.1605185, 39.053741 ], [ 22.1607168, 39.0537584 ], [ 22.1608926, 39.053725 ], [ 22.1610011, 39.0536451 ], [ 22.1610647, 39.0535246 ], [ 22.1610647, 39.0533851 ], [ 22.1610984, 39.0532776 ], [ 22.1610273, 39.0531411 ], [ 22.1609431, 39.053051 ], [ 22.1607056, 39.0531121 ], [ 22.1604867, 39.0531324 ], [ 22.1602454, 39.053176 ], [ 22.1600827, 39.0531731 ], [ 22.1599349, 39.053099 ], [ 22.1597965, 39.0529697 ], [ 22.159718, 39.0528651 ], [ 22.1596618, 39.0527998 ], [ 22.1595384, 39.052791 ], [ 22.1595552, 39.0528825 ], [ 22.159559, 39.0530205 ], [ 22.1595365, 39.0531571 ], [ 22.1597142, 39.0532559 ], [ 22.1598526, 39.0533416 ], [ 22.1599574, 39.053436 ], [ 22.1600565, 39.0534839 ], [ 22.1602249, 39.0535304 ] ] ] } },
{ "type": "Feature", "properties": { "element": "way", "id": 1429216893, "boat": null, "waterway": null, "natural": "wood", "landuse": null, "layer": null, "tunnel": null, "type": null, "leaf_type": null, "source": null, "label": "natural:wood" }, "geometry": { "type": "Polygon", "coordinates": [ [ [ 22.1594823, 39.0530467 ], [ 22.1594823, 39.0529101 ], [ 22.159458, 39.0527446 ], [ 22.1593944, 39.0525964 ], [ 22.1593008, 39.0524889 ], [ 22.1591175, 39.0524482 ], [ 22.15888, 39.0524482 ], [ 22.1586686, 39.0524904 ], [ 22.1584872, 39.0525717 ], [ 22.1582833, 39.0526603 ], [ 22.1582534, 39.0525819 ], [ 22.1581898, 39.0524947 ], [ 22.1581149, 39.0524845 ], [ 22.1580888, 39.0524352 ], [ 22.1579934, 39.0524061 ], [ 22.1579391, 39.0524526 ], [ 22.1578026, 39.0524134 ], [ 22.1576118, 39.0523553 ], [ 22.1574303, 39.0523553 ], [ 22.1572751, 39.0523959 ], [ 22.1571909, 39.052454 ], [ 22.1571198, 39.0525426 ], [ 22.1571011, 39.0526559 ], [ 22.1570394, 39.0527431 ], [ 22.1568804, 39.052791 ], [ 22.1568243, 39.0529131 ], [ 22.156843, 39.053022 ], [ 22.1569758, 39.053022 ], [ 22.1570319, 39.0530786 ], [ 22.1571629, 39.0531033 ], [ 22.1573349, 39.0530598 ], [ 22.1574696, 39.0529639 ], [ 22.1575631, 39.0528244 ], [ 22.1575631, 39.0527097 ], [ 22.1576324, 39.0526705 ], [ 22.1578063, 39.0526763 ], [ 22.1579167, 39.0527446 ], [ 22.1580195, 39.0528404 ], [ 22.1581879, 39.0529334 ], [ 22.1583375, 39.05299 ], [ 22.158489, 39.0529624 ], [ 22.1586237, 39.0530322 ], [ 22.1587902, 39.0530104 ], [ 22.1589193, 39.0529683 ], [ 22.159097, 39.0529973 ], [ 22.1591867, 39.0530801 ], [ 22.1593102, 39.0531731 ], [ 22.1593869, 39.053205 ], [ 22.159458, 39.0531774 ], [ 22.1594823, 39.0530467 ] ] ] } },
{ "type": "Feature", "properties": { "element": "way", "id": 1429216896, "boat": null, "waterway": "stream", "natural": null, "landuse": null, "layer": null, "tunnel": null, "type": null, "leaf_type": null, "source": null, "label": "waterway:stream" }, "geometry": { "type": "LineString", "coordinates": [ [ 22.15958, 39.0529361 ], [ 22.1596419, 39.0529856 ], [ 22.1597247, 39.0530672 ], [ 22.1598388, 39.0531593 ], [ 22.1599797, 39.0532253 ], [ 22.1601273, 39.0532878 ], [ 22.1602481, 39.0533538 ], [ 22.1603465, 39.0534163 ], [ 22.1604941, 39.0534528 ], [ 22.1606216, 39.053458 ], [ 22.1607379, 39.0534285 ], [ 22.1608296, 39.0533434 ], [ 22.1608721, 39.0532565 ], [ 22.160937, 39.0531975 ], [ 22.1610757, 39.0531419 ], [ 22.1611674, 39.0531263 ], [ 22.1613106, 39.0531228 ], [ 22.1614198, 39.0531485 ], [ 22.1615122, 39.0531804 ], [ 22.1616559, 39.0532142 ], [ 22.1618227, 39.0532262 ], [ 22.161992, 39.0532003 ], [ 22.162146, 39.0531345 ], [ 22.1623076, 39.0530867 ], [ 22.1624744, 39.0530947 ], [ 22.1626489, 39.0531126 ], [ 22.1627951, 39.0531365 ], [ 22.1629824, 39.0531764 ], [ 22.163176, 39.0532788 ] ] } },
{ "type": "Feature", "properties": { "element": "way", "id": 1429216897, "boat": null, "waterway": "stream", "natural": null, "landuse": null, "layer": null, "tunnel": null, "type": null, "leaf_type": null, "source": null, "label": "waterway:stream" }, "geometry": { "type": "LineString", "coordinates": [ [ 22.1573066, 39.0402373 ], [ 22.1573918, 39.0403308 ], [ 22.1574511, 39.0404344 ], [ 22.1575566, 39.0405409 ], [ 22.1576511, 39.0405941 ], [ 22.1577197, 39.0406689 ], [ 22.1577697, 39.0407769 ], [ 22.1578586, 39.0408689 ], [ 22.1579568, 39.040938 ], [ 22.1580624, 39.0409912 ], [ 22.1581346, 39.0410776 ], [ 22.1581605, 39.0411898 ], [ 22.1581513, 39.0412876 ], [ 22.1580938, 39.0413768 ], [ 22.1580494, 39.0414387 ], [ 22.1580494, 39.0415135 ], [ 22.1581087, 39.0415739 ], [ 22.1582457, 39.0415984 ], [ 22.1583624, 39.0416056 ], [ 22.1584792, 39.0416416 ], [ 22.1585718, 39.0416905 ], [ 22.1585996, 39.0417696 ], [ 22.1585699, 39.0418473 ], [ 22.1585088, 39.0419135 ], [ 22.1583847, 39.0419523 ], [ 22.1582643, 39.0419653 ], [ 22.1581809, 39.0420185 ], [ 22.1581309, 39.0421005 ], [ 22.1581383, 39.0422358 ], [ 22.1581476, 39.0423523 ], [ 22.1581883, 39.0424588 ], [ 22.1582661, 39.0425595 ], [ 22.1583736, 39.0426429 ], [ 22.1584403, 39.0427005 ], [ 22.1585014, 39.0427825 ], [ 22.1585551, 39.0428861 ], [ 22.1585458, 39.0429997 ], [ 22.1585162, 39.043099 ], [ 22.158531, 39.0431853 ], [ 22.1585959, 39.0432544 ], [ 22.1587422, 39.0432904 ], [ 22.1588645, 39.0433062 ], [ 22.1589756, 39.0433465 ], [ 22.159033, 39.0433896 ], [ 22.159059, 39.0434558 ], [ 22.159059, 39.0435306 ], [ 22.1590849, 39.0435752 ], [ 22.1591516, 39.0436069 ], [ 22.159259, 39.0436141 ], [ 22.159372, 39.0436357 ], [ 22.1594517, 39.043686 ], [ 22.159498, 39.0437594 ], [ 22.1595869, 39.0438241 ], [ 22.159724, 39.043873 ], [ 22.1598092, 39.0439176 ], [ 22.1598722, 39.0439881 ], [ 22.1598759, 39.0440773 ], [ 22.1598203, 39.0441867 ], [ 22.1597796, 39.0443449 ], [ 22.1597462, 39.0444859 ], [ 22.1597462, 39.0446068 ], [ 22.1597703, 39.0447118 ], [ 22.1598166, 39.0447967 ], [ 22.1598185, 39.0449032 ], [ 22.1597632, 39.0449775 ], [ 22.1597248, 39.0450782 ], [ 22.1596959, 39.0451603 ], [ 22.1596959, 39.0452698 ], [ 22.1596687, 39.0453568 ], [ 22.1595982, 39.045429 ], [ 22.159539, 39.0455123 ], [ 22.1595198, 39.0456218 ], [ 22.1595214, 39.0457275 ], [ 22.1595454, 39.0458121 ], [ 22.1595614, 39.0459103 ], [ 22.1595358, 39.0459899 ], [ 22.1595422, 39.0460757 ], [ 22.1595838, 39.0461665 ], [ 22.1595918, 39.0462834 ], [ 22.1595614, 39.0463991 ], [ 22.1595566, 39.0465633 ], [ 22.159555, 39.0467287 ], [ 22.1595534, 39.046863 ], [ 22.1595822, 39.0469688 ], [ 22.1595918, 39.0471752 ], [ 22.159595, 39.047276 ], [ 22.159595, 39.0473842 ], [ 22.159595, 39.0474874 ], [ 22.1596319, 39.047613 ], [ 22.1596319, 39.0477175 ], [ 22.1596111, 39.0478207 ], [ 22.1596271, 39.0479426 ], [ 22.1596447, 39.048077 ], [ 22.1596399, 39.0481914 ], [ 22.1596046, 39.0482934 ], [ 22.1595678, 39.0483904 ], [ 22.1595742, 39.048475 ], [ 22.1596143, 39.0485508 ], [ 22.1597055, 39.0486093 ], [ 22.1598289, 39.0486429 ], [ 22.1599394, 39.0486727 ], [ 22.1599938, 39.0487125 ], [ 22.1600515, 39.0487958 ], [ 22.1600643, 39.0488754 ], [ 22.1600226, 39.0489575 ], [ 22.1600322, 39.0490608 ], [ 22.1600114, 39.0491901 ], [ 22.1600018, 39.0492958 ], [ 22.1599666, 39.0493866 ], [ 22.1598833, 39.0494699 ], [ 22.1597936, 39.0495147 ], [ 22.1597296, 39.0495657 ], [ 22.1597184, 39.0496354 ], [ 22.1597376, 39.04971 ], [ 22.1597392, 39.0497883 ], [ 22.1597007, 39.0498766 ], [ 22.1596271, 39.0499737 ], [ 22.1595774, 39.0500868 ], [ 22.1595614, 39.0501888 ], [ 22.1595614, 39.050307 ], [ 22.159579, 39.0504537 ], [ 22.1595838, 39.0505918 ], [ 22.1595941, 39.0507723 ], [ 22.1595941, 39.0508678 ], [ 22.1595701, 39.0509754 ], [ 22.1595432, 39.0510918 ], [ 22.1595079, 39.0511774 ], [ 22.1595079, 39.0512543 ], [ 22.1595347, 39.0513201 ], [ 22.1595729, 39.0514003 ], [ 22.1595743, 39.0515122 ], [ 22.159539, 39.0516209 ], [ 22.1594867, 39.0517109 ], [ 22.1594344, 39.0517933 ], [ 22.1594273, 39.051869 ], [ 22.1594344, 39.0519744 ], [ 22.1594655, 39.0521105 ], [ 22.1594739, 39.0522072 ], [ 22.1594641, 39.0523136 ], [ 22.1594358, 39.0524179 ], [ 22.1593877, 39.0524992 ], [ 22.1593623, 39.0526177 ], [ 22.1593679, 39.0527045 ], [ 22.1593976, 39.0527868 ], [ 22.1594542, 39.052845 ] ] } },
{ "type": "Feature", "properties": { "element": "way", "id": 1429216898, "boat": null, "waterway": "stream", "natural": null, "landuse": null, "layer": "-1", "tunnel": "flooded", "type": null, "leaf_type": null, "source": null, "label": "waterway:stream" }, "geometry": { "type": "LineString", "coordinates": [ [ 22.1594542, 39.052845 ], [ 22.15958, 39.0529361 ] ] } }
]
}
