{
"type": "FeatureCollection",
"name": "patch_21010_multipolygon",
"crs": { "type": "name", "properties": { "name": "urn:ogc:def:crs:OGC:1.3:CRS84" } },
"features": [
{ "type": "Feature", "properties": { "element": "relation", "id": 7529026, "amenity": null, "brand": null, "brand:wikidata": null, "name": null, "operator": null, "healthcare": null, "shop": null, "landuse": null, "addr:city": null, "addr:postcode": null, "addr:street": null, "opening_hours": null, "smoking": null, "brand:wikipedia": null, "lastcheck": null, "level": null, "wheelchair": null, "addr:housenumber": null, "trade": null, "cuisine": null, "int_name": null, "outdoor_seating": null, "phone": null, "colour": null, "parcel_locker:type": null, "parcel_mail_in": null, "parcel_pickup": null, "access": null, "authentication:app": null, "authentication:membership_card": null, "capacity": null, "contact:phone": null, "contact:website": null, "covered": null, "fee": null, "motorcar": null, "name:el": null, "name:en": null, "parking:fee": null, "payment:app": null, "payment:website": null, "ref": null, "ref:EU:EVSE": null, "ref:GR:IDRO": null, "socket:type2": null, "socket:type2:output": null, "manufacturer": null, "operator:wikidata": null, "historic": null, "tourism": null, "building": null, "emergency": null, "wikidata": null, "intermittent": null, "source": null, "waterway": null, "denomination": null, "religion": null, "addr:country": null, "description": null, "fee:conditional": null, "fee:icom_member": null, "fee:note": null, "fee:note:2": null, "note": null, "wikipedia": null, "layer": null, "tunnel": null, "parking": null, "surface": null, "bus": null, "public_transport": null, "leaf_type": null, "natural": "wood", "education": null, "leisure": null, "sport": null, "area": null, "lit": null, "barrier": null, "club": null, "operator:type": null, "fast_food": null, "website": null, "type": "multipolygon", "brand:el": null, "brand:en": null, "official_name": null, "label": "natural:wood" }, "geometry": { "type": "MultiPolygon", "coordinates": [ [ [ [ 23.3490571, 37.9981756 ], [ 23.3498429, 37.9981508 ], [ 23.3499016, 37.9981022 ], [ 23.3499353, 37.9980456 ], [ 23.3499703, 37.9979458 ], [ 23.3499811, 37.9978109 ], [ 23.3500001, 37.9977013 ], [ 23.3500257, 37.9976787 ], [ 23.3498814, 37.9975179 ], [ 23.3496438, 37.9973287 ], [ 23.3493781, 37.9971743 ], [ 23.3491486, 37.997079 ], [ 23.3489231, 37.9970321 ], [ 23.3487245, 37.997169 ], [ 23.3486949, 37.9973904 ], [ 23.3486775, 37.9975488 ], [ 23.3486493, 37.9979299 ], [ 23.3488238, 37.9980574 ], [ 23.3490571, 37.9981756 ] ] ], [ [ [ 23.3506178, 37.9981117 ], [ 23.3507702, 37.9981049 ], [ 23.3512275, 37.9980928 ], [ 23.3517265, 37.9980752 ], [ 23.3512801, 37.997993 ], [ 23.3509118, 37.997939 ], [ 23.3505409, 37.9979039 ], [ 23.3503372, 37.9978662 ], [ 23.3501835, 37.9978068 ], [ 23.3500526, 37.9977111 ], [ 23.3500378, 37.9977232 ], [ 23.3500283, 37.9978068 ], [ 23.3500216, 37.9978972 ], [ 23.3500532, 37.9981318 ], [ 23.3505126, 37.9981184 ], [ 23.3506178, 37.9981117 ] ] ] ] } },
{ "type": "Feature", "properties": { "element": "relation", "id": 7578746, "amenity": null, "brand": "Σκλαβενίτης", "brand:wikidata": "Q7536037", "name": "Σκλαβενίτης", "operator": null, "healthcare": null, "shop": "supermarket", "landuse": null, "addr:city": null, "addr:postcode": null, "addr:street": null, "opening_hours": null, "smoking": null, "brand:wikipedia": "el:Σκλαβενίτης", "lastcheck": null, "level": null, "wheelchair": null, "addr:housenumber": null, "trade": null, "cuisine": null, "int_name": null, "outdoor_seating": null, "phone": null, "colour": null, "parcel_locker:type": null, "parcel_mail_in": null, "parcel_pickup": null, "access": null, "authentication:app": null, "authentication:membership_card": null, "capacity": null, "contact:phone": null, "contact:website": null, "covered": null, "fee": null, "motorcar": null, "name:el": "Σκλαβενίτης", "name:en": "Sklavenitis", "parking:fee": null, "payment:app": null, "payment:website": null, "ref": null, "ref:EU:EVSE": null, "ref:GR:IDRO": null, "socket:type2": null, "socket:type2:output": null, "manufacturer": null, "operator:wikidata": null, "historic": null, "tourism": null, "building": null, "emergency": null, "wikidata": null, "intermittent": null, "source": null, "waterway": null, "denomination": null, "religion": null, "addr:country": null, "description": null, "fee:conditional": null, "fee:icom_member": null, "fee:note": null, "fee:note:2": null, "note": null, "wikipedia": null, "layer": null, "tunnel": null, "parking": null, "surface": null, "bus": null, "public_transport": null, "leaf_type": null, "natural": null, "education": null, "leisure": null, "sport": null, "area": null, "lit": null, "barrier": null, "club": null, "operator:type": null, "fast_food": null, "website": null, "type": "multipolygon", "brand:el": "Σκλαβενίτης", "brand:en": "Sklavenitis", "official_name": null, "label": "shop:supermarket" }, "geometry": { "type": "MultiPolygon", "coordinates": [ [ [ [ 23.3540299, 37.9994537 ], [ 23.3542063, 37.9994926 ], [ 23.3542063, 37.9993092 ], [ 23.3541032, 37.9992948 ], [ 23.3541828, 37.9988736 ], [ 23.3535219, 37.9987727 ], [ 23.353447, 37.9990625 ], [ 23.3540727, 37.9991561 ], [ 23.3540299, 37.9994537 ] ] ], [ [ [ 23.3540272, 37.999191 ], [ 23.3535061, 37.9991196 ], [ 23.3534599, 37.9992961 ], [ 23.3539935, 37.9993717 ], [ 23.3540272, 37.999191 ] ] ] ] } },
{ "type": "Feature", "properties": { "element": "way", "id": 544660935, "amenity": null, "brand": null, "brand:wikidata": null, "name": null, "operator": null, "healthcare": null, "shop": null, "landuse": "orchard", "addr:city": null, "addr:postcode": null, "addr:street": null, "opening_hours": null, "smoking": null, "brand:wikipedia": null, "lastcheck": null, "level": null, "wheelchair": null, "addr:housenumber": null, "trade": null, "cuisine": null, "int_name": null, "outdoor_seating": null, "phone": null, "colour": null, "parcel_locker:type": null, "parcel_mail_in": null, "parcel_pickup": null, "access": null, "authentication:app": null, "authentication:membership_card": null, "capacity": null, "contact:phone": null, "contact:website": null, "covered": null, "fee": null, "motorcar": null, "name:el": null, "name:en": null, "parking:fee": null, "payment:app": null, "payment:website": null, "ref": null, "ref:EU:EVSE": null, "ref:GR:IDRO": null, "socket:type2": null, "socket:type2:output": null, "manufacturer": null, "operator:wikidata": null, "historic": null, "tourism": null, "building": null, "emergency": null, "wikidata": null, "intermittent": null, "source": "DigitalGlobal Standard Image 04-12-17", "waterway": null, "denomination": null, "religion": null, "addr:country": null, "description": null, "fee:conditional": null, "fee:icom_member": null, "fee:note": null, "fee:note:2": null, "note": null, "wikipedia": null, "layer": null, "tunnel": null, "parking": null, "surface": null, "bus": null, "public_transport": null, "leaf_type": null, "natural": null, "education": null, "leisure": null, "sport": null, "area": null, "lit": null, "barrier": null, "club": null, "operator:type": null, "fast_food": null, "website": null, "type": null, "brand:el": null, "brand:en": null, "official_name": null, "label": "landuse:orchard" }, "geometry": { "type": "MultiPolygon", "coordinates": [ [ [ [ 23.3387153, 38.0147702 ], [ 23.339003, 38.0135227 ], [ 23.3390486, 38.0131614 ], [ 23.3390459, 38.0127577 ], [ 23.3379918, 38.0128528 ], [ 23.337910588687794, 38.012580219929198 ], [ 23.337910588687794, 38.019322676406276 ], [ 23.338434294739923, 38.019322676406276 ], [ 23.33826, 38.0187084 ], [ 23.3381715, 38.0183724 ], [ 23.3380482, 38.0173835 ], [ 23.3380777, 38.0170242 ], [ 23.3383486, 38.0157416 ], [ 23.3386248, 38.0151161 ], [ 23.3387153, 38.0147702 ] ] ], [ [ [ 23.3389708, 38.0116884 ], [ 23.3390272, 38.0108093 ], [ 23.3385578, 38.010803 ], [ 23.3384263, 38.0098456 ], [ 23.3391103, 38.009871 ], [ 23.3391559, 38.0093511 ], [ 23.3391854, 38.0089834 ], [ 23.3382091, 38.0090066 ], [ 23.3381903, 38.0087551 ], [ 23.3380374, 38.0087636 ], [ 23.338016, 38.008603 ], [ 23.337910588687794, 38.008605499873021 ], [ 23.337910588687794, 38.011705432797683 ], [ 23.3389708, 38.0116884 ] ] ] ] } }
]
}
