{
"type": "FeatureCollection",
"name": "patch_39783_linestring",
"crs": { "type": "name", "properties": { "name": "urn:ogc:def:crs:OGC:1.3:CRS84" } },
"features": [
{ "type": "Feature", "properties": { "osm_id": 983689402, "name": "Ρέμα Αγίας Φωτεινής (Γαλλιανό Φαράγγι)", "label": "waterway:stream", "waterway": "stream" }, "geometry": { "type": "LineString", "coordinates": [ [ 24.46396, 35.325377099675407 ], [ 24.4639657, 35.325476999675423 ] ] } },
{ "type": "Feature", "properties": { "osm_id": 240268365, "name": "Ρέμα Αγίας Φωτεινής (Γαλλιανό Φαράγγι)", "label": "waterway:stream", "waterway": "stream" }, "geometry": { "type": "LineString", "coordinates": [ [ 24.4647107, 35.323746399675279 ], [ 24.4645356, 35.323839199675298 ] ] } },
{ "type": "Feature", "properties": { "osm_id": 983689401, "name": "Ρέμα Αγίας Φωτεινής (Γαλλιανό Φαράγγι)", "label": "waterway:stream", "waterway": "stream" }, "geometry": { "type": "LineString", "coordinates": [ [ 24.4645356, 35.323839199675298 ], [ 24.4643884, 35.323917099675299 ], [ 24.4640432, 35.324186499675321 ], [ 24.4639381, 35.324994699675379 ], [ 24.46396, 35.325377099675407 ] ] } },
{ "type": "Feature", "properties": { "osm_id": 98611343, "name": "Ρέμα Αγίας Φωτεινής (Γαλλιανό Φαράγγι)", "label": "waterway:stream", "waterway": "stream" }, "geometry": { "type": "LineString", "coordinates": [ [ 24.4683959, 35.320230899675011 ], [ 24.4677955, 35.320573799675032 ], [ 24.4671201, 35.320977899675064 ], [ 24.4663096, 35.321394299675099 ], [ 24.4660694, 35.32168819967513 ], [ 24.4662946, 35.322104599675164 ], [ 24.4666248, 35.322484199675181 ], [ 24.4663546, 35.322802699675194 ], [ 24.465289, 35.323182299675246 ], [ 24.4649437, 35.323623099675274 ], [ 24.4647107, 35.323746399675279 ] ] } },
{ "type": "Feature", "properties": { "osm_id": 240268366, "name": "Ρέμα Αγίας Φωτεινής (Γαλλιανό Φαράγγι)", "label": "waterway:stream", "waterway": "stream" }, "geometry": { "type": "LineString", "coordinates": [ [ 24.4639657, 35.325476999675423 ], [ 24.4640132, 35.326304999675479 ], [ 24.4642233, 35.327051999675547 ], [ 24.4645685, 35.327749999675611 ], [ 24.4648537, 35.32804389967562 ], [ 24.4648087, 35.328472499675655 ], [ 24.4646736, 35.32891329967569 ], [ 24.4643284, 35.32915819967571 ], [ 24.4642233, 35.329415399675739 ], [ 24.4646286, 35.329782699675761 ], [ 24.4647336, 35.330223499675796 ], [ 24.4647186, 35.330578599675832 ], [ 24.4649738, 35.331264399675874 ], [ 24.4652589, 35.331496999675892 ], [ 24.465349, 35.332047999675943 ], [ 24.4651539, 35.332317399675958 ], [ 24.4648087, 35.332611299675989 ], [ 24.4648537, 35.332929699676008 ], [ 24.4648687, 35.333296999676044 ], [ 24.4647937, 35.333370499676043 ], [ 24.4646436, 35.333725599676072 ], [ 24.4644034, 35.334398999676132 ], [ 24.4641783, 35.334631699676144 ], [ 24.4639381, 35.334754099676147 ], [ 24.4639081, 35.334998999676174 ], [ 24.463818, 35.335525499676216 ], [ 24.463713, 35.336186699676261 ], [ 24.4639081, 35.336566299676292 ], [ 24.4635629, 35.336945799676329 ], [ 24.4629775, 35.337129499676344 ], [ 24.4627674, 35.337325399676352 ], [ 24.4628574, 35.337778399676395 ], [ 24.4626173, 35.338157999676426 ], [ 24.4629175, 35.338488599676445 ], [ 24.4634428, 35.338647699676471 ], [ 24.4635028, 35.338941599676474 ], [ 24.4629925, 35.33939459967651 ], [ 24.462850948333742, 35.340010479747633 ] ] } }
]
}
