{
"type": "FeatureCollection",
"name": "patch_45131_features",
"crs": { "type": "name", "properties": { "name": "urn:ogc:def:crs:OGC:1.3:CRS84" } },
"features": [
{ "type": "Feature", "properties": { "osm_id": -1842305, "name": null, "label": "natural:wood", "natural": "wood", "leisure": null, "tourism": null, "waterway": null }, "geometry": { "type": "Polygon", "coordinates": [ [ [ 21.259189, 40.602959000345471 ], [ 21.25856, 40.602944000345481 ], [ 21.256386, 40.602892000345477 ], [ 21.25508, 40.602761000345467 ], [ 21.254468, 40.602601000345437 ], [ 21.254336, 40.602336000345417 ], [ 21.254359, 40.601772000345328 ], [ 21.254372, 40.601458000345296 ], [ 21.254185, 40.600983000345245 ], [ 21.253498, 40.600684000345204 ], [ 21.252673, 40.600728000345207 ], [ 21.252119, 40.601185000345268 ], [ 21.252104, 40.60156100034532 ], [ 21.252261, 40.60268200034546 ], [ 21.247484, 40.603781000345585 ], [ 21.244285, 40.604775000345704 ], [ 21.244245, 40.604806000345718 ], [ 21.243249, 40.605591000345811 ], [ 21.242733, 40.606064000345867 ], [ 21.242648, 40.606111000345869 ], [ 21.242077, 40.606389000345906 ], [ 21.241447, 40.606756000345946 ], [ 21.240967, 40.607032000345981 ], [ 21.240637, 40.607213000346 ], [ 21.240096, 40.607420000346032 ], [ 21.239346, 40.607676000346054 ], [ 21.238895, 40.607858000346077 ], [ 21.238535, 40.607953000346107 ], [ 21.238055, 40.607999000346112 ], [ 21.237724, 40.608045000346102 ], [ 21.237124, 40.608115000346125 ], [ 21.237063, 40.607816000346077 ], [ 21.236912, 40.607357000346028 ], [ 21.236569, 40.60690300034598 ], [ 21.236611, 40.606741000345941 ], [ 21.237699, 40.606041000345861 ], [ 21.237989, 40.605442000345782 ], [ 21.238033, 40.604354000345651 ], [ 21.238072, 40.603426000345543 ], [ 21.238356, 40.602949000345475 ], [ 21.238927, 40.601953000345354 ], [ 21.238946, 40.601482000345307 ], [ 21.238956, 40.601227000345276 ], [ 21.238611, 40.600614000345196 ], [ 21.237935, 40.600315000345162 ], [ 21.237884, 40.60034400034516 ], [ 21.237501, 40.600097000345137 ], [ 21.237444, 40.600054000345125 ], [ 21.236293, 40.599938000345119 ], [ 21.236194, 40.599320000345038 ], [ 21.236447, 40.599231000345043 ], [ 21.23726, 40.599108000344998 ], [ 21.237905, 40.598555000344938 ], [ 21.238049, 40.598084000344883 ], [ 21.238115, 40.597832000344845 ], [ 21.238072, 40.597774000344842 ], [ 21.238404, 40.597002000344759 ], [ 21.237874, 40.596279000344673 ], [ 21.237368, 40.595868000344609 ], [ 21.237034, 40.595813000344606 ], [ 21.236704, 40.595308000344538 ], [ 21.236641583304323, 40.595090015159549 ], [ 21.2288624753213, 40.595090015159549 ], [ 21.2288624753213, 40.618088542114812 ], [ 21.259206276642082, 40.618088542114812 ], [ 21.259206276642082, 40.615246157415392 ], [ 21.259186, 40.615240000346994 ], [ 21.258886, 40.615197000347003 ], [ 21.258555, 40.615130000346987 ], [ 21.257954, 40.615038000346964 ], [ 21.25739, 40.614889000346942 ], [ 21.257353, 40.61487900034696 ], [ 21.256812, 40.614789000346953 ], [ 21.256181, 40.614723000346928 ], [ 21.25552, 40.614698000346912 ], [ 21.254949, 40.614701000346926 ], [ 21.254168, 40.614794000346947 ], [ 21.253838, 40.614862000346932 ], [ 21.253598, 40.615023000346973 ], [ 21.253208, 40.615459000347009 ], [ 21.253118, 40.615691000347049 ], [ 21.252909, 40.615988000347073 ], [ 21.252735, 40.616233000347101 ], [ 21.252432, 40.616889000347193 ], [ 21.251869, 40.617134000347214 ], [ 21.25072, 40.617172000347232 ], [ 21.249742, 40.617181000347237 ], [ 21.249328, 40.616912000347178 ], [ 21.249047, 40.61651600034714 ], [ 21.249054, 40.616355000347127 ], [ 21.249446, 40.616105000347098 ], [ 21.249505, 40.616071000347084 ], [ 21.249488, 40.616060000347083 ], [ 21.249802, 40.615725000347041 ], [ 21.249913, 40.615080000346964 ], [ 21.249649, 40.614264000346864 ], [ 21.248814, 40.61392000034683 ], [ 21.248393, 40.613813000346816 ], [ 21.247978, 40.613576000346782 ], [ 21.247991, 40.613253000346745 ], [ 21.248617, 40.61271600034668 ], [ 21.248937, 40.612603000346652 ], [ 21.249297, 40.612446000346644 ], [ 21.249627, 40.612283000346622 ], [ 21.250228, 40.612005000346599 ], [ 21.250798, 40.611709000346558 ], [ 21.251158, 40.61159200034654 ], [ 21.251759, 40.611454000346527 ], [ 21.252479, 40.611224000346503 ], [ 21.25314, 40.610948000346468 ], [ 21.253704, 40.610720000346433 ], [ 21.254452, 40.610558000346408 ], [ 21.254696, 40.61045900034641 ], [ 21.25621, 40.60984600034633 ], [ 21.256935, 40.609236000346264 ], [ 21.257362, 40.608839000346208 ], [ 21.258207, 40.608325000346142 ], [ 21.258973, 40.607716000346066 ], [ 21.259206276642082, 40.607466448982308 ], [ 21.259206276642082, 40.602959406854723 ], [ 21.259189, 40.602959000345471 ] ] ] } },
{ "type": "Feature", "properties": { "osm_id": 136705020, "name": null, "label": "natural:wood", "natural": "wood", "leisure": null, "tourism": null, "waterway": null }, "geometry": { "type": "Polygon", "coordinates": [ [ [ 21.248393, 40.613813000346816 ], [ 21.248814, 40.61392000034683 ], [ 21.249649, 40.614264000346864 ], [ 21.249913, 40.615080000346964 ], [ 21.249802, 40.615725000347041 ], [ 21.249488, 40.616060000347083 ], [ 21.249505, 40.616071000347084 ], [ 21.249446, 40.616105000347098 ], [ 21.249054, 40.616355000347127 ], [ 21.249047, 40.61651600034714 ], [ 21.249328, 40.616912000347178 ], [ 21.249742, 40.617181000347237 ], [ 21.25072, 40.617172000347232 ], [ 21.251869, 40.617134000347214 ], [ 21.252432, 40.616889000347193 ], [ 21.252735, 40.616233000347101 ], [ 21.252909, 40.615988000347073 ], [ 21.253118, 40.615691000347049 ], [ 21.253208, 40.615459000347009 ], [ 21.253598, 40.615023000346973 ], [ 21.253838, 40.614862000346932 ], [ 21.254168, 40.614794000346947 ], [ 21.254949, 40.614701000346926 ], [ 21.25552, 40.614698000346912 ], [ 21.256181, 40.614723000346928 ], [ 21.256812, 40.614789000346953 ], [ 21.257353, 40.61487900034696 ], [ 21.25739, 40.614889000346942 ], [ 21.256495, 40.613802000346801 ], [ 21.255667, 40.613130000346736 ], [ 21.254975, 40.611727000346562 ], [ 21.254696, 40.61045900034641 ], [ 21.254452, 40.610558000346408 ], [ 21.253704, 40.610720000346433 ], [ 21.25314, 40.610948000346468 ], [ 21.252479, 40.611224000346503 ], [ 21.251759, 40.611454000346527 ], [ 21.251158, 40.61159200034654 ], [ 21.250798, 40.611709000346558 ], [ 21.250228, 40.612005000346599 ], [ 21.249627, 40.612283000346622 ], [ 21.249297, 40.612446000346644 ], [ 21.248937, 40.612603000346652 ], [ 21.248617, 40.61271600034668 ], [ 21.247991, 40.613253000346745 ], [ 21.247978, 40.613576000346782 ], [ 21.248393, 40.613813000346816 ] ] ] } },
{ "type": "Feature", "properties": { "osm_id": 136705043, "name": null, "label": "natural:wood", "natural": "wood", "leisure": null, "tourism": null, "waterway": null }, "geometry": { "type": "Polygon", "coordinates": [ [ [ 21.244407, 40.595911000344614 ], [ 21.24438, 40.5965610003447 ], [ 21.243863, 40.597292000344787 ], [ 21.241238, 40.598856000344966 ], [ 21.240408, 40.599765000345087 ], [ 21.239629, 40.60090900034524 ], [ 21.238946, 40.601482000345307 ], [ 21.238927, 40.601953000345354 ], [ 21.238356, 40.602949000345475 ], [ 21.238072, 40.603426000345543 ], [ 21.238033, 40.604354000345651 ], [ 21.237989, 40.605442000345782 ], [ 21.237699, 40.606041000345861 ], [ 21.236611, 40.606741000345941 ], [ 21.236569, 40.60690300034598 ], [ 21.236912, 40.607357000346028 ], [ 21.237063, 40.607816000346077 ], [ 21.237124, 40.608115000346125 ], [ 21.237724, 40.608045000346102 ], [ 21.238055, 40.607999000346112 ], [ 21.238535, 40.607953000346107 ], [ 21.238895, 40.607858000346077 ], [ 21.239346, 40.607676000346054 ], [ 21.240096, 40.607420000346032 ], [ 21.240637, 40.607213000346 ], [ 21.240967, 40.607032000345981 ], [ 21.241447, 40.606756000345946 ], [ 21.242077, 40.606389000345906 ], [ 21.242648, 40.606111000345869 ], [ 21.242733, 40.606064000345867 ], [ 21.243249, 40.605591000345811 ], [ 21.244245, 40.604806000345718 ], [ 21.244682, 40.604050000345616 ], [ 21.244867, 40.602521000345419 ], [ 21.245191, 40.602064000345365 ], [ 21.246746, 40.601311000345291 ], [ 21.247065, 40.600947000345244 ], [ 21.247281, 40.600162000345129 ], [ 21.247629, 40.599101000345016 ], [ 21.248581, 40.598195000344894 ], [ 21.248952, 40.597146000344765 ], [ 21.248548, 40.596205000344646 ], [ 21.248398, 40.595976000344628 ], [ 21.248277, 40.595563000344569 ], [ 21.247954083206203, 40.595090015159549 ], [ 21.244770681553018, 40.595090015159549 ], [ 21.244407, 40.595911000344614 ] ] ] } },
{ "type": "Feature", "properties": { "osm_id": 138577544, "name": "Λάπανα Δήμων Καστοριάς - Κορεστίων", "label": "leisure:nature_reserve;tourism:information", "natural": null, "leisure": "nature_reserve", "tourism": "information", "waterway": null }, "geometry": { "type": "Polygon", "coordinates": [ [ [ 21.258592, 40.608637100346186 ], [ 21.257653, 40.609205300346247 ], [ 21.2568613, 40.6096160003463 ], [ 21.2552338, 40.609792100346311 ], [ 21.2544575, 40.609827300346325 ], [ 21.2521263, 40.609986600346353 ], [ 21.2509299, 40.609958100346333 ], [ 21.2491134, 40.609592700346305 ], [ 21.2487153, 40.608992600346227 ], [ 21.2477367, 40.608808200346203 ], [ 21.2471957, 40.608258500346132 ], [ 21.2479083, 40.608060700346108 ], [ 21.247717, 40.607573000346058 ], [ 21.2470858, 40.607504300346044 ], [ 21.2461094, 40.607266200346011 ], [ 21.2460633, 40.606674600345926 ], [ 21.2455707, 40.606662800345944 ], [ 21.2447571, 40.605891800345844 ], [ 21.2434727, 40.606290600345893 ], [ 21.2424721, 40.60664250034592 ], [ 21.2426437, 40.605895000345839 ], [ 21.2430265, 40.60515250034576 ], [ 21.2436027, 40.604844200345724 ], [ 21.2443966, 40.604380000345657 ], [ 21.2448629, 40.603317400345524 ], [ 21.2458877, 40.602375500345417 ], [ 21.2464638, 40.602067100345366 ], [ 21.2478316, 40.601348100345291 ], [ 21.2482626, 40.60114370034524 ], [ 21.2474248, 40.600962600345241 ], [ 21.2476689, 40.600163200345136 ], [ 21.2485419, 40.599486000345053 ], [ 21.2489883, 40.598906100344983 ], [ 21.2488872, 40.597937400344861 ], [ 21.2490192, 40.596437300344675 ], [ 21.2492083, 40.595260700344539 ], [ 21.249198739656592, 40.595090015159549 ], [ 21.2288624753213, 40.595090015159549 ], [ 21.2288624753213, 40.618088542114812 ], [ 21.259206276642082, 40.618088542114812 ], [ 21.259206276642082, 40.608324245734032 ], [ 21.258592, 40.608637100346186 ] ] ] } },
{ "type": "Feature", "properties": { "osm_id": 26240714, "name": null, "label": "waterway:stream", "natural": null, "leisure": null, "tourism": null, "waterway": "stream" }, "geometry": { "type": "LineString", "coordinates": [ [ 21.2509746, 40.600339900345155 ], [ 21.249773, 40.599557900345062 ], [ 21.2490863, 40.598384800344924 ], [ 21.2487467, 40.598204300344904 ], [ 21.2473697, 40.597472400344813 ], [ 21.2463397, 40.596690400344713 ], [ 21.2451381, 40.595777900344608 ], [ 21.244030830109878, 40.595090015159549 ] ] } },
{ "type": "Feature", "properties": { "osm_id": 35816392, "name": null, "label": "waterway:stream", "natural": null, "leisure": null, "tourism": null, "waterway": "stream" }, "geometry": { "type": "LineString", "coordinates": [ [ 21.2318609, 40.601591100345317 ], [ 21.2310026, 40.601069700345242 ], [ 21.2298009, 40.600027000345122 ], [ 21.2288624753213, 40.599195730983418 ] ] } },
{ "type": "Feature", "properties": { "osm_id": 429698748, "name": null, "label": "natural:peak", "natural": "peak", "leisure": null, "tourism": null, "waterway": null }, "geometry": { "type": "Point", "coordinates": [ 21.2555111, 40.602432700345418 ] } }
]
}
