{
"type": "FeatureCollection",
"name": "patch_522_linestring",
"crs": { "type": "name", "properties": { "name": "urn:ogc:def:crs:OGC:1.3:CRS84" } },
"features": [
{ "type": "Feature", "properties": { "element": "way", "id": 840860656, "ele": null, "int_name": null, "name": null, "name:de": null, "name:el": null, "name:en": null, "name:fr": null, "name:it": null, "natural": "cliff", "amenity": null, "backrest": null, "bench": null, "colour": null, "direction": null, "leisure": null, "material": null, "seats": null, "backcountry": null, "tourism": null, "leaf_type": null, "source": null, "water": null, "building": null, "denomination": null, "religion": null, "shelter_type": null, "email": null, "operator": null, "phone": null, "website": null, "intermittent": null, "waterway": null, "type": null, "label": "natural:cliff" }, "geometry": { "type": "LineString", "coordinates": [ [ 21.1363272, 39.441778 ], [ 21.1361984, 39.44142 ], [ 21.1362843, 39.4411151 ], [ 21.1360439, 39.4407638 ], [ 21.1361555, 39.4402799 ], [ 21.1363873, 39.4396635 ], [ 21.13631, 39.4392326 ], [ 21.1366791, 39.4387553 ], [ 21.1373743, 39.4379069 ], [ 21.1377176, 39.4372572 ], [ 21.1380266, 39.4364883 ], [ 21.1381983, 39.4354144 ], [ 21.1385674, 39.434599 ], [ 21.1386961, 39.4341681 ], [ 21.1391768, 39.4334455 ], [ 21.1391253, 39.432113 ], [ 21.1393828, 39.4312578 ], [ 21.1399407, 39.4302104 ], [ 21.1404986, 39.4292425 ], [ 21.140902, 39.4282878 ], [ 21.1415972, 39.4269883 ], [ 21.141683, 39.4264049 ], [ 21.1417345, 39.4255364 ], [ 21.141605307947518, 39.425427342076169 ] ] } },
{ "type": "Feature", "properties": { "element": "way", "id": 840860658, "ele": null, "int_name": null, "name": null, "name:de": null, "name:el": null, "name:en": null, "name:fr": null, "name:it": null, "natural": "cliff", "amenity": null, "backrest": null, "bench": null, "colour": null, "direction": null, "leisure": null, "material": null, "seats": null, "backcountry": null, "tourism": null, "leaf_type": null, "source": null, "water": null, "building": null, "denomination": null, "religion": null, "shelter_type": null, "email": null, "operator": null, "phone": null, "website": null, "intermittent": null, "waterway": null, "type": null, "label": "natural:cliff" }, "geometry": { "type": "LineString", "coordinates": [ [ 21.1461593, 39.4319248 ], [ 21.1455928, 39.4310298 ], [ 21.1462795, 39.4300155 ], [ 21.146729819245717, 39.429286291294417 ] ] } },
{ "type": "Feature", "properties": { "element": "way", "id": 840860659, "ele": null, "int_name": null, "name": null, "name:de": null, "name:el": null, "name:en": null, "name:fr": null, "name:it": null, "natural": "cliff", "amenity": null, "backrest": null, "bench": null, "colour": null, "direction": null, "leisure": null, "material": null, "seats": null, "backcountry": null, "tourism": null, "leaf_type": null, "source": null, "water": null, "building": null, "denomination": null, "religion": null, "shelter_type": null, "email": null, "operator": null, "phone": null, "website": null, "intermittent": null, "waterway": null, "type": null, "label": "natural:cliff" }, "geometry": { "type": "LineString", "coordinates": [ [ 21.1447058, 39.4327389 ], [ 21.143281, 39.4317843 ], [ 21.1437101, 39.4304849 ], [ 21.144208, 39.4292783 ], [ 21.1461992, 39.4274087 ] ] } },
{ "type": "Feature", "properties": { "element": "way", "id": 840860660, "ele": null, "int_name": null, "name": null, "name:de": null, "name:el": null, "name:en": null, "name:fr": null, "name:it": null, "natural": "cliff", "amenity": null, "backrest": null, "bench": null, "colour": null, "direction": null, "leisure": null, "material": null, "seats": null, "backcountry": null, "tourism": null, "leaf_type": null, "source": null, "water": null, "building": null, "denomination": null, "religion": null, "shelter_type": null, "email": null, "operator": null, "phone": null, "website": null, "intermittent": null, "waterway": null, "type": null, "label": "natural:cliff" }, "geometry": { "type": "LineString", "coordinates": [ [ 21.142382533780975, 39.448460904236448 ], [ 21.1439676, 39.4474279 ], [ 21.1457872, 39.4463012 ], [ 21.146729819245717, 39.445187012060806 ] ] } },
{ "type": "Feature", "properties": { "element": "way", "id": 1195597480, "ele": null, "int_name": null, "name": null, "name:de": null, "name:el": null, "name:en": null, "name:fr": null, "name:it": null, "natural": null, "amenity": null, "backrest": null, "bench": null, "colour": null, "direction": null, "leisure": null, "material": null, "seats": null, "backcountry": null, "tourism": null, "leaf_type": null, "source": null, "water": null, "building": null, "denomination": null, "religion": null, "shelter_type": null, "email": null, "operator": null, "phone": null, "website": null, "intermittent": "yes", "waterway": "stream", "type": null, "label": "waterway:stream" }, "geometry": { "type": "LineString", "coordinates": [ [ 21.1252069, 39.4416299 ], [ 21.1251271, 39.4417124 ], [ 21.1249293, 39.4417863 ], [ 21.1248719, 39.4418787 ], [ 21.1246471, 39.4418898 ], [ 21.1245123, 39.4419372 ], [ 21.1243218, 39.442049 ], [ 21.1240482, 39.442136 ], [ 21.1238524, 39.4422852 ], [ 21.1236057, 39.4425068 ], [ 21.1233911, 39.4426663 ], [ 21.1232007, 39.4427782 ], [ 21.1229914, 39.4428817 ], [ 21.1227179, 39.4427802 ], [ 21.1223987, 39.442714 ], [ 21.1221895, 39.4427347 ], [ 21.1220446, 39.4427595 ], [ 21.1218783, 39.4426663 ], [ 21.1216879, 39.4427326 ], [ 21.1214438, 39.4428113 ], [ 21.1211514, 39.4427471 ], [ 21.1207357, 39.4425876 ], [ 21.1204058, 39.4424654 ], [ 21.1201027, 39.4423515 ], [ 21.1196521, 39.4422603 ], [ 21.1193544, 39.4421816 ], [ 21.1191907, 39.4422375 ], [ 21.1187884, 39.4422603 ], [ 21.118606, 39.4422272 ], [ 21.1183029, 39.4421381 ], [ 21.1179274, 39.4420035 ], [ 21.1176297, 39.4420159 ], [ 21.11734, 39.4421402 ], [ 21.1171335, 39.4423059 ], [ 21.116938571398752, 39.442460859688495 ] ] } }
]
}
