{
"type": "FeatureCollection",
"name": "patch_522_point",
"crs": { "type": "name", "properties": { "name": "urn:ogc:def:crs:OGC:1.3:CRS84" } },
"features": [
{ "type": "Feature", "properties": { "element": "node", "id": 6427648017, "ele": "2252", "int_name": "Skiomeno Lithari", "name": "Σχισμένο Λιθάρι", "name:de": "Skismeno Lithari", "name:el": "Σχισμένο Λιθάρι", "name:en": "Skismeno Lithari", "name:fr": "Skismeno Lithari", "name:it": "Skismeno Lithari", "natural": "peak", "amenity": null, "backrest": null, "bench": null, "colour": null, "direction": null, "leisure": null, "material": null, "seats": null, "backcountry": null, "tourism": null, "leaf_type": null, "source": null, "water": null, "building": null, "denomination": null, "religion": null, "shelter_type": null, "email": null, "operator": null, "phone": null, "website": null, "intermittent": null, "waterway": null, "type": null, "label": "natural:peak" }, "geometry": { "type": "Point", "coordinates": [ 21.1438547, 39.4480587 ] } },
{ "type": "Feature", "properties": { "element": "node", "id": 7041072642, "ele": "1143", "int_name": null, "name": null, "name:de": null, "name:el": null, "name:en": null, "name:fr": null, "name:it": null, "natural": null, "amenity": "drinking_water", "backrest": null, "bench": null, "colour": null, "direction": null, "leisure": null, "material": null, "seats": null, "backcountry": null, "tourism": null, "leaf_type": null, "source": null, "water": null, "building": null, "denomination": null, "religion": null, "shelter_type": null, "email": null, "operator": null, "phone": null, "website": null, "intermittent": null, "waterway": null, "type": null, "label": "amenity:drinking_water" }, "geometry": { "type": "Point", "coordinates": [ 21.1187789, 39.439059 ] } },
{ "type": "Feature", "properties": { "element": "node", "id": 7041083982, "ele": null, "int_name": null, "name": null, "name:de": null, "name:el": null, "name:en": null, "name:fr": null, "name:it": null, "natural": null, "amenity": null, "backrest": "yes", "bench": "yes", "colour": "brown", "direction": "90;270", "leisure": "picnic_table", "material": "wood", "seats": "6", "backcountry": null, "tourism": null, "leaf_type": null, "source": null, "water": null, "building": null, "denomination": null, "religion": null, "shelter_type": null, "email": null, "operator": null, "phone": null, "website": null, "intermittent": null, "waterway": null, "type": null, "label": "leisure:picnic_table" }, "geometry": { "type": "Point", "coordinates": [ 21.1187916, 39.4390296 ] } },
{ "type": "Feature", "properties": { "element": "node", "id": 7041084793, "ele": null, "int_name": null, "name": null, "name:de": null, "name:el": null, "name:en": null, "name:fr": null, "name:it": null, "natural": null, "amenity": null, "backrest": "yes", "bench": "yes", "colour": "brown", "direction": "90;270", "leisure": "picnic_table", "material": "wood", "seats": "6", "backcountry": null, "tourism": null, "leaf_type": null, "source": null, "water": null, "building": null, "denomination": null, "religion": null, "shelter_type": null, "email": null, "operator": null, "phone": null, "website": null, "intermittent": null, "waterway": null, "type": null, "label": "leisure:picnic_table" }, "geometry": { "type": "Point", "coordinates": [ 21.1187143, 39.4391081 ] } },
{ "type": "Feature", "properties": { "element": "node", "id": 7846033609, "ele": "1659", "int_name": null, "name": null, "name:de": null, "name:el": null, "name:en": null, "name:fr": null, "name:it": null, "natural": null, "amenity": "drinking_water", "backrest": null, "bench": null, "colour": null, "direction": null, "leisure": null, "material": null, "seats": null, "backcountry": null, "tourism": null, "leaf_type": null, "source": null, "water": null, "building": null, "denomination": null, "religion": null, "shelter_type": null, "email": null, "operator": null, "phone": null, "website": null, "intermittent": null, "waterway": null, "type": null, "label": "amenity:drinking_water" }, "geometry": { "type": "Point", "coordinates": [ 21.1352414, 39.4450563 ] } },
{ "type": "Feature", "properties": { "element": "node", "id": 7846033610, "ele": null, "int_name": null, "name": null, "name:de": null, "name:el": null, "name:en": null, "name:fr": null, "name:it": null, "natural": null, "amenity": null, "backrest": null, "bench": null, "colour": null, "direction": null, "leisure": null, "material": null, "seats": null, "backcountry": "yes", "tourism": "camp_site", "leaf_type": null, "source": null, "water": null, "building": null, "denomination": null, "religion": null, "shelter_type": null, "email": null, "operator": null, "phone": null, "website": null, "intermittent": null, "waterway": null, "type": null, "label": "tourism:camp_site" }, "geometry": { "type": "Point", "coordinates": [ 21.1349455, 39.4448445 ] } }
]
}
