{
"type": "FeatureCollection",
"name": "patch_62843_multipolygon",
"crs": { "type": "name", "properties": { "name": "urn:ogc:def:crs:OGC:1.3:CRS84" } },
"features": [
{ "type": "Feature", "properties": { "element": "relation", "id": 16161963, "castle_type": null, "historic": null, "historic:civilization": null, "image": null, "name": null, "name:el": null, "name:en": null, "source": "http://geodata.gov.gr/", "wikidata": null, "wikipedia": null, "ele": null, "name:fr": null, "tourism": null, "man_made": null, "natural": "wood", "archaeological_site": null, "description": null, "int_name": null, "name:ru": null, "leaf_type": "broadleaved", "amenity": null, "building": null, "denomination": null, "religion": null, "landuse": null, "type": "multipolygon", "label": "natural:wood" }, "geometry": { "type": "MultiPolygon", "coordinates": [ [ [ [ 24.260906, 38.152131 ], [ 24.259986, 38.152516 ], [ 24.259862018424897, 38.152545673719487 ], [ 24.259862018424897, 38.15835007261736 ], [ 24.262421924173445, 38.15835007261736 ], [ 24.26239, 38.157571 ], [ 24.261955, 38.157122 ], [ 24.262168, 38.156589 ], [ 24.262958, 38.156183 ], [ 24.263741, 38.155934 ], [ 24.264093, 38.155685 ], [ 24.264248, 38.15519 ], [ 24.264793, 38.15426 ], [ 24.265098, 38.154027 ], [ 24.265361, 38.152996 ], [ 24.2654487, 38.1526452 ], [ 24.2652878, 38.1526052 ], [ 24.2651349, 38.152622 ], [ 24.2650384, 38.1526326 ], [ 24.264906, 38.15296 ], [ 24.264126, 38.153952 ], [ 24.263539, 38.154325 ], [ 24.263069, 38.154542 ], [ 24.26264, 38.154977 ], [ 24.262132, 38.155349 ], [ 24.261661, 38.155381 ], [ 24.261386, 38.155196 ], [ 24.261189, 38.154701 ], [ 24.261697, 38.154298 ], [ 24.262166, 38.154111 ], [ 24.2628604, 38.1535796 ], [ 24.2632359, 38.1530354 ], [ 24.2633969, 38.1527275 ], [ 24.2633486, 38.1524575 ], [ 24.2641586, 38.1514409 ], [ 24.2648023, 38.150323 ], [ 24.2652798, 38.1505381 ], [ 24.265843, 38.1505634 ], [ 24.2667013, 38.150247 ], [ 24.2668945, 38.1497408 ], [ 24.2666799, 38.1492599 ], [ 24.2660201, 38.1487832 ], [ 24.265556, 38.14844 ], [ 24.264889, 38.148379 ], [ 24.264184, 38.148381 ], [ 24.263223, 38.148985 ], [ 24.263394, 38.149252 ], [ 24.263639, 38.149903 ], [ 24.263277, 38.150555 ], [ 24.262068, 38.151611 ], [ 24.260906, 38.152131 ] ] ], [ [ [ 24.259884, 38.151022 ], [ 24.260295, 38.150734 ], [ 24.260462, 38.150082 ], [ 24.260654, 38.149431 ], [ 24.2611418, 38.1491564 ], [ 24.261235, 38.149104 ], [ 24.26138, 38.149046 ], [ 24.261671, 38.148892 ], [ 24.261912, 38.14849 ], [ 24.261742, 38.148347 ], [ 24.261087, 38.148377 ], [ 24.260165, 38.148379 ], [ 24.259862018424897, 38.148476977158701 ], [ 24.259862018424897, 38.15103050230735 ], [ 24.259884, 38.151022 ] ] ] ] } },
{ "type": "Feature", "properties": { "element": "way", "id": 136245578, "castle_type": null, "historic": null, "historic:civilization": null, "image": null, "name": null, "name:el": null, "name:en": null, "source": "http://geodata.gov.gr/", "wikidata": null, "wikipedia": null, "ele": null, "name:fr": null, "tourism": null, "man_made": null, "natural": "wood", "archaeological_site": null, "description": null, "int_name": null, "name:ru": null, "leaf_type": "broadleaved", "amenity": null, "building": null, "denomination": null, "religion": null, "landuse": null, "type": null, "label": "natural:wood" }, "geometry": { "type": "MultiPolygon", "coordinates": [ [ [ [ 24.276622, 38.134709 ], [ 24.277561, 38.135162 ], [ 24.278281, 38.135218 ], [ 24.27864, 38.134932 ], [ 24.278964, 38.134761 ], [ 24.279432, 38.134731 ], [ 24.280008, 38.134673 ], [ 24.280133686608245, 38.134626019015975 ], [ 24.276598337453773, 38.134626019015975 ], [ 24.276622, 38.134709 ] ] ], [ [ [ 24.286134, 38.134971 ], [ 24.285594, 38.134972 ], [ 24.284765, 38.134861 ], [ 24.284116, 38.134748 ], [ 24.283684, 38.13492 ], [ 24.283217, 38.135149 ], [ 24.282857, 38.135178 ], [ 24.28264, 38.135122 ], [ 24.282099, 38.134981 ], [ 24.281847, 38.134982 ], [ 24.281379, 38.13504 ], [ 24.280948, 38.135439 ], [ 24.280986, 38.135866 ], [ 24.281167, 38.136121 ], [ 24.282285, 38.136432 ], [ 24.28297, 38.136544 ], [ 24.283546, 38.136486 ], [ 24.28405, 38.136314 ], [ 24.285023, 38.136397 ], [ 24.286571, 38.136222 ], [ 24.287289, 38.135566 ], [ 24.287456044813425, 38.134626019015975 ], [ 24.286434347325713, 38.134626019015975 ], [ 24.286134, 38.134971 ] ] ] ] } },
{ "type": "Feature", "properties": { "element": "way", "id": 136247069, "castle_type": null, "historic": null, "historic:civilization": null, "image": null, "name": null, "name:el": null, "name:en": null, "source": "http://geodata.gov.gr/", "wikidata": null, "wikipedia": null, "ele": null, "name:fr": null, "tourism": null, "man_made": null, "natural": "wood", "archaeological_site": null, "description": null, "int_name": null, "name:ru": null, "leaf_type": "broadleaved", "amenity": null, "building": null, "denomination": null, "religion": null, "landuse": null, "type": null, "label": "natural:wood" }, "geometry": { "type": "MultiPolygon", "coordinates": [ [ [ [ 24.28811, 38.143831 ], [ 24.287761, 38.143832 ], [ 24.287065, 38.143834 ], [ 24.28676, 38.143628 ], [ 24.286759, 38.143353 ], [ 24.286975, 38.143009 ], [ 24.287061, 38.142769 ], [ 24.28706, 38.142459 ], [ 24.286711, 38.142185 ], [ 24.286187, 38.141774 ], [ 24.286185, 38.141328 ], [ 24.28623, 38.140975 ], [ 24.28641, 38.140946 ], [ 24.28677, 38.141059 ], [ 24.287024, 38.141371 ], [ 24.287421, 38.141513 ], [ 24.287817, 38.141512 ], [ 24.288068, 38.141227 ], [ 24.288067, 38.1408 ], [ 24.288029, 38.140487 ], [ 24.287379, 38.140147 ], [ 24.285901, 38.139752 ], [ 24.285179, 38.139498 ], [ 24.285142, 38.1391 ], [ 24.285357, 38.138985 ], [ 24.286151, 38.139268 ], [ 24.28662, 38.139409 ], [ 24.28734, 38.139407 ], [ 24.28818688392251, 38.139379885253284 ], [ 24.28818688392251, 38.13865812913938 ], [ 24.287553, 38.138525 ], [ 24.286832, 38.13827 ], [ 24.286434, 38.137987 ], [ 24.286289, 38.137731 ], [ 24.286035, 38.137134 ], [ 24.285746, 38.136992 ], [ 24.285386, 38.137192 ], [ 24.28427, 38.137309 ], [ 24.283549, 38.137197 ], [ 24.283297, 38.137198 ], [ 24.28301, 38.137511 ], [ 24.283408, 38.138079 ], [ 24.283481, 38.138392 ], [ 24.282906, 38.13865 ], [ 24.282547, 38.138878 ], [ 24.282404, 38.139362 ], [ 24.282513, 38.139561 ], [ 24.282947, 38.139873 ], [ 24.283454, 38.140726 ], [ 24.283999, 38.141663 ], [ 24.284615, 38.142601 ], [ 24.284833, 38.143084 ], [ 24.284834, 38.143312 ], [ 24.284584, 38.143531 ], [ 24.28393, 38.143154 ], [ 24.2831, 38.142297 ], [ 24.282793, 38.141576 ], [ 24.282443, 38.141027 ], [ 24.282006, 38.140547 ], [ 24.281699, 38.140136 ], [ 24.28148, 38.139655 ], [ 24.281478, 38.139209 ], [ 24.281738, 38.138864 ], [ 24.281911, 38.138452 ], [ 24.281909, 38.138108 ], [ 24.281777, 38.137765 ], [ 24.280687, 38.13708 ], [ 24.279597, 38.136499 ], [ 24.277855, 38.135953 ], [ 24.276941, 38.135818 ], [ 24.276505, 38.135681 ], [ 24.275329, 38.135203 ], [ 24.27424, 38.134862 ], [ 24.27391263115479, 38.134626019015975 ], [ 24.270108370136661, 38.134626019015975 ], [ 24.270647, 38.135049 ], [ 24.271088, 38.135269 ], [ 24.271449, 38.135395 ], [ 24.27193, 38.135647 ], [ 24.272051, 38.135931 ], [ 24.271972, 38.136153 ], [ 24.271893, 38.136406 ], [ 24.272419, 38.13655 ], [ 24.27281, 38.13624 ], [ 24.273244, 38.136067 ], [ 24.273548, 38.136066 ], [ 24.274072, 38.136408 ], [ 24.27429, 38.136614 ], [ 24.27477, 38.136991 ], [ 24.275337, 38.137368 ], [ 24.277341, 38.13805 ], [ 24.278126, 38.138495 ], [ 24.278528, 38.139088 ], [ 24.279016, 38.139675 ], [ 24.279254, 38.140301 ], [ 24.279417, 38.14073 ], [ 24.279641, 38.140945 ], [ 24.280121, 38.141058 ], [ 24.280458, 38.141209 ], [ 24.280989, 38.141814 ], [ 24.280991, 38.142194 ], [ 24.281015, 38.143092 ], [ 24.281408, 38.14347 ], [ 24.281757, 38.143812 ], [ 24.283108, 38.144428 ], [ 24.283708, 38.144652 ], [ 24.283561, 38.145097 ], [ 24.282652, 38.145489 ], [ 24.281896, 38.14627 ], [ 24.281709, 38.147019 ], [ 24.281484, 38.147649 ], [ 24.281181, 38.14786 ], [ 24.280613, 38.148161 ], [ 24.280273, 38.148641 ], [ 24.280198, 38.149001 ], [ 24.279896, 38.149301 ], [ 24.279706, 38.149302 ], [ 24.279143, 38.149143 ], [ 24.279049, 38.149674 ], [ 24.279194, 38.149902 ], [ 24.279483, 38.149939 ], [ 24.279964, 38.150203 ], [ 24.28011, 38.150507 ], [ 24.28016, 38.151265 ], [ 24.279969, 38.151569 ], [ 24.279634, 38.151912 ], [ 24.27906, 38.152558 ], [ 24.278727, 38.153318 ], [ 24.278777, 38.153963 ], [ 24.279114, 38.154114 ], [ 24.279354, 38.154113 ], [ 24.279834, 38.15396 ], [ 24.279977, 38.153619 ], [ 24.280517, 38.153504 ], [ 24.280956, 38.153724 ], [ 24.281148, 38.154 ], [ 24.281335, 38.154294 ], [ 24.281391, 38.154903 ], [ 24.281268, 38.155165 ], [ 24.280897, 38.155591 ], [ 24.280649, 38.155821 ], [ 24.280609, 38.156082 ], [ 24.281438, 38.156309 ], [ 24.282183, 38.156079 ], [ 24.282885, 38.155456 ], [ 24.283837, 38.154389 ], [ 24.283993, 38.154083 ], [ 24.283919, 38.153746 ], [ 24.28354, 38.153623 ], [ 24.283002, 38.153591 ], [ 24.282421, 38.153462 ], [ 24.281468, 38.15317 ], [ 24.281259, 38.152843 ], [ 24.281174, 38.15232 ], [ 24.281131, 38.151732 ], [ 24.281169, 38.150783 ], [ 24.281453, 38.149442 ], [ 24.281906, 38.148754 ], [ 24.282278, 38.148557 ], [ 24.282748, 38.148366 ], [ 24.283254, 38.148741 ], [ 24.283536, 38.149117 ], [ 24.283538, 38.149538 ], [ 24.283512, 38.150358 ], [ 24.284094, 38.151057 ], [ 24.284708, 38.151217 ], [ 24.285219, 38.151215 ], [ 24.285762, 38.150649 ], [ 24.285759, 38.149976 ], [ 24.285621, 38.149385 ], [ 24.285959, 38.148738 ], [ 24.286365, 38.14793 ], [ 24.286634, 38.147122 ], [ 24.286835, 38.146118 ], [ 24.287424, 38.145984 ], [ 24.288126, 38.146204 ], [ 24.28818688392251, 38.146814920726726 ], [ 24.28818688392251, 38.143800423684993 ], [ 24.28811, 38.143831 ] ] ], [ [ [ 24.288102, 38.147764 ], [ 24.287898, 38.147926 ], [ 24.287353, 38.148062 ], [ 24.286741, 38.148332 ], [ 24.286742, 38.148601 ], [ 24.28688, 38.14887 ], [ 24.287459, 38.148976 ], [ 24.287631, 38.149299 ], [ 24.287598, 38.149541 ], [ 24.287191, 38.149973 ], [ 24.287089, 38.150161 ], [ 24.28726, 38.150295 ], [ 24.287873, 38.150267 ], [ 24.28818688392251, 38.15004266531421 ], [ 24.28818688392251, 38.147531622736963 ], [ 24.288102, 38.147764 ] ] ], [ [ [ 24.288039, 38.152144 ], [ 24.287606, 38.152488 ], [ 24.287304, 38.152935 ], [ 24.287306, 38.153346 ], [ 24.287567, 38.15362 ], [ 24.28818688392251, 38.153943706611912 ], [ 24.28818688392251, 38.152113794950466 ], [ 24.288039, 38.152144 ] ] ], [ [ [ 24.287747, 38.155162 ], [ 24.287356, 38.155094 ], [ 24.286269, 38.154788 ], [ 24.285488, 38.154825 ], [ 24.285287, 38.155548 ], [ 24.285371, 38.155777 ], [ 24.285661, 38.155907 ], [ 24.286367, 38.156199 ], [ 24.287611, 38.156654 ], [ 24.28818688392251, 38.156973390941417 ], [ 24.28818688392251, 38.155134336794951 ], [ 24.287747, 38.155162 ] ] ], [ [ [ 24.287822, 38.157798 ], [ 24.286744, 38.157507 ], [ 24.285956, 38.157247 ], [ 24.285128, 38.157118 ], [ 24.284383, 38.157251 ], [ 24.284119, 38.157397 ], [ 24.283969, 38.157481 ], [ 24.283432, 38.157744 ], [ 24.282769, 38.157811 ], [ 24.282514, 38.157744 ], [ 24.282272, 38.157681 ], [ 24.281858, 38.157682 ], [ 24.281196, 38.157847 ], [ 24.281156, 38.158272 ], [ 24.281162837316796, 38.15835007261736 ], [ 24.28818688392251, 38.15835007261736 ], [ 24.28818688392251, 38.157875617851943 ], [ 24.287822, 38.157798 ] ] ] ] } },
{ "type": "Feature", "properties": { "element": "way", "id": 136247668, "castle_type": null, "historic": null, "historic:civilization": null, "image": null, "name": null, "name:el": null, "name:en": null, "source": "http://geodata.gov.gr/", "wikidata": null, "wikipedia": null, "ele": null, "name:fr": null, "tourism": null, "man_made": null, "natural": "wood", "archaeological_site": null, "description": null, "int_name": null, "name:ru": null, "leaf_type": "mixed", "amenity": null, "building": null, "denomination": null, "religion": null, "landuse": null, "type": null, "label": "natural:wood" }, "geometry": { "type": "MultiPolygon", "coordinates": [ [ [ [ 24.288164, 38.13525 ], [ 24.28818688392251, 38.135272482450183 ], [ 24.28818688392251, 38.135188703778987 ], [ 24.288164, 38.13525 ] ] ], [ [ [ 24.288167, 38.13608 ], [ 24.287829, 38.136574 ], [ 24.288028, 38.136776 ], [ 24.28818688392251, 38.136742395608223 ], [ 24.28818688392251, 38.136075462729089 ], [ 24.288167, 38.13608 ] ] ] ] } }
]
}
