{
"type": "FeatureCollection",
"name": "patch_62843_features",
"crs": { "type": "name", "properties": { "name": "urn:ogc:def:crs:OGC:1.3:CRS84" } },
"features": [
{ "type": "Feature", "properties": { "element": "node", "id": 1888578930, "castle_type": "defensive", "historic": "castle", "historic:civilization": "ancient_greek", "image": "https://www.kastra.eu/pics/armena6.jpg", "name": "Ακρόπολη των Στύρων", "name:el": "Ακρόπολη των Στύρων", "name:en": "Acropolis of Styra - Kastro Armeno", "source": "https://www.kastra.eu/castlegr.php?kastro=armenon", "wikidata": "Q18419527", "wikipedia": "el:Κάστρο των Αρμένων", "ele": null, "name:fr": null, "tourism": null, "man_made": null, "natural": null, "archaeological_site": null, "description": null, "int_name": null, "name:ru": null, "leaf_type": null, "amenity": null, "building": null, "denomination": null, "religion": null, "landuse": null, "type": null, "label": "historic:castle" }, "geometry": { "type": "Point", "coordinates": [ 24.2617647, 38.1458429 ] } },
{ "type": "Feature", "properties": { "element": "node", "id": 8084102917, "castle_type": null, "historic": null, "historic:civilization": null, "image": null, "name": null, "name:el": null, "name:en": null, "source": null, "wikidata": null, "wikipedia": null, "ele": "563", "name:fr": "Cabane en ruines", "tourism": "wilderness_hut", "man_made": null, "natural": null, "archaeological_site": null, "description": null, "int_name": null, "name:ru": null, "leaf_type": null, "amenity": null, "building": null, "denomination": null, "religion": null, "landuse": null, "type": null, "label": "tourism:wilderness_hut" }, "geometry": { "type": "Point", "coordinates": [ 24.2664733, 38.1482763 ] } },
{ "type": "Feature", "properties": { "element": "node", "id": 8740341248, "castle_type": null, "historic": null, "historic:civilization": null, "image": null, "name": null, "name:el": null, "name:en": null, "source": null, "wikidata": null, "wikipedia": null, "ele": "592", "name:fr": null, "tourism": null, "man_made": "survey_point", "natural": "peak", "archaeological_site": null, "description": null, "int_name": null, "name:ru": null, "leaf_type": null, "amenity": null, "building": null, "denomination": null, "religion": null, "landuse": null, "type": null, "label": "natural:peak" }, "geometry": { "type": "Point", "coordinates": [ 24.28322, 38.1561001 ] } },
{ "type": "Feature", "properties": { "element": "node", "id": 8740341251, "castle_type": null, "historic": null, "historic:civilization": null, "image": null, "name": "Άγιος Νικόλαος", "name:el": null, "name:en": null, "source": null, "wikidata": null, "wikipedia": null, "ele": "648", "name:fr": null, "tourism": null, "man_made": "survey_point", "natural": "peak", "archaeological_site": null, "description": null, "int_name": null, "name:ru": null, "leaf_type": null, "amenity": null, "building": null, "denomination": null, "religion": null, "landuse": null, "type": null, "label": "natural:peak" }, "geometry": { "type": "Point", "coordinates": [ 24.2620429, 38.1460759 ] } },
{ "type": "Feature", "properties": { "element": "node", "id": 13143959368, "castle_type": null, "historic": "archaeological_site", "historic:civilization": "prehistoric", "image": null, "name": "Δρακόσπιτα", "name:el": "Δρακόσπιτα Πάλλη Λάκκα", "name:en": "Drakospita (Dragon Houses)", "source": null, "wikidata": null, "wikipedia": null, "ele": null, "name:fr": null, "tourism": null, "man_made": null, "natural": null, "archaeological_site": "megalith", "description": "https://www.youtube.com/watch?v=ilSyrSfA_5Q&ab_channel=Wanderers", "int_name": "Drakospita (Dragon Houses)", "name:ru": "Драгоспита (Драконовы дома)", "leaf_type": null, "amenity": null, "building": null, "denomination": null, "religion": null, "landuse": null, "type": null, "label": "historic:archaeological_site" }, "geometry": { "type": "Point", "coordinates": [ 24.2636081, 38.1528931 ] } },
{ "type": "Feature", "properties": { "element": "node", "id": 13481239124, "castle_type": null, "historic": "city_gate", "historic:civilization": null, "image": null, "name": null, "name:el": null, "name:en": null, "source": null, "wikidata": null, "wikipedia": null, "ele": null, "name:fr": null, "tourism": null, "man_made": null, "natural": null, "archaeological_site": null, "description": null, "int_name": null, "name:ru": null, "leaf_type": null, "amenity": null, "building": null, "denomination": null, "religion": null, "landuse": null, "type": null, "label": "historic:city_gate" }, "geometry": { "type": "Point", "coordinates": [ 24.2603256, 38.1452081 ] } },
{ "type": "Feature", "properties": { "element": "relation", "id": 16161963, "castle_type": null, "historic": null, "historic:civilization": null, "image": null, "name": null, "name:el": null, "name:en": null, "source": "http://geodata.gov.gr/", "wikidata": null, "wikipedia": null, "ele": null, "name:fr": null, "tourism": null, "man_made": null, "natural": "wood", "archaeological_site": null, "description": null, "int_name": null, "name:ru": null, "leaf_type": "broadleaved", "amenity": null, "building": null, "denomination": null, "religion": null, "landuse": null, "type": "multipolygon", "label": "natural:wood" }, "geometry": { "type": "MultiPolygon", "coordinates": [ [ [ [ 24.260906, 38.152131 ], [ 24.259986, 38.152516 ], [ 24.259862018424897, 38.152545673719487 ], [ 24.259862018424897, 38.15835007261736 ], [ 24.262421924173445, 38.15835007261736 ], [ 24.26239, 38.157571 ], [ 24.261955, 38.157122 ], [ 24.262168, 38.156589 ], [ 24.262958, 38.156183 ], [ 24.263741, 38.155934 ], [ 24.264093, 38.155685 ], [ 24.264248, 38.15519 ], [ 24.264793, 38.15426 ], [ 24.265098, 38.154027 ], [ 24.265361, 38.152996 ], [ 24.2654487, 38.1526452 ], [ 24.2652878, 38.1526052 ], [ 24.2651349, 38.152622 ], [ 24.2650384, 38.1526326 ], [ 24.264906, 38.15296 ], [ 24.264126, 38.153952 ], [ 24.263539, 38.154325 ], [ 24.263069, 38.154542 ], [ 24.26264, 38.154977 ], [ 24.262132, 38.155349 ], [ 24.261661, 38.155381 ], [ 24.261386, 38.155196 ], [ 24.261189, 38.154701 ], [ 24.261697, 38.154298 ], [ 24.262166, 38.154111 ], [ 24.2628604, 38.1535796 ], [ 24.2632359, 38.1530354 ], [ 24.2633969, 38.1527275 ], [ 24.2633486, 38.1524575 ], [ 24.2641586, 38.1514409 ], [ 24.2648023, 38.150323 ], [ 24.2652798, 38.1505381 ], [ 24.265843, 38.1505634 ], [ 24.2667013, 38.150247 ], [ 24.2668945, 38.1497408 ], [ 24.2666799, 38.1492599 ], [ 24.2660201, 38.1487832 ], [ 24.265556, 38.14844 ], [ 24.264889, 38.148379 ], [ 24.264184, 38.148381 ], [ 24.263223, 38.148985 ], [ 24.263394, 38.149252 ], [ 24.263639, 38.149903 ], [ 24.263277, 38.150555 ], [ 24.262068, 38.151611 ], [ 24.260906, 38.152131 ] ] ], [ [ [ 24.259884, 38.151022 ], [ 24.260295, 38.150734 ], [ 24.260462, 38.150082 ], [ 24.260654, 38.149431 ], [ 24.2611418, 38.1491564 ], [ 24.261235, 38.149104 ], [ 24.26138, 38.149046 ], [ 24.261671, 38.148892 ], [ 24.261912, 38.14849 ], [ 24.261742, 38.148347 ], [ 24.261087, 38.148377 ], [ 24.260165, 38.148379 ], [ 24.259862018424897, 38.148476977158701 ], [ 24.259862018424897, 38.15103050230735 ], [ 24.259884, 38.151022 ] ] ] ] } },
{ "type": "Feature", "properties": { "element": "way", "id": 136245578, "castle_type": null, "historic": null, "historic:civilization": null, "image": null, "name": null, "name:el": null, "name:en": null, "source": "http://geodata.gov.gr/", "wikidata": null, "wikipedia": null, "ele": null, "name:fr": null, "tourism": null, "man_made": null, "natural": "wood", "archaeological_site": null, "description": null, "int_name": null, "name:ru": null, "leaf_type": "broadleaved", "amenity": null, "building": null, "denomination": null, "religion": null, "landuse": null, "type": null, "label": "natural:wood" }, "geometry": { "type": "MultiPolygon", "coordinates": [ [ [ [ 24.276622, 38.134709 ], [ 24.277561, 38.135162 ], [ 24.278281, 38.135218 ], [ 24.27864, 38.134932 ], [ 24.278964, 38.134761 ], [ 24.279432, 38.134731 ], [ 24.280008, 38.134673 ], [ 24.280133686608245, 38.134626019015975 ], [ 24.276598337453773, 38.134626019015975 ], [ 24.276622, 38.134709 ] ] ], [ [ [ 24.286134, 38.134971 ], [ 24.285594, 38.134972 ], [ 24.284765, 38.134861 ], [ 24.284116, 38.134748 ], [ 24.283684, 38.13492 ], [ 24.283217, 38.135149 ], [ 24.282857, 38.135178 ], [ 24.28264, 38.135122 ], [ 24.282099, 38.134981 ], [ 24.281847, 38.134982 ], [ 24.281379, 38.13504 ], [ 24.280948, 38.135439 ], [ 24.280986, 38.135866 ], [ 24.281167, 38.136121 ], [ 24.282285, 38.136432 ], [ 24.28297, 38.136544 ], [ 24.283546, 38.136486 ], [ 24.28405, 38.136314 ], [ 24.285023, 38.136397 ], [ 24.286571, 38.136222 ], [ 24.287289, 38.135566 ], [ 24.287456044813425, 38.134626019015975 ], [ 24.286434347325713, 38.134626019015975 ], [ 24.286134, 38.134971 ] ] ] ] } },
{ "type": "Feature", "properties": { "element": "way", "id": 136245585, "castle_type": null, "historic": null, "historic:civilization": null, "image": null, "name": null, "name:el": null, "name:en": null, "source": "http://geodata.gov.gr/", "wikidata": null, "wikipedia": null, "ele": null, "name:fr": null, "tourism": null, "man_made": null, "natural": "wood", "archaeological_site": null, "description": null, "int_name": null, "name:ru": null, "leaf_type": "broadleaved", "amenity": null, "building": null, "denomination": null, "religion": null, "landuse": null, "type": null, "label": "natural:wood" }, "geometry": { "type": "Polygon", "coordinates": [ [ [ 24.265336562661073, 38.134626019015975 ], [ 24.262111228647207, 38.134626019015975 ], [ 24.26208, 38.134648 ], [ 24.2616, 38.134839 ], [ 24.261216, 38.13484 ], [ 24.260783, 38.134803 ], [ 24.260255, 38.134804 ], [ 24.259919, 38.134994 ], [ 24.259862018424897, 38.135099993699143 ], [ 24.259862018424897, 38.135517759678734 ], [ 24.260067, 38.136132 ], [ 24.260353, 38.136509 ], [ 24.261418, 38.137685 ], [ 24.262189, 38.138367 ], [ 24.262096, 38.139012 ], [ 24.262001, 38.139354 ], [ 24.261666, 38.13981 ], [ 24.261716, 38.140455 ], [ 24.261863, 38.1411 ], [ 24.262248, 38.14144 ], [ 24.262778, 38.141781 ], [ 24.263163, 38.142016 ], [ 24.263707, 38.142122 ], [ 24.264169, 38.142121 ], [ 24.264956, 38.142055 ], [ 24.265307, 38.142107 ], [ 24.266234, 38.142245 ], [ 24.267158, 38.142522 ], [ 24.267175, 38.142536 ], [ 24.26754, 38.142864 ], [ 24.26765, 38.143336 ], [ 24.267517, 38.144194 ], [ 24.267546, 38.144559 ], [ 24.2679, 38.144772 ], [ 24.268688, 38.144835 ], [ 24.268945, 38.144805 ], [ 24.269311, 38.144763 ], [ 24.269638, 38.144726 ], [ 24.270453, 38.144659 ], [ 24.271105, 38.144594 ], [ 24.271404, 38.144764 ], [ 24.271405, 38.144979 ], [ 24.271325, 38.14543 ], [ 24.270919, 38.145774 ], [ 24.270351, 38.146333 ], [ 24.269645, 38.146624 ], [ 24.269239, 38.146904 ], [ 24.268968, 38.147269 ], [ 24.268537, 38.148086 ], [ 24.268402, 38.148494 ], [ 24.268892, 38.148686 ], [ 24.26938, 38.148277 ], [ 24.269731, 38.147697 ], [ 24.270327, 38.147331 ], [ 24.270788, 38.147137 ], [ 24.2711, 38.146999 ], [ 24.271878, 38.146655 ], [ 24.272547, 38.145629 ], [ 24.274082, 38.144942 ], [ 24.274897, 38.144485 ], [ 24.276627, 38.144443 ], [ 24.277492, 38.144555 ], [ 24.277782, 38.144896 ], [ 24.277687, 38.145238 ], [ 24.277208, 38.14558 ], [ 24.276536, 38.145847 ], [ 24.275049, 38.146496 ], [ 24.274233, 38.146915 ], [ 24.274091, 38.147295 ], [ 24.274236, 38.14756 ], [ 24.274668, 38.147559 ], [ 24.275196, 38.147369 ], [ 24.276109, 38.147366 ], [ 24.277175, 38.147486 ], [ 24.277925, 38.14739 ], [ 24.278368, 38.146942 ], [ 24.277635, 38.146915 ], [ 24.277418, 38.146881 ], [ 24.277112, 38.146607 ], [ 24.277329, 38.146366 ], [ 24.27811, 38.145814 ], [ 24.278718, 38.145435 ], [ 24.279281, 38.144952 ], [ 24.279933, 38.144676 ], [ 24.280193, 38.144469 ], [ 24.280323, 38.144125 ], [ 24.280277, 38.143575 ], [ 24.280101, 38.143163 ], [ 24.279887, 38.1425 ], [ 24.279357, 38.142122 ], [ 24.278538, 38.141555 ], [ 24.277912, 38.141404 ], [ 24.277191, 38.14133 ], [ 24.27647, 38.141104 ], [ 24.275652, 38.14084 ], [ 24.275027, 38.140842 ], [ 24.274404, 38.141147 ], [ 24.273875, 38.141148 ], [ 24.273057, 38.140771 ], [ 24.271375, 38.140547 ], [ 24.271086, 38.140585 ], [ 24.270703, 38.14089 ], [ 24.270657, 38.141383 ], [ 24.270754, 38.141611 ], [ 24.271139, 38.141875 ], [ 24.271573, 38.14214 ], [ 24.271533, 38.142456 ], [ 24.270806, 38.142635 ], [ 24.269719, 38.141914 ], [ 24.269024, 38.141653 ], [ 24.267485, 38.141087 ], [ 24.2671, 38.141126 ], [ 24.266861, 38.141468 ], [ 24.266863, 38.141923 ], [ 24.265895, 38.141795 ], [ 24.26438, 38.141287 ], [ 24.26373, 38.140819 ], [ 24.263133, 38.140095 ], [ 24.262916, 38.139797 ], [ 24.262861, 38.139584 ], [ 24.26313, 38.139242 ], [ 24.263508, 38.139198 ], [ 24.263778, 38.139069 ], [ 24.263777, 38.138813 ], [ 24.263343, 38.138345 ], [ 24.26307, 38.13762 ], [ 24.263229, 38.136724 ], [ 24.263928, 38.135698 ], [ 24.26561, 38.134709 ], [ 24.265336562661073, 38.134626019015975 ] ] ] } },
{ "type": "Feature", "properties": { "element": "way", "id": 136246628, "castle_type": null, "historic": null, "historic:civilization": null, "image": null, "name": null, "name:el": null, "name:en": null, "source": "http://geodata.gov.gr/", "wikidata": null, "wikipedia": null, "ele": null, "name:fr": null, "tourism": null, "man_made": null, "natural": "wood", "archaeological_site": null, "description": null, "int_name": null, "name:ru": null, "leaf_type": "mixed", "amenity": null, "building": null, "denomination": null, "religion": null, "landuse": null, "type": null, "label": "natural:wood" }, "geometry": { "type": "Polygon", "coordinates": [ [ [ 24.277579, 38.157993 ], [ 24.276989, 38.15719 ], [ 24.275958, 38.156778 ], [ 24.274937, 38.15675 ], [ 24.274027, 38.157014 ], [ 24.273285, 38.157931 ], [ 24.273001191431671, 38.15835007261736 ], [ 24.277580322491175, 38.15835007261736 ], [ 24.277579, 38.157993 ] ] ] } },
{ "type": "Feature", "properties": { "element": "way", "id": 136247069, "castle_type": null, "historic": null, "historic:civilization": null, "image": null, "name": null, "name:el": null, "name:en": null, "source": "http://geodata.gov.gr/", "wikidata": null, "wikipedia": null, "ele": null, "name:fr": null, "tourism": null, "man_made": null, "natural": "wood", "archaeological_site": null, "description": null, "int_name": null, "name:ru": null, "leaf_type": "broadleaved", "amenity": null, "building": null, "denomination": null, "religion": null, "landuse": null, "type": null, "label": "natural:wood" }, "geometry": { "type": "MultiPolygon", "coordinates": [ [ [ [ 24.28811, 38.143831 ], [ 24.287761, 38.143832 ], [ 24.287065, 38.143834 ], [ 24.28676, 38.143628 ], [ 24.286759, 38.143353 ], [ 24.286975, 38.143009 ], [ 24.287061, 38.142769 ], [ 24.28706, 38.142459 ], [ 24.286711, 38.142185 ], [ 24.286187, 38.141774 ], [ 24.286185, 38.141328 ], [ 24.28623, 38.140975 ], [ 24.28641, 38.140946 ], [ 24.28677, 38.141059 ], [ 24.287024, 38.141371 ], [ 24.287421, 38.141513 ], [ 24.287817, 38.141512 ], [ 24.288068, 38.141227 ], [ 24.288067, 38.1408 ], [ 24.288029, 38.140487 ], [ 24.287379, 38.140147 ], [ 24.285901, 38.139752 ], [ 24.285179, 38.139498 ], [ 24.285142, 38.1391 ], [ 24.285357, 38.138985 ], [ 24.286151, 38.139268 ], [ 24.28662, 38.139409 ], [ 24.28734, 38.139407 ], [ 24.28818688392251, 38.139379885253284 ], [ 24.28818688392251, 38.13865812913938 ], [ 24.287553, 38.138525 ], [ 24.286832, 38.13827 ], [ 24.286434, 38.137987 ], [ 24.286289, 38.137731 ], [ 24.286035, 38.137134 ], [ 24.285746, 38.136992 ], [ 24.285386, 38.137192 ], [ 24.28427, 38.137309 ], [ 24.283549, 38.137197 ], [ 24.283297, 38.137198 ], [ 24.28301, 38.137511 ], [ 24.283408, 38.138079 ], [ 24.283481, 38.138392 ], [ 24.282906, 38.13865 ], [ 24.282547, 38.138878 ], [ 24.282404, 38.139362 ], [ 24.282513, 38.139561 ], [ 24.282947, 38.139873 ], [ 24.283454, 38.140726 ], [ 24.283999, 38.141663 ], [ 24.284615, 38.142601 ], [ 24.284833, 38.143084 ], [ 24.284834, 38.143312 ], [ 24.284584, 38.143531 ], [ 24.28393, 38.143154 ], [ 24.2831, 38.142297 ], [ 24.282793, 38.141576 ], [ 24.282443, 38.141027 ], [ 24.282006, 38.140547 ], [ 24.281699, 38.140136 ], [ 24.28148, 38.139655 ], [ 24.281478, 38.139209 ], [ 24.281738, 38.138864 ], [ 24.281911, 38.138452 ], [ 24.281909, 38.138108 ], [ 24.281777, 38.137765 ], [ 24.280687, 38.13708 ], [ 24.279597, 38.136499 ], [ 24.277855, 38.135953 ], [ 24.276941, 38.135818 ], [ 24.276505, 38.135681 ], [ 24.275329, 38.135203 ], [ 24.27424, 38.134862 ], [ 24.27391263115479, 38.134626019015975 ], [ 24.270108370136661, 38.134626019015975 ], [ 24.270647, 38.135049 ], [ 24.271088, 38.135269 ], [ 24.271449, 38.135395 ], [ 24.27193, 38.135647 ], [ 24.272051, 38.135931 ], [ 24.271972, 38.136153 ], [ 24.271893, 38.136406 ], [ 24.272419, 38.13655 ], [ 24.27281, 38.13624 ], [ 24.273244, 38.136067 ], [ 24.273548, 38.136066 ], [ 24.274072, 38.136408 ], [ 24.27429, 38.136614 ], [ 24.27477, 38.136991 ], [ 24.275337, 38.137368 ], [ 24.277341, 38.13805 ], [ 24.278126, 38.138495 ], [ 24.278528, 38.139088 ], [ 24.279016, 38.139675 ], [ 24.279254, 38.140301 ], [ 24.279417, 38.14073 ], [ 24.279641, 38.140945 ], [ 24.280121, 38.141058 ], [ 24.280458, 38.141209 ], [ 24.280989, 38.141814 ], [ 24.280991, 38.142194 ], [ 24.281015, 38.143092 ], [ 24.281408, 38.14347 ], [ 24.281757, 38.143812 ], [ 24.283108, 38.144428 ], [ 24.283708, 38.144652 ], [ 24.283561, 38.145097 ], [ 24.282652, 38.145489 ], [ 24.281896, 38.14627 ], [ 24.281709, 38.147019 ], [ 24.281484, 38.147649 ], [ 24.281181, 38.14786 ], [ 24.280613, 38.148161 ], [ 24.280273, 38.148641 ], [ 24.280198, 38.149001 ], [ 24.279896, 38.149301 ], [ 24.279706, 38.149302 ], [ 24.279143, 38.149143 ], [ 24.279049, 38.149674 ], [ 24.279194, 38.149902 ], [ 24.279483, 38.149939 ], [ 24.279964, 38.150203 ], [ 24.28011, 38.150507 ], [ 24.28016, 38.151265 ], [ 24.279969, 38.151569 ], [ 24.279634, 38.151912 ], [ 24.27906, 38.152558 ], [ 24.278727, 38.153318 ], [ 24.278777, 38.153963 ], [ 24.279114, 38.154114 ], [ 24.279354, 38.154113 ], [ 24.279834, 38.15396 ], [ 24.279977, 38.153619 ], [ 24.280517, 38.153504 ], [ 24.280956, 38.153724 ], [ 24.281148, 38.154 ], [ 24.281335, 38.154294 ], [ 24.281391, 38.154903 ], [ 24.281268, 38.155165 ], [ 24.280897, 38.155591 ], [ 24.280649, 38.155821 ], [ 24.280609, 38.156082 ], [ 24.281438, 38.156309 ], [ 24.282183, 38.156079 ], [ 24.282885, 38.155456 ], [ 24.283837, 38.154389 ], [ 24.283993, 38.154083 ], [ 24.283919, 38.153746 ], [ 24.28354, 38.153623 ], [ 24.283002, 38.153591 ], [ 24.282421, 38.153462 ], [ 24.281468, 38.15317 ], [ 24.281259, 38.152843 ], [ 24.281174, 38.15232 ], [ 24.281131, 38.151732 ], [ 24.281169, 38.150783 ], [ 24.281453, 38.149442 ], [ 24.281906, 38.148754 ], [ 24.282278, 38.148557 ], [ 24.282748, 38.148366 ], [ 24.283254, 38.148741 ], [ 24.283536, 38.149117 ], [ 24.283538, 38.149538 ], [ 24.283512, 38.150358 ], [ 24.284094, 38.151057 ], [ 24.284708, 38.151217 ], [ 24.285219, 38.151215 ], [ 24.285762, 38.150649 ], [ 24.285759, 38.149976 ], [ 24.285621, 38.149385 ], [ 24.285959, 38.148738 ], [ 24.286365, 38.14793 ], [ 24.286634, 38.147122 ], [ 24.286835, 38.146118 ], [ 24.287424, 38.145984 ], [ 24.288126, 38.146204 ], [ 24.28818688392251, 38.146814920726726 ], [ 24.28818688392251, 38.143800423684993 ], [ 24.28811, 38.143831 ] ] ], [ [ [ 24.288102, 38.147764 ], [ 24.287898, 38.147926 ], [ 24.287353, 38.148062 ], [ 24.286741, 38.148332 ], [ 24.286742, 38.148601 ], [ 24.28688, 38.14887 ], [ 24.287459, 38.148976 ], [ 24.287631, 38.149299 ], [ 24.287598, 38.149541 ], [ 24.287191, 38.149973 ], [ 24.287089, 38.150161 ], [ 24.28726, 38.150295 ], [ 24.287873, 38.150267 ], [ 24.28818688392251, 38.15004266531421 ], [ 24.28818688392251, 38.147531622736963 ], [ 24.288102, 38.147764 ] ] ], [ [ [ 24.288039, 38.152144 ], [ 24.287606, 38.152488 ], [ 24.287304, 38.152935 ], [ 24.287306, 38.153346 ], [ 24.287567, 38.15362 ], [ 24.28818688392251, 38.153943706611912 ], [ 24.28818688392251, 38.152113794950466 ], [ 24.288039, 38.152144 ] ] ], [ [ [ 24.287747, 38.155162 ], [ 24.287356, 38.155094 ], [ 24.286269, 38.154788 ], [ 24.285488, 38.154825 ], [ 24.285287, 38.155548 ], [ 24.285371, 38.155777 ], [ 24.285661, 38.155907 ], [ 24.286367, 38.156199 ], [ 24.287611, 38.156654 ], [ 24.28818688392251, 38.156973390941417 ], [ 24.28818688392251, 38.155134336794951 ], [ 24.287747, 38.155162 ] ] ], [ [ [ 24.287822, 38.157798 ], [ 24.286744, 38.157507 ], [ 24.285956, 38.157247 ], [ 24.285128, 38.157118 ], [ 24.284383, 38.157251 ], [ 24.284119, 38.157397 ], [ 24.283969, 38.157481 ], [ 24.283432, 38.157744 ], [ 24.282769, 38.157811 ], [ 24.282514, 38.157744 ], [ 24.282272, 38.157681 ], [ 24.281858, 38.157682 ], [ 24.281196, 38.157847 ], [ 24.281156, 38.158272 ], [ 24.281162837316796, 38.15835007261736 ], [ 24.28818688392251, 38.15835007261736 ], [ 24.28818688392251, 38.157875617851943 ], [ 24.287822, 38.157798 ] ] ] ] } },
{ "type": "Feature", "properties": { "element": "way", "id": 136247552, "castle_type": null, "historic": null, "historic:civilization": null, "image": null, "name": null, "name:el": null, "name:en": null, "source": "http://geodata.gov.gr/", "wikidata": null, "wikipedia": null, "ele": null, "name:fr": null, "tourism": null, "man_made": null, "natural": "wood", "archaeological_site": null, "description": null, "int_name": null, "name:ru": null, "leaf_type": "mixed", "amenity": null, "building": null, "denomination": null, "religion": null, "landuse": null, "type": null, "label": "natural:wood" }, "geometry": { "type": "Polygon", "coordinates": [ [ [ 24.271078, 38.154829 ], [ 24.270621, 38.154405 ], [ 24.270181, 38.154379 ], [ 24.269943, 38.154006 ], [ 24.269799, 38.153372 ], [ 24.26923, 38.152813 ], [ 24.268425, 38.152479 ], [ 24.268187, 38.152034 ], [ 24.267214, 38.151717 ], [ 24.266449, 38.1515632 ], [ 24.2658323, 38.1516012 ], [ 24.2656177, 38.1517952 ], [ 24.2653254, 38.1520167 ], [ 24.265269, 38.1521475 ], [ 24.2654407, 38.1522508 ], [ 24.2655346, 38.1522698 ], [ 24.2656231, 38.152255 ], [ 24.2655963, 38.1524406 ], [ 24.2655024, 38.1525588 ], [ 24.2654487, 38.1526452 ], [ 24.265361, 38.152996 ], [ 24.265098, 38.154027 ], [ 24.265987, 38.153923 ], [ 24.266584, 38.154063 ], [ 24.267062, 38.15425 ], [ 24.268006, 38.154347 ], [ 24.268054, 38.154683 ], [ 24.267724, 38.154945 ], [ 24.267299, 38.155095 ], [ 24.266922, 38.155358 ], [ 24.267112, 38.155544 ], [ 24.267348, 38.155543 ], [ 24.267585, 38.155543 ], [ 24.268152, 38.155467 ], [ 24.268719, 38.155428 ], [ 24.269145, 38.155577 ], [ 24.268862, 38.155801 ], [ 24.268013, 38.156214 ], [ 24.267022, 38.156776 ], [ 24.266315, 38.157487 ], [ 24.266033, 38.157936 ], [ 24.265913719822159, 38.15835007261736 ], [ 24.271422351078037, 38.15835007261736 ], [ 24.271463, 38.158001 ], [ 24.272122, 38.157116 ], [ 24.272741, 38.156559 ], [ 24.272865, 38.15633 ], [ 24.272863, 38.155872 ], [ 24.272531, 38.155709 ], [ 24.272075, 38.155547 ], [ 24.271535, 38.155221 ], [ 24.271252, 38.154978 ], [ 24.271078, 38.154829 ] ] ] } },
{ "type": "Feature", "properties": { "element": "way", "id": 136247668, "castle_type": null, "historic": null, "historic:civilization": null, "image": null, "name": null, "name:el": null, "name:en": null, "source": "http://geodata.gov.gr/", "wikidata": null, "wikipedia": null, "ele": null, "name:fr": null, "tourism": null, "man_made": null, "natural": "wood", "archaeological_site": null, "description": null, "int_name": null, "name:ru": null, "leaf_type": "mixed", "amenity": null, "building": null, "denomination": null, "religion": null, "landuse": null, "type": null, "label": "natural:wood" }, "geometry": { "type": "MultiPolygon", "coordinates": [ [ [ [ 24.288164, 38.13525 ], [ 24.28818688392251, 38.135272482450183 ], [ 24.28818688392251, 38.135188703778987 ], [ 24.288164, 38.13525 ] ] ], [ [ [ 24.288167, 38.13608 ], [ 24.287829, 38.136574 ], [ 24.288028, 38.136776 ], [ 24.28818688392251, 38.136742395608223 ], [ 24.28818688392251, 38.136075462729089 ], [ 24.288167, 38.13608 ] ] ] ] } },
{ "type": "Feature", "properties": { "element": "way", "id": 1429897690, "castle_type": null, "historic": null, "historic:civilization": null, "image": null, "name": "Παναγία του κάστρου", "name:el": "Παναγία του κάστρου", "name:en": "Panagia tou kastrou", "source": null, "wikidata": null, "wikipedia": null, "ele": null, "name:fr": null, "tourism": null, "man_made": null, "natural": null, "archaeological_site": null, "description": null, "int_name": null, "name:ru": null, "leaf_type": null, "amenity": "place_of_worship", "building": "yes", "denomination": "greek_orthodox", "religion": "christian", "landuse": null, "type": null, "label": "building:yes;amenity:place_of_worship" }, "geometry": { "type": "Polygon", "coordinates": [ [ [ 24.2626246, 38.1460483 ], [ 24.2627288, 38.1460995 ], [ 24.2627597, 38.1460607 ], [ 24.2626554, 38.1460095 ], [ 24.2626246, 38.1460483 ] ] ] } },
{ "type": "Feature", "properties": { "element": "way", "id": 1429897693, "castle_type": null, "historic": null, "historic:civilization": null, "image": null, "name": null, "name:el": null, "name:en": null, "source": null, "wikidata": null, "wikipedia": null, "ele": null, "name:fr": null, "tourism": null, "man_made": null, "natural": null, "archaeological_site": null, "description": null, "int_name": null, "name:ru": null, "leaf_type": null, "amenity": null, "building": "yes", "denomination": null, "religion": null, "landuse": null, "type": null, "label": "building:yes" }, "geometry": { "type": "Polygon", "coordinates": [ [ [ 24.2639092, 38.15292 ], [ 24.2639273, 38.1528693 ], [ 24.2638837, 38.1528598 ], [ 24.2638642, 38.152911 ], [ 24.2639092, 38.15292 ] ] ] } },
{ "type": "Feature", "properties": { "element": "way", "id": 1429897694, "castle_type": null, "historic": null, "historic:civilization": null, "image": null, "name": "Δρακόσπιτο", "name:el": "Δρακόσπιτο", "name:en": null, "source": null, "wikidata": null, "wikipedia": null, "ele": null, "name:fr": null, "tourism": null, "man_made": null, "natural": null, "archaeological_site": null, "description": null, "int_name": "Drakospito (Dragon House)", "name:ru": null, "leaf_type": null, "amenity": null, "building": "yes", "denomination": null, "religion": null, "landuse": null, "type": null, "label": "building:yes" }, "geometry": { "type": "Polygon", "coordinates": [ [ [ 24.2637056, 38.1529412 ], [ 24.2637214, 38.1528834 ], [ 24.2636378, 38.1528696 ], [ 24.2636208, 38.1529279 ], [ 24.2637056, 38.1529412 ] ] ] } },
{ "type": "Feature", "properties": { "element": "way", "id": 1429897695, "castle_type": null, "historic": null, "historic:civilization": null, "image": null, "name": "Δρακόσπιτο", "name:el": "Δρακόσπιτο", "name:en": null, "source": null, "wikidata": null, "wikipedia": null, "ele": null, "name:fr": null, "tourism": null, "man_made": null, "natural": null, "archaeological_site": null, "description": null, "int_name": "Drakospito (Dragon House)", "name:ru": null, "leaf_type": null, "amenity": null, "building": "yes", "denomination": null, "religion": null, "landuse": null, "type": null, "label": "building:yes" }, "geometry": { "type": "Polygon", "coordinates": [ [ [ 24.2636378, 38.1528696 ], [ 24.2636501, 38.1528232 ], [ 24.2635431, 38.1528058 ], [ 24.2635309, 38.1528522 ], [ 24.2636378, 38.1528696 ] ] ] } },
{ "type": "Feature", "properties": { "element": "way", "id": 1429897696, "castle_type": null, "historic": null, "historic:civilization": null, "image": null, "name": "Δρακόσπιτο", "name:el": "Δρακόσπιτο", "name:en": null, "source": null, "wikidata": null, "wikipedia": null, "ele": null, "name:fr": null, "tourism": null, "man_made": null, "natural": null, "archaeological_site": null, "description": null, "int_name": "Drakospito (Dragon House)", "name:ru": null, "leaf_type": null, "amenity": null, "building": "yes", "denomination": null, "religion": null, "landuse": null, "type": null, "label": "building:yes" }, "geometry": { "type": "Polygon", "coordinates": [ [ [ 24.2636088, 38.1529782 ], [ 24.2636208, 38.1529279 ], [ 24.2635097, 38.1529114 ], [ 24.2634976, 38.1529616 ], [ 24.2636088, 38.1529782 ] ] ] } },
{ "type": "Feature", "properties": { "element": "way", "id": 1469978158, "castle_type": null, "historic": null, "historic:civilization": null, "image": null, "name": null, "name:el": null, "name:en": null, "source": null, "wikidata": null, "wikipedia": null, "ele": null, "name:fr": null, "tourism": null, "man_made": null, "natural": null, "archaeological_site": null, "description": null, "int_name": null, "name:ru": null, "leaf_type": null, "amenity": null, "building": null, "denomination": null, "religion": null, "landuse": "quarry", "type": null, "label": "landuse:quarry" }, "geometry": { "type": "Polygon", "coordinates": [ [ [ 24.2650384, 38.1526326 ], [ 24.2651349, 38.152622 ], [ 24.2652878, 38.1526052 ], [ 24.2654487, 38.1526452 ], [ 24.2655024, 38.1525588 ], [ 24.2655963, 38.1524406 ], [ 24.2656231, 38.152255 ], [ 24.2655346, 38.1522698 ], [ 24.2654407, 38.1522508 ], [ 24.265269, 38.1521475 ], [ 24.2653254, 38.1520167 ], [ 24.2652798, 38.1519218 ], [ 24.2653012, 38.1518205 ], [ 24.265092, 38.1517404 ], [ 24.264915, 38.1517404 ], [ 24.2648077, 38.151926 ], [ 24.2646199, 38.1520568 ], [ 24.2644322, 38.1521454 ], [ 24.2644697, 38.1523014 ], [ 24.2646789, 38.1524533 ], [ 24.2649257, 38.1525292 ], [ 24.2650384, 38.1526326 ] ] ] } },
{ "type": "Feature", "properties": { "element": "way", "id": 1469978159, "castle_type": null, "historic": null, "historic:civilization": null, "image": null, "name": null, "name:el": null, "name:en": null, "source": null, "wikidata": null, "wikipedia": null, "ele": null, "name:fr": null, "tourism": null, "man_made": null, "natural": null, "archaeological_site": null, "description": null, "int_name": null, "name:ru": null, "leaf_type": null, "amenity": null, "building": null, "denomination": null, "religion": null, "landuse": "quarry", "type": null, "label": "landuse:quarry" }, "geometry": { "type": "Polygon", "coordinates": [ [ [ 24.2631608, 38.1498674 ], [ 24.2634398, 38.1498378 ], [ 24.2636758, 38.1497028 ], [ 24.263767, 38.1495763 ], [ 24.2636436, 38.1494244 ], [ 24.263311, 38.1492979 ], [ 24.2630482, 38.1492177 ], [ 24.2626029, 38.1492683 ], [ 24.2623722, 38.1495299 ], [ 24.2625385, 38.1497071 ], [ 24.2628711, 38.149821 ], [ 24.2631608, 38.1498674 ] ] ] } },
{ "type": "Feature", "properties": { "element": "way", "id": 1469978161, "castle_type": null, "historic": null, "historic:civilization": null, "image": null, "name": null, "name:el": null, "name:en": null, "source": null, "wikidata": null, "wikipedia": null, "ele": null, "name:fr": null, "tourism": null, "man_made": null, "natural": null, "archaeological_site": null, "description": null, "int_name": null, "name:ru": null, "leaf_type": null, "amenity": null, "building": null, "denomination": null, "religion": null, "landuse": "quarry", "type": null, "label": "landuse:quarry" }, "geometry": { "type": "Polygon", "coordinates": [ [ [ 24.2617661, 38.1504875 ], [ 24.2619753, 38.1504959 ], [ 24.262265, 38.1505465 ], [ 24.2627317, 38.150517 ], [ 24.2629301, 38.1503989 ], [ 24.2630964, 38.1502175 ], [ 24.26337, 38.1502006 ], [ 24.2634827, 38.150112 ], [ 24.2634773, 38.1500066 ], [ 24.2633218, 38.150053 ], [ 24.263075, 38.1500825 ], [ 24.2627585, 38.1502133 ], [ 24.2625171, 38.1501542 ], [ 24.2622918, 38.1499391 ], [ 24.2621684, 38.1497408 ], [ 24.2621094, 38.1495763 ], [ 24.2621094, 38.1494497 ], [ 24.2620075, 38.1493569 ], [ 24.2617714, 38.1493864 ], [ 24.2614549, 38.1492557 ], [ 24.2612082, 38.1493147 ], [ 24.261058, 38.1494666 ], [ 24.2608648, 38.1498463 ], [ 24.2610472, 38.1501078 ], [ 24.2615676, 38.1503905 ], [ 24.2617661, 38.1504875 ] ] ] } },
{ "type": "Feature", "properties": { "element": "way", "id": 1469978162, "castle_type": null, "historic": null, "historic:civilization": null, "image": null, "name": null, "name:el": null, "name:en": null, "source": null, "wikidata": null, "wikipedia": null, "ele": null, "name:fr": null, "tourism": null, "man_made": null, "natural": null, "archaeological_site": null, "description": null, "int_name": null, "name:ru": null, "leaf_type": null, "amenity": "parking", "building": null, "denomination": null, "religion": null, "landuse": null, "type": null, "label": "amenity:parking" }, "geometry": { "type": "Polygon", "coordinates": [ [ [ 24.2626284, 38.1525936 ], [ 24.26267, 38.152631 ], [ 24.2626988, 38.1526748 ], [ 24.2627431, 38.15266 ], [ 24.2627759, 38.152621 ], [ 24.2628101, 38.1525714 ], [ 24.262853, 38.1525129 ], [ 24.2628477, 38.1524791 ], [ 24.2628309, 38.1524607 ], [ 24.2628088, 38.1524348 ], [ 24.2627511, 38.1523942 ], [ 24.2626881, 38.1523905 ], [ 24.2626277, 38.1524132 ], [ 24.2625372, 38.1525108 ], [ 24.2625748, 38.1525651 ], [ 24.2626284, 38.1525936 ] ] ] } }
]
}
