{
"type": "FeatureCollection",
"name": "patch_62843_polygon",
"crs": { "type": "name", "properties": { "name": "urn:ogc:def:crs:OGC:1.3:CRS84" } },
"features": [
{ "type": "Feature", "properties": { "element": "way", "id": 136245585, "castle_type": null, "historic": null, "historic:civilization": null, "image": null, "name": null, "name:el": null, "name:en": null, "source": "http://geodata.gov.gr/", "wikidata": null, "wikipedia": null, "ele": null, "name:fr": null, "tourism": null, "man_made": null, "natural": "wood", "archaeological_site": null, "description": null, "int_name": null, "name:ru": null, "leaf_type": "broadleaved", "amenity": null, "building": null, "denomination": null, "religion": null, "landuse": null, "type": null, "label": "natural:wood" }, "geometry": { "type": "Polygon", "coordinates": [ [ [ 24.265336562661073, 38.134626019015975 ], [ 24.262111228647207, 38.134626019015975 ], [ 24.26208, 38.134648 ], [ 24.2616, 38.134839 ], [ 24.261216, 38.13484 ], [ 24.260783, 38.134803 ], [ 24.260255, 38.134804 ], [ 24.259919, 38.134994 ], [ 24.259862018424897, 38.135099993699143 ], [ 24.259862018424897, 38.135517759678734 ], [ 24.260067, 38.136132 ], [ 24.260353, 38.136509 ], [ 24.261418, 38.137685 ], [ 24.262189, 38.138367 ], [ 24.262096, 38.139012 ], [ 24.262001, 38.139354 ], [ 24.261666, 38.13981 ], [ 24.261716, 38.140455 ], [ 24.261863, 38.1411 ], [ 24.262248, 38.14144 ], [ 24.262778, 38.141781 ], [ 24.263163, 38.142016 ], [ 24.263707, 38.142122 ], [ 24.264169, 38.142121 ], [ 24.264956, 38.142055 ], [ 24.265307, 38.142107 ], [ 24.266234, 38.142245 ], [ 24.267158, 38.142522 ], [ 24.267175, 38.142536 ], [ 24.26754, 38.142864 ], [ 24.26765, 38.143336 ], [ 24.267517, 38.144194 ], [ 24.267546, 38.144559 ], [ 24.2679, 38.144772 ], [ 24.268688, 38.144835 ], [ 24.268945, 38.144805 ], [ 24.269311, 38.144763 ], [ 24.269638, 38.144726 ], [ 24.270453, 38.144659 ], [ 24.271105, 38.144594 ], [ 24.271404, 38.144764 ], [ 24.271405, 38.144979 ], [ 24.271325, 38.14543 ], [ 24.270919, 38.145774 ], [ 24.270351, 38.146333 ], [ 24.269645, 38.146624 ], [ 24.269239, 38.146904 ], [ 24.268968, 38.147269 ], [ 24.268537, 38.148086 ], [ 24.268402, 38.148494 ], [ 24.268892, 38.148686 ], [ 24.26938, 38.148277 ], [ 24.269731, 38.147697 ], [ 24.270327, 38.147331 ], [ 24.270788, 38.147137 ], [ 24.2711, 38.146999 ], [ 24.271878, 38.146655 ], [ 24.272547, 38.145629 ], [ 24.274082, 38.144942 ], [ 24.274897, 38.144485 ], [ 24.276627, 38.144443 ], [ 24.277492, 38.144555 ], [ 24.277782, 38.144896 ], [ 24.277687, 38.145238 ], [ 24.277208, 38.14558 ], [ 24.276536, 38.145847 ], [ 24.275049, 38.146496 ], [ 24.274233, 38.146915 ], [ 24.274091, 38.147295 ], [ 24.274236, 38.14756 ], [ 24.274668, 38.147559 ], [ 24.275196, 38.147369 ], [ 24.276109, 38.147366 ], [ 24.277175, 38.147486 ], [ 24.277925, 38.14739 ], [ 24.278368, 38.146942 ], [ 24.277635, 38.146915 ], [ 24.277418, 38.146881 ], [ 24.277112, 38.146607 ], [ 24.277329, 38.146366 ], [ 24.27811, 38.145814 ], [ 24.278718, 38.145435 ], [ 24.279281, 38.144952 ], [ 24.279933, 38.144676 ], [ 24.280193, 38.144469 ], [ 24.280323, 38.144125 ], [ 24.280277, 38.143575 ], [ 24.280101, 38.143163 ], [ 24.279887, 38.1425 ], [ 24.279357, 38.142122 ], [ 24.278538, 38.141555 ], [ 24.277912, 38.141404 ], [ 24.277191, 38.14133 ], [ 24.27647, 38.141104 ], [ 24.275652, 38.14084 ], [ 24.275027, 38.140842 ], [ 24.274404, 38.141147 ], [ 24.273875, 38.141148 ], [ 24.273057, 38.140771 ], [ 24.271375, 38.140547 ], [ 24.271086, 38.140585 ], [ 24.270703, 38.14089 ], [ 24.270657, 38.141383 ], [ 24.270754, 38.141611 ], [ 24.271139, 38.141875 ], [ 24.271573, 38.14214 ], [ 24.271533, 38.142456 ], [ 24.270806, 38.142635 ], [ 24.269719, 38.141914 ], [ 24.269024, 38.141653 ], [ 24.267485, 38.141087 ], [ 24.2671, 38.141126 ], [ 24.266861, 38.141468 ], [ 24.266863, 38.141923 ], [ 24.265895, 38.141795 ], [ 24.26438, 38.141287 ], [ 24.26373, 38.140819 ], [ 24.263133, 38.140095 ], [ 24.262916, 38.139797 ], [ 24.262861, 38.139584 ], [ 24.26313, 38.139242 ], [ 24.263508, 38.139198 ], [ 24.263778, 38.139069 ], [ 24.263777, 38.138813 ], [ 24.263343, 38.138345 ], [ 24.26307, 38.13762 ], [ 24.263229, 38.136724 ], [ 24.263928, 38.135698 ], [ 24.26561, 38.134709 ], [ 24.265336562661073, 38.134626019015975 ] ] ] } },
{ "type": "Feature", "properties": { "element": "way", "id": 136246628, "castle_type": null, "historic": null, "historic:civilization": null, "image": null, "name": null, "name:el": null, "name:en": null, "source": "http://geodata.gov.gr/", "wikidata": null, "wikipedia": null, "ele": null, "name:fr": null, "tourism": null, "man_made": null, "natural": "wood", "archaeological_site": null, "description": null, "int_name": null, "name:ru": null, "leaf_type": "mixed", "amenity": null, "building": null, "denomination": null, "religion": null, "landuse": null, "type": null, "label": "natural:wood" }, "geometry": { "type": "Polygon", "coordinates": [ [ [ 24.277579, 38.157993 ], [ 24.276989, 38.15719 ], [ 24.275958, 38.156778 ], [ 24.274937, 38.15675 ], [ 24.274027, 38.157014 ], [ 24.273285, 38.157931 ], [ 24.273001191431671, 38.15835007261736 ], [ 24.277580322491175, 38.15835007261736 ], [ 24.277579, 38.157993 ] ] ] } },
{ "type": "Feature", "properties": { "element": "way", "id": 136247552, "castle_type": null, "historic": null, "historic:civilization": null, "image": null, "name": null, "name:el": null, "name:en": null, "source": "http://geodata.gov.gr/", "wikidata": null, "wikipedia": null, "ele": null, "name:fr": null, "tourism": null, "man_made": null, "natural": "wood", "archaeological_site": null, "description": null, "int_name": null, "name:ru": null, "leaf_type": "mixed", "amenity": null, "building": null, "denomination": null, "religion": null, "landuse": null, "type": null, "label": "natural:wood" }, "geometry": { "type": "Polygon", "coordinates": [ [ [ 24.271078, 38.154829 ], [ 24.270621, 38.154405 ], [ 24.270181, 38.154379 ], [ 24.269943, 38.154006 ], [ 24.269799, 38.153372 ], [ 24.26923, 38.152813 ], [ 24.268425, 38.152479 ], [ 24.268187, 38.152034 ], [ 24.267214, 38.151717 ], [ 24.266449, 38.1515632 ], [ 24.2658323, 38.1516012 ], [ 24.2656177, 38.1517952 ], [ 24.2653254, 38.1520167 ], [ 24.265269, 38.1521475 ], [ 24.2654407, 38.1522508 ], [ 24.2655346, 38.1522698 ], [ 24.2656231, 38.152255 ], [ 24.2655963, 38.1524406 ], [ 24.2655024, 38.1525588 ], [ 24.2654487, 38.1526452 ], [ 24.265361, 38.152996 ], [ 24.265098, 38.154027 ], [ 24.265987, 38.153923 ], [ 24.266584, 38.154063 ], [ 24.267062, 38.15425 ], [ 24.268006, 38.154347 ], [ 24.268054, 38.154683 ], [ 24.267724, 38.154945 ], [ 24.267299, 38.155095 ], [ 24.266922, 38.155358 ], [ 24.267112, 38.155544 ], [ 24.267348, 38.155543 ], [ 24.267585, 38.155543 ], [ 24.268152, 38.155467 ], [ 24.268719, 38.155428 ], [ 24.269145, 38.155577 ], [ 24.268862, 38.155801 ], [ 24.268013, 38.156214 ], [ 24.267022, 38.156776 ], [ 24.266315, 38.157487 ], [ 24.266033, 38.157936 ], [ 24.265913719822159, 38.15835007261736 ], [ 24.271422351078037, 38.15835007261736 ], [ 24.271463, 38.158001 ], [ 24.272122, 38.157116 ], [ 24.272741, 38.156559 ], [ 24.272865, 38.15633 ], [ 24.272863, 38.155872 ], [ 24.272531, 38.155709 ], [ 24.272075, 38.155547 ], [ 24.271535, 38.155221 ], [ 24.271252, 38.154978 ], [ 24.271078, 38.154829 ] ] ] } },
{ "type": "Feature", "properties": { "element": "way", "id": 1429897690, "castle_type": null, "historic": null, "historic:civilization": null, "image": null, "name": "Παναγία του κάστρου", "name:el": "Παναγία του κάστρου", "name:en": "Panagia tou kastrou", "source": null, "wikidata": null, "wikipedia": null, "ele": null, "name:fr": null, "tourism": null, "man_made": null, "natural": null, "archaeological_site": null, "description": null, "int_name": null, "name:ru": null, "leaf_type": null, "amenity": "place_of_worship", "building": "yes", "denomination": "greek_orthodox", "religion": "christian", "landuse": null, "type": null, "label": "building:yes;amenity:place_of_worship" }, "geometry": { "type": "Polygon", "coordinates": [ [ [ 24.2626246, 38.1460483 ], [ 24.2627288, 38.1460995 ], [ 24.2627597, 38.1460607 ], [ 24.2626554, 38.1460095 ], [ 24.2626246, 38.1460483 ] ] ] } },
{ "type": "Feature", "properties": { "element": "way", "id": 1429897693, "castle_type": null, "historic": null, "historic:civilization": null, "image": null, "name": null, "name:el": null, "name:en": null, "source": null, "wikidata": null, "wikipedia": null, "ele": null, "name:fr": null, "tourism": null, "man_made": null, "natural": null, "archaeological_site": null, "description": null, "int_name": null, "name:ru": null, "leaf_type": null, "amenity": null, "building": "yes", "denomination": null, "religion": null, "landuse": null, "type": null, "label": "building:yes" }, "geometry": { "type": "Polygon", "coordinates": [ [ [ 24.2639092, 38.15292 ], [ 24.2639273, 38.1528693 ], [ 24.2638837, 38.1528598 ], [ 24.2638642, 38.152911 ], [ 24.2639092, 38.15292 ] ] ] } },
{ "type": "Feature", "properties": { "element": "way", "id": 1429897694, "castle_type": null, "historic": null, "historic:civilization": null, "image": null, "name": "Δρακόσπιτο", "name:el": "Δρακόσπιτο", "name:en": null, "source": null, "wikidata": null, "wikipedia": null, "ele": null, "name:fr": null, "tourism": null, "man_made": null, "natural": null, "archaeological_site": null, "description": null, "int_name": "Drakospito (Dragon House)", "name:ru": null, "leaf_type": null, "amenity": null, "building": "yes", "denomination": null, "religion": null, "landuse": null, "type": null, "label": "building:yes" }, "geometry": { "type": "Polygon", "coordinates": [ [ [ 24.2637056, 38.1529412 ], [ 24.2637214, 38.1528834 ], [ 24.2636378, 38.1528696 ], [ 24.2636208, 38.1529279 ], [ 24.2637056, 38.1529412 ] ] ] } },
{ "type": "Feature", "properties": { "element": "way", "id": 1429897695, "castle_type": null, "historic": null, "historic:civilization": null, "image": null, "name": "Δρακόσπιτο", "name:el": "Δρακόσπιτο", "name:en": null, "source": null, "wikidata": null, "wikipedia": null, "ele": null, "name:fr": null, "tourism": null, "man_made": null, "natural": null, "archaeological_site": null, "description": null, "int_name": "Drakospito (Dragon House)", "name:ru": null, "leaf_type": null, "amenity": null, "building": "yes", "denomination": null, "religion": null, "landuse": null, "type": null, "label": "building:yes" }, "geometry": { "type": "Polygon", "coordinates": [ [ [ 24.2636378, 38.1528696 ], [ 24.2636501, 38.1528232 ], [ 24.2635431, 38.1528058 ], [ 24.2635309, 38.1528522 ], [ 24.2636378, 38.1528696 ] ] ] } },
{ "type": "Feature", "properties": { "element": "way", "id": 1429897696, "castle_type": null, "historic": null, "historic:civilization": null, "image": null, "name": "Δρακόσπιτο", "name:el": "Δρακόσπιτο", "name:en": null, "source": null, "wikidata": null, "wikipedia": null, "ele": null, "name:fr": null, "tourism": null, "man_made": null, "natural": null, "archaeological_site": null, "description": null, "int_name": "Drakospito (Dragon House)", "name:ru": null, "leaf_type": null, "amenity": null, "building": "yes", "denomination": null, "religion": null, "landuse": null, "type": null, "label": "building:yes" }, "geometry": { "type": "Polygon", "coordinates": [ [ [ 24.2636088, 38.1529782 ], [ 24.2636208, 38.1529279 ], [ 24.2635097, 38.1529114 ], [ 24.2634976, 38.1529616 ], [ 24.2636088, 38.1529782 ] ] ] } },
{ "type": "Feature", "properties": { "element": "way", "id": 1469978158, "castle_type": null, "historic": null, "historic:civilization": null, "image": null, "name": null, "name:el": null, "name:en": null, "source": null, "wikidata": null, "wikipedia": null, "ele": null, "name:fr": null, "tourism": null, "man_made": null, "natural": null, "archaeological_site": null, "description": null, "int_name": null, "name:ru": null, "leaf_type": null, "amenity": null, "building": null, "denomination": null, "religion": null, "landuse": "quarry", "type": null, "label": "landuse:quarry" }, "geometry": { "type": "Polygon", "coordinates": [ [ [ 24.2650384, 38.1526326 ], [ 24.2651349, 38.152622 ], [ 24.2652878, 38.1526052 ], [ 24.2654487, 38.1526452 ], [ 24.2655024, 38.1525588 ], [ 24.2655963, 38.1524406 ], [ 24.2656231, 38.152255 ], [ 24.2655346, 38.1522698 ], [ 24.2654407, 38.1522508 ], [ 24.265269, 38.1521475 ], [ 24.2653254, 38.1520167 ], [ 24.2652798, 38.1519218 ], [ 24.2653012, 38.1518205 ], [ 24.265092, 38.1517404 ], [ 24.264915, 38.1517404 ], [ 24.2648077, 38.151926 ], [ 24.2646199, 38.1520568 ], [ 24.2644322, 38.1521454 ], [ 24.2644697, 38.1523014 ], [ 24.2646789, 38.1524533 ], [ 24.2649257, 38.1525292 ], [ 24.2650384, 38.1526326 ] ] ] } },
{ "type": "Feature", "properties": { "element": "way", "id": 1469978159, "castle_type": null, "historic": null, "historic:civilization": null, "image": null, "name": null, "name:el": null, "name:en": null, "source": null, "wikidata": null, "wikipedia": null, "ele": null, "name:fr": null, "tourism": null, "man_made": null, "natural": null, "archaeological_site": null, "description": null, "int_name": null, "name:ru": null, "leaf_type": null, "amenity": null, "building": null, "denomination": null, "religion": null, "landuse": "quarry", "type": null, "label": "landuse:quarry" }, "geometry": { "type": "Polygon", "coordinates": [ [ [ 24.2631608, 38.1498674 ], [ 24.2634398, 38.1498378 ], [ 24.2636758, 38.1497028 ], [ 24.263767, 38.1495763 ], [ 24.2636436, 38.1494244 ], [ 24.263311, 38.1492979 ], [ 24.2630482, 38.1492177 ], [ 24.2626029, 38.1492683 ], [ 24.2623722, 38.1495299 ], [ 24.2625385, 38.1497071 ], [ 24.2628711, 38.149821 ], [ 24.2631608, 38.1498674 ] ] ] } },
{ "type": "Feature", "properties": { "element": "way", "id": 1469978161, "castle_type": null, "historic": null, "historic:civilization": null, "image": null, "name": null, "name:el": null, "name:en": null, "source": null, "wikidata": null, "wikipedia": null, "ele": null, "name:fr": null, "tourism": null, "man_made": null, "natural": null, "archaeological_site": null, "description": null, "int_name": null, "name:ru": null, "leaf_type": null, "amenity": null, "building": null, "denomination": null, "religion": null, "landuse": "quarry", "type": null, "label": "landuse:quarry" }, "geometry": { "type": "Polygon", "coordinates": [ [ [ 24.2617661, 38.1504875 ], [ 24.2619753, 38.1504959 ], [ 24.262265, 38.1505465 ], [ 24.2627317, 38.150517 ], [ 24.2629301, 38.1503989 ], [ 24.2630964, 38.1502175 ], [ 24.26337, 38.1502006 ], [ 24.2634827, 38.150112 ], [ 24.2634773, 38.1500066 ], [ 24.2633218, 38.150053 ], [ 24.263075, 38.1500825 ], [ 24.2627585, 38.1502133 ], [ 24.2625171, 38.1501542 ], [ 24.2622918, 38.1499391 ], [ 24.2621684, 38.1497408 ], [ 24.2621094, 38.1495763 ], [ 24.2621094, 38.1494497 ], [ 24.2620075, 38.1493569 ], [ 24.2617714, 38.1493864 ], [ 24.2614549, 38.1492557 ], [ 24.2612082, 38.1493147 ], [ 24.261058, 38.1494666 ], [ 24.2608648, 38.1498463 ], [ 24.2610472, 38.1501078 ], [ 24.2615676, 38.1503905 ], [ 24.2617661, 38.1504875 ] ] ] } },
{ "type": "Feature", "properties": { "element": "way", "id": 1469978162, "castle_type": null, "historic": null, "historic:civilization": null, "image": null, "name": null, "name:el": null, "name:en": null, "source": null, "wikidata": null, "wikipedia": null, "ele": null, "name:fr": null, "tourism": null, "man_made": null, "natural": null, "archaeological_site": null, "description": null, "int_name": null, "name:ru": null, "leaf_type": null, "amenity": "parking", "building": null, "denomination": null, "religion": null, "landuse": null, "type": null, "label": "amenity:parking" }, "geometry": { "type": "Polygon", "coordinates": [ [ [ 24.2626284, 38.1525936 ], [ 24.26267, 38.152631 ], [ 24.2626988, 38.1526748 ], [ 24.2627431, 38.15266 ], [ 24.2627759, 38.152621 ], [ 24.2628101, 38.1525714 ], [ 24.262853, 38.1525129 ], [ 24.2628477, 38.1524791 ], [ 24.2628309, 38.1524607 ], [ 24.2628088, 38.1524348 ], [ 24.2627511, 38.1523942 ], [ 24.2626881, 38.1523905 ], [ 24.2626277, 38.1524132 ], [ 24.2625372, 38.1525108 ], [ 24.2625748, 38.1525651 ], [ 24.2626284, 38.1525936 ] ] ] } }
]
}
