{
"type": "FeatureCollection",
"name": "patch_72035_polygon",
"crs": { "type": "name", "properties": { "name": "urn:ogc:def:crs:OGC:1.3:CRS84" } },
"features": [
{ "type": "Feature", "properties": { "@type": "way", "@id": 136648550, "boat": null, "boundary": null, "ele": null, "ford": null, "highway": null, "information": null, "int_name": null, "intermittent": null, "leaf_type": "broadleaved", "leisure": null, "lit": null, "name": null, "name:el": null, "name:mk": null, "natural": "wood", "network": null, "ref": null, "route": null, "smoothness": null, "source": "http://geodata.gov.gr/", "surface": null, "tourism": null, "tracktype": null, "trail_visibility": null, "type": null, "water": null, "waterway": null, "width": null, "label": "natural:wood" }, "geometry": { "type": "Polygon", "coordinates": [ [ [ 20.973526, 40.067532 ], [ 20.973289, 40.067816 ], [ 20.973133, 40.068069 ], [ 20.973037, 40.068341 ], [ 20.972788, 40.068703 ], [ 20.972634, 40.068906 ], [ 20.972479, 40.069109 ], [ 20.972019, 40.069583 ], [ 20.972165, 40.069757 ], [ 20.972706, 40.069648 ], [ 20.973885, 40.069679 ], [ 20.973900265342682, 40.069675693149946 ], [ 20.973900265342682, 40.067697760414511 ], [ 20.973526, 40.067532 ] ] ] } },
{ "type": "Feature", "properties": { "@type": "way", "@id": 136649141, "boat": null, "boundary": null, "ele": null, "ford": null, "highway": null, "information": null, "int_name": null, "intermittent": null, "leaf_type": "broadleaved", "leisure": null, "lit": null, "name": null, "name:el": null, "name:mk": null, "natural": "wood", "network": null, "ref": null, "route": null, "smoothness": null, "source": "http://geodata.gov.gr/", "surface": null, "tourism": null, "tracktype": null, "trail_visibility": null, "type": null, "water": null, "waterway": null, "width": null, "label": "natural:wood" }, "geometry": { "type": "Polygon", "coordinates": [ [ [ 20.973082, 40.074479 ], [ 20.972248, 40.074295 ], [ 20.972123, 40.074503 ], [ 20.971906, 40.074822 ], [ 20.971717, 40.075186 ], [ 20.97153, 40.075478 ], [ 20.971369, 40.07591 ], [ 20.971148, 40.076386 ], [ 20.970955, 40.076889 ], [ 20.970733, 40.077388 ], [ 20.970509, 40.077935 ], [ 20.970409, 40.078342 ], [ 20.970369, 40.07871 ], [ 20.970364, 40.078907 ], [ 20.970359, 40.079074 ], [ 20.970378, 40.079466 ], [ 20.970425, 40.079944 ], [ 20.970471, 40.080404 ], [ 20.970579, 40.080816 ], [ 20.9706, 40.081213 ], [ 20.970656, 40.081205 ], [ 20.971804, 40.081853 ], [ 20.973900265342682, 40.083249983462444 ], [ 20.973900265342682, 40.074434163542868 ], [ 20.973082, 40.074479 ] ] ] } },
{ "type": "Feature", "properties": { "@type": "way", "@id": 136655637, "boat": null, "boundary": null, "ele": null, "ford": null, "highway": null, "information": null, "int_name": null, "intermittent": null, "leaf_type": "mixed", "leisure": null, "lit": null, "name": null, "name:el": null, "name:mk": null, "natural": "wood", "network": null, "ref": null, "route": null, "smoothness": null, "source": "http://geodata.gov.gr/", "surface": null, "tourism": null, "tracktype": null, "trail_visibility": null, "type": null, "water": null, "waterway": null, "width": null, "label": "natural:wood" }, "geometry": { "type": "Polygon", "coordinates": [ [ [ 20.950763, 40.065097 ], [ 20.952014, 40.066195 ], [ 20.954112, 40.06675 ], [ 20.956012, 40.0669 ], [ 20.957601, 40.066242 ], [ 20.958986, 40.06528 ], [ 20.959201236965072, 40.065016497776092 ], [ 20.950734609139353, 40.065016497776092 ], [ 20.950763, 40.065097 ] ] ] } },
{ "type": "Feature", "properties": { "@type": "way", "@id": 138261853, "boat": null, "boundary": "protected_area", "ele": null, "ford": null, "highway": null, "information": "wild_life", "int_name": null, "intermittent": null, "leaf_type": null, "leisure": "nature_reserve", "lit": null, "name": "Βάλια Κύρνα (Σαμαρίνας)", "name:el": null, "name:mk": null, "natural": null, "network": null, "ref": null, "route": null, "smoothness": null, "source": "http://geodata.gov.gr/", "surface": null, "tourism": "information", "tracktype": null, "trail_visibility": null, "type": null, "water": null, "waterway": null, "width": null, "label": "tourism:information;leisure:nature_reserve" }, "geometry": { "type": "Polygon", "coordinates": [ [ [ 20.9710002, 40.0655652 ], [ 20.9709414, 40.0667076 ], [ 20.9710002, 40.0676279 ], [ 20.9711191, 40.0689911 ], [ 20.9715329, 40.0701369 ], [ 20.9718521, 40.0712736 ], [ 20.9719177, 40.0715071 ], [ 20.9725685, 40.0721907 ], [ 20.9725289, 40.0724965 ], [ 20.972451, 40.0730973 ], [ 20.9723318, 40.074013 ], [ 20.9721255, 40.0747012 ], [ 20.9717406, 40.0751595 ], [ 20.9708234, 40.0758471 ], [ 20.9701429, 40.0763067 ], [ 20.9691072, 40.0767659 ], [ 20.9680426, 40.0774497 ], [ 20.9672134, 40.0781395 ], [ 20.9655569, 40.0790509 ], [ 20.9645804, 40.0792865 ], [ 20.9637524, 40.0799764 ], [ 20.9631015, 40.0806619 ], [ 20.9623316, 40.0811191 ], [ 20.9616211, 40.081803 ], [ 20.9612367, 40.0824865 ], [ 20.960941, 40.0831723 ], [ 20.9611477, 40.0834029 ], [ 20.9615624, 40.0838641 ], [ 20.9620948, 40.0838601 ], [ 20.9627161, 40.0836332 ], [ 20.9637513, 40.0833992 ], [ 20.9645509, 40.0838525 ], [ 20.9650244, 40.0843063 ], [ 20.9655863, 40.0849876 ], [ 20.966001, 40.0854488 ], [ 20.9665337, 40.0868139 ], [ 20.9669186, 40.0874995 ], [ 20.967168309810926, 40.088091934737669 ], [ 20.973900265342682, 40.088091934737669 ], [ 20.973900265342682, 40.065016497776092 ], [ 20.971071332522317, 40.065016497776092 ], [ 20.9710002, 40.0655652 ] ] ] } },
{ "type": "Feature", "properties": { "@type": "way", "@id": 138574872, "boat": null, "boundary": "protected_area", "ele": null, "ford": null, "highway": null, "information": "wild_life", "int_name": null, "intermittent": null, "leaf_type": null, "leisure": "nature_reserve", "lit": null, "name": "Πάδες", "name:el": "Πάδες", "name:mk": "Падеж", "natural": null, "network": null, "ref": null, "route": null, "smoothness": null, "source": "http://geodata.gov.gr/", "surface": null, "tourism": null, "tracktype": null, "trail_visibility": null, "type": null, "water": null, "waterway": null, "width": null, "label": "leisure:nature_reserve" }, "geometry": { "type": "Polygon", "coordinates": [ [ [ 20.9442819, 40.0829859 ], [ 20.9459389, 40.0827504 ], [ 20.9472402, 40.0825235 ], [ 20.948306, 40.0822904 ], [ 20.9491349, 40.0816096 ], [ 20.9497559, 40.0811486 ], [ 20.950585, 40.0802337 ], [ 20.9513254, 40.0790912 ], [ 20.951799, 40.078176 ], [ 20.9525676, 40.0770342 ], [ 20.9531305, 40.0761123 ], [ 20.9536924, 40.0749741 ], [ 20.9544913, 40.0738332 ], [ 20.9548766, 40.0724562 ], [ 20.9556754, 40.0713152 ], [ 20.9562975, 40.0704038 ], [ 20.9570073, 40.0699451 ], [ 20.9575988, 40.0694833 ], [ 20.9582789, 40.0687985 ], [ 20.9586049, 40.0681135 ], [ 20.9589601, 40.0671951 ], [ 20.9589308, 40.0658252 ], [ 20.958635504175628, 40.065016497776092 ], [ 20.943889850879692, 40.065016497776092 ], [ 20.943889850879692, 40.083034264405093 ], [ 20.9442819, 40.0829859 ] ] ] } },
{ "type": "Feature", "properties": { "@type": "way", "@id": 739861963, "boat": null, "boundary": null, "ele": null, "ford": null, "highway": null, "information": null, "int_name": null, "intermittent": "yes", "leaf_type": null, "leisure": null, "lit": null, "name": null, "name:el": null, "name:mk": null, "natural": "water", "network": null, "ref": null, "route": null, "smoothness": null, "source": null, "surface": null, "tourism": null, "tracktype": null, "trail_visibility": null, "type": null, "water": "lake", "waterway": null, "width": null, "label": "natural:water;water:lake" }, "geometry": { "type": "Polygon", "coordinates": [ [ [ 20.9452366, 40.086158 ], [ 20.945301, 40.0862873 ], [ 20.945293, 40.0863961 ], [ 20.9453949, 40.0864864 ], [ 20.945419, 40.0866587 ], [ 20.9454888, 40.0867531 ], [ 20.9456336, 40.0868126 ], [ 20.9457328, 40.0868188 ], [ 20.9457972, 40.08671 ], [ 20.9457838, 40.0865479 ], [ 20.9457302, 40.0864125 ], [ 20.9456416, 40.0863899 ], [ 20.9455639, 40.0863448 ], [ 20.9454297, 40.086314 ], [ 20.9453225, 40.0862196 ], [ 20.94525, 40.0861006 ], [ 20.9451991, 40.0860739 ], [ 20.9452366, 40.086158 ] ] ] } }
]
}
