{
"type": "FeatureCollection",
"name": "patch_72035_point",
"crs": { "type": "name", "properties": { "name": "urn:ogc:def:crs:OGC:1.3:CRS84" } },
"features": [
{ "type": "Feature", "properties": { "@type": "node", "@id": 356502560, "boat": null, "boundary": null, "ele": "2578", "ford": null, "highway": null, "information": null, "int_name": "Mosia", "intermittent": null, "leaf_type": null, "leisure": null, "lit": null, "name": "Μόσια", "name:el": null, "name:mk": null, "natural": "peak", "network": null, "ref": null, "route": null, "smoothness": null, "source": null, "surface": null, "tourism": null, "tracktype": null, "trail_visibility": null, "type": null, "water": null, "waterway": null, "width": null, "label": "natural:peak" }, "geometry": { "type": "Point", "coordinates": [ 20.9500534, 40.0853176 ] } },
{ "type": "Feature", "properties": { "@type": "node", "@id": 356502610, "boat": null, "boundary": null, "ele": "2276", "ford": null, "highway": null, "information": null, "int_name": null, "intermittent": null, "leaf_type": null, "leisure": null, "lit": null, "name": null, "name:el": null, "name:mk": null, "natural": "peak", "network": null, "ref": null, "route": null, "smoothness": null, "source": null, "surface": null, "tourism": null, "tracktype": null, "trail_visibility": null, "type": null, "water": null, "waterway": null, "width": null, "label": "natural:peak" }, "geometry": { "type": "Point", "coordinates": [ 20.9650671, 40.0743065 ] } },
{ "type": "Feature", "properties": { "@type": "node", "@id": 356502949, "boat": null, "boundary": null, "ele": "2376", "ford": null, "highway": null, "information": null, "int_name": null, "intermittent": null, "leaf_type": null, "leisure": null, "lit": null, "name": null, "name:el": null, "name:mk": null, "natural": "peak", "network": null, "ref": null, "route": null, "smoothness": null, "source": null, "surface": null, "tourism": null, "tracktype": null, "trail_visibility": null, "type": null, "water": null, "waterway": null, "width": null, "label": "natural:peak" }, "geometry": { "type": "Point", "coordinates": [ 20.9608787, 40.0871549 ] } }
]
}
