{
"type": "FeatureCollection",
"name": "patch_1103_point",
"crs": { "type": "name", "properties": { "name": "urn:ogc:def:crs:OGC:1.3:CRS84" } },
"features": [
{ "type": "Feature", "properties": { "element": "node", "id": 3918773471, "amenity": "restaurant", "name": "Αιγαίο Πέλαγος", "name:ar": null, "source": null, "wikidata": null, "wikipedia": null, "wheelchair": null, "natural": null, "operator": null, "name:de": null, "name:en": "Aigaio Pelagos", "alt_name:cs": null, "name:bg": null, "name:cs": null, "name:es": null, "name:fr": null, "name:hu": null, "name:it": null, "name:nn": null, "name:pl": null, "name:pt": null, "name:ru": null, "name:zh": null, "name:sr": null, "name:sr-Latn": null, "name:cnr": null, "name:cnr-Cyrl": null, "alt_name": null, "name:sl": null, "leisure": null, "name:el": "Αιγαίο Πέλαγος", "fee": null, "name:cnr-Latn": null, "tourism": null, "name:mk": null, "surface": null, "name:hr": null, "operator:wikidata": null, "waterway": null, "short_name": null, "historic": null, "name:tr": null, "name:uk": null, "name:sq": null, "name:ro": null, "alt_name:en": null, "addr:city": null, "building": null, "short_name:el": null, "short_name:en": null, "access": null, "artwork_type": null, "cuisine": "seafood", "addr:postcode": null, "alt_name:sl": null, "denomination": null, "religion": null, "shop": null, "alt_name:it": null, "brand": null, "bottle": null, "addr:country": null, "material": null, "boundary": null, "boat": null, "name:br": null, "name:eu": null, "name:nl": null, "name:sk": null, "name:ku": null, "name:fur": null, "name:bs": null, "name:fa": null, "name:ml": null, "alt_name:sr": null, "alt_name:sr-Latn": null, "alt_name:el": null, "name:be": null, "name:gl": null, "name:he": null, "name:hsb": null, "name:hy": null, "name:ja": null, "name:ka": null, "name:ko": null, "name:la": null, "name:mn": null, "name:mr": null, "name:pnb": null, "name:ta": null, "name:th": null, "name:ur": null, "name:zh-Hans": null, "name:zh-Hant": null, "landuse": null, "residential": null, "protect_class": null, "protection_title": null, "board_type": null, "information": null, "name:sv": null, "name:szl": null, "name:an": null, "name:ca": null, "name:lmo": null, "name:lt": null, "name:sh": null, "name:vec": null, "parking": null, "sport": null, "layer": null, "tunnel": null, "female": null, "male": null, "outdoor_seating": null, "type": null, "alt_name:af": null, "alt_name:an": null, "alt_name:ast": null, "alt_name:az": null, "alt_name:be": null, "alt_name:bg": null, "alt_name:bn": null, "alt_name:ce": null, "alt_name:cnr": null, "alt_name:crh": null, "alt_name:cv": null, "alt_name:da": null, "alt_name:de": null, "alt_name:dsb": null, "alt_name:eo": null, "alt_name:es": null, "alt_name:et": null, "alt_name:eu": null, "alt_name:fo": null, "alt_name:fur": null, "alt_name:fy": null, "alt_name:ga": null, "alt_name:gag": null, "alt_name:gl": null, "alt_name:gsw": null, "alt_name:gv": null, "alt_name:he": null, "alt_name:hi": null, "alt_name:hr": null, "alt_name:hsb": null, "alt_name:hu": null, "alt_name:hy": null, "alt_name:kk": null, "alt_name:ku": null, "alt_name:lad": null, "alt_name:lb": null, "alt_name:li": null, "alt_name:lt": null, "alt_name:lv": null, "alt_name:mk": null, "alt_name:mn": null, "alt_name:nap": null, "alt_name:nl": null, "alt_name:os": null, "alt_name:pl": null, "alt_name:pnt": null, "alt_name:pt": null, "alt_name:ro": null, "alt_name:ru": null, "alt_name:scn": null, "alt_name:sco": null, "alt_name:sk": null, "alt_name:sq": null, "alt_name:sw": null, "alt_name:szl": null, "alt_name:ta": null, "alt_name:th": null, "alt_name:tk": null, "alt_name:tr": null, "alt_name:tt": null, "alt_name:uk": null, "alt_name:vec": null, "alt_name:yi": null, "alt_name:za": null, "name:af": null, "name:arz": null, "name:ast": null, "name:az": null, "name:ckb": null, "name:crh": null, "name:cy": null, "name:da": null, "name:dsb": null, "name:et": null, "name:fi": null, "name:fo": null, "name:frp": null, "name:fy": null, "name:ga": null, "name:gag": null, "name:gd": null, "name:gsw": null, "name:gv": null, "name:hi": null, "name:id": null, "name:is": null, "name:jv": null, "name:kk": null, "name:lad": null, "name:lb": null, "name:li": null, "name:lv": null, "name:mg": null, "name:ms": null, "name:nap": null, "name:new": null, "name:no": null, "name:nrm": null, "name:oc": null, "name:os": null, "name:pa": null, "name:pnt": null, "name:ps": null, "name:sah": null, "name:sc": null, "name:scn": null, "name:sco": null, "name:se": null, "name:sw": null, "name:tk": null, "name:tl": null, "name:tt": null, "name:ug": null, "name:vi": null, "name:war": null, "name_with_accent:ru": null, "label": "amenity:restaurant" }, "geometry": { "type": "Point", "coordinates": [ 22.5878297, 40.4560309 ] } },
{ "type": "Feature", "properties": { "element": "node", "id": 3918773472, "amenity": "cafe", "name": "Όρμος", "name:ar": null, "source": null, "wikidata": null, "wikipedia": null, "wheelchair": null, "natural": null, "operator": null, "name:de": null, "name:en": null, "alt_name:cs": null, "name:bg": null, "name:cs": null, "name:es": null, "name:fr": null, "name:hu": null, "name:it": null, "name:nn": null, "name:pl": null, "name:pt": null, "name:ru": null, "name:zh": null, "name:sr": null, "name:sr-Latn": null, "name:cnr": null, "name:cnr-Cyrl": null, "alt_name": null, "name:sl": null, "leisure": null, "name:el": null, "fee": null, "name:cnr-Latn": null, "tourism": null, "name:mk": null, "surface": null, "name:hr": null, "operator:wikidata": null, "waterway": null, "short_name": null, "historic": null, "name:tr": null, "name:uk": null, "name:sq": null, "name:ro": null, "alt_name:en": null, "addr:city": null, "building": null, "short_name:el": null, "short_name:en": null, "access": null, "artwork_type": null, "cuisine": null, "addr:postcode": null, "alt_name:sl": null, "denomination": null, "religion": null, "shop": null, "alt_name:it": null, "brand": null, "bottle": null, "addr:country": null, "material": null, "boundary": null, "boat": null, "name:br": null, "name:eu": null, "name:nl": null, "name:sk": null, "name:ku": null, "name:fur": null, "name:bs": null, "name:fa": null, "name:ml": null, "alt_name:sr": null, "alt_name:sr-Latn": null, "alt_name:el": null, "name:be": null, "name:gl": null, "name:he": null, "name:hsb": null, "name:hy": null, "name:ja": null, "name:ka": null, "name:ko": null, "name:la": null, "name:mn": null, "name:mr": null, "name:pnb": null, "name:ta": null, "name:th": null, "name:ur": null, "name:zh-Hans": null, "name:zh-Hant": null, "landuse": null, "residential": null, "protect_class": null, "protection_title": null, "board_type": null, "information": null, "name:sv": null, "name:szl": null, "name:an": null, "name:ca": null, "name:lmo": null, "name:lt": null, "name:sh": null, "name:vec": null, "parking": null, "sport": null, "layer": null, "tunnel": null, "female": null, "male": null, "outdoor_seating": null, "type": null, "alt_name:af": null, "alt_name:an": null, "alt_name:ast": null, "alt_name:az": null, "alt_name:be": null, "alt_name:bg": null, "alt_name:bn": null, "alt_name:ce": null, "alt_name:cnr": null, "alt_name:crh": null, "alt_name:cv": null, "alt_name:da": null, "alt_name:de": null, "alt_name:dsb": null, "alt_name:eo": null, "alt_name:es": null, "alt_name:et": null, "alt_name:eu": null, "alt_name:fo": null, "alt_name:fur": null, "alt_name:fy": null, "alt_name:ga": null, "alt_name:gag": null, "alt_name:gl": null, "alt_name:gsw": null, "alt_name:gv": null, "alt_name:he": null, "alt_name:hi": null, "alt_name:hr": null, "alt_name:hsb": null, "alt_name:hu": null, "alt_name:hy": null, "alt_name:kk": null, "alt_name:ku": null, "alt_name:lad": null, "alt_name:lb": null, "alt_name:li": null, "alt_name:lt": null, "alt_name:lv": null, "alt_name:mk": null, "alt_name:mn": null, "alt_name:nap": null, "alt_name:nl": null, "alt_name:os": null, "alt_name:pl": null, "alt_name:pnt": null, "alt_name:pt": null, "alt_name:ro": null, "alt_name:ru": null, "alt_name:scn": null, "alt_name:sco": null, "alt_name:sk": null, "alt_name:sq": null, "alt_name:sw": null, "alt_name:szl": null, "alt_name:ta": null, "alt_name:th": null, "alt_name:tk": null, "alt_name:tr": null, "alt_name:tt": null, "alt_name:uk": null, "alt_name:vec": null, "alt_name:yi": null, "alt_name:za": null, "name:af": null, "name:arz": null, "name:ast": null, "name:az": null, "name:ckb": null, "name:crh": null, "name:cy": null, "name:da": null, "name:dsb": null, "name:et": null, "name:fi": null, "name:fo": null, "name:frp": null, "name:fy": null, "name:ga": null, "name:gag": null, "name:gd": null, "name:gsw": null, "name:gv": null, "name:hi": null, "name:id": null, "name:is": null, "name:jv": null, "name:kk": null, "name:lad": null, "name:lb": null, "name:li": null, "name:lv": null, "name:mg": null, "name:ms": null, "name:nap": null, "name:new": null, "name:no": null, "name:nrm": null, "name:oc": null, "name:os": null, "name:pa": null, "name:pnt": null, "name:ps": null, "name:sah": null, "name:sc": null, "name:scn": null, "name:sco": null, "name:se": null, "name:sw": null, "name:tk": null, "name:tl": null, "name:tt": null, "name:ug": null, "name:vi": null, "name:war": null, "name_with_accent:ru": null, "label": "amenity:cafe" }, "geometry": { "type": "Point", "coordinates": [ 22.5879719, 40.4559799 ] } },
{ "type": "Feature", "properties": { "element": "node", "id": 3918773473, "amenity": "restaurant", "name": "Νίκος", "name:ar": null, "source": null, "wikidata": null, "wikipedia": null, "wheelchair": null, "natural": null, "operator": null, "name:de": null, "name:en": null, "alt_name:cs": null, "name:bg": null, "name:cs": null, "name:es": null, "name:fr": null, "name:hu": null, "name:it": null, "name:nn": null, "name:pl": null, "name:pt": null, "name:ru": null, "name:zh": null, "name:sr": null, "name:sr-Latn": null, "name:cnr": null, "name:cnr-Cyrl": null, "alt_name": null, "name:sl": null, "leisure": null, "name:el": null, "fee": null, "name:cnr-Latn": null, "tourism": null, "name:mk": null, "surface": null, "name:hr": null, "operator:wikidata": null, "waterway": null, "short_name": null, "historic": null, "name:tr": null, "name:uk": null, "name:sq": null, "name:ro": null, "alt_name:en": null, "addr:city": null, "building": null, "short_name:el": null, "short_name:en": null, "access": null, "artwork_type": null, "cuisine": null, "addr:postcode": null, "alt_name:sl": null, "denomination": null, "religion": null, "shop": null, "alt_name:it": null, "brand": null, "bottle": null, "addr:country": null, "material": null, "boundary": null, "boat": null, "name:br": null, "name:eu": null, "name:nl": null, "name:sk": null, "name:ku": null, "name:fur": null, "name:bs": null, "name:fa": null, "name:ml": null, "alt_name:sr": null, "alt_name:sr-Latn": null, "alt_name:el": null, "name:be": null, "name:gl": null, "name:he": null, "name:hsb": null, "name:hy": null, "name:ja": null, "name:ka": null, "name:ko": null, "name:la": null, "name:mn": null, "name:mr": null, "name:pnb": null, "name:ta": null, "name:th": null, "name:ur": null, "name:zh-Hans": null, "name:zh-Hant": null, "landuse": null, "residential": null, "protect_class": null, "protection_title": null, "board_type": null, "information": null, "name:sv": null, "name:szl": null, "name:an": null, "name:ca": null, "name:lmo": null, "name:lt": null, "name:sh": null, "name:vec": null, "parking": null, "sport": null, "layer": null, "tunnel": null, "female": null, "male": null, "outdoor_seating": null, "type": null, "alt_name:af": null, "alt_name:an": null, "alt_name:ast": null, "alt_name:az": null, "alt_name:be": null, "alt_name:bg": null, "alt_name:bn": null, "alt_name:ce": null, "alt_name:cnr": null, "alt_name:crh": null, "alt_name:cv": null, "alt_name:da": null, "alt_name:de": null, "alt_name:dsb": null, "alt_name:eo": null, "alt_name:es": null, "alt_name:et": null, "alt_name:eu": null, "alt_name:fo": null, "alt_name:fur": null, "alt_name:fy": null, "alt_name:ga": null, "alt_name:gag": null, "alt_name:gl": null, "alt_name:gsw": null, "alt_name:gv": null, "alt_name:he": null, "alt_name:hi": null, "alt_name:hr": null, "alt_name:hsb": null, "alt_name:hu": null, "alt_name:hy": null, "alt_name:kk": null, "alt_name:ku": null, "alt_name:lad": null, "alt_name:lb": null, "alt_name:li": null, "alt_name:lt": null, "alt_name:lv": null, "alt_name:mk": null, "alt_name:mn": null, "alt_name:nap": null, "alt_name:nl": null, "alt_name:os": null, "alt_name:pl": null, "alt_name:pnt": null, "alt_name:pt": null, "alt_name:ro": null, "alt_name:ru": null, "alt_name:scn": null, "alt_name:sco": null, "alt_name:sk": null, "alt_name:sq": null, "alt_name:sw": null, "alt_name:szl": null, "alt_name:ta": null, "alt_name:th": null, "alt_name:tk": null, "alt_name:tr": null, "alt_name:tt": null, "alt_name:uk": null, "alt_name:vec": null, "alt_name:yi": null, "alt_name:za": null, "name:af": null, "name:arz": null, "name:ast": null, "name:az": null, "name:ckb": null, "name:crh": null, "name:cy": null, "name:da": null, "name:dsb": null, "name:et": null, "name:fi": null, "name:fo": null, "name:frp": null, "name:fy": null, "name:ga": null, "name:gag": null, "name:gd": null, "name:gsw": null, "name:gv": null, "name:hi": null, "name:id": null, "name:is": null, "name:jv": null, "name:kk": null, "name:lad": null, "name:lb": null, "name:li": null, "name:lv": null, "name:mg": null, "name:ms": null, "name:nap": null, "name:new": null, "name:no": null, "name:nrm": null, "name:oc": null, "name:os": null, "name:pa": null, "name:pnt": null, "name:ps": null, "name:sah": null, "name:sc": null, "name:scn": null, "name:sco": null, "name:se": null, "name:sw": null, "name:tk": null, "name:tl": null, "name:tt": null, "name:ug": null, "name:vi": null, "name:war": null, "name_with_accent:ru": null, "label": "amenity:restaurant" }, "geometry": { "type": "Point", "coordinates": [ 22.5881141, 40.4558972 ] } },
{ "type": "Feature", "properties": { "element": "node", "id": 3918773474, "amenity": "restaurant", "name": "Θόδωρος", "name:ar": null, "source": null, "wikidata": null, "wikipedia": null, "wheelchair": null, "natural": null, "operator": null, "name:de": null, "name:en": null, "alt_name:cs": null, "name:bg": null, "name:cs": null, "name:es": null, "name:fr": null, "name:hu": null, "name:it": null, "name:nn": null, "name:pl": null, "name:pt": null, "name:ru": null, "name:zh": null, "name:sr": null, "name:sr-Latn": null, "name:cnr": null, "name:cnr-Cyrl": null, "alt_name": null, "name:sl": null, "leisure": null, "name:el": null, "fee": null, "name:cnr-Latn": null, "tourism": null, "name:mk": null, "surface": null, "name:hr": null, "operator:wikidata": null, "waterway": null, "short_name": null, "historic": null, "name:tr": null, "name:uk": null, "name:sq": null, "name:ro": null, "alt_name:en": null, "addr:city": null, "building": null, "short_name:el": null, "short_name:en": null, "access": null, "artwork_type": null, "cuisine": "fish", "addr:postcode": null, "alt_name:sl": null, "denomination": null, "religion": null, "shop": null, "alt_name:it": null, "brand": null, "bottle": null, "addr:country": null, "material": null, "boundary": null, "boat": null, "name:br": null, "name:eu": null, "name:nl": null, "name:sk": null, "name:ku": null, "name:fur": null, "name:bs": null, "name:fa": null, "name:ml": null, "alt_name:sr": null, "alt_name:sr-Latn": null, "alt_name:el": null, "name:be": null, "name:gl": null, "name:he": null, "name:hsb": null, "name:hy": null, "name:ja": null, "name:ka": null, "name:ko": null, "name:la": null, "name:mn": null, "name:mr": null, "name:pnb": null, "name:ta": null, "name:th": null, "name:ur": null, "name:zh-Hans": null, "name:zh-Hant": null, "landuse": null, "residential": null, "protect_class": null, "protection_title": null, "board_type": null, "information": null, "name:sv": null, "name:szl": null, "name:an": null, "name:ca": null, "name:lmo": null, "name:lt": null, "name:sh": null, "name:vec": null, "parking": null, "sport": null, "layer": null, "tunnel": null, "female": null, "male": null, "outdoor_seating": null, "type": null, "alt_name:af": null, "alt_name:an": null, "alt_name:ast": null, "alt_name:az": null, "alt_name:be": null, "alt_name:bg": null, "alt_name:bn": null, "alt_name:ce": null, "alt_name:cnr": null, "alt_name:crh": null, "alt_name:cv": null, "alt_name:da": null, "alt_name:de": null, "alt_name:dsb": null, "alt_name:eo": null, "alt_name:es": null, "alt_name:et": null, "alt_name:eu": null, "alt_name:fo": null, "alt_name:fur": null, "alt_name:fy": null, "alt_name:ga": null, "alt_name:gag": null, "alt_name:gl": null, "alt_name:gsw": null, "alt_name:gv": null, "alt_name:he": null, "alt_name:hi": null, "alt_name:hr": null, "alt_name:hsb": null, "alt_name:hu": null, "alt_name:hy": null, "alt_name:kk": null, "alt_name:ku": null, "alt_name:lad": null, "alt_name:lb": null, "alt_name:li": null, "alt_name:lt": null, "alt_name:lv": null, "alt_name:mk": null, "alt_name:mn": null, "alt_name:nap": null, "alt_name:nl": null, "alt_name:os": null, "alt_name:pl": null, "alt_name:pnt": null, "alt_name:pt": null, "alt_name:ro": null, "alt_name:ru": null, "alt_name:scn": null, "alt_name:sco": null, "alt_name:sk": null, "alt_name:sq": null, "alt_name:sw": null, "alt_name:szl": null, "alt_name:ta": null, "alt_name:th": null, "alt_name:tk": null, "alt_name:tr": null, "alt_name:tt": null, "alt_name:uk": null, "alt_name:vec": null, "alt_name:yi": null, "alt_name:za": null, "name:af": null, "name:arz": null, "name:ast": null, "name:az": null, "name:ckb": null, "name:crh": null, "name:cy": null, "name:da": null, "name:dsb": null, "name:et": null, "name:fi": null, "name:fo": null, "name:frp": null, "name:fy": null, "name:ga": null, "name:gag": null, "name:gd": null, "name:gsw": null, "name:gv": null, "name:hi": null, "name:id": null, "name:is": null, "name:jv": null, "name:kk": null, "name:lad": null, "name:lb": null, "name:li": null, "name:lv": null, "name:mg": null, "name:ms": null, "name:nap": null, "name:new": null, "name:no": null, "name:nrm": null, "name:oc": null, "name:os": null, "name:pa": null, "name:pnt": null, "name:ps": null, "name:sah": null, "name:sc": null, "name:scn": null, "name:sco": null, "name:se": null, "name:sw": null, "name:tk": null, "name:tl": null, "name:tt": null, "name:ug": null, "name:vi": null, "name:war": null, "name_with_accent:ru": null, "label": "amenity:restaurant" }, "geometry": { "type": "Point", "coordinates": [ 22.5876702, 40.4561003 ] } },
{ "type": "Feature", "properties": { "element": "node", "id": 4558145493, "amenity": "cafe", "name": "DC3 airplane cafe", "name:ar": null, "source": null, "wikidata": null, "wikipedia": null, "wheelchair": null, "natural": null, "operator": null, "name:de": null, "name:en": null, "alt_name:cs": null, "name:bg": null, "name:cs": null, "name:es": null, "name:fr": null, "name:hu": null, "name:it": null, "name:nn": null, "name:pl": null, "name:pt": null, "name:ru": null, "name:zh": null, "name:sr": null, "name:sr-Latn": null, "name:cnr": null, "name:cnr-Cyrl": null, "alt_name": null, "name:sl": null, "leisure": null, "name:el": null, "fee": null, "name:cnr-Latn": null, "tourism": null, "name:mk": null, "surface": null, "name:hr": null, "operator:wikidata": null, "waterway": null, "short_name": null, "historic": null, "name:tr": null, "name:uk": null, "name:sq": null, "name:ro": null, "alt_name:en": null, "addr:city": null, "building": null, "short_name:el": null, "short_name:en": null, "access": null, "artwork_type": null, "cuisine": null, "addr:postcode": null, "alt_name:sl": null, "denomination": null, "religion": null, "shop": null, "alt_name:it": null, "brand": null, "bottle": null, "addr:country": null, "material": null, "boundary": null, "boat": null, "name:br": null, "name:eu": null, "name:nl": null, "name:sk": null, "name:ku": null, "name:fur": null, "name:bs": null, "name:fa": null, "name:ml": null, "alt_name:sr": null, "alt_name:sr-Latn": null, "alt_name:el": null, "name:be": null, "name:gl": null, "name:he": null, "name:hsb": null, "name:hy": null, "name:ja": null, "name:ka": null, "name:ko": null, "name:la": null, "name:mn": null, "name:mr": null, "name:pnb": null, "name:ta": null, "name:th": null, "name:ur": null, "name:zh-Hans": null, "name:zh-Hant": null, "landuse": null, "residential": null, "protect_class": null, "protection_title": null, "board_type": null, "information": null, "name:sv": null, "name:szl": null, "name:an": null, "name:ca": null, "name:lmo": null, "name:lt": null, "name:sh": null, "name:vec": null, "parking": null, "sport": null, "layer": null, "tunnel": null, "female": null, "male": null, "outdoor_seating": null, "type": null, "alt_name:af": null, "alt_name:an": null, "alt_name:ast": null, "alt_name:az": null, "alt_name:be": null, "alt_name:bg": null, "alt_name:bn": null, "alt_name:ce": null, "alt_name:cnr": null, "alt_name:crh": null, "alt_name:cv": null, "alt_name:da": null, "alt_name:de": null, "alt_name:dsb": null, "alt_name:eo": null, "alt_name:es": null, "alt_name:et": null, "alt_name:eu": null, "alt_name:fo": null, "alt_name:fur": null, "alt_name:fy": null, "alt_name:ga": null, "alt_name:gag": null, "alt_name:gl": null, "alt_name:gsw": null, "alt_name:gv": null, "alt_name:he": null, "alt_name:hi": null, "alt_name:hr": null, "alt_name:hsb": null, "alt_name:hu": null, "alt_name:hy": null, "alt_name:kk": null, "alt_name:ku": null, "alt_name:lad": null, "alt_name:lb": null, "alt_name:li": null, "alt_name:lt": null, "alt_name:lv": null, "alt_name:mk": null, "alt_name:mn": null, "alt_name:nap": null, "alt_name:nl": null, "alt_name:os": null, "alt_name:pl": null, "alt_name:pnt": null, "alt_name:pt": null, "alt_name:ro": null, "alt_name:ru": null, "alt_name:scn": null, "alt_name:sco": null, "alt_name:sk": null, "alt_name:sq": null, "alt_name:sw": null, "alt_name:szl": null, "alt_name:ta": null, "alt_name:th": null, "alt_name:tk": null, "alt_name:tr": null, "alt_name:tt": null, "alt_name:uk": null, "alt_name:vec": null, "alt_name:yi": null, "alt_name:za": null, "name:af": null, "name:arz": null, "name:ast": null, "name:az": null, "name:ckb": null, "name:crh": null, "name:cy": null, "name:da": null, "name:dsb": null, "name:et": null, "name:fi": null, "name:fo": null, "name:frp": null, "name:fy": null, "name:ga": null, "name:gag": null, "name:gd": null, "name:gsw": null, "name:gv": null, "name:hi": null, "name:id": null, "name:is": null, "name:jv": null, "name:kk": null, "name:lad": null, "name:lb": null, "name:li": null, "name:lv": null, "name:mg": null, "name:ms": null, "name:nap": null, "name:new": null, "name:no": null, "name:nrm": null, "name:oc": null, "name:os": null, "name:pa": null, "name:pnt": null, "name:ps": null, "name:sah": null, "name:sc": null, "name:scn": null, "name:sco": null, "name:se": null, "name:sw": null, "name:tk": null, "name:tl": null, "name:tt": null, "name:ug": null, "name:vi": null, "name:war": null, "name_with_accent:ru": null, "label": "amenity:cafe" }, "geometry": { "type": "Point", "coordinates": [ 22.5694839, 40.47046 ] } },
{ "type": "Feature", "properties": { "element": "node", "id": 5661438968, "amenity": "bench", "name": null, "name:ar": null, "source": null, "wikidata": null, "wikipedia": null, "wheelchair": null, "natural": null, "operator": null, "name:de": null, "name:en": null, "alt_name:cs": null, "name:bg": null, "name:cs": null, "name:es": null, "name:fr": null, "name:hu": null, "name:it": null, "name:nn": null, "name:pl": null, "name:pt": null, "name:ru": null, "name:zh": null, "name:sr": null, "name:sr-Latn": null, "name:cnr": null, "name:cnr-Cyrl": null, "alt_name": null, "name:sl": null, "leisure": null, "name:el": null, "fee": null, "name:cnr-Latn": null, "tourism": null, "name:mk": null, "surface": null, "name:hr": null, "operator:wikidata": null, "waterway": null, "short_name": null, "historic": null, "name:tr": null, "name:uk": null, "name:sq": null, "name:ro": null, "alt_name:en": null, "addr:city": null, "building": null, "short_name:el": null, "short_name:en": null, "access": null, "artwork_type": null, "cuisine": null, "addr:postcode": null, "alt_name:sl": null, "denomination": null, "religion": null, "shop": null, "alt_name:it": null, "brand": null, "bottle": null, "addr:country": null, "material": null, "boundary": null, "boat": null, "name:br": null, "name:eu": null, "name:nl": null, "name:sk": null, "name:ku": null, "name:fur": null, "name:bs": null, "name:fa": null, "name:ml": null, "alt_name:sr": null, "alt_name:sr-Latn": null, "alt_name:el": null, "name:be": null, "name:gl": null, "name:he": null, "name:hsb": null, "name:hy": null, "name:ja": null, "name:ka": null, "name:ko": null, "name:la": null, "name:mn": null, "name:mr": null, "name:pnb": null, "name:ta": null, "name:th": null, "name:ur": null, "name:zh-Hans": null, "name:zh-Hant": null, "landuse": null, "residential": null, "protect_class": null, "protection_title": null, "board_type": null, "information": null, "name:sv": null, "name:szl": null, "name:an": null, "name:ca": null, "name:lmo": null, "name:lt": null, "name:sh": null, "name:vec": null, "parking": null, "sport": null, "layer": null, "tunnel": null, "female": null, "male": null, "outdoor_seating": null, "type": null, "alt_name:af": null, "alt_name:an": null, "alt_name:ast": null, "alt_name:az": null, "alt_name:be": null, "alt_name:bg": null, "alt_name:bn": null, "alt_name:ce": null, "alt_name:cnr": null, "alt_name:crh": null, "alt_name:cv": null, "alt_name:da": null, "alt_name:de": null, "alt_name:dsb": null, "alt_name:eo": null, "alt_name:es": null, "alt_name:et": null, "alt_name:eu": null, "alt_name:fo": null, "alt_name:fur": null, "alt_name:fy": null, "alt_name:ga": null, "alt_name:gag": null, "alt_name:gl": null, "alt_name:gsw": null, "alt_name:gv": null, "alt_name:he": null, "alt_name:hi": null, "alt_name:hr": null, "alt_name:hsb": null, "alt_name:hu": null, "alt_name:hy": null, "alt_name:kk": null, "alt_name:ku": null, "alt_name:lad": null, "alt_name:lb": null, "alt_name:li": null, "alt_name:lt": null, "alt_name:lv": null, "alt_name:mk": null, "alt_name:mn": null, "alt_name:nap": null, "alt_name:nl": null, "alt_name:os": null, "alt_name:pl": null, "alt_name:pnt": null, "alt_name:pt": null, "alt_name:ro": null, "alt_name:ru": null, "alt_name:scn": null, "alt_name:sco": null, "alt_name:sk": null, "alt_name:sq": null, "alt_name:sw": null, "alt_name:szl": null, "alt_name:ta": null, "alt_name:th": null, "alt_name:tk": null, "alt_name:tr": null, "alt_name:tt": null, "alt_name:uk": null, "alt_name:vec": null, "alt_name:yi": null, "alt_name:za": null, "name:af": null, "name:arz": null, "name:ast": null, "name:az": null, "name:ckb": null, "name:crh": null, "name:cy": null, "name:da": null, "name:dsb": null, "name:et": null, "name:fi": null, "name:fo": null, "name:frp": null, "name:fy": null, "name:ga": null, "name:gag": null, "name:gd": null, "name:gsw": null, "name:gv": null, "name:hi": null, "name:id": null, "name:is": null, "name:jv": null, "name:kk": null, "name:lad": null, "name:lb": null, "name:li": null, "name:lv": null, "name:mg": null, "name:ms": null, "name:nap": null, "name:new": null, "name:no": null, "name:nrm": null, "name:oc": null, "name:os": null, "name:pa": null, "name:pnt": null, "name:ps": null, "name:sah": null, "name:sc": null, "name:scn": null, "name:sco": null, "name:se": null, "name:sw": null, "name:tk": null, "name:tl": null, "name:tt": null, "name:ug": null, "name:vi": null, "name:war": null, "name_with_accent:ru": null, "label": "amenity:bench" }, "geometry": { "type": "Point", "coordinates": [ 22.584692, 40.4593545 ] } },
{ "type": "Feature", "properties": { "element": "node", "id": 5661438969, "amenity": "place_of_worship", "name": "Ναός Αγίου Νικολάου", "name:ar": null, "source": null, "wikidata": null, "wikipedia": null, "wheelchair": null, "natural": null, "operator": null, "name:de": null, "name:en": null, "alt_name:cs": null, "name:bg": null, "name:cs": null, "name:es": null, "name:fr": null, "name:hu": null, "name:it": null, "name:nn": null, "name:pl": null, "name:pt": null, "name:ru": null, "name:zh": null, "name:sr": null, "name:sr-Latn": null, "name:cnr": null, "name:cnr-Cyrl": null, "alt_name": null, "name:sl": null, "leisure": null, "name:el": null, "fee": null, "name:cnr-Latn": null, "tourism": null, "name:mk": null, "surface": null, "name:hr": null, "operator:wikidata": null, "waterway": null, "short_name": "Άγιος Νικόλαος", "historic": null, "name:tr": null, "name:uk": null, "name:sq": null, "name:ro": null, "alt_name:en": null, "addr:city": "Νέα Αγαθούπολη", "building": null, "short_name:el": null, "short_name:en": null, "access": null, "artwork_type": null, "cuisine": null, "addr:postcode": "60066", "alt_name:sl": null, "denomination": "greek_orthodox", "religion": "christian", "shop": null, "alt_name:it": null, "brand": null, "bottle": null, "addr:country": null, "material": null, "boundary": null, "boat": null, "name:br": null, "name:eu": null, "name:nl": null, "name:sk": null, "name:ku": null, "name:fur": null, "name:bs": null, "name:fa": null, "name:ml": null, "alt_name:sr": null, "alt_name:sr-Latn": null, "alt_name:el": null, "name:be": null, "name:gl": null, "name:he": null, "name:hsb": null, "name:hy": null, "name:ja": null, "name:ka": null, "name:ko": null, "name:la": null, "name:mn": null, "name:mr": null, "name:pnb": null, "name:ta": null, "name:th": null, "name:ur": null, "name:zh-Hans": null, "name:zh-Hant": null, "landuse": null, "residential": null, "protect_class": null, "protection_title": null, "board_type": null, "information": null, "name:sv": null, "name:szl": null, "name:an": null, "name:ca": null, "name:lmo": null, "name:lt": null, "name:sh": null, "name:vec": null, "parking": null, "sport": null, "layer": null, "tunnel": null, "female": null, "male": null, "outdoor_seating": null, "type": null, "alt_name:af": null, "alt_name:an": null, "alt_name:ast": null, "alt_name:az": null, "alt_name:be": null, "alt_name:bg": null, "alt_name:bn": null, "alt_name:ce": null, "alt_name:cnr": null, "alt_name:crh": null, "alt_name:cv": null, "alt_name:da": null, "alt_name:de": null, "alt_name:dsb": null, "alt_name:eo": null, "alt_name:es": null, "alt_name:et": null, "alt_name:eu": null, "alt_name:fo": null, "alt_name:fur": null, "alt_name:fy": null, "alt_name:ga": null, "alt_name:gag": null, "alt_name:gl": null, "alt_name:gsw": null, "alt_name:gv": null, "alt_name:he": null, "alt_name:hi": null, "alt_name:hr": null, "alt_name:hsb": null, "alt_name:hu": null, "alt_name:hy": null, "alt_name:kk": null, "alt_name:ku": null, "alt_name:lad": null, "alt_name:lb": null, "alt_name:li": null, "alt_name:lt": null, "alt_name:lv": null, "alt_name:mk": null, "alt_name:mn": null, "alt_name:nap": null, "alt_name:nl": null, "alt_name:os": null, "alt_name:pl": null, "alt_name:pnt": null, "alt_name:pt": null, "alt_name:ro": null, "alt_name:ru": null, "alt_name:scn": null, "alt_name:sco": null, "alt_name:sk": null, "alt_name:sq": null, "alt_name:sw": null, "alt_name:szl": null, "alt_name:ta": null, "alt_name:th": null, "alt_name:tk": null, "alt_name:tr": null, "alt_name:tt": null, "alt_name:uk": null, "alt_name:vec": null, "alt_name:yi": null, "alt_name:za": null, "name:af": null, "name:arz": null, "name:ast": null, "name:az": null, "name:ckb": null, "name:crh": null, "name:cy": null, "name:da": null, "name:dsb": null, "name:et": null, "name:fi": null, "name:fo": null, "name:frp": null, "name:fy": null, "name:ga": null, "name:gag": null, "name:gd": null, "name:gsw": null, "name:gv": null, "name:hi": null, "name:id": null, "name:is": null, "name:jv": null, "name:kk": null, "name:lad": null, "name:lb": null, "name:li": null, "name:lv": null, "name:mg": null, "name:ms": null, "name:nap": null, "name:new": null, "name:no": null, "name:nrm": null, "name:oc": null, "name:os": null, "name:pa": null, "name:pnt": null, "name:ps": null, "name:sah": null, "name:sc": null, "name:scn": null, "name:sco": null, "name:se": null, "name:sw": null, "name:tk": null, "name:tl": null, "name:tt": null, "name:ug": null, "name:vi": null, "name:war": null, "name_with_accent:ru": null, "label": "amenity:place_of_worship" }, "geometry": { "type": "Point", "coordinates": [ 22.5850223, 40.4585936 ] } },
{ "type": "Feature", "properties": { "element": "node", "id": 5661438971, "amenity": "bench", "name": null, "name:ar": null, "source": null, "wikidata": null, "wikipedia": null, "wheelchair": null, "natural": null, "operator": null, "name:de": null, "name:en": null, "alt_name:cs": null, "name:bg": null, "name:cs": null, "name:es": null, "name:fr": null, "name:hu": null, "name:it": null, "name:nn": null, "name:pl": null, "name:pt": null, "name:ru": null, "name:zh": null, "name:sr": null, "name:sr-Latn": null, "name:cnr": null, "name:cnr-Cyrl": null, "alt_name": null, "name:sl": null, "leisure": null, "name:el": null, "fee": null, "name:cnr-Latn": null, "tourism": null, "name:mk": null, "surface": null, "name:hr": null, "operator:wikidata": null, "waterway": null, "short_name": null, "historic": null, "name:tr": null, "name:uk": null, "name:sq": null, "name:ro": null, "alt_name:en": null, "addr:city": null, "building": null, "short_name:el": null, "short_name:en": null, "access": null, "artwork_type": null, "cuisine": null, "addr:postcode": null, "alt_name:sl": null, "denomination": null, "religion": null, "shop": null, "alt_name:it": null, "brand": null, "bottle": null, "addr:country": null, "material": null, "boundary": null, "boat": null, "name:br": null, "name:eu": null, "name:nl": null, "name:sk": null, "name:ku": null, "name:fur": null, "name:bs": null, "name:fa": null, "name:ml": null, "alt_name:sr": null, "alt_name:sr-Latn": null, "alt_name:el": null, "name:be": null, "name:gl": null, "name:he": null, "name:hsb": null, "name:hy": null, "name:ja": null, "name:ka": null, "name:ko": null, "name:la": null, "name:mn": null, "name:mr": null, "name:pnb": null, "name:ta": null, "name:th": null, "name:ur": null, "name:zh-Hans": null, "name:zh-Hant": null, "landuse": null, "residential": null, "protect_class": null, "protection_title": null, "board_type": null, "information": null, "name:sv": null, "name:szl": null, "name:an": null, "name:ca": null, "name:lmo": null, "name:lt": null, "name:sh": null, "name:vec": null, "parking": null, "sport": null, "layer": null, "tunnel": null, "female": null, "male": null, "outdoor_seating": null, "type": null, "alt_name:af": null, "alt_name:an": null, "alt_name:ast": null, "alt_name:az": null, "alt_name:be": null, "alt_name:bg": null, "alt_name:bn": null, "alt_name:ce": null, "alt_name:cnr": null, "alt_name:crh": null, "alt_name:cv": null, "alt_name:da": null, "alt_name:de": null, "alt_name:dsb": null, "alt_name:eo": null, "alt_name:es": null, "alt_name:et": null, "alt_name:eu": null, "alt_name:fo": null, "alt_name:fur": null, "alt_name:fy": null, "alt_name:ga": null, "alt_name:gag": null, "alt_name:gl": null, "alt_name:gsw": null, "alt_name:gv": null, "alt_name:he": null, "alt_name:hi": null, "alt_name:hr": null, "alt_name:hsb": null, "alt_name:hu": null, "alt_name:hy": null, "alt_name:kk": null, "alt_name:ku": null, "alt_name:lad": null, "alt_name:lb": null, "alt_name:li": null, "alt_name:lt": null, "alt_name:lv": null, "alt_name:mk": null, "alt_name:mn": null, "alt_name:nap": null, "alt_name:nl": null, "alt_name:os": null, "alt_name:pl": null, "alt_name:pnt": null, "alt_name:pt": null, "alt_name:ro": null, "alt_name:ru": null, "alt_name:scn": null, "alt_name:sco": null, "alt_name:sk": null, "alt_name:sq": null, "alt_name:sw": null, "alt_name:szl": null, "alt_name:ta": null, "alt_name:th": null, "alt_name:tk": null, "alt_name:tr": null, "alt_name:tt": null, "alt_name:uk": null, "alt_name:vec": null, "alt_name:yi": null, "alt_name:za": null, "name:af": null, "name:arz": null, "name:ast": null, "name:az": null, "name:ckb": null, "name:crh": null, "name:cy": null, "name:da": null, "name:dsb": null, "name:et": null, "name:fi": null, "name:fo": null, "name:frp": null, "name:fy": null, "name:ga": null, "name:gag": null, "name:gd": null, "name:gsw": null, "name:gv": null, "name:hi": null, "name:id": null, "name:is": null, "name:jv": null, "name:kk": null, "name:lad": null, "name:lb": null, "name:li": null, "name:lv": null, "name:mg": null, "name:ms": null, "name:nap": null, "name:new": null, "name:no": null, "name:nrm": null, "name:oc": null, "name:os": null, "name:pa": null, "name:pnt": null, "name:ps": null, "name:sah": null, "name:sc": null, "name:scn": null, "name:sco": null, "name:se": null, "name:sw": null, "name:tk": null, "name:tl": null, "name:tt": null, "name:ug": null, "name:vi": null, "name:war": null, "name_with_accent:ru": null, "label": "amenity:bench" }, "geometry": { "type": "Point", "coordinates": [ 22.5848804, 40.4590699 ] } },
{ "type": "Feature", "properties": { "element": "node", "id": 5661438973, "amenity": null, "name": null, "name:ar": null, "source": null, "wikidata": null, "wikipedia": null, "wheelchair": null, "natural": null, "operator": null, "name:de": null, "name:en": null, "alt_name:cs": null, "name:bg": null, "name:cs": null, "name:es": null, "name:fr": null, "name:hu": null, "name:it": null, "name:nn": null, "name:pl": null, "name:pt": null, "name:ru": null, "name:zh": null, "name:sr": null, "name:sr-Latn": null, "name:cnr": null, "name:cnr-Cyrl": null, "alt_name": null, "name:sl": null, "leisure": null, "name:el": null, "fee": null, "name:cnr-Latn": null, "tourism": null, "name:mk": null, "surface": null, "name:hr": null, "operator:wikidata": null, "waterway": null, "short_name": null, "historic": null, "name:tr": null, "name:uk": null, "name:sq": null, "name:ro": null, "alt_name:en": null, "addr:city": "Νέα Αγαθούπολη", "building": null, "short_name:el": null, "short_name:en": null, "access": null, "artwork_type": null, "cuisine": null, "addr:postcode": null, "alt_name:sl": null, "denomination": null, "religion": null, "shop": "supermarket", "alt_name:it": null, "brand": null, "bottle": null, "addr:country": null, "material": null, "boundary": null, "boat": null, "name:br": null, "name:eu": null, "name:nl": null, "name:sk": null, "name:ku": null, "name:fur": null, "name:bs": null, "name:fa": null, "name:ml": null, "alt_name:sr": null, "alt_name:sr-Latn": null, "alt_name:el": null, "name:be": null, "name:gl": null, "name:he": null, "name:hsb": null, "name:hy": null, "name:ja": null, "name:ka": null, "name:ko": null, "name:la": null, "name:mn": null, "name:mr": null, "name:pnb": null, "name:ta": null, "name:th": null, "name:ur": null, "name:zh-Hans": null, "name:zh-Hant": null, "landuse": null, "residential": null, "protect_class": null, "protection_title": null, "board_type": null, "information": null, "name:sv": null, "name:szl": null, "name:an": null, "name:ca": null, "name:lmo": null, "name:lt": null, "name:sh": null, "name:vec": null, "parking": null, "sport": null, "layer": null, "tunnel": null, "female": null, "male": null, "outdoor_seating": null, "type": null, "alt_name:af": null, "alt_name:an": null, "alt_name:ast": null, "alt_name:az": null, "alt_name:be": null, "alt_name:bg": null, "alt_name:bn": null, "alt_name:ce": null, "alt_name:cnr": null, "alt_name:crh": null, "alt_name:cv": null, "alt_name:da": null, "alt_name:de": null, "alt_name:dsb": null, "alt_name:eo": null, "alt_name:es": null, "alt_name:et": null, "alt_name:eu": null, "alt_name:fo": null, "alt_name:fur": null, "alt_name:fy": null, "alt_name:ga": null, "alt_name:gag": null, "alt_name:gl": null, "alt_name:gsw": null, "alt_name:gv": null, "alt_name:he": null, "alt_name:hi": null, "alt_name:hr": null, "alt_name:hsb": null, "alt_name:hu": null, "alt_name:hy": null, "alt_name:kk": null, "alt_name:ku": null, "alt_name:lad": null, "alt_name:lb": null, "alt_name:li": null, "alt_name:lt": null, "alt_name:lv": null, "alt_name:mk": null, "alt_name:mn": null, "alt_name:nap": null, "alt_name:nl": null, "alt_name:os": null, "alt_name:pl": null, "alt_name:pnt": null, "alt_name:pt": null, "alt_name:ro": null, "alt_name:ru": null, "alt_name:scn": null, "alt_name:sco": null, "alt_name:sk": null, "alt_name:sq": null, "alt_name:sw": null, "alt_name:szl": null, "alt_name:ta": null, "alt_name:th": null, "alt_name:tk": null, "alt_name:tr": null, "alt_name:tt": null, "alt_name:uk": null, "alt_name:vec": null, "alt_name:yi": null, "alt_name:za": null, "name:af": null, "name:arz": null, "name:ast": null, "name:az": null, "name:ckb": null, "name:crh": null, "name:cy": null, "name:da": null, "name:dsb": null, "name:et": null, "name:fi": null, "name:fo": null, "name:frp": null, "name:fy": null, "name:ga": null, "name:gag": null, "name:gd": null, "name:gsw": null, "name:gv": null, "name:hi": null, "name:id": null, "name:is": null, "name:jv": null, "name:kk": null, "name:lad": null, "name:lb": null, "name:li": null, "name:lv": null, "name:mg": null, "name:ms": null, "name:nap": null, "name:new": null, "name:no": null, "name:nrm": null, "name:oc": null, "name:os": null, "name:pa": null, "name:pnt": null, "name:ps": null, "name:sah": null, "name:sc": null, "name:scn": null, "name:sco": null, "name:se": null, "name:sw": null, "name:tk": null, "name:tl": null, "name:tt": null, "name:ug": null, "name:vi": null, "name:war": null, "name_with_accent:ru": null, "label": "shop:supermarket" }, "geometry": { "type": "Point", "coordinates": [ 22.5847605, 40.4586953 ] } },
{ "type": "Feature", "properties": { "element": "node", "id": 9214998568, "amenity": "fuel", "name": "ΑΠ", "name:ar": null, "source": null, "wikidata": null, "wikipedia": null, "wheelchair": null, "natural": null, "operator": "ΚΥΡΙΑΚΙΔΗΣ ΠΑΝΑΓΙΩΤΗΣ", "name:de": null, "name:en": null, "alt_name:cs": null, "name:bg": null, "name:cs": null, "name:es": null, "name:fr": null, "name:hu": null, "name:it": null, "name:nn": null, "name:pl": null, "name:pt": null, "name:ru": null, "name:zh": null, "name:sr": null, "name:sr-Latn": null, "name:cnr": null, "name:cnr-Cyrl": null, "alt_name": null, "name:sl": null, "leisure": null, "name:el": null, "fee": null, "name:cnr-Latn": null, "tourism": null, "name:mk": null, "surface": null, "name:hr": null, "operator:wikidata": null, "waterway": null, "short_name": null, "historic": null, "name:tr": null, "name:uk": null, "name:sq": null, "name:ro": null, "alt_name:en": null, "addr:city": "Νέα Αγαθούπολη", "building": null, "short_name:el": null, "short_name:en": null, "access": null, "artwork_type": null, "cuisine": null, "addr:postcode": "60066", "alt_name:sl": null, "denomination": null, "religion": null, "shop": null, "alt_name:it": null, "brand": "ΑΠ", "bottle": null, "addr:country": null, "material": null, "boundary": null, "boat": null, "name:br": null, "name:eu": null, "name:nl": null, "name:sk": null, "name:ku": null, "name:fur": null, "name:bs": null, "name:fa": null, "name:ml": null, "alt_name:sr": null, "alt_name:sr-Latn": null, "alt_name:el": null, "name:be": null, "name:gl": null, "name:he": null, "name:hsb": null, "name:hy": null, "name:ja": null, "name:ka": null, "name:ko": null, "name:la": null, "name:mn": null, "name:mr": null, "name:pnb": null, "name:ta": null, "name:th": null, "name:ur": null, "name:zh-Hans": null, "name:zh-Hant": null, "landuse": null, "residential": null, "protect_class": null, "protection_title": null, "board_type": null, "information": null, "name:sv": null, "name:szl": null, "name:an": null, "name:ca": null, "name:lmo": null, "name:lt": null, "name:sh": null, "name:vec": null, "parking": null, "sport": null, "layer": null, "tunnel": null, "female": null, "male": null, "outdoor_seating": null, "type": null, "alt_name:af": null, "alt_name:an": null, "alt_name:ast": null, "alt_name:az": null, "alt_name:be": null, "alt_name:bg": null, "alt_name:bn": null, "alt_name:ce": null, "alt_name:cnr": null, "alt_name:crh": null, "alt_name:cv": null, "alt_name:da": null, "alt_name:de": null, "alt_name:dsb": null, "alt_name:eo": null, "alt_name:es": null, "alt_name:et": null, "alt_name:eu": null, "alt_name:fo": null, "alt_name:fur": null, "alt_name:fy": null, "alt_name:ga": null, "alt_name:gag": null, "alt_name:gl": null, "alt_name:gsw": null, "alt_name:gv": null, "alt_name:he": null, "alt_name:hi": null, "alt_name:hr": null, "alt_name:hsb": null, "alt_name:hu": null, "alt_name:hy": null, "alt_name:kk": null, "alt_name:ku": null, "alt_name:lad": null, "alt_name:lb": null, "alt_name:li": null, "alt_name:lt": null, "alt_name:lv": null, "alt_name:mk": null, "alt_name:mn": null, "alt_name:nap": null, "alt_name:nl": null, "alt_name:os": null, "alt_name:pl": null, "alt_name:pnt": null, "alt_name:pt": null, "alt_name:ro": null, "alt_name:ru": null, "alt_name:scn": null, "alt_name:sco": null, "alt_name:sk": null, "alt_name:sq": null, "alt_name:sw": null, "alt_name:szl": null, "alt_name:ta": null, "alt_name:th": null, "alt_name:tk": null, "alt_name:tr": null, "alt_name:tt": null, "alt_name:uk": null, "alt_name:vec": null, "alt_name:yi": null, "alt_name:za": null, "name:af": null, "name:arz": null, "name:ast": null, "name:az": null, "name:ckb": null, "name:crh": null, "name:cy": null, "name:da": null, "name:dsb": null, "name:et": null, "name:fi": null, "name:fo": null, "name:frp": null, "name:fy": null, "name:ga": null, "name:gag": null, "name:gd": null, "name:gsw": null, "name:gv": null, "name:hi": null, "name:id": null, "name:is": null, "name:jv": null, "name:kk": null, "name:lad": null, "name:lb": null, "name:li": null, "name:lv": null, "name:mg": null, "name:ms": null, "name:nap": null, "name:new": null, "name:no": null, "name:nrm": null, "name:oc": null, "name:os": null, "name:pa": null, "name:pnt": null, "name:ps": null, "name:sah": null, "name:sc": null, "name:scn": null, "name:sco": null, "name:se": null, "name:sw": null, "name:tk": null, "name:tl": null, "name:tt": null, "name:ug": null, "name:vi": null, "name:war": null, "name_with_accent:ru": null, "label": "amenity:fuel" }, "geometry": { "type": "Point", "coordinates": [ 22.58154, 40.4591309 ] } },
{ "type": "Feature", "properties": { "element": "node", "id": 9439650513, "amenity": "drinking_water", "name": null, "name:ar": null, "source": null, "wikidata": null, "wikipedia": null, "wheelchair": "limited", "natural": null, "operator": null, "name:de": null, "name:en": null, "alt_name:cs": null, "name:bg": null, "name:cs": null, "name:es": null, "name:fr": null, "name:hu": null, "name:it": null, "name:nn": null, "name:pl": null, "name:pt": null, "name:ru": null, "name:zh": null, "name:sr": null, "name:sr-Latn": null, "name:cnr": null, "name:cnr-Cyrl": null, "alt_name": null, "name:sl": null, "leisure": null, "name:el": null, "fee": "no", "name:cnr-Latn": null, "tourism": null, "name:mk": null, "surface": null, "name:hr": null, "operator:wikidata": null, "waterway": null, "short_name": null, "historic": null, "name:tr": null, "name:uk": null, "name:sq": null, "name:ro": null, "alt_name:en": null, "addr:city": null, "building": null, "short_name:el": null, "short_name:en": null, "access": "yes", "artwork_type": null, "cuisine": null, "addr:postcode": null, "alt_name:sl": null, "denomination": null, "religion": null, "shop": null, "alt_name:it": null, "brand": null, "bottle": "yes", "addr:country": null, "material": null, "boundary": null, "boat": null, "name:br": null, "name:eu": null, "name:nl": null, "name:sk": null, "name:ku": null, "name:fur": null, "name:bs": null, "name:fa": null, "name:ml": null, "alt_name:sr": null, "alt_name:sr-Latn": null, "alt_name:el": null, "name:be": null, "name:gl": null, "name:he": null, "name:hsb": null, "name:hy": null, "name:ja": null, "name:ka": null, "name:ko": null, "name:la": null, "name:mn": null, "name:mr": null, "name:pnb": null, "name:ta": null, "name:th": null, "name:ur": null, "name:zh-Hans": null, "name:zh-Hant": null, "landuse": null, "residential": null, "protect_class": null, "protection_title": null, "board_type": null, "information": null, "name:sv": null, "name:szl": null, "name:an": null, "name:ca": null, "name:lmo": null, "name:lt": null, "name:sh": null, "name:vec": null, "parking": null, "sport": null, "layer": null, "tunnel": null, "female": null, "male": null, "outdoor_seating": null, "type": null, "alt_name:af": null, "alt_name:an": null, "alt_name:ast": null, "alt_name:az": null, "alt_name:be": null, "alt_name:bg": null, "alt_name:bn": null, "alt_name:ce": null, "alt_name:cnr": null, "alt_name:crh": null, "alt_name:cv": null, "alt_name:da": null, "alt_name:de": null, "alt_name:dsb": null, "alt_name:eo": null, "alt_name:es": null, "alt_name:et": null, "alt_name:eu": null, "alt_name:fo": null, "alt_name:fur": null, "alt_name:fy": null, "alt_name:ga": null, "alt_name:gag": null, "alt_name:gl": null, "alt_name:gsw": null, "alt_name:gv": null, "alt_name:he": null, "alt_name:hi": null, "alt_name:hr": null, "alt_name:hsb": null, "alt_name:hu": null, "alt_name:hy": null, "alt_name:kk": null, "alt_name:ku": null, "alt_name:lad": null, "alt_name:lb": null, "alt_name:li": null, "alt_name:lt": null, "alt_name:lv": null, "alt_name:mk": null, "alt_name:mn": null, "alt_name:nap": null, "alt_name:nl": null, "alt_name:os": null, "alt_name:pl": null, "alt_name:pnt": null, "alt_name:pt": null, "alt_name:ro": null, "alt_name:ru": null, "alt_name:scn": null, "alt_name:sco": null, "alt_name:sk": null, "alt_name:sq": null, "alt_name:sw": null, "alt_name:szl": null, "alt_name:ta": null, "alt_name:th": null, "alt_name:tk": null, "alt_name:tr": null, "alt_name:tt": null, "alt_name:uk": null, "alt_name:vec": null, "alt_name:yi": null, "alt_name:za": null, "name:af": null, "name:arz": null, "name:ast": null, "name:az": null, "name:ckb": null, "name:crh": null, "name:cy": null, "name:da": null, "name:dsb": null, "name:et": null, "name:fi": null, "name:fo": null, "name:frp": null, "name:fy": null, "name:ga": null, "name:gag": null, "name:gd": null, "name:gsw": null, "name:gv": null, "name:hi": null, "name:id": null, "name:is": null, "name:jv": null, "name:kk": null, "name:lad": null, "name:lb": null, "name:li": null, "name:lv": null, "name:mg": null, "name:ms": null, "name:nap": null, "name:new": null, "name:no": null, "name:nrm": null, "name:oc": null, "name:os": null, "name:pa": null, "name:pnt": null, "name:ps": null, "name:sah": null, "name:sc": null, "name:scn": null, "name:sco": null, "name:se": null, "name:sw": null, "name:tk": null, "name:tl": null, "name:tt": null, "name:ug": null, "name:vi": null, "name:war": null, "name_with_accent:ru": null, "label": "amenity:drinking_water" }, "geometry": { "type": "Point", "coordinates": [ 22.5843019, 40.4597909 ] } },
{ "type": "Feature", "properties": { "element": "node", "id": 9560051417, "amenity": "drinking_water", "name": null, "name:ar": null, "source": null, "wikidata": null, "wikipedia": null, "wheelchair": null, "natural": null, "operator": null, "name:de": null, "name:en": null, "alt_name:cs": null, "name:bg": null, "name:cs": null, "name:es": null, "name:fr": null, "name:hu": null, "name:it": null, "name:nn": null, "name:pl": null, "name:pt": null, "name:ru": null, "name:zh": null, "name:sr": null, "name:sr-Latn": null, "name:cnr": null, "name:cnr-Cyrl": null, "alt_name": null, "name:sl": null, "leisure": null, "name:el": null, "fee": null, "name:cnr-Latn": null, "tourism": null, "name:mk": null, "surface": null, "name:hr": null, "operator:wikidata": null, "waterway": null, "short_name": null, "historic": null, "name:tr": null, "name:uk": null, "name:sq": null, "name:ro": null, "alt_name:en": null, "addr:city": null, "building": null, "short_name:el": null, "short_name:en": null, "access": null, "artwork_type": null, "cuisine": null, "addr:postcode": null, "alt_name:sl": null, "denomination": null, "religion": null, "shop": null, "alt_name:it": null, "brand": null, "bottle": null, "addr:country": null, "material": null, "boundary": null, "boat": null, "name:br": null, "name:eu": null, "name:nl": null, "name:sk": null, "name:ku": null, "name:fur": null, "name:bs": null, "name:fa": null, "name:ml": null, "alt_name:sr": null, "alt_name:sr-Latn": null, "alt_name:el": null, "name:be": null, "name:gl": null, "name:he": null, "name:hsb": null, "name:hy": null, "name:ja": null, "name:ka": null, "name:ko": null, "name:la": null, "name:mn": null, "name:mr": null, "name:pnb": null, "name:ta": null, "name:th": null, "name:ur": null, "name:zh-Hans": null, "name:zh-Hant": null, "landuse": null, "residential": null, "protect_class": null, "protection_title": null, "board_type": null, "information": null, "name:sv": null, "name:szl": null, "name:an": null, "name:ca": null, "name:lmo": null, "name:lt": null, "name:sh": null, "name:vec": null, "parking": null, "sport": null, "layer": null, "tunnel": null, "female": null, "male": null, "outdoor_seating": null, "type": null, "alt_name:af": null, "alt_name:an": null, "alt_name:ast": null, "alt_name:az": null, "alt_name:be": null, "alt_name:bg": null, "alt_name:bn": null, "alt_name:ce": null, "alt_name:cnr": null, "alt_name:crh": null, "alt_name:cv": null, "alt_name:da": null, "alt_name:de": null, "alt_name:dsb": null, "alt_name:eo": null, "alt_name:es": null, "alt_name:et": null, "alt_name:eu": null, "alt_name:fo": null, "alt_name:fur": null, "alt_name:fy": null, "alt_name:ga": null, "alt_name:gag": null, "alt_name:gl": null, "alt_name:gsw": null, "alt_name:gv": null, "alt_name:he": null, "alt_name:hi": null, "alt_name:hr": null, "alt_name:hsb": null, "alt_name:hu": null, "alt_name:hy": null, "alt_name:kk": null, "alt_name:ku": null, "alt_name:lad": null, "alt_name:lb": null, "alt_name:li": null, "alt_name:lt": null, "alt_name:lv": null, "alt_name:mk": null, "alt_name:mn": null, "alt_name:nap": null, "alt_name:nl": null, "alt_name:os": null, "alt_name:pl": null, "alt_name:pnt": null, "alt_name:pt": null, "alt_name:ro": null, "alt_name:ru": null, "alt_name:scn": null, "alt_name:sco": null, "alt_name:sk": null, "alt_name:sq": null, "alt_name:sw": null, "alt_name:szl": null, "alt_name:ta": null, "alt_name:th": null, "alt_name:tk": null, "alt_name:tr": null, "alt_name:tt": null, "alt_name:uk": null, "alt_name:vec": null, "alt_name:yi": null, "alt_name:za": null, "name:af": null, "name:arz": null, "name:ast": null, "name:az": null, "name:ckb": null, "name:crh": null, "name:cy": null, "name:da": null, "name:dsb": null, "name:et": null, "name:fi": null, "name:fo": null, "name:frp": null, "name:fy": null, "name:ga": null, "name:gag": null, "name:gd": null, "name:gsw": null, "name:gv": null, "name:hi": null, "name:id": null, "name:is": null, "name:jv": null, "name:kk": null, "name:lad": null, "name:lb": null, "name:li": null, "name:lv": null, "name:mg": null, "name:ms": null, "name:nap": null, "name:new": null, "name:no": null, "name:nrm": null, "name:oc": null, "name:os": null, "name:pa": null, "name:pnt": null, "name:ps": null, "name:sah": null, "name:sc": null, "name:scn": null, "name:sco": null, "name:se": null, "name:sw": null, "name:tk": null, "name:tl": null, "name:tt": null, "name:ug": null, "name:vi": null, "name:war": null, "name_with_accent:ru": null, "label": "amenity:drinking_water" }, "geometry": { "type": "Point", "coordinates": [ 22.5836426, 40.4591511 ] } },
{ "type": "Feature", "properties": { "element": "node", "id": 9858409917, "amenity": null, "name": null, "name:ar": null, "source": null, "wikidata": null, "wikipedia": null, "wheelchair": null, "natural": null, "operator": null, "name:de": null, "name:en": null, "alt_name:cs": null, "name:bg": null, "name:cs": null, "name:es": null, "name:fr": null, "name:hu": null, "name:it": null, "name:nn": null, "name:pl": null, "name:pt": null, "name:ru": null, "name:zh": null, "name:sr": null, "name:sr-Latn": null, "name:cnr": null, "name:cnr-Cyrl": null, "alt_name": null, "name:sl": null, "leisure": null, "name:el": null, "fee": null, "name:cnr-Latn": null, "tourism": "picnic_site", "name:mk": null, "surface": null, "name:hr": null, "operator:wikidata": null, "waterway": null, "short_name": null, "historic": null, "name:tr": null, "name:uk": null, "name:sq": null, "name:ro": null, "alt_name:en": null, "addr:city": null, "building": null, "short_name:el": null, "short_name:en": null, "access": null, "artwork_type": null, "cuisine": null, "addr:postcode": null, "alt_name:sl": null, "denomination": null, "religion": null, "shop": null, "alt_name:it": null, "brand": null, "bottle": null, "addr:country": null, "material": null, "boundary": null, "boat": null, "name:br": null, "name:eu": null, "name:nl": null, "name:sk": null, "name:ku": null, "name:fur": null, "name:bs": null, "name:fa": null, "name:ml": null, "alt_name:sr": null, "alt_name:sr-Latn": null, "alt_name:el": null, "name:be": null, "name:gl": null, "name:he": null, "name:hsb": null, "name:hy": null, "name:ja": null, "name:ka": null, "name:ko": null, "name:la": null, "name:mn": null, "name:mr": null, "name:pnb": null, "name:ta": null, "name:th": null, "name:ur": null, "name:zh-Hans": null, "name:zh-Hant": null, "landuse": null, "residential": null, "protect_class": null, "protection_title": null, "board_type": null, "information": null, "name:sv": null, "name:szl": null, "name:an": null, "name:ca": null, "name:lmo": null, "name:lt": null, "name:sh": null, "name:vec": null, "parking": null, "sport": null, "layer": null, "tunnel": null, "female": null, "male": null, "outdoor_seating": null, "type": null, "alt_name:af": null, "alt_name:an": null, "alt_name:ast": null, "alt_name:az": null, "alt_name:be": null, "alt_name:bg": null, "alt_name:bn": null, "alt_name:ce": null, "alt_name:cnr": null, "alt_name:crh": null, "alt_name:cv": null, "alt_name:da": null, "alt_name:de": null, "alt_name:dsb": null, "alt_name:eo": null, "alt_name:es": null, "alt_name:et": null, "alt_name:eu": null, "alt_name:fo": null, "alt_name:fur": null, "alt_name:fy": null, "alt_name:ga": null, "alt_name:gag": null, "alt_name:gl": null, "alt_name:gsw": null, "alt_name:gv": null, "alt_name:he": null, "alt_name:hi": null, "alt_name:hr": null, "alt_name:hsb": null, "alt_name:hu": null, "alt_name:hy": null, "alt_name:kk": null, "alt_name:ku": null, "alt_name:lad": null, "alt_name:lb": null, "alt_name:li": null, "alt_name:lt": null, "alt_name:lv": null, "alt_name:mk": null, "alt_name:mn": null, "alt_name:nap": null, "alt_name:nl": null, "alt_name:os": null, "alt_name:pl": null, "alt_name:pnt": null, "alt_name:pt": null, "alt_name:ro": null, "alt_name:ru": null, "alt_name:scn": null, "alt_name:sco": null, "alt_name:sk": null, "alt_name:sq": null, "alt_name:sw": null, "alt_name:szl": null, "alt_name:ta": null, "alt_name:th": null, "alt_name:tk": null, "alt_name:tr": null, "alt_name:tt": null, "alt_name:uk": null, "alt_name:vec": null, "alt_name:yi": null, "alt_name:za": null, "name:af": null, "name:arz": null, "name:ast": null, "name:az": null, "name:ckb": null, "name:crh": null, "name:cy": null, "name:da": null, "name:dsb": null, "name:et": null, "name:fi": null, "name:fo": null, "name:frp": null, "name:fy": null, "name:ga": null, "name:gag": null, "name:gd": null, "name:gsw": null, "name:gv": null, "name:hi": null, "name:id": null, "name:is": null, "name:jv": null, "name:kk": null, "name:lad": null, "name:lb": null, "name:li": null, "name:lv": null, "name:mg": null, "name:ms": null, "name:nap": null, "name:new": null, "name:no": null, "name:nrm": null, "name:oc": null, "name:os": null, "name:pa": null, "name:pnt": null, "name:ps": null, "name:sah": null, "name:sc": null, "name:scn": null, "name:sco": null, "name:se": null, "name:sw": null, "name:tk": null, "name:tl": null, "name:tt": null, "name:ug": null, "name:vi": null, "name:war": null, "name_with_accent:ru": null, "label": "tourism:picnic_site" }, "geometry": { "type": "Point", "coordinates": [ 22.5902557, 40.4523757 ] } },
{ "type": "Feature", "properties": { "element": "node", "id": 11955395403, "amenity": null, "name": null, "name:ar": null, "source": null, "wikidata": null, "wikipedia": null, "wheelchair": null, "natural": null, "operator": null, "name:de": null, "name:en": null, "alt_name:cs": null, "name:bg": null, "name:cs": null, "name:es": null, "name:fr": null, "name:hu": null, "name:it": null, "name:nn": null, "name:pl": null, "name:pt": null, "name:ru": null, "name:zh": null, "name:sr": null, "name:sr-Latn": null, "name:cnr": null, "name:cnr-Cyrl": null, "alt_name": null, "name:sl": null, "leisure": null, "name:el": null, "fee": null, "name:cnr-Latn": null, "tourism": null, "name:mk": null, "surface": null, "name:hr": null, "operator:wikidata": null, "waterway": null, "short_name": null, "historic": null, "name:tr": null, "name:uk": null, "name:sq": null, "name:ro": null, "alt_name:en": null, "addr:city": null, "building": null, "short_name:el": null, "short_name:en": null, "access": null, "artwork_type": null, "cuisine": null, "addr:postcode": null, "alt_name:sl": null, "denomination": null, "religion": null, "shop": "kiosk", "alt_name:it": null, "brand": null, "bottle": null, "addr:country": null, "material": null, "boundary": null, "boat": null, "name:br": null, "name:eu": null, "name:nl": null, "name:sk": null, "name:ku": null, "name:fur": null, "name:bs": null, "name:fa": null, "name:ml": null, "alt_name:sr": null, "alt_name:sr-Latn": null, "alt_name:el": null, "name:be": null, "name:gl": null, "name:he": null, "name:hsb": null, "name:hy": null, "name:ja": null, "name:ka": null, "name:ko": null, "name:la": null, "name:mn": null, "name:mr": null, "name:pnb": null, "name:ta": null, "name:th": null, "name:ur": null, "name:zh-Hans": null, "name:zh-Hant": null, "landuse": null, "residential": null, "protect_class": null, "protection_title": null, "board_type": null, "information": null, "name:sv": null, "name:szl": null, "name:an": null, "name:ca": null, "name:lmo": null, "name:lt": null, "name:sh": null, "name:vec": null, "parking": null, "sport": null, "layer": null, "tunnel": null, "female": null, "male": null, "outdoor_seating": null, "type": null, "alt_name:af": null, "alt_name:an": null, "alt_name:ast": null, "alt_name:az": null, "alt_name:be": null, "alt_name:bg": null, "alt_name:bn": null, "alt_name:ce": null, "alt_name:cnr": null, "alt_name:crh": null, "alt_name:cv": null, "alt_name:da": null, "alt_name:de": null, "alt_name:dsb": null, "alt_name:eo": null, "alt_name:es": null, "alt_name:et": null, "alt_name:eu": null, "alt_name:fo": null, "alt_name:fur": null, "alt_name:fy": null, "alt_name:ga": null, "alt_name:gag": null, "alt_name:gl": null, "alt_name:gsw": null, "alt_name:gv": null, "alt_name:he": null, "alt_name:hi": null, "alt_name:hr": null, "alt_name:hsb": null, "alt_name:hu": null, "alt_name:hy": null, "alt_name:kk": null, "alt_name:ku": null, "alt_name:lad": null, "alt_name:lb": null, "alt_name:li": null, "alt_name:lt": null, "alt_name:lv": null, "alt_name:mk": null, "alt_name:mn": null, "alt_name:nap": null, "alt_name:nl": null, "alt_name:os": null, "alt_name:pl": null, "alt_name:pnt": null, "alt_name:pt": null, "alt_name:ro": null, "alt_name:ru": null, "alt_name:scn": null, "alt_name:sco": null, "alt_name:sk": null, "alt_name:sq": null, "alt_name:sw": null, "alt_name:szl": null, "alt_name:ta": null, "alt_name:th": null, "alt_name:tk": null, "alt_name:tr": null, "alt_name:tt": null, "alt_name:uk": null, "alt_name:vec": null, "alt_name:yi": null, "alt_name:za": null, "name:af": null, "name:arz": null, "name:ast": null, "name:az": null, "name:ckb": null, "name:crh": null, "name:cy": null, "name:da": null, "name:dsb": null, "name:et": null, "name:fi": null, "name:fo": null, "name:frp": null, "name:fy": null, "name:ga": null, "name:gag": null, "name:gd": null, "name:gsw": null, "name:gv": null, "name:hi": null, "name:id": null, "name:is": null, "name:jv": null, "name:kk": null, "name:lad": null, "name:lb": null, "name:li": null, "name:lv": null, "name:mg": null, "name:ms": null, "name:nap": null, "name:new": null, "name:no": null, "name:nrm": null, "name:oc": null, "name:os": null, "name:pa": null, "name:pnt": null, "name:ps": null, "name:sah": null, "name:sc": null, "name:scn": null, "name:sco": null, "name:se": null, "name:sw": null, "name:tk": null, "name:tl": null, "name:tt": null, "name:ug": null, "name:vi": null, "name:war": null, "name_with_accent:ru": null, "label": "shop:kiosk" }, "geometry": { "type": "Point", "coordinates": [ 22.5877047, 40.4563525 ] } },
{ "type": "Feature", "properties": { "element": "node", "id": 11955395408, "amenity": "telephone", "name": null, "name:ar": null, "source": null, "wikidata": null, "wikipedia": null, "wheelchair": null, "natural": null, "operator": "OTE", "name:de": null, "name:en": null, "alt_name:cs": null, "name:bg": null, "name:cs": null, "name:es": null, "name:fr": null, "name:hu": null, "name:it": null, "name:nn": null, "name:pl": null, "name:pt": null, "name:ru": null, "name:zh": null, "name:sr": null, "name:sr-Latn": null, "name:cnr": null, "name:cnr-Cyrl": null, "alt_name": null, "name:sl": null, "leisure": null, "name:el": null, "fee": null, "name:cnr-Latn": null, "tourism": null, "name:mk": null, "surface": null, "name:hr": null, "operator:wikidata": "Q206678", "waterway": null, "short_name": null, "historic": null, "name:tr": null, "name:uk": null, "name:sq": null, "name:ro": null, "alt_name:en": null, "addr:city": null, "building": null, "short_name:el": null, "short_name:en": null, "access": null, "artwork_type": null, "cuisine": null, "addr:postcode": null, "alt_name:sl": null, "denomination": null, "religion": null, "shop": null, "alt_name:it": null, "brand": null, "bottle": null, "addr:country": null, "material": null, "boundary": null, "boat": null, "name:br": null, "name:eu": null, "name:nl": null, "name:sk": null, "name:ku": null, "name:fur": null, "name:bs": null, "name:fa": null, "name:ml": null, "alt_name:sr": null, "alt_name:sr-Latn": null, "alt_name:el": null, "name:be": null, "name:gl": null, "name:he": null, "name:hsb": null, "name:hy": null, "name:ja": null, "name:ka": null, "name:ko": null, "name:la": null, "name:mn": null, "name:mr": null, "name:pnb": null, "name:ta": null, "name:th": null, "name:ur": null, "name:zh-Hans": null, "name:zh-Hant": null, "landuse": null, "residential": null, "protect_class": null, "protection_title": null, "board_type": null, "information": null, "name:sv": null, "name:szl": null, "name:an": null, "name:ca": null, "name:lmo": null, "name:lt": null, "name:sh": null, "name:vec": null, "parking": null, "sport": null, "layer": null, "tunnel": null, "female": null, "male": null, "outdoor_seating": null, "type": null, "alt_name:af": null, "alt_name:an": null, "alt_name:ast": null, "alt_name:az": null, "alt_name:be": null, "alt_name:bg": null, "alt_name:bn": null, "alt_name:ce": null, "alt_name:cnr": null, "alt_name:crh": null, "alt_name:cv": null, "alt_name:da": null, "alt_name:de": null, "alt_name:dsb": null, "alt_name:eo": null, "alt_name:es": null, "alt_name:et": null, "alt_name:eu": null, "alt_name:fo": null, "alt_name:fur": null, "alt_name:fy": null, "alt_name:ga": null, "alt_name:gag": null, "alt_name:gl": null, "alt_name:gsw": null, "alt_name:gv": null, "alt_name:he": null, "alt_name:hi": null, "alt_name:hr": null, "alt_name:hsb": null, "alt_name:hu": null, "alt_name:hy": null, "alt_name:kk": null, "alt_name:ku": null, "alt_name:lad": null, "alt_name:lb": null, "alt_name:li": null, "alt_name:lt": null, "alt_name:lv": null, "alt_name:mk": null, "alt_name:mn": null, "alt_name:nap": null, "alt_name:nl": null, "alt_name:os": null, "alt_name:pl": null, "alt_name:pnt": null, "alt_name:pt": null, "alt_name:ro": null, "alt_name:ru": null, "alt_name:scn": null, "alt_name:sco": null, "alt_name:sk": null, "alt_name:sq": null, "alt_name:sw": null, "alt_name:szl": null, "alt_name:ta": null, "alt_name:th": null, "alt_name:tk": null, "alt_name:tr": null, "alt_name:tt": null, "alt_name:uk": null, "alt_name:vec": null, "alt_name:yi": null, "alt_name:za": null, "name:af": null, "name:arz": null, "name:ast": null, "name:az": null, "name:ckb": null, "name:crh": null, "name:cy": null, "name:da": null, "name:dsb": null, "name:et": null, "name:fi": null, "name:fo": null, "name:frp": null, "name:fy": null, "name:ga": null, "name:gag": null, "name:gd": null, "name:gsw": null, "name:gv": null, "name:hi": null, "name:id": null, "name:is": null, "name:jv": null, "name:kk": null, "name:lad": null, "name:lb": null, "name:li": null, "name:lv": null, "name:mg": null, "name:ms": null, "name:nap": null, "name:new": null, "name:no": null, "name:nrm": null, "name:oc": null, "name:os": null, "name:pa": null, "name:pnt": null, "name:ps": null, "name:sah": null, "name:sc": null, "name:scn": null, "name:sco": null, "name:se": null, "name:sw": null, "name:tk": null, "name:tl": null, "name:tt": null, "name:ug": null, "name:vi": null, "name:war": null, "name_with_accent:ru": null, "label": "amenity:telephone" }, "geometry": { "type": "Point", "coordinates": [ 22.5876439, 40.4564377 ] } },
{ "type": "Feature", "properties": { "element": "node", "id": 11955395410, "amenity": "restaurant", "name": null, "name:ar": null, "source": null, "wikidata": null, "wikipedia": null, "wheelchair": null, "natural": null, "operator": null, "name:de": null, "name:en": null, "alt_name:cs": null, "name:bg": null, "name:cs": null, "name:es": null, "name:fr": null, "name:hu": null, "name:it": null, "name:nn": null, "name:pl": null, "name:pt": null, "name:ru": null, "name:zh": null, "name:sr": null, "name:sr-Latn": null, "name:cnr": null, "name:cnr-Cyrl": null, "alt_name": null, "name:sl": null, "leisure": null, "name:el": null, "fee": null, "name:cnr-Latn": null, "tourism": null, "name:mk": null, "surface": null, "name:hr": null, "operator:wikidata": null, "waterway": null, "short_name": null, "historic": null, "name:tr": null, "name:uk": null, "name:sq": null, "name:ro": null, "alt_name:en": null, "addr:city": null, "building": null, "short_name:el": null, "short_name:en": null, "access": null, "artwork_type": null, "cuisine": null, "addr:postcode": null, "alt_name:sl": null, "denomination": null, "religion": null, "shop": null, "alt_name:it": null, "brand": null, "bottle": null, "addr:country": null, "material": null, "boundary": null, "boat": null, "name:br": null, "name:eu": null, "name:nl": null, "name:sk": null, "name:ku": null, "name:fur": null, "name:bs": null, "name:fa": null, "name:ml": null, "alt_name:sr": null, "alt_name:sr-Latn": null, "alt_name:el": null, "name:be": null, "name:gl": null, "name:he": null, "name:hsb": null, "name:hy": null, "name:ja": null, "name:ka": null, "name:ko": null, "name:la": null, "name:mn": null, "name:mr": null, "name:pnb": null, "name:ta": null, "name:th": null, "name:ur": null, "name:zh-Hans": null, "name:zh-Hant": null, "landuse": null, "residential": null, "protect_class": null, "protection_title": null, "board_type": null, "information": null, "name:sv": null, "name:szl": null, "name:an": null, "name:ca": null, "name:lmo": null, "name:lt": null, "name:sh": null, "name:vec": null, "parking": null, "sport": null, "layer": null, "tunnel": null, "female": null, "male": null, "outdoor_seating": null, "type": null, "alt_name:af": null, "alt_name:an": null, "alt_name:ast": null, "alt_name:az": null, "alt_name:be": null, "alt_name:bg": null, "alt_name:bn": null, "alt_name:ce": null, "alt_name:cnr": null, "alt_name:crh": null, "alt_name:cv": null, "alt_name:da": null, "alt_name:de": null, "alt_name:dsb": null, "alt_name:eo": null, "alt_name:es": null, "alt_name:et": null, "alt_name:eu": null, "alt_name:fo": null, "alt_name:fur": null, "alt_name:fy": null, "alt_name:ga": null, "alt_name:gag": null, "alt_name:gl": null, "alt_name:gsw": null, "alt_name:gv": null, "alt_name:he": null, "alt_name:hi": null, "alt_name:hr": null, "alt_name:hsb": null, "alt_name:hu": null, "alt_name:hy": null, "alt_name:kk": null, "alt_name:ku": null, "alt_name:lad": null, "alt_name:lb": null, "alt_name:li": null, "alt_name:lt": null, "alt_name:lv": null, "alt_name:mk": null, "alt_name:mn": null, "alt_name:nap": null, "alt_name:nl": null, "alt_name:os": null, "alt_name:pl": null, "alt_name:pnt": null, "alt_name:pt": null, "alt_name:ro": null, "alt_name:ru": null, "alt_name:scn": null, "alt_name:sco": null, "alt_name:sk": null, "alt_name:sq": null, "alt_name:sw": null, "alt_name:szl": null, "alt_name:ta": null, "alt_name:th": null, "alt_name:tk": null, "alt_name:tr": null, "alt_name:tt": null, "alt_name:uk": null, "alt_name:vec": null, "alt_name:yi": null, "alt_name:za": null, "name:af": null, "name:arz": null, "name:ast": null, "name:az": null, "name:ckb": null, "name:crh": null, "name:cy": null, "name:da": null, "name:dsb": null, "name:et": null, "name:fi": null, "name:fo": null, "name:frp": null, "name:fy": null, "name:ga": null, "name:gag": null, "name:gd": null, "name:gsw": null, "name:gv": null, "name:hi": null, "name:id": null, "name:is": null, "name:jv": null, "name:kk": null, "name:lad": null, "name:lb": null, "name:li": null, "name:lv": null, "name:mg": null, "name:ms": null, "name:nap": null, "name:new": null, "name:no": null, "name:nrm": null, "name:oc": null, "name:os": null, "name:pa": null, "name:pnt": null, "name:ps": null, "name:sah": null, "name:sc": null, "name:scn": null, "name:sco": null, "name:se": null, "name:sw": null, "name:tk": null, "name:tl": null, "name:tt": null, "name:ug": null, "name:vi": null, "name:war": null, "name_with_accent:ru": null, "label": "amenity:restaurant" }, "geometry": { "type": "Point", "coordinates": [ 22.5872166, 40.4564733 ] } },
{ "type": "Feature", "properties": { "element": "node", "id": 11955395411, "amenity": null, "name": "Ανδριάντας Φιλίππου Β΄", "name:ar": null, "source": null, "wikidata": null, "wikipedia": null, "wheelchair": null, "natural": null, "operator": null, "name:de": null, "name:en": "Statue of Philip II", "alt_name:cs": null, "name:bg": null, "name:cs": null, "name:es": null, "name:fr": null, "name:hu": null, "name:it": null, "name:nn": null, "name:pl": null, "name:pt": null, "name:ru": null, "name:zh": null, "name:sr": null, "name:sr-Latn": null, "name:cnr": null, "name:cnr-Cyrl": null, "alt_name": null, "name:sl": null, "leisure": null, "name:el": "Ανδριάντας Φιλίππου Β΄", "fee": null, "name:cnr-Latn": null, "tourism": "artwork", "name:mk": null, "surface": null, "name:hr": null, "operator:wikidata": null, "waterway": null, "short_name": "Φίλιππος Β΄", "historic": "memorial", "name:tr": null, "name:uk": null, "name:sq": null, "name:ro": null, "alt_name:en": null, "addr:city": "Νέα Αγαθούπολη", "building": null, "short_name:el": "Φίλιππος Β΄", "short_name:en": "Philip II", "access": null, "artwork_type": "statue", "cuisine": null, "addr:postcode": null, "alt_name:sl": null, "denomination": null, "religion": null, "shop": null, "alt_name:it": null, "brand": null, "bottle": null, "addr:country": null, "material": "bronze", "boundary": null, "boat": null, "name:br": null, "name:eu": null, "name:nl": null, "name:sk": null, "name:ku": null, "name:fur": null, "name:bs": null, "name:fa": null, "name:ml": null, "alt_name:sr": null, "alt_name:sr-Latn": null, "alt_name:el": null, "name:be": null, "name:gl": null, "name:he": null, "name:hsb": null, "name:hy": null, "name:ja": null, "name:ka": null, "name:ko": null, "name:la": null, "name:mn": null, "name:mr": null, "name:pnb": null, "name:ta": null, "name:th": null, "name:ur": null, "name:zh-Hans": null, "name:zh-Hant": null, "landuse": null, "residential": null, "protect_class": null, "protection_title": null, "board_type": null, "information": null, "name:sv": null, "name:szl": null, "name:an": null, "name:ca": null, "name:lmo": null, "name:lt": null, "name:sh": null, "name:vec": null, "parking": null, "sport": null, "layer": null, "tunnel": null, "female": null, "male": null, "outdoor_seating": null, "type": null, "alt_name:af": null, "alt_name:an": null, "alt_name:ast": null, "alt_name:az": null, "alt_name:be": null, "alt_name:bg": null, "alt_name:bn": null, "alt_name:ce": null, "alt_name:cnr": null, "alt_name:crh": null, "alt_name:cv": null, "alt_name:da": null, "alt_name:de": null, "alt_name:dsb": null, "alt_name:eo": null, "alt_name:es": null, "alt_name:et": null, "alt_name:eu": null, "alt_name:fo": null, "alt_name:fur": null, "alt_name:fy": null, "alt_name:ga": null, "alt_name:gag": null, "alt_name:gl": null, "alt_name:gsw": null, "alt_name:gv": null, "alt_name:he": null, "alt_name:hi": null, "alt_name:hr": null, "alt_name:hsb": null, "alt_name:hu": null, "alt_name:hy": null, "alt_name:kk": null, "alt_name:ku": null, "alt_name:lad": null, "alt_name:lb": null, "alt_name:li": null, "alt_name:lt": null, "alt_name:lv": null, "alt_name:mk": null, "alt_name:mn": null, "alt_name:nap": null, "alt_name:nl": null, "alt_name:os": null, "alt_name:pl": null, "alt_name:pnt": null, "alt_name:pt": null, "alt_name:ro": null, "alt_name:ru": null, "alt_name:scn": null, "alt_name:sco": null, "alt_name:sk": null, "alt_name:sq": null, "alt_name:sw": null, "alt_name:szl": null, "alt_name:ta": null, "alt_name:th": null, "alt_name:tk": null, "alt_name:tr": null, "alt_name:tt": null, "alt_name:uk": null, "alt_name:vec": null, "alt_name:yi": null, "alt_name:za": null, "name:af": null, "name:arz": null, "name:ast": null, "name:az": null, "name:ckb": null, "name:crh": null, "name:cy": null, "name:da": null, "name:dsb": null, "name:et": null, "name:fi": null, "name:fo": null, "name:frp": null, "name:fy": null, "name:ga": null, "name:gag": null, "name:gd": null, "name:gsw": null, "name:gv": null, "name:hi": null, "name:id": null, "name:is": null, "name:jv": null, "name:kk": null, "name:lad": null, "name:lb": null, "name:li": null, "name:lv": null, "name:mg": null, "name:ms": null, "name:nap": null, "name:new": null, "name:no": null, "name:nrm": null, "name:oc": null, "name:os": null, "name:pa": null, "name:pnt": null, "name:ps": null, "name:sah": null, "name:sc": null, "name:scn": null, "name:sco": null, "name:se": null, "name:sw": null, "name:tk": null, "name:tl": null, "name:tt": null, "name:ug": null, "name:vi": null, "name:war": null, "name_with_accent:ru": null, "label": "historic:memorial;tourism:artwork" }, "geometry": { "type": "Point", "coordinates": [ 22.5865045, 40.4579355 ] } },
{ "type": "Feature", "properties": { "element": "node", "id": 12163242637, "amenity": "drinking_water", "name": null, "name:ar": null, "source": null, "wikidata": null, "wikipedia": null, "wheelchair": null, "natural": null, "operator": null, "name:de": null, "name:en": null, "alt_name:cs": null, "name:bg": null, "name:cs": null, "name:es": null, "name:fr": null, "name:hu": null, "name:it": null, "name:nn": null, "name:pl": null, "name:pt": null, "name:ru": null, "name:zh": null, "name:sr": null, "name:sr-Latn": null, "name:cnr": null, "name:cnr-Cyrl": null, "alt_name": null, "name:sl": null, "leisure": null, "name:el": null, "fee": null, "name:cnr-Latn": null, "tourism": null, "name:mk": null, "surface": null, "name:hr": null, "operator:wikidata": null, "waterway": null, "short_name": null, "historic": null, "name:tr": null, "name:uk": null, "name:sq": null, "name:ro": null, "alt_name:en": null, "addr:city": null, "building": null, "short_name:el": null, "short_name:en": null, "access": null, "artwork_type": null, "cuisine": null, "addr:postcode": null, "alt_name:sl": null, "denomination": null, "religion": null, "shop": null, "alt_name:it": null, "brand": null, "bottle": null, "addr:country": null, "material": null, "boundary": null, "boat": null, "name:br": null, "name:eu": null, "name:nl": null, "name:sk": null, "name:ku": null, "name:fur": null, "name:bs": null, "name:fa": null, "name:ml": null, "alt_name:sr": null, "alt_name:sr-Latn": null, "alt_name:el": null, "name:be": null, "name:gl": null, "name:he": null, "name:hsb": null, "name:hy": null, "name:ja": null, "name:ka": null, "name:ko": null, "name:la": null, "name:mn": null, "name:mr": null, "name:pnb": null, "name:ta": null, "name:th": null, "name:ur": null, "name:zh-Hans": null, "name:zh-Hant": null, "landuse": null, "residential": null, "protect_class": null, "protection_title": null, "board_type": null, "information": null, "name:sv": null, "name:szl": null, "name:an": null, "name:ca": null, "name:lmo": null, "name:lt": null, "name:sh": null, "name:vec": null, "parking": null, "sport": null, "layer": null, "tunnel": null, "female": null, "male": null, "outdoor_seating": null, "type": null, "alt_name:af": null, "alt_name:an": null, "alt_name:ast": null, "alt_name:az": null, "alt_name:be": null, "alt_name:bg": null, "alt_name:bn": null, "alt_name:ce": null, "alt_name:cnr": null, "alt_name:crh": null, "alt_name:cv": null, "alt_name:da": null, "alt_name:de": null, "alt_name:dsb": null, "alt_name:eo": null, "alt_name:es": null, "alt_name:et": null, "alt_name:eu": null, "alt_name:fo": null, "alt_name:fur": null, "alt_name:fy": null, "alt_name:ga": null, "alt_name:gag": null, "alt_name:gl": null, "alt_name:gsw": null, "alt_name:gv": null, "alt_name:he": null, "alt_name:hi": null, "alt_name:hr": null, "alt_name:hsb": null, "alt_name:hu": null, "alt_name:hy": null, "alt_name:kk": null, "alt_name:ku": null, "alt_name:lad": null, "alt_name:lb": null, "alt_name:li": null, "alt_name:lt": null, "alt_name:lv": null, "alt_name:mk": null, "alt_name:mn": null, "alt_name:nap": null, "alt_name:nl": null, "alt_name:os": null, "alt_name:pl": null, "alt_name:pnt": null, "alt_name:pt": null, "alt_name:ro": null, "alt_name:ru": null, "alt_name:scn": null, "alt_name:sco": null, "alt_name:sk": null, "alt_name:sq": null, "alt_name:sw": null, "alt_name:szl": null, "alt_name:ta": null, "alt_name:th": null, "alt_name:tk": null, "alt_name:tr": null, "alt_name:tt": null, "alt_name:uk": null, "alt_name:vec": null, "alt_name:yi": null, "alt_name:za": null, "name:af": null, "name:arz": null, "name:ast": null, "name:az": null, "name:ckb": null, "name:crh": null, "name:cy": null, "name:da": null, "name:dsb": null, "name:et": null, "name:fi": null, "name:fo": null, "name:frp": null, "name:fy": null, "name:ga": null, "name:gag": null, "name:gd": null, "name:gsw": null, "name:gv": null, "name:hi": null, "name:id": null, "name:is": null, "name:jv": null, "name:kk": null, "name:lad": null, "name:lb": null, "name:li": null, "name:lv": null, "name:mg": null, "name:ms": null, "name:nap": null, "name:new": null, "name:no": null, "name:nrm": null, "name:oc": null, "name:os": null, "name:pa": null, "name:pnt": null, "name:ps": null, "name:sah": null, "name:sc": null, "name:scn": null, "name:sco": null, "name:se": null, "name:sw": null, "name:tk": null, "name:tl": null, "name:tt": null, "name:ug": null, "name:vi": null, "name:war": null, "name_with_accent:ru": null, "label": "amenity:drinking_water" }, "geometry": { "type": "Point", "coordinates": [ 22.5906355, 40.4521567 ] } },
{ "type": "Feature", "properties": { "element": "node", "id": 13637878301, "amenity": "bench", "name": null, "name:ar": null, "source": null, "wikidata": null, "wikipedia": null, "wheelchair": null, "natural": null, "operator": null, "name:de": null, "name:en": null, "alt_name:cs": null, "name:bg": null, "name:cs": null, "name:es": null, "name:fr": null, "name:hu": null, "name:it": null, "name:nn": null, "name:pl": null, "name:pt": null, "name:ru": null, "name:zh": null, "name:sr": null, "name:sr-Latn": null, "name:cnr": null, "name:cnr-Cyrl": null, "alt_name": null, "name:sl": null, "leisure": null, "name:el": null, "fee": null, "name:cnr-Latn": null, "tourism": null, "name:mk": null, "surface": null, "name:hr": null, "operator:wikidata": null, "waterway": null, "short_name": null, "historic": null, "name:tr": null, "name:uk": null, "name:sq": null, "name:ro": null, "alt_name:en": null, "addr:city": null, "building": null, "short_name:el": null, "short_name:en": null, "access": null, "artwork_type": null, "cuisine": null, "addr:postcode": null, "alt_name:sl": null, "denomination": null, "religion": null, "shop": null, "alt_name:it": null, "brand": null, "bottle": null, "addr:country": null, "material": null, "boundary": null, "boat": null, "name:br": null, "name:eu": null, "name:nl": null, "name:sk": null, "name:ku": null, "name:fur": null, "name:bs": null, "name:fa": null, "name:ml": null, "alt_name:sr": null, "alt_name:sr-Latn": null, "alt_name:el": null, "name:be": null, "name:gl": null, "name:he": null, "name:hsb": null, "name:hy": null, "name:ja": null, "name:ka": null, "name:ko": null, "name:la": null, "name:mn": null, "name:mr": null, "name:pnb": null, "name:ta": null, "name:th": null, "name:ur": null, "name:zh-Hans": null, "name:zh-Hant": null, "landuse": null, "residential": null, "protect_class": null, "protection_title": null, "board_type": null, "information": null, "name:sv": null, "name:szl": null, "name:an": null, "name:ca": null, "name:lmo": null, "name:lt": null, "name:sh": null, "name:vec": null, "parking": null, "sport": null, "layer": null, "tunnel": null, "female": null, "male": null, "outdoor_seating": null, "type": null, "alt_name:af": null, "alt_name:an": null, "alt_name:ast": null, "alt_name:az": null, "alt_name:be": null, "alt_name:bg": null, "alt_name:bn": null, "alt_name:ce": null, "alt_name:cnr": null, "alt_name:crh": null, "alt_name:cv": null, "alt_name:da": null, "alt_name:de": null, "alt_name:dsb": null, "alt_name:eo": null, "alt_name:es": null, "alt_name:et": null, "alt_name:eu": null, "alt_name:fo": null, "alt_name:fur": null, "alt_name:fy": null, "alt_name:ga": null, "alt_name:gag": null, "alt_name:gl": null, "alt_name:gsw": null, "alt_name:gv": null, "alt_name:he": null, "alt_name:hi": null, "alt_name:hr": null, "alt_name:hsb": null, "alt_name:hu": null, "alt_name:hy": null, "alt_name:kk": null, "alt_name:ku": null, "alt_name:lad": null, "alt_name:lb": null, "alt_name:li": null, "alt_name:lt": null, "alt_name:lv": null, "alt_name:mk": null, "alt_name:mn": null, "alt_name:nap": null, "alt_name:nl": null, "alt_name:os": null, "alt_name:pl": null, "alt_name:pnt": null, "alt_name:pt": null, "alt_name:ro": null, "alt_name:ru": null, "alt_name:scn": null, "alt_name:sco": null, "alt_name:sk": null, "alt_name:sq": null, "alt_name:sw": null, "alt_name:szl": null, "alt_name:ta": null, "alt_name:th": null, "alt_name:tk": null, "alt_name:tr": null, "alt_name:tt": null, "alt_name:uk": null, "alt_name:vec": null, "alt_name:yi": null, "alt_name:za": null, "name:af": null, "name:arz": null, "name:ast": null, "name:az": null, "name:ckb": null, "name:crh": null, "name:cy": null, "name:da": null, "name:dsb": null, "name:et": null, "name:fi": null, "name:fo": null, "name:frp": null, "name:fy": null, "name:ga": null, "name:gag": null, "name:gd": null, "name:gsw": null, "name:gv": null, "name:hi": null, "name:id": null, "name:is": null, "name:jv": null, "name:kk": null, "name:lad": null, "name:lb": null, "name:li": null, "name:lv": null, "name:mg": null, "name:ms": null, "name:nap": null, "name:new": null, "name:no": null, "name:nrm": null, "name:oc": null, "name:os": null, "name:pa": null, "name:pnt": null, "name:ps": null, "name:sah": null, "name:sc": null, "name:scn": null, "name:sco": null, "name:se": null, "name:sw": null, "name:tk": null, "name:tl": null, "name:tt": null, "name:ug": null, "name:vi": null, "name:war": null, "name_with_accent:ru": null, "label": "amenity:bench" }, "geometry": { "type": "Point", "coordinates": [ 22.5806508, 40.4606771 ] } },
{ "type": "Feature", "properties": { "element": "node", "id": 13637879301, "amenity": null, "name": "Παλαιός Σιδηροδρομικός Σταθμός Νέας Αγαθούπολης (καταργημένος)", "name:ar": null, "source": null, "wikidata": null, "wikipedia": null, "wheelchair": null, "natural": null, "operator": null, "name:de": null, "name:en": null, "alt_name:cs": null, "name:bg": null, "name:cs": null, "name:es": null, "name:fr": null, "name:hu": null, "name:it": null, "name:nn": null, "name:pl": null, "name:pt": null, "name:ru": null, "name:zh": null, "name:sr": null, "name:sr-Latn": null, "name:cnr": null, "name:cnr-Cyrl": null, "alt_name": null, "name:sl": null, "leisure": null, "name:el": null, "fee": null, "name:cnr-Latn": null, "tourism": "attraction", "name:mk": null, "surface": null, "name:hr": null, "operator:wikidata": null, "waterway": null, "short_name": null, "historic": null, "name:tr": null, "name:uk": null, "name:sq": null, "name:ro": null, "alt_name:en": null, "addr:city": null, "building": null, "short_name:el": null, "short_name:en": null, "access": null, "artwork_type": null, "cuisine": null, "addr:postcode": null, "alt_name:sl": null, "denomination": null, "religion": null, "shop": null, "alt_name:it": null, "brand": null, "bottle": null, "addr:country": null, "material": null, "boundary": null, "boat": null, "name:br": null, "name:eu": null, "name:nl": null, "name:sk": null, "name:ku": null, "name:fur": null, "name:bs": null, "name:fa": null, "name:ml": null, "alt_name:sr": null, "alt_name:sr-Latn": null, "alt_name:el": null, "name:be": null, "name:gl": null, "name:he": null, "name:hsb": null, "name:hy": null, "name:ja": null, "name:ka": null, "name:ko": null, "name:la": null, "name:mn": null, "name:mr": null, "name:pnb": null, "name:ta": null, "name:th": null, "name:ur": null, "name:zh-Hans": null, "name:zh-Hant": null, "landuse": null, "residential": null, "protect_class": null, "protection_title": null, "board_type": null, "information": null, "name:sv": null, "name:szl": null, "name:an": null, "name:ca": null, "name:lmo": null, "name:lt": null, "name:sh": null, "name:vec": null, "parking": null, "sport": null, "layer": null, "tunnel": null, "female": null, "male": null, "outdoor_seating": null, "type": null, "alt_name:af": null, "alt_name:an": null, "alt_name:ast": null, "alt_name:az": null, "alt_name:be": null, "alt_name:bg": null, "alt_name:bn": null, "alt_name:ce": null, "alt_name:cnr": null, "alt_name:crh": null, "alt_name:cv": null, "alt_name:da": null, "alt_name:de": null, "alt_name:dsb": null, "alt_name:eo": null, "alt_name:es": null, "alt_name:et": null, "alt_name:eu": null, "alt_name:fo": null, "alt_name:fur": null, "alt_name:fy": null, "alt_name:ga": null, "alt_name:gag": null, "alt_name:gl": null, "alt_name:gsw": null, "alt_name:gv": null, "alt_name:he": null, "alt_name:hi": null, "alt_name:hr": null, "alt_name:hsb": null, "alt_name:hu": null, "alt_name:hy": null, "alt_name:kk": null, "alt_name:ku": null, "alt_name:lad": null, "alt_name:lb": null, "alt_name:li": null, "alt_name:lt": null, "alt_name:lv": null, "alt_name:mk": null, "alt_name:mn": null, "alt_name:nap": null, "alt_name:nl": null, "alt_name:os": null, "alt_name:pl": null, "alt_name:pnt": null, "alt_name:pt": null, "alt_name:ro": null, "alt_name:ru": null, "alt_name:scn": null, "alt_name:sco": null, "alt_name:sk": null, "alt_name:sq": null, "alt_name:sw": null, "alt_name:szl": null, "alt_name:ta": null, "alt_name:th": null, "alt_name:tk": null, "alt_name:tr": null, "alt_name:tt": null, "alt_name:uk": null, "alt_name:vec": null, "alt_name:yi": null, "alt_name:za": null, "name:af": null, "name:arz": null, "name:ast": null, "name:az": null, "name:ckb": null, "name:crh": null, "name:cy": null, "name:da": null, "name:dsb": null, "name:et": null, "name:fi": null, "name:fo": null, "name:frp": null, "name:fy": null, "name:ga": null, "name:gag": null, "name:gd": null, "name:gsw": null, "name:gv": null, "name:hi": null, "name:id": null, "name:is": null, "name:jv": null, "name:kk": null, "name:lad": null, "name:lb": null, "name:li": null, "name:lv": null, "name:mg": null, "name:ms": null, "name:nap": null, "name:new": null, "name:no": null, "name:nrm": null, "name:oc": null, "name:os": null, "name:pa": null, "name:pnt": null, "name:ps": null, "name:sah": null, "name:sc": null, "name:scn": null, "name:sco": null, "name:se": null, "name:sw": null, "name:tk": null, "name:tl": null, "name:tt": null, "name:ug": null, "name:vi": null, "name:war": null, "name_with_accent:ru": null, "label": "tourism:attraction" }, "geometry": { "type": "Point", "coordinates": [ 22.5807994, 40.4608906 ] } }
]
}
