{
"type": "FeatureCollection",
"name": "patch_53267_point",
"crs": { "type": "name", "properties": { "name": "urn:ogc:def:crs:OGC:1.3:CRS84" } },
"features": [
{ "type": "Feature", "properties": { "element": "node", "id": 6742373742, "ele": "1387", "name": "Μπρούστη", "natural": "peak", "boat": null, "waterway": null, "leaf_type": null, "source": null, "board_type": null, "boundary": null, "information": null, "leisure": null, "tourism": null, "label": "natural:peak" }, "geometry": { "type": "Point", "coordinates": [ 22.2337481, 40.1805448 ] } }
]
}
