{
"type": "FeatureCollection",
"name": "patch_53267_multipolygon",
"crs": { "type": "name", "properties": { "name": "urn:ogc:def:crs:OGC:1.3:CRS84" } },
"features": [
{ "type": "Feature", "properties": { "element": "way", "id": 575366258, "ele": null, "name": null, "natural": "scrub", "boat": null, "waterway": null, "leaf_type": null, "source": "Bing", "board_type": null, "boundary": null, "information": null, "leisure": null, "tourism": null, "label": "natural:scrub" }, "geometry": { "type": "MultiPolygon", "coordinates": [ [ [ [ 22.2579467, 40.1805947 ], [ 22.2571635, 40.1807668 ], [ 22.2564661, 40.1809718 ], [ 22.2560692, 40.181398 ], [ 22.2556507, 40.1820538 ], [ 22.2563052, 40.1818816 ], [ 22.2576141, 40.1824472 ], [ 22.258271186972884, 40.182166532062695 ], [ 22.258271186972884, 40.180458497232934 ], [ 22.2579467, 40.1805947 ] ] ], [ [ [ 22.2581613, 40.1761969 ], [ 22.2578287, 40.1766846 ], [ 22.2570455, 40.1771601 ], [ 22.2572172, 40.1774142 ], [ 22.2576034, 40.1774798 ], [ 22.2580111, 40.1770945 ], [ 22.258271186972884, 40.177037379652354 ], [ 22.258271186972884, 40.176189827212106 ], [ 22.2581613, 40.1761969 ] ] ], [ [ [ 22.2362208, 40.170151 ], [ 22.2360492, 40.1708724 ], [ 22.2360116, 40.1711757 ], [ 22.236081, 40.171444 ], [ 22.2359258, 40.1718398 ], [ 22.2363335, 40.1717537 ], [ 22.2373366, 40.171561 ], [ 22.237224, 40.1726022 ], [ 22.2370255, 40.1728645 ], [ 22.2369289, 40.1732129 ], [ 22.2370523, 40.173549 ], [ 22.2366661, 40.1738442 ], [ 22.2364139, 40.1741188 ], [ 22.2365963, 40.1741516 ], [ 22.2371489, 40.1740737 ], [ 22.2378087, 40.1738483 ], [ 22.2382486, 40.1737007 ], [ 22.2384041, 40.1738155 ], [ 22.2384202, 40.174004 ], [ 22.2383398, 40.174459 ], [ 22.2381198, 40.174627 ], [ 22.2367787, 40.1758731 ], [ 22.2362906, 40.1763075 ], [ 22.2363549, 40.1766436 ], [ 22.2348368, 40.1772339 ], [ 22.2328037, 40.1803611 ], [ 22.2339785, 40.1804636 ], [ 22.2347295, 40.1811357 ], [ 22.234869, 40.1816398 ], [ 22.2355556, 40.1826275 ], [ 22.2371542, 40.1840906 ], [ 22.2411883, 40.186316 ], [ 22.2432697, 40.1868815 ], [ 22.2442567, 40.186693 ], [ 22.245115, 40.1867995 ], [ 22.2453403, 40.1849308 ], [ 22.2446108, 40.1839226 ], [ 22.2446537, 40.1829964 ], [ 22.2456193, 40.1825947 ], [ 22.2455442, 40.1817259 ], [ 22.2449756, 40.1817423 ], [ 22.2445249, 40.1816439 ], [ 22.2445893, 40.1813816 ], [ 22.2460377, 40.1805209 ], [ 22.2469282, 40.1797668 ], [ 22.2488809, 40.1792504 ], [ 22.2488701, 40.178734 ], [ 22.2492242, 40.1783405 ], [ 22.2484946, 40.1782667 ], [ 22.2483444, 40.1780946 ], [ 22.2503561, 40.1771847 ], [ 22.2517937, 40.1766068 ], [ 22.252121, 40.1765945 ], [ 22.2527218, 40.1763321 ], [ 22.2532797, 40.1763403 ], [ 22.2542882, 40.1760206 ], [ 22.2551787, 40.1757419 ], [ 22.2562408, 40.1753976 ], [ 22.25664, 40.175085 ], [ 22.2570884, 40.1748402 ], [ 22.2576839, 40.1747582 ], [ 22.2580862, 40.1751599 ], [ 22.258271186972884, 40.175462363984437 ], [ 22.258271186972884, 40.174601202694838 ], [ 22.2576141, 40.1738401 ], [ 22.2575819, 40.1727989 ], [ 22.2568846, 40.1721677 ], [ 22.2559404, 40.1713151 ], [ 22.2549534, 40.1704215 ], [ 22.2541487, 40.1701427 ], [ 22.253545334614536, 40.169698323595668 ], [ 22.236541276066692, 40.169698323595668 ], [ 22.2362208, 40.170151 ] ] ] ] } }
]
}
