{
"type": "FeatureCollection",
"name": "patch_53267_polygon",
"crs": { "type": "name", "properties": { "name": "urn:ogc:def:crs:OGC:1.3:CRS84" } },
"features": [
{ "type": "Feature", "properties": { "element": "way", "id": 134969370, "ele": null, "name": null, "natural": "wood", "boat": null, "waterway": null, "leaf_type": "mixed", "source": "http://geodata.gov.gr", "board_type": null, "boundary": null, "information": null, "leisure": null, "tourism": null, "label": "natural:wood" }, "geometry": { "type": "Polygon", "coordinates": [ [ [ 22.2541487, 40.1701427 ], [ 22.2549534, 40.1704215 ], [ 22.2559404, 40.1713151 ], [ 22.2568846, 40.1721677 ], [ 22.2575819, 40.1727989 ], [ 22.2576141, 40.1738401 ], [ 22.258271186972884, 40.174601202694838 ], [ 22.258271186972884, 40.169698323595668 ], [ 22.253545334614536, 40.169698323595668 ], [ 22.2541487, 40.1701427 ] ] ] } },
{ "type": "Feature", "properties": { "element": "way", "id": 134969604, "ele": null, "name": null, "natural": "wood", "boat": null, "waterway": null, "leaf_type": "broadleaved", "source": "http://geodata.gov.gr", "board_type": null, "boundary": null, "information": null, "leisure": null, "tourism": null, "label": "natural:wood" }, "geometry": { "type": "Polygon", "coordinates": [ [ [ 22.2442567, 40.186693 ], [ 22.2432697, 40.1868815 ], [ 22.2411883, 40.186316 ], [ 22.2371542, 40.1840906 ], [ 22.2355556, 40.1826275 ], [ 22.234869, 40.1816398 ], [ 22.2347295, 40.1811357 ], [ 22.2339785, 40.1804636 ], [ 22.2328037, 40.1803611 ], [ 22.2314358, 40.1804677 ], [ 22.2305077, 40.1803324 ], [ 22.2296441, 40.1799185 ], [ 22.22778708838835, 40.179685951614708 ], [ 22.22778708838835, 40.192434432764379 ], [ 22.252934198548743, 40.192434432764379 ], [ 22.251211, 40.192061 ], [ 22.250315, 40.191492 ], [ 22.24945, 40.19103 ], [ 22.248127, 40.189354 ], [ 22.2479582, 40.1889961 ], [ 22.2480547, 40.1884552 ], [ 22.2467029, 40.1878077 ], [ 22.2461128, 40.1873897 ], [ 22.245115, 40.1867995 ], [ 22.2442567, 40.186693 ] ] ] } },
{ "type": "Feature", "properties": { "element": "way", "id": 138270592, "ele": null, "name": "Ανήλιο", "natural": null, "boat": null, "waterway": null, "leaf_type": null, "source": "http://geodata.gov.gr/", "board_type": "wildlife", "boundary": "protected_area", "information": "board", "leisure": "nature_reserve", "tourism": "information", "label": "tourism:information;leisure:nature_reserve" }, "geometry": { "type": "Polygon", "coordinates": [ [ [ 22.2521175, 40.1912886 ], [ 22.2501053, 40.1901816 ], [ 22.2485119, 40.1892476 ], [ 22.2470093, 40.1883871 ], [ 22.2454492, 40.1875887 ], [ 22.243653, 40.1868678 ], [ 22.2422494, 40.1864366 ], [ 22.2405466, 40.1858972 ], [ 22.2387171, 40.184991 ], [ 22.2374506, 40.1840754 ], [ 22.2365135, 40.1832954 ], [ 22.2353625, 40.1822193 ], [ 22.2346993, 40.1817497 ], [ 22.2338861, 40.1811923 ], [ 22.2327165, 40.1806204 ], [ 22.2317926, 40.1804081 ], [ 22.2303925, 40.1801345 ], [ 22.2293204, 40.1799244 ], [ 22.22778708838835, 40.179594404855266 ], [ 22.22778708838835, 40.192434432764379 ], [ 22.253867235046673, 40.192434432764379 ], [ 22.2521175, 40.1912886 ] ] ] } },
{ "type": "Feature", "properties": { "element": "way", "id": 565003595, "ele": null, "name": null, "natural": "wood", "boat": null, "waterway": null, "leaf_type": "broadleaved", "source": "http://geodata.gov.gr", "board_type": null, "boundary": null, "information": null, "leisure": null, "tourism": null, "label": "natural:wood" }, "geometry": { "type": "Polygon", "coordinates": [ [ [ 22.2381198, 40.174627 ], [ 22.2383398, 40.174459 ], [ 22.2384202, 40.174004 ], [ 22.2384041, 40.1738155 ], [ 22.2382486, 40.1737007 ], [ 22.2378087, 40.1738483 ], [ 22.2371489, 40.1740737 ], [ 22.2365963, 40.1741516 ], [ 22.2364139, 40.1741188 ], [ 22.2366661, 40.1738442 ], [ 22.2370523, 40.173549 ], [ 22.2369289, 40.1732129 ], [ 22.2370255, 40.1728645 ], [ 22.237224, 40.1726022 ], [ 22.2373366, 40.171561 ], [ 22.2363335, 40.1717537 ], [ 22.2359258, 40.1718398 ], [ 22.236081, 40.171444 ], [ 22.2360116, 40.1711757 ], [ 22.2360492, 40.1708724 ], [ 22.2362208, 40.170151 ], [ 22.236541276066692, 40.169698323595668 ], [ 22.228311574855304, 40.169698323595668 ], [ 22.2286248, 40.1705445 ], [ 22.22778708838835, 40.171553459451374 ], [ 22.22778708838835, 40.177501395671968 ], [ 22.2286892, 40.1773486 ], [ 22.2292042, 40.1768896 ], [ 22.2289896, 40.1758403 ], [ 22.2295475, 40.1754632 ], [ 22.2294402, 40.1749222 ], [ 22.2294831, 40.1743319 ], [ 22.230041, 40.1732826 ], [ 22.230792, 40.1730695 ], [ 22.2312105, 40.1731514 ], [ 22.2319078, 40.1726268 ], [ 22.2318864, 40.1722333 ], [ 22.2331095, 40.1718644 ], [ 22.233206, 40.1727661 ], [ 22.2332597, 40.1737089 ], [ 22.2327447, 40.1742827 ], [ 22.2315645, 40.1745287 ], [ 22.2311139, 40.1748402 ], [ 22.2310173, 40.1756927 ], [ 22.2316289, 40.1769961 ], [ 22.232573, 40.1753566 ], [ 22.233324, 40.1776683 ], [ 22.2340214, 40.1774962 ], [ 22.2348368, 40.1772339 ], [ 22.2363549, 40.1766436 ], [ 22.2362906, 40.1763075 ], [ 22.2367787, 40.1758731 ], [ 22.2381198, 40.174627 ] ] ] } },
{ "type": "Feature", "properties": { "element": "way", "id": 565003600, "ele": null, "name": null, "natural": "wood", "boat": null, "waterway": null, "leaf_type": "broadleaved", "source": "http://geodata.gov.gr", "board_type": null, "boundary": null, "information": null, "leisure": null, "tourism": null, "label": "natural:wood" }, "geometry": { "type": "Polygon", "coordinates": [ [ [ 22.2453403, 40.1849308 ], [ 22.2460806, 40.1851767 ], [ 22.2471428, 40.18498 ], [ 22.2481835, 40.1849062 ], [ 22.2493958, 40.1841849 ], [ 22.2511554, 40.1839882 ], [ 22.25381, 40.183495 ], [ 22.2548568, 40.1828652 ], [ 22.2555649, 40.1828325 ], [ 22.2560692, 40.1830128 ], [ 22.256552, 40.1830947 ], [ 22.2570991, 40.1832423 ], [ 22.256214, 40.1843119 ], [ 22.256214, 40.1846931 ], [ 22.2560209, 40.1851357 ], [ 22.2556347, 40.1851439 ], [ 22.2552216, 40.1850291 ], [ 22.2541648, 40.1855127 ], [ 22.2509408, 40.1862299 ], [ 22.2503561, 40.1866397 ], [ 22.2496426, 40.1871889 ], [ 22.249884, 40.187488 ], [ 22.2509408, 40.187152 ], [ 22.2527057, 40.1871028 ], [ 22.2532904, 40.1868897 ], [ 22.2539878, 40.1870044 ], [ 22.2550982, 40.1868446 ], [ 22.2566163, 40.1862914 ], [ 22.2574156, 40.1855947 ], [ 22.258271186972884, 40.184912710383934 ], [ 22.258271186972884, 40.182166532062695 ], [ 22.2576141, 40.1824472 ], [ 22.2563052, 40.1818816 ], [ 22.2556507, 40.1820538 ], [ 22.2560692, 40.181398 ], [ 22.2564661, 40.1809718 ], [ 22.2571635, 40.1807668 ], [ 22.2579467, 40.1805947 ], [ 22.258271186972884, 40.180458497232934 ], [ 22.258271186972884, 40.177037379652354 ], [ 22.2580111, 40.1770945 ], [ 22.2576034, 40.1774798 ], [ 22.2572172, 40.1774142 ], [ 22.2570455, 40.1771601 ], [ 22.2578287, 40.1766846 ], [ 22.2581613, 40.1761969 ], [ 22.258271186972884, 40.176189827212106 ], [ 22.258271186972884, 40.175462363984437 ], [ 22.2580862, 40.1751599 ], [ 22.2576839, 40.1747582 ], [ 22.2570884, 40.1748402 ], [ 22.25664, 40.175085 ], [ 22.2562408, 40.1753976 ], [ 22.2551787, 40.1757419 ], [ 22.2542882, 40.1760206 ], [ 22.2532797, 40.1763403 ], [ 22.2527218, 40.1763321 ], [ 22.252121, 40.1765945 ], [ 22.2517937, 40.1766068 ], [ 22.2503561, 40.1771847 ], [ 22.2483444, 40.1780946 ], [ 22.2484946, 40.1782667 ], [ 22.2492242, 40.1783405 ], [ 22.2488701, 40.178734 ], [ 22.2488809, 40.1792504 ], [ 22.2469282, 40.1797668 ], [ 22.2460377, 40.1805209 ], [ 22.2445893, 40.1813816 ], [ 22.2445249, 40.1816439 ], [ 22.2449756, 40.1817423 ], [ 22.2455442, 40.1817259 ], [ 22.2456193, 40.1825947 ], [ 22.2446537, 40.1829964 ], [ 22.2446108, 40.1839226 ], [ 22.2453403, 40.1849308 ] ] ] } },
{ "type": "Feature", "properties": { "element": "way", "id": 575366257, "ele": null, "name": null, "natural": "scrub", "boat": null, "waterway": null, "leaf_type": null, "source": "Bing", "board_type": null, "boundary": null, "information": null, "leisure": null, "tourism": null, "label": "natural:scrub" }, "geometry": { "type": "Polygon", "coordinates": [ [ [ 22.2286248, 40.1705445 ], [ 22.228311574855304, 40.169698323595668 ], [ 22.22778708838835, 40.169698323595668 ], [ 22.22778708838835, 40.171553459451374 ], [ 22.2286248, 40.1705445 ] ] ] } },
{ "type": "Feature", "properties": { "element": "way", "id": 575366262, "ele": null, "name": null, "natural": "scrub", "boat": null, "waterway": null, "leaf_type": null, "source": "Bing", "board_type": null, "boundary": null, "information": null, "leisure": null, "tourism": null, "label": "natural:scrub" }, "geometry": { "type": "Polygon", "coordinates": [ [ [ 22.2574156, 40.1855947 ], [ 22.2566163, 40.1862914 ], [ 22.2550982, 40.1868446 ], [ 22.2539878, 40.1870044 ], [ 22.2532904, 40.1868897 ], [ 22.2527057, 40.1871028 ], [ 22.2509408, 40.187152 ], [ 22.249884, 40.187488 ], [ 22.2496426, 40.1871889 ], [ 22.2503561, 40.1866397 ], [ 22.2509408, 40.1862299 ], [ 22.2541648, 40.1855127 ], [ 22.2552216, 40.1850291 ], [ 22.2556347, 40.1851439 ], [ 22.2560209, 40.1851357 ], [ 22.256214, 40.1846931 ], [ 22.256214, 40.1843119 ], [ 22.2570991, 40.1832423 ], [ 22.256552, 40.1830947 ], [ 22.2560692, 40.1830128 ], [ 22.2555649, 40.1828325 ], [ 22.2548568, 40.1828652 ], [ 22.25381, 40.183495 ], [ 22.2511554, 40.1839882 ], [ 22.2493958, 40.1841849 ], [ 22.2481835, 40.1849062 ], [ 22.2471428, 40.18498 ], [ 22.2460806, 40.1851767 ], [ 22.2453403, 40.1849308 ], [ 22.245115, 40.1867995 ], [ 22.2461128, 40.1873897 ], [ 22.2467029, 40.1878077 ], [ 22.2480547, 40.1884552 ], [ 22.2479582, 40.1889961 ], [ 22.248127, 40.189354 ], [ 22.24945, 40.19103 ], [ 22.250315, 40.191492 ], [ 22.251211, 40.192061 ], [ 22.252934198548743, 40.192434432764379 ], [ 22.258271186972884, 40.192434432764379 ], [ 22.258271186972884, 40.184912710383934 ], [ 22.2574156, 40.1855947 ] ] ] } },
{ "type": "Feature", "properties": { "element": "way", "id": 577207510, "ele": null, "name": null, "natural": "scrub", "boat": null, "waterway": null, "leaf_type": null, "source": "Bing", "board_type": null, "boundary": null, "information": null, "leisure": null, "tourism": null, "label": "natural:scrub" }, "geometry": { "type": "Polygon", "coordinates": [ [ [ 22.2296441, 40.1799185 ], [ 22.2305077, 40.1803324 ], [ 22.2314358, 40.1804677 ], [ 22.2328037, 40.1803611 ], [ 22.2348368, 40.1772339 ], [ 22.2340214, 40.1774962 ], [ 22.233324, 40.1776683 ], [ 22.232573, 40.1753566 ], [ 22.2316289, 40.1769961 ], [ 22.2310173, 40.1756927 ], [ 22.2311139, 40.1748402 ], [ 22.2315645, 40.1745287 ], [ 22.2327447, 40.1742827 ], [ 22.2332597, 40.1737089 ], [ 22.233206, 40.1727661 ], [ 22.2331095, 40.1718644 ], [ 22.2318864, 40.1722333 ], [ 22.2319078, 40.1726268 ], [ 22.2312105, 40.1731514 ], [ 22.230792, 40.1730695 ], [ 22.230041, 40.1732826 ], [ 22.2294831, 40.1743319 ], [ 22.2294402, 40.1749222 ], [ 22.2295475, 40.1754632 ], [ 22.2289896, 40.1758403 ], [ 22.2292042, 40.1768896 ], [ 22.2286892, 40.1773486 ], [ 22.22778708838835, 40.177501395671968 ], [ 22.22778708838835, 40.179685951614708 ], [ 22.2296441, 40.1799185 ] ] ] } }
]
}
