{
"type": "FeatureCollection",
"name": "patch_1266_linestring",
"crs": { "type": "name", "properties": { "name": "urn:ogc:def:crs:OGC:1.3:CRS84" } },
"features": [
{ "type": "Feature", "properties": { "@type": "way", "@id": 325283169, "amenity": null, "area": null, "barrier": null, "boat": null, "ele": null, "email": null, "ford": null, "gauge": null, "highway": null, "int_name": null, "lanes": null, "leaf_type": null, "lit": null, "man_made": null, "name": null, "name:el": null, "natural": "coastline", "noexit": null, "outdoor_seating": null, "phone": null, "railway": null, "source": "PGS", "surface": null, "tourism": null, "waterway": null, "website": null, "label": "natural:coastline" }, "geometry": { "type": "MultiLineString", "coordinates": [ [ [ 23.598227149432283, 38.766266237627725 ], [ 23.5979666, 38.7662834 ], [ 23.5975592, 38.766364 ], [ 23.5971967, 38.7665758 ], [ 23.5970366, 38.7666431 ], [ 23.5970168, 38.7667595 ], [ 23.5969014, 38.7667627 ], [ 23.5968444, 38.7667194 ], [ 23.5967027, 38.7666453 ], [ 23.5964973, 38.7665464 ], [ 23.5963558, 38.7663564 ], [ 23.5960162, 38.7662216 ], [ 23.5958454, 38.7660103 ], [ 23.5956746, 38.7658867 ], [ 23.5953156, 38.7658596 ], [ 23.5947313, 38.7658659 ], [ 23.5945303, 38.7659298 ], [ 23.5945042, 38.7659381 ], [ 23.5941598, 38.7660914 ], [ 23.5937737, 38.7661947 ], [ 23.5934539, 38.7662192 ], [ 23.593022, 38.7662773 ], [ 23.5928592, 38.766338 ], [ 23.5926826, 38.7663888 ], [ 23.5925588, 38.7663621 ], [ 23.5924792, 38.7663175 ], [ 23.5924404, 38.7662557 ], [ 23.5924016, 38.766216 ], [ 23.592449, 38.7661537 ], [ 23.5925567, 38.7661218 ], [ 23.5925612, 38.7660565 ], [ 23.593911, 38.7659192 ], [ 23.594295, 38.7657901 ], [ 23.5948002, 38.7654201 ], [ 23.594064516150713, 38.764876308058007 ] ], [ [ 23.593278203815355, 38.764876308058007 ], [ 23.5931355, 38.7650614 ], [ 23.5930559, 38.7651123 ], [ 23.5930134, 38.7651014 ], [ 23.5929701, 38.7650757 ], [ 23.5929637, 38.7650321 ], [ 23.592957, 38.7649646 ], [ 23.593006, 38.7649525 ], [ 23.593075594677067, 38.764876308058007 ] ], [ [ 23.588360015670393, 38.764876308058007 ], [ 23.5883302, 38.7649103 ], [ 23.5882135, 38.7650852 ], [ 23.5881209, 38.7653712 ], [ 23.5881239, 38.7654706 ], [ 23.5880942, 38.7658195 ], [ 23.5881371, 38.7663503 ], [ 23.5881804, 38.7663832 ], [ 23.5883784, 38.766811 ], [ 23.5886266, 38.7673643 ], [ 23.588721, 38.7676617 ], [ 23.58881, 38.7681024 ], [ 23.5880826, 38.7701789 ], [ 23.5881468, 38.7710844 ], [ 23.5872777, 38.7724764 ], [ 23.5868036, 38.7726562 ], [ 23.5856225, 38.7738066 ], [ 23.5848933, 38.7745834 ], [ 23.5846085, 38.7751159 ], [ 23.5847769, 38.7752648 ], [ 23.5849702, 38.7753227 ], [ 23.585018, 38.7754367 ], [ 23.5849909, 38.7754488 ], [ 23.5849334, 38.7754477 ], [ 23.584921, 38.77548 ], [ 23.5850269, 38.7755207 ], [ 23.5851096, 38.7755741 ], [ 23.5851147, 38.7756379 ], [ 23.5851895, 38.7757314 ], [ 23.5853142, 38.775724 ], [ 23.5853962, 38.7758464 ], [ 23.5855238, 38.7760191 ], [ 23.5856295, 38.7760176 ], [ 23.5857135, 38.7760051 ], [ 23.5857535, 38.7760448 ], [ 23.585844, 38.7760176 ], [ 23.5859232, 38.7760792 ], [ 23.58598, 38.7760994 ], [ 23.5860265, 38.7761443 ], [ 23.5860101, 38.7761999 ], [ 23.5859924, 38.7762854 ], [ 23.5859172, 38.7762976 ], [ 23.5858899, 38.7762912 ], [ 23.5858418, 38.7762558 ], [ 23.5858124, 38.7762266 ], [ 23.5858271, 38.7761704 ], [ 23.5857576, 38.7761766 ], [ 23.5857255, 38.7761954 ], [ 23.585656, 38.7762121 ], [ 23.5855945, 38.7762131 ], [ 23.5855852, 38.776235 ], [ 23.5856493, 38.77626 ], [ 23.5856587, 38.7762812 ], [ 23.585509, 38.77626 ], [ 23.5854128, 38.7762854 ], [ 23.585432, 38.7763424 ], [ 23.585518, 38.7763917 ], [ 23.5855671, 38.7763925 ], [ 23.5856686, 38.7764454 ], [ 23.585797, 38.7765958 ], [ 23.585757, 38.7766571 ], [ 23.5857907, 38.7766687 ], [ 23.585881, 38.7766327 ], [ 23.5860801, 38.7768038 ], [ 23.5860881, 38.7768373 ], [ 23.5862387, 38.7769453 ], [ 23.5864752, 38.7771465 ], [ 23.5865521, 38.7772387 ], [ 23.5867238, 38.7774395 ], [ 23.5867545, 38.777496 ], [ 23.5868163, 38.7775327 ], [ 23.5868122, 38.7776038 ], [ 23.5866796, 38.7776873 ], [ 23.5866196, 38.7776904 ], [ 23.5865314, 38.7776769 ], [ 23.5864878, 38.7776904 ], [ 23.5863866, 38.7776912 ], [ 23.586377, 38.777729 ], [ 23.5864234, 38.7777406 ], [ 23.5865092, 38.7778075 ], [ 23.5865734, 38.7779281 ], [ 23.5866451, 38.7779842 ], [ 23.5866281, 38.7780101 ], [ 23.5867718, 38.7781137 ], [ 23.5870671, 38.7783428 ], [ 23.58711, 38.7784097 ], [ 23.58711, 38.7785435 ], [ 23.5869047, 38.778645 ], [ 23.5867626, 38.7786825 ], [ 23.5867238, 38.7787108 ], [ 23.5866957, 38.7787236 ], [ 23.5865295, 38.7787515 ], [ 23.5863244, 38.7787971 ], [ 23.5864617, 38.778839 ], [ 23.5865706, 38.7789062 ], [ 23.5866486, 38.7789698 ], [ 23.5867662, 38.7789788 ], [ 23.5869609, 38.7789627 ], [ 23.5870155, 38.7789989 ], [ 23.5870904, 38.7789875 ], [ 23.5871182, 38.7789965 ], [ 23.5871371, 38.7790126 ], [ 23.5871224, 38.7790422 ], [ 23.587071, 38.7790592 ], [ 23.5870102, 38.779074 ], [ 23.5869911, 38.7791094 ], [ 23.5869523, 38.7791521 ], [ 23.5869527, 38.7792158 ], [ 23.5869382, 38.7792697 ], [ 23.5869399, 38.7792982 ], [ 23.5870503, 38.7792575 ], [ 23.5871541, 38.7792623 ], [ 23.5872667, 38.7792476 ], [ 23.5873876, 38.7792123 ], [ 23.587531, 38.7792148 ], [ 23.5875896, 38.7792228 ], [ 23.5876413, 38.7792311 ], [ 23.5876845, 38.7792583 ], [ 23.5877269, 38.7793064 ], [ 23.5878103, 38.7793468 ], [ 23.5878568, 38.779371 ], [ 23.5879242, 38.7793965 ], [ 23.5879634, 38.7794256 ], [ 23.5880095, 38.7794587 ], [ 23.5880559, 38.7794626 ], [ 23.5880649, 38.779497 ], [ 23.5880971, 38.7795221 ], [ 23.5881293, 38.7795221 ], [ 23.5882288, 38.7795803 ], [ 23.5882688, 38.779681 ], [ 23.5882801, 38.7797718 ], [ 23.588376, 38.779865 ], [ 23.5883975, 38.7798873 ], [ 23.5884173, 38.7800313 ], [ 23.5884833, 38.7801828 ], [ 23.5885814, 38.7802689 ], [ 23.5886443, 38.7803668 ], [ 23.5887945, 38.7804672 ], [ 23.5888588, 38.7805341 ], [ 23.5888803, 38.7805843 ], [ 23.5889018, 38.780601 ], [ 23.5889232, 38.7806345 ], [ 23.5889232, 38.7806512 ], [ 23.5889447, 38.7806679 ], [ 23.5889769, 38.7807181 ], [ 23.589009, 38.7808185 ], [ 23.5890734, 38.7808687 ], [ 23.5890305, 38.7809857 ], [ 23.5890448, 38.7810081 ], [ 23.5890412, 38.7810192 ], [ 23.5890681, 38.7810443 ], [ 23.5890734, 38.7810527 ], [ 23.5890949, 38.7810694 ], [ 23.5891426, 38.781114 ], [ 23.5891593, 38.781153 ], [ 23.5892451, 38.7812199 ], [ 23.5892451, 38.7813036 ], [ 23.5892236, 38.781337 ], [ 23.5893095, 38.7814708 ], [ 23.5893095, 38.7815377 ], [ 23.5893631, 38.7815963 ], [ 23.5894489, 38.781613 ], [ 23.5895026, 38.7816548 ], [ 23.5895026, 38.7816883 ], [ 23.5894597, 38.7817217 ], [ 23.5894811, 38.7818221 ], [ 23.5894167, 38.7818556 ], [ 23.5893738, 38.7819225 ], [ 23.5893738, 38.7819559 ], [ 23.5893953, 38.7819726 ], [ 23.5893953, 38.7821232 ], [ 23.5894597, 38.7822236 ], [ 23.5895669, 38.7823072 ], [ 23.5897493, 38.7825163 ], [ 23.5898566, 38.782533 ], [ 23.589921, 38.7824995 ], [ 23.5899639, 38.7824995 ], [ 23.5900819, 38.7825915 ], [ 23.5900605, 38.7827254 ], [ 23.590039, 38.7827421 ], [ 23.590039, 38.7827755 ], [ 23.5899746, 38.7828257 ], [ 23.5899746, 38.7829261 ], [ 23.5898888, 38.7830097 ], [ 23.5898888, 38.7830766 ], [ 23.5897601, 38.7832773 ], [ 23.5896206, 38.7833693 ], [ 23.5895777, 38.7833693 ], [ 23.5895026, 38.7834279 ], [ 23.5895026, 38.7834948 ], [ 23.589524, 38.7835282 ], [ 23.5895026, 38.783545 ], [ 23.5895026, 38.7835784 ], [ 23.5894597, 38.7836119 ], [ 23.5895133, 38.7836537 ], [ 23.5895562, 38.7836537 ], [ 23.5895777, 38.7836704 ], [ 23.5898137, 38.7836704 ], [ 23.5898781, 38.7837206 ], [ 23.589921, 38.7837206 ], [ 23.5900283, 38.783821 ], [ 23.5900927, 38.783821 ], [ 23.5901141, 38.7838377 ], [ 23.5902643, 38.7838377 ], [ 23.5902858, 38.783821 ], [ 23.5903253, 38.7838184 ], [ 23.590318, 38.7838461 ], [ 23.5902858, 38.7838879 ], [ 23.5902306, 38.7839016 ], [ 23.5901892, 38.7840468 ], [ 23.5902107, 38.7840802 ], [ 23.5901892, 38.7840969 ], [ 23.5901892, 38.7841806 ], [ 23.5901463, 38.7842642 ], [ 23.5900283, 38.7843395 ], [ 23.5899639, 38.7843395 ], [ 23.5899103, 38.7843813 ], [ 23.5899103, 38.7844315 ], [ 23.5898781, 38.7844733 ], [ 23.5897708, 38.7844566 ], [ 23.5897064, 38.7843897 ], [ 23.5896635, 38.7843897 ], [ 23.589642, 38.7844064 ], [ 23.5894918, 38.7844064 ], [ 23.5894275, 38.7844566 ], [ 23.5893202, 38.7844398 ], [ 23.5892344, 38.7845067 ], [ 23.5891914, 38.7845067 ], [ 23.58917, 38.7845235 ], [ 23.5890682, 38.7845837 ], [ 23.5890037, 38.7845756 ], [ 23.5889688, 38.784561 ], [ 23.5889206, 38.7845588 ], [ 23.5888886, 38.7845379 ], [ 23.5888591, 38.7845274 ], [ 23.5888242, 38.7845275 ], [ 23.5888133, 38.7845025 ], [ 23.5887623, 38.7845235 ], [ 23.5886121, 38.7845235 ], [ 23.5885477, 38.7844733 ] ] ] } }
]
}
