{
"type": "FeatureCollection",
"name": "patch_87165_multipolygon",
"crs": { "type": "name", "properties": { "name": "urn:ogc:def:crs:OGC:1.3:CRS84" } },
"features": [
{ "type": "Feature", "properties": { "element": "relation", "id": 10206583, "ele": null, "int_name": null, "name": null, "natural": "wood", "source": "http://geodata.gov.gr, Maxar Premium Imagery (2019-10-23)", "landuse": null, "type": "multipolygon", "label": "natural:wood" }, "geometry": { "type": "MultiPolygon", "coordinates": [ [ [ [ 22.841071, 38.757556 ], [ 22.841302, 38.756776 ], [ 22.841971, 38.755587 ], [ 22.843341, 38.754122 ], [ 22.844538, 38.753248 ], [ 22.846291, 38.752583 ], [ 22.848423, 38.75157 ], [ 22.848615615435421, 38.75146869122274 ], [ 22.848615615435421, 38.747298681244565 ], [ 22.848532, 38.747353 ], [ 22.84745, 38.747964 ], [ 22.846682, 38.748827 ], [ 22.846117, 38.749412 ], [ 22.845074, 38.750085 ], [ 22.8448574, 38.7496568 ], [ 22.8446972, 38.7494358 ], [ 22.8447342, 38.7491186 ], [ 22.8445986, 38.7486092 ], [ 22.8443275, 38.7483977 ], [ 22.8440564, 38.7479363 ], [ 22.8435634, 38.7479748 ], [ 22.843243, 38.7482343 ], [ 22.8428486, 38.7481286 ], [ 22.8425528, 38.747696 ], [ 22.8424789, 38.7472635 ], [ 22.8421584, 38.7469848 ], [ 22.8415669, 38.746831 ], [ 22.841345, 38.7465042 ], [ 22.8405424, 38.7462489 ], [ 22.83977, 38.74624 ], [ 22.838038, 38.745321 ], [ 22.837417, 38.744413 ], [ 22.837228, 38.743851 ], [ 22.837271, 38.743634 ], [ 22.838028, 38.743486 ], [ 22.838782, 38.743493 ], [ 22.839436, 38.743529 ], [ 22.840315, 38.743603 ], [ 22.84123, 38.743519 ], [ 22.842142, 38.743528 ], [ 22.843249, 38.743819 ], [ 22.843644, 38.743978 ], [ 22.844042, 38.743889 ], [ 22.844088, 38.743485 ], [ 22.844055, 38.743112 ], [ 22.84442, 38.742587 ], [ 22.845425, 38.741851 ], [ 22.845454, 38.741476 ], [ 22.844281, 38.741425 ], [ 22.843566, 38.741417 ], [ 22.843416, 38.741216 ], [ 22.843529, 38.740538 ], [ 22.843539, 38.739938 ], [ 22.843289, 38.739576 ], [ 22.842222, 38.739285 ], [ 22.841148, 38.739395 ], [ 22.840292, 38.738706 ], [ 22.839525, 38.738779 ], [ 22.839416, 38.739217 ], [ 22.840021, 38.739663 ], [ 22.840318, 38.740266 ], [ 22.839851, 38.740701 ], [ 22.838106, 38.741283 ], [ 22.836668, 38.741789 ], [ 22.8359, 38.741981 ], [ 22.834882, 38.741771 ], [ 22.834641, 38.740889 ], [ 22.835055, 38.740573 ], [ 22.835924, 38.740502 ], [ 22.836991, 38.740793 ], [ 22.83755, 38.740918 ], [ 22.837807, 38.740841 ], [ 22.837864, 38.740441 ], [ 22.837868, 38.740202 ], [ 22.837875, 38.739802 ], [ 22.838553, 38.738929 ], [ 22.839121, 38.738495 ], [ 22.8404, 38.738308 ], [ 22.84173, 38.738161 ], [ 22.843778, 38.737741 ], [ 22.845335, 38.737378 ], [ 22.845023, 38.737436 ], [ 22.843429, 38.73706 ], [ 22.842609, 38.736971 ], [ 22.841731, 38.736669 ], [ 22.840777, 38.736284 ], [ 22.840481, 38.735999 ], [ 22.840455, 38.73574 ], [ 22.840984, 38.73551 ], [ 22.841302, 38.735372 ], [ 22.841561721418529, 38.735316477606489 ], [ 22.834259258303199, 38.735316477606489 ], [ 22.834576, 38.735676 ], [ 22.834854, 38.735991 ], [ 22.834574, 38.736113 ], [ 22.833859, 38.736137 ], [ 22.832499, 38.736176 ], [ 22.830945, 38.737134 ], [ 22.830427, 38.737222 ], [ 22.829715, 38.737091 ], [ 22.828526, 38.736923 ], [ 22.827891, 38.736917 ], [ 22.827211, 38.737221 ], [ 22.825354, 38.738251 ], [ 22.8236722, 38.738769 ], [ 22.8231913, 38.7388458 ], [ 22.8229314, 38.7390745 ], [ 22.8229148, 38.7391946 ], [ 22.8231832, 38.7393278 ], [ 22.8230775, 38.739461 ], [ 22.8224676, 38.7391502 ], [ 22.8220367, 38.7391883 ], [ 22.8217521, 38.7395117 ], [ 22.8217521, 38.7397527 ], [ 22.8215488, 38.7399874 ], [ 22.8216383, 38.7402981 ], [ 22.8214594, 38.7402981 ], [ 22.8212317, 38.7400571 ], [ 22.8208252, 38.7400381 ], [ 22.8206463, 38.7399366 ], [ 22.8203292, 38.7401206 ], [ 22.8201015, 38.7401333 ], [ 22.8198495, 38.7400191 ], [ 22.8196706, 38.7401523 ], [ 22.8193372, 38.7399684 ], [ 22.8189795, 38.7399557 ], [ 22.8187274, 38.7401523 ], [ 22.818581547572489, 38.740182430874135 ], [ 22.818581547572489, 38.748930770020408 ], [ 22.8186914, 38.7488829 ], [ 22.8191564, 38.748871 ], [ 22.8196982, 38.7489329 ], [ 22.8201558, 38.7489802 ], [ 22.8205294, 38.7489147 ], [ 22.8209124, 38.7487617 ], [ 22.8211412, 38.7487471 ], [ 22.821342, 38.7488163 ], [ 22.8215802, 38.7488163 ], [ 22.8218604, 38.7486816 ], [ 22.8222994, 38.7485614 ], [ 22.8224395, 38.748423 ], [ 22.8226916, 38.748321 ], [ 22.8228691, 38.7482591 ], [ 22.822785, 38.7480114 ], [ 22.8230559, 38.7480078 ], [ 22.8233735, 38.7478876 ], [ 22.823635, 38.7478767 ], [ 22.8239572, 38.7478657 ], [ 22.8239572, 38.7479859 ], [ 22.8236723, 38.7481462 ], [ 22.8235603, 38.7483501 ], [ 22.8235649, 38.7485468 ], [ 22.8235136, 38.7487326 ], [ 22.8232941, 38.7487326 ], [ 22.8231633, 38.748911 ], [ 22.8229718, 38.7490239 ], [ 22.8225936, 38.7488345 ], [ 22.8224161, 38.7490276 ], [ 22.8222153, 38.7491186 ], [ 22.8219164, 38.7492352 ], [ 22.8218557, 38.7493881 ], [ 22.8217109, 38.7495193 ], [ 22.8215101, 38.7497087 ], [ 22.8213233, 38.7498543 ], [ 22.8214821, 38.7500656 ], [ 22.8218277, 38.7497888 ], [ 22.8220332, 38.7499636 ], [ 22.8222853, 38.7500984 ], [ 22.8226076, 38.7503096 ], [ 22.8226211, 38.7504716 ], [ 22.8228364, 38.7507357 ], [ 22.8228831, 38.7512602 ], [ 22.8232754, 38.7513257 ], [ 22.823663, 38.7514459 ], [ 22.8243168, 38.7516899 ], [ 22.8247091, 38.7519339 ], [ 22.8249332, 38.7521342 ], [ 22.8255123, 38.7516608 ], [ 22.8250033, 38.7511436 ], [ 22.825064, 38.7510052 ], [ 22.8255357, 38.7508668 ], [ 22.8256431, 38.7505573 ], [ 22.8256431, 38.7503387 ], [ 22.8261101, 38.7498835 ], [ 22.8258254, 38.7497313 ], [ 22.8256384, 38.7495193 ], [ 22.8251761, 38.7497087 ], [ 22.8252648, 38.7498689 ], [ 22.8249146, 38.7499818 ], [ 22.8247978, 38.7500838 ], [ 22.8246297, 38.749949 ], [ 22.8243425, 38.7502254 ], [ 22.8239058, 38.7502003 ], [ 22.8235369, 38.7498033 ], [ 22.8232941, 38.7494064 ], [ 22.8238872, 38.7490676 ], [ 22.8248071, 38.7484667 ], [ 22.825008, 38.7481425 ], [ 22.8249566, 38.747884 ], [ 22.8254002, 38.7476363 ], [ 22.8255917, 38.748179 ], [ 22.8263809, 38.7479313 ], [ 22.8264743, 38.7480843 ], [ 22.8267405, 38.7480515 ], [ 22.8268853, 38.7483247 ], [ 22.8271328, 38.7487471 ], [ 22.8278193, 38.7485978 ], [ 22.828319, 38.7486524 ], [ 22.8284871, 38.7486087 ], [ 22.8285898, 38.748423 ], [ 22.8289401, 38.7482518 ], [ 22.8290849, 38.7479896 ], [ 22.8293884, 38.7477091 ], [ 22.8295659, 38.7479277 ], [ 22.8297527, 38.7481644 ], [ 22.8300796, 38.7482955 ], [ 22.8304905, 38.7481207 ], [ 22.8307194, 38.747924 ], [ 22.8309622, 38.7479277 ], [ 22.8312097, 38.7481753 ], [ 22.8315319, 38.7483829 ], [ 22.8322231, 38.7486743 ], [ 22.8325967, 38.7488637 ], [ 22.8325407, 38.7490276 ], [ 22.8326481, 38.7492206 ], [ 22.8329376, 38.749206 ], [ 22.8332131, 38.7492752 ], [ 22.8334186, 38.7495593 ], [ 22.8337595, 38.7493881 ], [ 22.8335681, 38.7491805 ], [ 22.8335867, 38.7489729 ], [ 22.833951, 38.7490385 ], [ 22.8340397, 38.7492243 ], [ 22.8342659, 38.7494249 ], [ 22.835064, 38.749816 ], [ 22.83608, 38.750227 ], [ 22.837071, 38.750286 ], [ 22.8375541, 38.7505542 ], [ 22.8379364, 38.7509075 ], [ 22.8384035, 38.7512277 ], [ 22.8388849, 38.7515037 ], [ 22.8389981, 38.7518349 ], [ 22.8391397, 38.7521661 ], [ 22.8387433, 38.7521441 ], [ 22.8382903, 38.7522655 ], [ 22.8383328, 38.7526188 ], [ 22.838177, 38.7528175 ], [ 22.8375825, 38.752685 ], [ 22.8377665, 38.7530273 ], [ 22.8384319, 38.753237 ], [ 22.8390972, 38.7535462 ], [ 22.8396918, 38.7540098 ], [ 22.8399608, 38.7544846 ], [ 22.839992, 38.754978 ], [ 22.839744, 38.755597 ], [ 22.839107, 38.755715 ], [ 22.838002, 38.755269 ], [ 22.836986, 38.754264 ], [ 22.836357, 38.753885 ], [ 22.83572, 38.754003 ], [ 22.835634, 38.754437 ], [ 22.836421, 38.75488 ], [ 22.837286, 38.755386 ], [ 22.837436, 38.755947 ], [ 22.837113, 38.756255 ], [ 22.836307, 38.756993 ], [ 22.835581, 38.75767 ], [ 22.835022, 38.757851 ], [ 22.834467, 38.757845 ], [ 22.833128, 38.757148 ], [ 22.83178, 38.75701 ], [ 22.8310158, 38.7568238 ], [ 22.830674, 38.756959 ], [ 22.8303519, 38.7567882 ], [ 22.8299205, 38.7567498 ], [ 22.8294399, 38.7564903 ], [ 22.8289715, 38.7564614 ], [ 22.8284663, 38.7565095 ], [ 22.8281458, 38.7569227 ], [ 22.8277638, 38.7570861 ], [ 22.8275789, 38.7574225 ], [ 22.8270736, 38.7576051 ], [ 22.8266423, 38.757557 ], [ 22.8263218, 38.7573552 ], [ 22.8259028, 38.7574609 ], [ 22.8258289, 38.7577396 ], [ 22.825967648425731, 38.757912709038791 ], [ 22.840896542302033, 38.757912709038791 ], [ 22.841071, 38.757556 ] ], [ [ 22.8339136, 38.7377544 ], [ 22.8337082, 38.737962 ], [ 22.8333205, 38.738115 ], [ 22.833003, 38.7381223 ], [ 22.8329423, 38.7378272 ], [ 22.8326014, 38.7377944 ], [ 22.8325734, 38.7376779 ], [ 22.8328209, 38.7374921 ], [ 22.8328582, 38.7373355 ], [ 22.8333065, 38.7372881 ], [ 22.8336288, 38.7371715 ], [ 22.8339136, 38.7371715 ], [ 22.8341285, 38.7373136 ], [ 22.8342032, 38.7374557 ], [ 22.8341798, 38.7376451 ], [ 22.8339136, 38.7377544 ] ], [ [ 22.8276586, 38.7424274 ], [ 22.8279483, 38.7422684 ], [ 22.8285062, 38.7424358 ], [ 22.8287959, 38.7425697 ], [ 22.8294289, 38.7425446 ], [ 22.8292143, 38.7428626 ], [ 22.8290105, 38.7431554 ], [ 22.8289676, 38.7434902 ], [ 22.8290641, 38.7437077 ], [ 22.8288925, 38.743783 ], [ 22.8286886, 38.7441512 ], [ 22.8283989, 38.7441261 ], [ 22.8281629, 38.7443772 ], [ 22.8275299, 38.7441931 ], [ 22.8269935, 38.7440257 ], [ 22.8265643, 38.744009 ], [ 22.8264677, 38.7435655 ], [ 22.8270149, 38.7434148 ], [ 22.8270256, 38.7430718 ], [ 22.8272188, 38.7428207 ], [ 22.8272188, 38.7424944 ], [ 22.8276586, 38.7424274 ] ], [ [ 22.8304545, 38.7439185 ], [ 22.8299166, 38.7441835 ], [ 22.8294282, 38.7444872 ], [ 22.828961, 38.7446031 ], [ 22.8288194, 38.7442553 ], [ 22.8292795, 38.7438854 ], [ 22.8294848, 38.7436149 ], [ 22.8295131, 38.7434327 ], [ 22.8297184, 38.7433996 ], [ 22.8298104, 38.7435707 ], [ 22.8299236, 38.7435597 ], [ 22.8299095, 38.7434161 ], [ 22.8300015, 38.7432836 ], [ 22.8302563, 38.7432836 ], [ 22.830674, 38.7437253 ], [ 22.8304545, 38.7439185 ] ], [ [ 22.8210902, 38.7465667 ], [ 22.8213306, 38.7463696 ], [ 22.8216387, 38.7461245 ], [ 22.8217742, 38.7459323 ], [ 22.8219726, 38.7457996 ], [ 22.8224705, 38.7457112 ], [ 22.8227355, 38.7456247 ], [ 22.8232531, 38.745567 ], [ 22.8236352, 38.7456151 ], [ 22.8236906, 38.7457881 ], [ 22.8238878, 38.7458938 ], [ 22.8242699, 38.7459082 ], [ 22.8245287, 38.746014 ], [ 22.8247937, 38.7462687 ], [ 22.8247444, 38.7464465 ], [ 22.8244732, 38.7466484 ], [ 22.8243007, 38.7467253 ], [ 22.8239679, 38.7467012 ], [ 22.824048, 38.7470088 ], [ 22.8239001, 38.7472443 ], [ 22.8236044, 38.7474077 ], [ 22.8232778, 38.7475182 ], [ 22.8228095, 38.7475855 ], [ 22.8224644, 38.7475855 ], [ 22.8222918, 38.7476912 ], [ 22.8223473, 38.7479219 ], [ 22.8220638, 38.7479604 ], [ 22.8216387, 38.7480757 ], [ 22.8213059, 38.7481718 ], [ 22.820893, 38.748167 ], [ 22.8204925, 38.7480565 ], [ 22.8203446, 38.7481959 ], [ 22.8200488, 38.7483112 ], [ 22.8198024, 38.7482247 ], [ 22.8195312, 38.7484842 ], [ 22.8192662, 38.7484073 ], [ 22.818952, 38.7481814 ], [ 22.8190814, 38.7479604 ], [ 22.818882, 38.7477162 ], [ 22.8189273, 38.7475086 ], [ 22.81918, 38.7472539 ], [ 22.8194758, 38.7471289 ], [ 22.8198147, 38.7471049 ], [ 22.8201166, 38.7468262 ], [ 22.8204124, 38.7467204 ], [ 22.8207945, 38.7467012 ], [ 22.8210902, 38.7465667 ] ], [ [ 22.838891, 38.747324 ], [ 22.840011, 38.747704 ], [ 22.840642, 38.747959 ], [ 22.8411962, 38.7481875 ], [ 22.8416778, 38.7485034 ], [ 22.8421708, 38.7488975 ], [ 22.8426268, 38.7492531 ], [ 22.8431444, 38.7495511 ], [ 22.843647, 38.749916 ], [ 22.843681, 38.750289 ], [ 22.843794, 38.750632 ], [ 22.843674, 38.750724 ], [ 22.843395, 38.750753 ], [ 22.842683, 38.75059 ], [ 22.842047, 38.750646 ], [ 22.841802, 38.751079 ], [ 22.841953, 38.751578 ], [ 22.843214, 38.75215 ], [ 22.844083, 38.752407 ], [ 22.844077, 38.75278 ], [ 22.843516, 38.753148 ], [ 22.843357, 38.753146 ], [ 22.8424, 38.753385 ], [ 22.841449, 38.753252 ], [ 22.841518, 38.752674 ], [ 22.8417304, 38.7523207 ], [ 22.8415322, 38.7519785 ], [ 22.8410792, 38.7519785 ], [ 22.8405412, 38.7517245 ], [ 22.8400882, 38.7514927 ], [ 22.8398051, 38.751029 ], [ 22.8393521, 38.7507309 ], [ 22.8390406, 38.7503776 ], [ 22.8389698, 38.749947 ], [ 22.8384743, 38.7497041 ], [ 22.8379081, 38.7495164 ], [ 22.837969, 38.748897 ], [ 22.837506, 38.74843 ], [ 22.835332, 38.747651 ], [ 22.834526, 38.748038 ], [ 22.833475, 38.748027 ], [ 22.832556, 38.747656 ], [ 22.83223, 38.746994 ], [ 22.832237, 38.746566 ], [ 22.832665, 38.746142 ], [ 22.83263, 38.745713 ], [ 22.831169, 38.74504 ], [ 22.830623, 38.744969 ], [ 22.829792, 38.745619 ], [ 22.828821, 38.745873 ], [ 22.82853, 38.74564 ], [ 22.828707, 38.745147 ], [ 22.829558, 38.744497 ], [ 22.830154, 38.744108 ], [ 22.831544, 38.743957 ], [ 22.833223, 38.744171 ], [ 22.834689, 38.744515 ], [ 22.835864, 38.744692 ], [ 22.836573, 38.745028 ], [ 22.837152, 38.745627 ], [ 22.837396, 38.746156 ], [ 22.837389, 38.746551 ], [ 22.837591, 38.74708 ], [ 22.838177, 38.747251 ], [ 22.838891, 38.747324 ] ] ], [ [ [ 22.848365, 38.738186 ], [ 22.848146, 38.739144 ], [ 22.848532, 38.740547 ], [ 22.84842, 38.741146 ], [ 22.848518, 38.741426 ], [ 22.848615615435421, 38.741437910999828 ], [ 22.848615615435421, 38.737918998170727 ], [ 22.848365, 38.738186 ] ] ], [ [ [ 22.821275, 38.7556311 ], [ 22.8212213, 38.7554136 ], [ 22.8209102, 38.7554052 ], [ 22.820996, 38.7557483 ], [ 22.8208843, 38.7560674 ], [ 22.8205107, 38.7560237 ], [ 22.8202679, 38.7562714 ], [ 22.8198009, 38.7563151 ], [ 22.8193713, 38.7562131 ], [ 22.819007, 38.7563369 ], [ 22.819007, 38.7567812 ], [ 22.8187642, 38.7570798 ], [ 22.818581547572489, 38.756979452267316 ], [ 22.818581547572489, 38.757912709038791 ], [ 22.824911075847979, 38.757912709038791 ], [ 22.8248262, 38.7578315 ], [ 22.8248262, 38.7575219 ], [ 22.8251588, 38.7577729 ], [ 22.8253627, 38.7577478 ], [ 22.8254378, 38.7575219 ], [ 22.8254056, 38.7572459 ], [ 22.8251803, 38.7570702 ], [ 22.8247833, 38.7569781 ], [ 22.8244722, 38.7568359 ], [ 22.8242898, 38.7568777 ], [ 22.8241074, 38.7566937 ], [ 22.8234637, 38.7569196 ], [ 22.8233457, 38.7564678 ], [ 22.8237426, 38.7562921 ], [ 22.823925, 38.7560829 ], [ 22.8240001, 38.7556562 ], [ 22.8234744, 38.7555893 ], [ 22.8230238, 38.7554303 ], [ 22.822541, 38.7554638 ], [ 22.8221655, 38.7556395 ], [ 22.821629, 38.7556897 ], [ 22.821275, 38.7556311 ] ] ] ] } }
]
}
