{
"type": "FeatureCollection",
"name": "patch_52496_linestring",
"crs": { "type": "name", "properties": { "name": "urn:ogc:def:crs:OGC:1.3:CRS84" } },
"features": [
{ "type": "Feature", "properties": { "@type": "way", "@id": 8892001, "access": null, "admin_level": "7", "air_conditioning": null, "amenity": null, "baby_feeding": null, "bicycle": null, "building": null, "cargo": null, "created_by": null, "duration": null, "ferry": null, "foot": null, "hgv": null, "highway": null, "int_name": null, "internet_access": null, "lit": null, "man_made": null, "motor_vehicle": null, "motorcar": null, "name": null, "name:de": null, "name:el": null, "name:en": null, "name:fr": null, "name:it": null, "name:ru": null, "name:sr": null, "natural": "coastline", "note": null, "operator": null, "public_transport": null, "ref": null, "route": null, "seamark:light:character": null, "seamark:light:colour": null, "seamark:light:group": null, "seamark:light:height": null, "seamark:light:period": null, "seamark:light:range": null, "seamark:light:reference": null, "seamark:light:sequence": null, "seamark:name": null, "seamark:type": null, "source": "PGS", "toll": null, "website": null, "wheelchair": null, "wikidata": null, "label": "natural:coastline" }, "geometry": { "type": "MultiLineString", "coordinates": [ [ [ 24.275862121293788, 37.524184711668944 ], [ 24.2767339, 37.5240109 ], [ 24.2760373, 37.5235945 ], [ 24.2756359, 37.5229647 ], [ 24.2754788, 37.522141 ], [ 24.2757302, 37.521867 ], [ 24.2759161, 37.5218153 ], [ 24.2764453, 37.5218228 ], [ 24.2767145, 37.5219155 ], [ 24.2769659, 37.5218025 ], [ 24.2771986, 37.5217711 ], [ 24.2776126, 37.5218082 ], [ 24.2779332, 37.5217342 ], [ 24.2781993, 37.5217648 ], [ 24.2781478, 37.5218176 ], [ 24.2780449, 37.5218862 ], [ 24.2779325, 37.5219641 ], [ 24.2780719, 37.5219347 ], [ 24.2783414, 37.5219277 ], [ 24.2783573, 37.5218472 ], [ 24.2784452, 37.5217898 ], [ 24.2787425, 37.5217936 ], [ 24.2798936, 37.5222044 ], [ 24.2805424, 37.522355 ], [ 24.2812074, 37.5226345 ], [ 24.2820415, 37.5226948 ], [ 24.2822073, 37.5224594 ], [ 24.2831337, 37.5222415 ], [ 24.2834436, 37.5223425 ], [ 24.2836559, 37.5225079 ], [ 24.2839162, 37.522559 ], [ 24.2841766, 37.5225005 ], [ 24.2844937, 37.5225771 ], [ 24.2855563, 37.522376 ], [ 24.2862407, 37.522627 ], [ 24.2864054, 37.5227081 ], [ 24.2865047, 37.5229225 ], [ 24.2864311, 37.5237883 ], [ 24.286275990975863, 37.524184711668944 ] ], [ [ 24.286874895821217, 37.524184711668944 ], [ 24.2870007, 37.5240882 ], [ 24.2872575, 37.5240153 ], [ 24.287645, 37.5239795 ], [ 24.2880822, 37.524091 ], [ 24.288158680516446, 37.524184711668944 ] ], [ [ 24.289062465778027, 37.524184711668944 ], [ 24.2892165, 37.5238719 ], [ 24.2893084, 37.5233313 ], [ 24.2893666, 37.5230561 ], [ 24.2892416, 37.5228003 ], [ 24.2892838, 37.5227222 ], [ 24.2894514, 37.5226929 ], [ 24.2894619, 37.5227799 ], [ 24.2895466, 37.5228573 ], [ 24.2897354, 37.522804 ], [ 24.2900097, 37.5227604 ], [ 24.2903391, 37.5229973 ], [ 24.2906441, 37.5230794 ], [ 24.2907721, 37.523205 ], [ 24.2910986, 37.5231951 ], [ 24.2913884, 37.5232531 ], [ 24.2916569, 37.5233346 ], [ 24.2920109, 37.5233484 ], [ 24.2923281, 37.5234341 ], [ 24.2927305, 37.5234504 ], [ 24.2937306, 37.5237446 ], [ 24.29395986304284, 37.523888546804294 ] ] ] } }
]
}
