{
"type": "FeatureCollection",
"name": "patch_39923_polygon",
"crs": { "type": "name", "properties": { "name": "urn:ogc:def:crs:OGC:1.3:CRS84" } },
"features": [
{ "type": "Feature", "properties": { "element": "way", "id": 555998479, "name": null, "waterway": null, "boat": null, "int_name": null, "amenity": "place_of_worship", "building": "yes", "religion": "christian", "label": "building:yes;amenity:place_of_worship" }, "geometry": { "type": "Polygon", "coordinates": [ [ [ 23.9495263, 41.1704288 ], [ 23.9495328, 41.1703706 ], [ 23.9494037, 41.170373 ], [ 23.9494005, 41.1704288 ], [ 23.9495263, 41.1704288 ] ] ] } }
]
}
