{
"type": "FeatureCollection",
"name": "patch_24189_polygon",
"crs": { "type": "name", "properties": { "name": "urn:ogc:def:crs:OGC:1.3:CRS84" } },
"features": [
{ "type": "Feature", "properties": { "element": "way", "id": 135416350, "leaf_type": "needleleaved", "natural": "wood", "source": "http://geodata.gov.gr/", "leisure": null, "type": null, "label": "natural:wood" }, "geometry": { "type": "Polygon", "coordinates": [ [ [ 22.178696, 37.537645 ], [ 22.17932, 37.538034 ], [ 22.180052, 37.538097 ], [ 22.180925, 37.538533 ], [ 22.181864, 37.538412 ], [ 22.18187, 37.538141 ], [ 22.181708, 37.5378 ], [ 22.181208, 37.537386 ], [ 22.180704, 37.537107 ], [ 22.180289, 37.536694 ], [ 22.180299, 37.536288 ], [ 22.180474, 37.536087 ], [ 22.180907, 37.535755 ], [ 22.181342, 37.535355 ], [ 22.182206, 37.534826 ], [ 22.182725, 37.534495 ], [ 22.183498, 37.534169 ], [ 22.184445, 37.533709 ], [ 22.185399, 37.532978 ], [ 22.186346, 37.532518 ], [ 22.186696, 37.532117 ], [ 22.186626, 37.531506 ], [ 22.1863, 37.530891 ], [ 22.185614, 37.531152 ], [ 22.184928, 37.531345 ], [ 22.184168, 37.53113 ], [ 22.183834, 37.530854 ], [ 22.18368, 37.530174 ], [ 22.183702, 37.529293 ], [ 22.18372, 37.528548 ], [ 22.183983, 37.528213 ], [ 22.184587, 37.527884 ], [ 22.185025, 37.527348 ], [ 22.185032, 37.527077 ], [ 22.184865, 37.526939 ], [ 22.184615, 37.526732 ], [ 22.183856, 37.526449 ], [ 22.18318, 37.526236 ], [ 22.18285, 37.525824 ], [ 22.182688, 37.525483 ], [ 22.182696, 37.525144 ], [ 22.18304, 37.525014 ], [ 22.183643, 37.524684 ], [ 22.183737, 37.524347 ], [ 22.183741, 37.524144 ], [ 22.183665, 37.523804 ], [ 22.183167, 37.523254 ], [ 22.182667, 37.52284 ], [ 22.182507, 37.522431 ], [ 22.182183, 37.521748 ], [ 22.180814, 37.522066 ], [ 22.17979, 37.522186 ], [ 22.179269, 37.522652 ], [ 22.179174, 37.523057 ], [ 22.179161, 37.523599 ], [ 22.179147, 37.524141 ], [ 22.178876, 37.524814 ], [ 22.178264, 37.525482 ], [ 22.177909, 37.526087 ], [ 22.177719, 37.526897 ], [ 22.177447, 37.52757 ], [ 22.176994, 37.528715 ], [ 22.176633, 37.529591 ], [ 22.176194, 37.530126 ], [ 22.175255, 37.530247 ], [ 22.174799750054188, 37.530190695694259 ], [ 22.174799750054188, 37.531761710060685 ], [ 22.175858, 37.531713 ], [ 22.177191, 37.531907 ], [ 22.17711, 37.530885 ], [ 22.177754, 37.530238 ], [ 22.178008, 37.52949 ], [ 22.178181, 37.528867 ], [ 22.178361, 37.527931 ], [ 22.178699, 37.526934 ], [ 22.178952, 37.526249 ], [ 22.179204, 37.525565 ], [ 22.180014, 37.524575 ], [ 22.1808, 37.524588 ], [ 22.180602, 37.526275 ], [ 22.180664, 37.526965 ], [ 22.180733, 37.527341 ], [ 22.181038, 37.527722 ], [ 22.181344, 37.528102 ], [ 22.181496, 37.528292 ], [ 22.181649, 37.528482 ], [ 22.181797, 37.52886 ], [ 22.181869, 37.529112 ], [ 22.18194, 37.529426 ], [ 22.18209, 37.529741 ], [ 22.182392, 37.530247 ], [ 22.182543, 37.530499 ], [ 22.18254, 37.530625 ], [ 22.182534, 37.530875 ], [ 22.18253, 37.531063 ], [ 22.182523, 37.531313 ], [ 22.182283, 37.531497 ], [ 22.181647, 37.5318 ], [ 22.181249, 37.531982 ], [ 22.180695, 37.532161 ], [ 22.179407, 37.533394 ], [ 22.177799, 37.534871 ], [ 22.177219, 37.535913 ], [ 22.177006, 37.536737 ], [ 22.176796, 37.537297 ], [ 22.178696, 37.537645 ] ] ] } },
{ "type": "Feature", "properties": { "element": "way", "id": 135416729, "leaf_type": "needleleaved", "natural": "wood", "source": "http://geodata.gov.gr/", "leisure": null, "type": null, "label": "natural:wood" }, "geometry": { "type": "Polygon", "coordinates": [ [ [ 22.17971, 37.542318 ], [ 22.179382, 37.541863 ], [ 22.178604, 37.541311 ], [ 22.177819, 37.541029 ], [ 22.177261, 37.54075 ], [ 22.176937, 37.540114 ], [ 22.176166, 37.539292 ], [ 22.175603, 37.539193 ], [ 22.174799750054188, 37.539260306500417 ], [ 22.174799750054188, 37.542656454143305 ], [ 22.179912080678971, 37.542656454143305 ], [ 22.17971, 37.542318 ] ] ] } },
{ "type": "Feature", "properties": { "element": "way", "id": 135416817, "leaf_type": null, "natural": "wood", "source": null, "leisure": null, "type": null, "label": "natural:wood" }, "geometry": { "type": "Polygon", "coordinates": [ [ [ 22.1937335, 37.5426539 ], [ 22.1936398, 37.542619 ], [ 22.193570438357515, 37.542656454143305 ], [ 22.193732782762808, 37.542656454143305 ], [ 22.1937335, 37.5426539 ] ] ] } },
{ "type": "Feature", "properties": { "element": "way", "id": 549373109, "leaf_type": null, "natural": null, "source": null, "leisure": "swimming_pool", "type": null, "label": "leisure:swimming_pool" }, "geometry": { "type": "Polygon", "coordinates": [ [ [ 22.1979949, 37.5424438 ], [ 22.1980257, 37.5424194 ], [ 22.197961, 37.5423742 ], [ 22.1979348, 37.5424011 ], [ 22.1979949, 37.5424438 ] ] ] } },
{ "type": "Feature", "properties": { "element": "way", "id": 896787026, "leaf_type": null, "natural": "wood", "source": null, "leisure": null, "type": null, "label": "natural:wood" }, "geometry": { "type": "Polygon", "coordinates": [ [ [ 22.1943797, 37.5232391 ], [ 22.194485, 37.5231389 ], [ 22.1946042, 37.5230443 ], [ 22.1946042, 37.5229385 ], [ 22.194506, 37.5228717 ], [ 22.1944078, 37.5228717 ], [ 22.1943236, 37.5228328 ], [ 22.1943165, 37.5229274 ], [ 22.1943165, 37.5230443 ], [ 22.1942674, 37.5232669 ], [ 22.1943797, 37.5232391 ] ] ] } },
{ "type": "Feature", "properties": { "element": "way", "id": 896787027, "leaf_type": null, "natural": "wood", "source": null, "leisure": null, "type": null, "label": "natural:wood" }, "geometry": { "type": "Polygon", "coordinates": [ [ [ 22.1953831, 37.5218978 ], [ 22.1955024, 37.5218144 ], [ 22.1956006, 37.5217142 ], [ 22.1956568, 37.521525 ], [ 22.1957199, 37.5213914 ], [ 22.195748, 37.5212467 ], [ 22.1956147, 37.5213023 ], [ 22.1954954, 37.5213079 ], [ 22.1954603, 37.5214526 ], [ 22.1953691, 37.5215806 ], [ 22.195334, 37.5216975 ], [ 22.1952919, 37.521781 ], [ 22.1951726, 37.521831 ], [ 22.1951024, 37.5218923 ], [ 22.1953831, 37.5218978 ] ] ] } },
{ "type": "Feature", "properties": { "element": "way", "id": 896787035, "leaf_type": null, "natural": "wood", "source": null, "leisure": null, "type": null, "label": "natural:wood" }, "geometry": { "type": "Polygon", "coordinates": [ [ [ 22.1830615, 37.5417529 ], [ 22.1830615, 37.5416529 ], [ 22.1830615, 37.5414919 ], [ 22.1829844, 37.5413475 ], [ 22.1829354, 37.541253 ], [ 22.1828443, 37.5412641 ], [ 22.1827322, 37.5413974 ], [ 22.1826132, 37.5414752 ], [ 22.1826692, 37.5415752 ], [ 22.1828093, 37.5416474 ], [ 22.1828793, 37.5417474 ], [ 22.1829424, 37.5418196 ], [ 22.1830475, 37.5418473 ], [ 22.1830615, 37.5417529 ] ] ] } },
{ "type": "Feature", "properties": { "element": "way", "id": 896787036, "leaf_type": null, "natural": "wood", "source": null, "leisure": null, "type": null, "label": "natural:wood" }, "geometry": { "type": "Polygon", "coordinates": [ [ [ 22.1825291, 37.5422528 ], [ 22.1824521, 37.5421361 ], [ 22.182312, 37.5421028 ], [ 22.1822349, 37.5419973 ], [ 22.1822769, 37.5418918 ], [ 22.1822349, 37.5417807 ], [ 22.1821439, 37.5416974 ], [ 22.1820178, 37.541664 ], [ 22.1819127, 37.5416918 ], [ 22.1818567, 37.5418307 ], [ 22.1817586, 37.5419029 ], [ 22.1816956, 37.5420584 ], [ 22.1816815, 37.5422306 ], [ 22.1816815, 37.5423194 ], [ 22.1817376, 37.542375 ], [ 22.1818777, 37.5424472 ], [ 22.1821509, 37.5424138 ], [ 22.182319, 37.5423583 ], [ 22.1824381, 37.5424583 ], [ 22.1825291, 37.5423972 ], [ 22.1825291, 37.5422528 ] ] ] } },
{ "type": "Feature", "properties": { "element": "way", "id": 896787037, "leaf_type": null, "natural": "wood", "source": null, "leisure": null, "type": null, "label": "natural:wood" }, "geometry": { "type": "Polygon", "coordinates": [ [ [ 22.1814224, 37.5421084 ], [ 22.1815344, 37.5420917 ], [ 22.1815835, 37.5420251 ], [ 22.1816815, 37.5419473 ], [ 22.1816255, 37.5418862 ], [ 22.1815204, 37.5418529 ], [ 22.1814154, 37.5419195 ], [ 22.1814714, 37.5419917 ], [ 22.1814294, 37.5420195 ], [ 22.1813313, 37.5420028 ], [ 22.1811772, 37.5420139 ], [ 22.1809741, 37.5420584 ], [ 22.180911, 37.5421361 ], [ 22.18082, 37.5422472 ], [ 22.18082, 37.5423472 ], [ 22.180904, 37.5423583 ], [ 22.1809951, 37.5423083 ], [ 22.1811492, 37.5421806 ], [ 22.1813033, 37.5420639 ], [ 22.1814224, 37.5421084 ] ] ] } },
{ "type": "Feature", "properties": { "element": "way", "id": 896787038, "leaf_type": null, "natural": "wood", "source": null, "leisure": null, "type": null, "label": "natural:wood" }, "geometry": { "type": "Polygon", "coordinates": [ [ [ 22.1882869, 37.5407587 ], [ 22.1881328, 37.5406865 ], [ 22.1880068, 37.5405754 ], [ 22.1878246, 37.5405588 ], [ 22.1876145, 37.5405477 ], [ 22.1874534, 37.5405699 ], [ 22.1872783, 37.5405643 ], [ 22.1871312, 37.5406254 ], [ 22.1869841, 37.5405921 ], [ 22.186851, 37.540581 ], [ 22.186851, 37.5406476 ], [ 22.186928, 37.5407421 ], [ 22.186942, 37.540842 ], [ 22.186851, 37.5409642 ], [ 22.1867529, 37.5410809 ], [ 22.186935, 37.5410198 ], [ 22.1872082, 37.5409864 ], [ 22.1873903, 37.5409476 ], [ 22.1875304, 37.5408698 ], [ 22.1877126, 37.5408698 ], [ 22.1878176, 37.5409365 ], [ 22.1880348, 37.5409698 ], [ 22.1881468, 37.5410642 ], [ 22.1882869, 37.5410142 ], [ 22.1882869, 37.5407587 ] ] ] } },
{ "type": "Feature", "properties": { "element": "way", "id": 896787064, "leaf_type": null, "natural": "wood", "source": null, "leisure": null, "type": null, "label": "natural:wood" }, "geometry": { "type": "Polygon", "coordinates": [ [ [ 22.1920119, 37.5425249 ], [ 22.1919945, 37.5422486 ], [ 22.192221, 37.5420276 ], [ 22.1923081, 37.5417375 ], [ 22.1922035, 37.5415856 ], [ 22.1917854, 37.5415856 ], [ 22.1914195, 37.5414474 ], [ 22.1911408, 37.5414474 ], [ 22.1908446, 37.5413645 ], [ 22.1906181, 37.5414198 ], [ 22.1905833, 37.5416823 ], [ 22.1906181, 37.5419447 ], [ 22.1906007, 37.5421519 ], [ 22.1904091, 37.5423592 ], [ 22.1904091, 37.5421243 ], [ 22.1903742, 37.5419171 ], [ 22.1901303, 37.5419171 ], [ 22.1901129, 37.5417652 ], [ 22.1902523, 37.5415441 ], [ 22.1902, 37.5413645 ], [ 22.1900084, 37.5412264 ], [ 22.1895205, 37.5412264 ], [ 22.1892941, 37.5411435 ], [ 22.1887888, 37.5412264 ], [ 22.1884926, 37.5412264 ], [ 22.1883184, 37.5413369 ], [ 22.1881965, 37.5415856 ], [ 22.1881442, 37.5418342 ], [ 22.1879351, 37.5419171 ], [ 22.1879351, 37.5420829 ], [ 22.1882139, 37.5422486 ], [ 22.1885449, 37.5424282 ], [ 22.188646443456687, 37.542656454143305 ], [ 22.1889282, 37.542656454143305 ], [ 22.1889282, 37.5426078 ], [ 22.189085, 37.5424282 ], [ 22.1893637, 37.5424282 ], [ 22.1893812, 37.5425802 ], [ 22.189352913220265, 37.542656454143305 ], [ 22.191956575610192, 37.542656454143305 ], [ 22.1920119, 37.5425249 ] ] ] } },
{ "type": "Feature", "properties": { "element": "way", "id": 896787065, "leaf_type": null, "natural": "wood", "source": null, "leisure": null, "type": null, "label": "natural:wood" }, "geometry": { "type": "Polygon", "coordinates": [ [ [ 22.1863846, 37.5413231 ], [ 22.1861581, 37.541406 ], [ 22.1859316, 37.5413645 ], [ 22.185618, 37.5413645 ], [ 22.1853915, 37.5415027 ], [ 22.1851302, 37.5415856 ], [ 22.1851127, 37.5417928 ], [ 22.1849385, 37.5419447 ], [ 22.1848166, 37.5421934 ], [ 22.1849734, 37.542221 ], [ 22.185165, 37.5419447 ], [ 22.1853741, 37.5417928 ], [ 22.1855657, 37.5418618 ], [ 22.185827, 37.5418618 ], [ 22.1860884, 37.5418618 ], [ 22.1862626, 37.5417513 ], [ 22.1865936, 37.5416961 ], [ 22.1868201, 37.5413231 ], [ 22.1863846, 37.5413231 ] ] ] } },
{ "type": "Feature", "properties": { "element": "way", "id": 896794095, "leaf_type": null, "natural": "scrub", "source": null, "leisure": null, "type": null, "label": "natural:scrub" }, "geometry": { "type": "Polygon", "coordinates": [ [ [ 22.1994406, 37.5356145 ], [ 22.1995172, 37.5355132 ], [ 22.1995172, 37.5353781 ], [ 22.1994917, 37.5352227 ], [ 22.1994065, 37.5351281 ], [ 22.1992957, 37.535047 ], [ 22.1992105, 37.5349659 ], [ 22.1990401, 37.5349457 ], [ 22.1989464, 37.5350538 ], [ 22.1989464, 37.5351956 ], [ 22.1989123, 37.5353375 ], [ 22.1989123, 37.5354862 ], [ 22.1989634, 37.5355673 ], [ 22.1991253, 37.5355808 ], [ 22.1992872, 37.5356483 ], [ 22.1994235, 37.5357497 ], [ 22.1994406, 37.5356145 ] ] ] } },
{ "type": "Feature", "properties": { "element": "way", "id": 896794098, "leaf_type": null, "natural": "heath", "source": null, "leisure": null, "type": null, "label": "natural:heath" }, "geometry": { "type": "Polygon", "coordinates": [ [ [ 22.1956439, 37.5420395 ], [ 22.1955276, 37.5420066 ], [ 22.1954029, 37.5419275 ], [ 22.1952948, 37.5419275 ], [ 22.1951785, 37.5418616 ], [ 22.1950455, 37.5418747 ], [ 22.1950787, 37.5420131 ], [ 22.1951868, 37.5420856 ], [ 22.195245, 37.5421318 ], [ 22.1953863, 37.5421384 ], [ 22.1955109, 37.5421384 ], [ 22.1956356, 37.5420988 ], [ 22.1957686, 37.5420922 ], [ 22.1956439, 37.5420395 ] ] ] } }
]
}
