{
"type": "FeatureCollection",
"name": "patch_24189_features",
"crs": { "type": "name", "properties": { "name": "urn:ogc:def:crs:OGC:1.3:CRS84" } },
"features": [
{ "type": "Feature", "properties": { "element": "relation", "id": 10463071, "leaf_type": null, "natural": "wood", "source": null, "leisure": null, "type": "multipolygon", "label": "natural:wood" }, "geometry": { "type": "MultiPolygon", "coordinates": [ [ [ [ 22.1985003, 37.5425842 ], [ 22.1984951, 37.5424408 ], [ 22.1984124, 37.5423794 ], [ 22.1983453, 37.5422688 ], [ 22.1982213, 37.5422565 ], [ 22.1981542, 37.5421623 ], [ 22.1981593, 37.542019 ], [ 22.1981697, 37.5419002 ], [ 22.1981645, 37.5418101 ], [ 22.1981077, 37.541761 ], [ 22.1980354, 37.5418101 ], [ 22.1979217, 37.5418306 ], [ 22.1978184, 37.5418756 ], [ 22.1978133, 37.5419535 ], [ 22.1979114, 37.5420067 ], [ 22.1979889, 37.5420436 ], [ 22.1980354, 37.5421582 ], [ 22.1980922, 37.5422934 ], [ 22.19818, 37.5423589 ], [ 22.1982885, 37.5424982 ], [ 22.1983505, 37.5425842 ], [ 22.198337159449419, 37.542656454143305 ], [ 22.198510992782701, 37.542656454143305 ], [ 22.1985003, 37.5425842 ] ] ], [ [ [ 22.1977616, 37.5426129 ], [ 22.1977719, 37.5425023 ], [ 22.1977499, 37.5423914 ], [ 22.1977203, 37.5421992 ], [ 22.1976531, 37.5421173 ], [ 22.197555, 37.5420518 ], [ 22.1974414, 37.5420395 ], [ 22.1974414, 37.5418756 ], [ 22.1974672, 37.541761 ], [ 22.1975085, 37.5416872 ], [ 22.197462, 37.5415807 ], [ 22.1973535, 37.5415152 ], [ 22.1974723, 37.5414702 ], [ 22.1976118, 37.5414702 ], [ 22.1976686, 37.5414046 ], [ 22.1976686, 37.5413432 ], [ 22.1976273, 37.5412654 ], [ 22.1976325, 37.541163 ], [ 22.1977151, 37.5411384 ], [ 22.1978959, 37.5411384 ], [ 22.198025, 37.5411138 ], [ 22.19818, 37.541122 ], [ 22.1983195, 37.5411589 ], [ 22.1984486, 37.5412695 ], [ 22.1986087, 37.5412285 ], [ 22.1986914, 37.5411302 ], [ 22.1987947, 37.5410811 ], [ 22.1989651, 37.5410606 ], [ 22.1990788, 37.5411425 ], [ 22.1992183, 37.5410073 ], [ 22.1992286, 37.5409131 ], [ 22.1991614, 37.5408435 ], [ 22.1991718, 37.5407698 ], [ 22.1992802, 37.5407411 ], [ 22.1993526, 37.5407165 ], [ 22.199368, 37.5406346 ], [ 22.1992492, 37.5405609 ], [ 22.1990685, 37.5405363 ], [ 22.1989393, 37.5405896 ], [ 22.198836, 37.5406346 ], [ 22.198836, 37.5405363 ], [ 22.1987999, 37.540438 ], [ 22.1987895, 37.5403275 ], [ 22.198805, 37.5402128 ], [ 22.198805, 37.5401431 ], [ 22.1987637, 37.5400653 ], [ 22.1986759, 37.5401186 ], [ 22.1985726, 37.5401718 ], [ 22.1985261, 37.5402537 ], [ 22.1984176, 37.5402701 ], [ 22.198304, 37.5402128 ], [ 22.1983091, 37.5401349 ], [ 22.1983889, 37.5400518 ], [ 22.1984965, 37.5398753 ], [ 22.1985468, 37.5397672 ], [ 22.1985683, 37.5396761 ], [ 22.1987478, 37.5396761 ], [ 22.1988124, 37.539733 ], [ 22.198956, 37.5397785 ], [ 22.1990996, 37.5397558 ], [ 22.1992504, 37.5397501 ], [ 22.1993796, 37.5397102 ], [ 22.1994729, 37.5396305 ], [ 22.1994299, 37.5395224 ], [ 22.1993724, 37.539437 ], [ 22.1992575, 37.5393744 ], [ 22.1990996, 37.539437 ], [ 22.1989273, 37.539437 ], [ 22.1988842, 37.5393174 ], [ 22.1988914, 37.5391865 ], [ 22.1988268, 37.5391182 ], [ 22.1986832, 37.539215 ], [ 22.1986042, 37.5391865 ], [ 22.1985468, 37.5390613 ], [ 22.1985971, 37.5389759 ], [ 22.198755, 37.5389759 ], [ 22.1989058, 37.5390442 ], [ 22.1990422, 37.5390328 ], [ 22.199157, 37.5390499 ], [ 22.1992504, 37.5390499 ], [ 22.1993652, 37.5391182 ], [ 22.1995016, 37.539084 ], [ 22.199595, 37.5390385 ], [ 22.1996452, 37.5389531 ], [ 22.1995016, 37.5389588 ], [ 22.1994083, 37.5389531 ], [ 22.1994801, 37.5388108 ], [ 22.1996165, 37.5387937 ], [ 22.1996955, 37.5387652 ], [ 22.1997314, 37.5386628 ], [ 22.1996309, 37.5386115 ], [ 22.199516, 37.5386058 ], [ 22.199516, 37.5385375 ], [ 22.1995878, 37.5384123 ], [ 22.1996596, 37.5383155 ], [ 22.1996381, 37.5381846 ], [ 22.1995878, 37.5380935 ], [ 22.1996596, 37.537991 ], [ 22.1996739, 37.5378829 ], [ 22.1995591, 37.5379227 ], [ 22.1994442, 37.5380024 ], [ 22.1993652, 37.5381049 ], [ 22.1992863, 37.5381049 ], [ 22.1993796, 37.5379569 ], [ 22.1994514, 37.537843 ], [ 22.1994514, 37.5377121 ], [ 22.1994011, 37.537621 ], [ 22.1992863, 37.5377178 ], [ 22.1992145, 37.5378259 ], [ 22.1992145, 37.5379341 ], [ 22.1991068, 37.5379227 ], [ 22.1991427, 37.5378032 ], [ 22.199157, 37.537695 ], [ 22.1992217, 37.5375811 ], [ 22.1993652, 37.537547 ], [ 22.1994514, 37.5374901 ], [ 22.1996309, 37.5374502 ], [ 22.199717, 37.5373136 ], [ 22.1998104, 37.5372567 ], [ 22.1999324, 37.5372908 ], [ 22.199997, 37.5373648 ], [ 22.2000903, 37.5373477 ], [ 22.2001406, 37.5371997 ], [ 22.2002698, 37.5370688 ], [ 22.2003201, 37.536972 ], [ 22.2003201, 37.5368809 ], [ 22.200198, 37.5367955 ], [ 22.2001406, 37.5366874 ], [ 22.2000401, 37.5366646 ], [ 22.1999396, 37.5366987 ], [ 22.1998893, 37.5367728 ], [ 22.199875, 37.5368638 ], [ 22.1998965, 37.5369549 ], [ 22.1998104, 37.5369663 ], [ 22.1997386, 37.5369151 ], [ 22.1997386, 37.5368069 ], [ 22.1996381, 37.536824 ], [ 22.1995088, 37.5369379 ], [ 22.1993581, 37.5369379 ], [ 22.1991858, 37.5370176 ], [ 22.1990709, 37.5371314 ], [ 22.1990206, 37.5372567 ], [ 22.1989488, 37.5374047 ], [ 22.1988842, 37.5375527 ], [ 22.1987622, 37.537695 ], [ 22.1986976, 37.5378089 ], [ 22.1985755, 37.5378999 ], [ 22.1985396, 37.538065 ], [ 22.1984391, 37.5381447 ], [ 22.1984319, 37.5382927 ], [ 22.1983314, 37.5383611 ], [ 22.1982668, 37.5382871 ], [ 22.1982883, 37.5381504 ], [ 22.1982453, 37.5380707 ], [ 22.1981448, 37.5380195 ], [ 22.1980586, 37.5381277 ], [ 22.1979437, 37.5382017 ], [ 22.197915, 37.5383383 ], [ 22.1978289, 37.5383838 ], [ 22.1977212, 37.5383326 ], [ 22.1976422, 37.5384237 ], [ 22.1975202, 37.5384806 ], [ 22.1974627, 37.5385774 ], [ 22.1974627, 37.5386628 ], [ 22.1973981, 37.5387311 ], [ 22.1973407, 37.5385774 ], [ 22.1972904, 37.538492 ], [ 22.1971181, 37.5384692 ], [ 22.1970535, 37.5384294 ], [ 22.1970535, 37.5383497 ], [ 22.197154, 37.5383155 ], [ 22.1972617, 37.5383781 ], [ 22.1974627, 37.5383781 ], [ 22.1975991, 37.5383383 ], [ 22.1976925, 37.5382586 ], [ 22.197793, 37.5381732 ], [ 22.1977427, 37.5381049 ], [ 22.1976638, 37.5380195 ], [ 22.197513, 37.5379796 ], [ 22.1974412, 37.5378715 ], [ 22.1972976, 37.5378658 ], [ 22.1971468, 37.5379056 ], [ 22.1971325, 37.5377975 ], [ 22.1971038, 37.5376893 ], [ 22.1972186, 37.5375356 ], [ 22.1973694, 37.5374673 ], [ 22.1974197, 37.5373534 ], [ 22.197312, 37.5372623 ], [ 22.1971971, 37.5372339 ], [ 22.1970535, 37.5372623 ], [ 22.1970751, 37.5371826 ], [ 22.1971899, 37.5371143 ], [ 22.1973352, 37.537051 ], [ 22.1974412, 37.5371086 ], [ 22.1974556, 37.5372168 ], [ 22.197513, 37.5373022 ], [ 22.1975417, 37.5374217 ], [ 22.1975417, 37.5375413 ], [ 22.1974986, 37.5376552 ], [ 22.1975345, 37.5377918 ], [ 22.1976853, 37.5378487 ], [ 22.1978073, 37.5378999 ], [ 22.1978648, 37.537991 ], [ 22.197915, 37.538065 ], [ 22.1980084, 37.5379683 ], [ 22.1981017, 37.5378544 ], [ 22.1982309, 37.5378032 ], [ 22.1983171, 37.5376495 ], [ 22.1981663, 37.5375413 ], [ 22.198195, 37.537473 ], [ 22.1982668, 37.5373819 ], [ 22.1983889, 37.5373933 ], [ 22.1984678, 37.5374901 ], [ 22.1985827, 37.5375641 ], [ 22.1987191, 37.5374559 ], [ 22.198877, 37.5372965 ], [ 22.1989201, 37.537177 ], [ 22.1990135, 37.5370973 ], [ 22.198956, 37.5370346 ], [ 22.199035, 37.5369037 ], [ 22.1990422, 37.5367671 ], [ 22.1991355, 37.5366247 ], [ 22.1991283, 37.5364938 ], [ 22.1992288, 37.5363743 ], [ 22.1993078, 37.5365166 ], [ 22.1993293, 37.5366418 ], [ 22.1993293, 37.5367443 ], [ 22.1994227, 37.5368297 ], [ 22.1995591, 37.5368297 ], [ 22.1996811, 37.5367386 ], [ 22.1997816, 37.5365849 ], [ 22.1998534, 37.5365052 ], [ 22.199918, 37.536619 ], [ 22.2000544, 37.5365507 ], [ 22.199997, 37.5364198 ], [ 22.1999396, 37.5362832 ], [ 22.199918, 37.5361295 ], [ 22.199918, 37.5359757 ], [ 22.1999755, 37.5358619 ], [ 22.2000186, 37.5357025 ], [ 22.200131, 37.535535 ], [ 22.2001262, 37.5356911 ], [ 22.2001262, 37.5358391 ], [ 22.2000903, 37.5360156 ], [ 22.2000903, 37.5361978 ], [ 22.2000903, 37.5363287 ], [ 22.2001478, 37.5364483 ], [ 22.200198, 37.536545 ], [ 22.2003057, 37.5366589 ], [ 22.2004062, 37.5367329 ], [ 22.2004565, 37.5368069 ], [ 22.2005929, 37.5368468 ], [ 22.200679, 37.5367841 ], [ 22.2006934, 37.536676 ], [ 22.200758, 37.5365792 ], [ 22.2006934, 37.5364824 ], [ 22.2005211, 37.5365337 ], [ 22.2005211, 37.5364483 ], [ 22.200636, 37.5363572 ], [ 22.2007149, 37.5362433 ], [ 22.2008083, 37.5361465 ], [ 22.2008298, 37.5360156 ], [ 22.2009088, 37.5358676 ], [ 22.200916, 37.5357025 ], [ 22.2009878, 37.5355829 ], [ 22.2010021, 37.5354406 ], [ 22.2011165, 37.5353574 ], [ 22.201287, 37.535349 ], [ 22.201416, 37.5353 ], [ 22.201611, 37.53515 ], [ 22.201945, 37.534595 ], [ 22.202526, 37.534349 ], [ 22.202976, 37.534929 ], [ 22.204134518782816, 37.535017633665909 ], [ 22.204134518782816, 37.530283115559286 ], [ 22.203843, 37.530279 ], [ 22.203417, 37.530272 ], [ 22.202999, 37.529995 ], [ 22.20267, 37.529516 ], [ 22.202519, 37.5287 ], [ 22.202457, 37.52775 ], [ 22.20248, 37.526802 ], [ 22.202412, 37.526056 ], [ 22.202429, 37.525378 ], [ 22.202201, 37.524223 ], [ 22.201884, 37.52327 ], [ 22.201302, 37.522719 ], [ 22.200973, 37.522239 ], [ 22.200816, 37.521695 ], [ 22.200835, 37.520882 ], [ 22.201105, 37.520276 ], [ 22.20171, 37.519879 ], [ 22.201710606023454, 37.519878381230356 ], [ 22.199090410436252, 37.519878381230356 ], [ 22.198807, 37.520309 ], [ 22.1986353, 37.5203745 ], [ 22.1984986, 37.5205009 ], [ 22.1983092, 37.5204286 ], [ 22.1980636, 37.5204787 ], [ 22.1979022, 37.5205733 ], [ 22.1977408, 37.5206512 ], [ 22.1975022, 37.5206401 ], [ 22.197411, 37.5207347 ], [ 22.1971935, 37.5207903 ], [ 22.1969479, 37.5208404 ], [ 22.1968707, 37.5208905 ], [ 22.197004, 37.5210185 ], [ 22.19699, 37.5211743 ], [ 22.1969339, 37.5213413 ], [ 22.1967655, 37.5214804 ], [ 22.1967584, 37.5216474 ], [ 22.1965971, 37.5216418 ], [ 22.1963865, 37.5216919 ], [ 22.1962392, 37.5217921 ], [ 22.196169, 37.521959 ], [ 22.1960287, 37.5222429 ], [ 22.1958954, 37.5223653 ], [ 22.1958041, 37.5225545 ], [ 22.1958462, 37.5226324 ], [ 22.1960427, 37.522766 ], [ 22.1961971, 37.5228105 ], [ 22.1962813, 37.5229441 ], [ 22.1963865, 37.5229942 ], [ 22.1965339, 37.5231723 ], [ 22.1967093, 37.5232168 ], [ 22.1968637, 37.5233337 ], [ 22.1970111, 37.5232224 ], [ 22.1970461, 37.5231166 ], [ 22.1971865, 37.5231667 ], [ 22.1973759, 37.5231611 ], [ 22.1974601, 37.5230777 ], [ 22.1974601, 37.5229107 ], [ 22.1976145, 37.5228384 ], [ 22.1977268, 37.5229051 ], [ 22.1977268, 37.5230164 ], [ 22.1976285, 37.5231333 ], [ 22.1977829, 37.5231389 ], [ 22.1979934, 37.5231222 ], [ 22.1980075, 37.5229942 ], [ 22.1979934, 37.5228662 ], [ 22.1979303, 37.5226157 ], [ 22.1979934, 37.5224488 ], [ 22.1979233, 37.5222429 ], [ 22.1977899, 37.5221093 ], [ 22.1980004, 37.5221093 ], [ 22.1981688, 37.5220036 ], [ 22.1983443, 37.5219145 ], [ 22.1984776, 37.5218199 ], [ 22.1985478, 37.5216975 ], [ 22.1987092, 37.5217309 ], [ 22.1987021, 37.5218978 ], [ 22.1987653, 37.5220592 ], [ 22.1989477, 37.5221093 ], [ 22.1991582, 37.5220648 ], [ 22.1992354, 37.5221538 ], [ 22.1992565, 37.5223486 ], [ 22.1991302, 37.5224599 ], [ 22.199039, 37.5226269 ], [ 22.1988495, 37.5227493 ], [ 22.1987271, 37.5228426 ], [ 22.198896, 37.523698 ], [ 22.1992, 37.525194 ], [ 22.199154, 37.526138 ], [ 22.199306, 37.526861 ], [ 22.199289, 37.527581 ], [ 22.199161, 37.52821 ], [ 22.198575, 37.529056 ], [ 22.198282, 37.529502 ], [ 22.197757, 37.530169 ], [ 22.197467, 37.53048 ], [ 22.197402, 37.530839 ], [ 22.197621, 37.531113 ], [ 22.197897, 37.531387 ], [ 22.1980798, 37.5318305 ], [ 22.1979647, 37.5319096 ], [ 22.1978197, 37.5318981 ], [ 22.1976674, 37.5318636 ], [ 22.1975006, 37.5318809 ], [ 22.1974063, 37.5319901 ], [ 22.1972685, 37.5320649 ], [ 22.1972758, 37.5321742 ], [ 22.1973628, 37.5322719 ], [ 22.1974716, 37.5323812 ], [ 22.1975368, 37.5324962 ], [ 22.1975368, 37.5326515 ], [ 22.1973773, 37.5327033 ], [ 22.1972685, 37.5327838 ], [ 22.197167, 37.5329391 ], [ 22.1972177, 37.5330656 ], [ 22.1972975, 37.5332036 ], [ 22.1972105, 37.5333646 ], [ 22.1973265, 37.5334739 ], [ 22.1973265, 37.5336349 ], [ 22.1971815, 37.5337327 ], [ 22.197225, 37.5339052 ], [ 22.1971307, 37.5340375 ], [ 22.197109, 37.5341985 ], [ 22.1969639, 37.5343136 ], [ 22.1969421, 37.5344401 ], [ 22.1968624, 37.5346011 ], [ 22.1967971, 37.5346931 ], [ 22.1966666, 37.5348484 ], [ 22.196478, 37.5349864 ], [ 22.1963692, 37.5349289 ], [ 22.1962459, 37.5348369 ], [ 22.1960864, 37.5348369 ], [ 22.1959123, 37.5347621 ], [ 22.19576, 37.5347909 ], [ 22.1956803, 37.5349059 ], [ 22.1956512, 37.5350899 ], [ 22.1957165, 37.5352797 ], [ 22.195673, 37.5354235 ], [ 22.1955425, 37.5354407 ], [ 22.1956005, 37.535573 ], [ 22.1957093, 37.5355903 ], [ 22.1958833, 37.5355903 ], [ 22.1959486, 37.5356938 ], [ 22.1958326, 37.5357513 ], [ 22.195702, 37.5357513 ], [ 22.195644, 37.5358721 ], [ 22.1954844, 37.5360216 ], [ 22.1953104, 37.5360848 ], [ 22.1952959, 37.5362516 ], [ 22.1952959, 37.5364471 ], [ 22.1951726, 37.5365219 ], [ 22.1950566, 37.5366024 ], [ 22.1950203, 37.5367117 ], [ 22.194897, 37.5368209 ], [ 22.1950348, 37.5369417 ], [ 22.1951218, 37.5370452 ], [ 22.1952089, 37.5371487 ], [ 22.1953321, 37.5372465 ], [ 22.1952161, 37.5372637 ], [ 22.1950638, 37.5372465 ], [ 22.194897, 37.5372925 ], [ 22.194984, 37.537488 ], [ 22.1951508, 37.5376375 ], [ 22.1951508, 37.5377871 ], [ 22.1949623, 37.5378503 ], [ 22.194752, 37.5378503 ], [ 22.1945779, 37.5379366 ], [ 22.1943894, 37.5379596 ], [ 22.1942516, 37.5380861 ], [ 22.1941283, 37.5382069 ], [ 22.1942806, 37.5383621 ], [ 22.1944836, 37.5383621 ], [ 22.1946649, 37.5384541 ], [ 22.1948753, 37.5384599 ], [ 22.1950348, 37.5385404 ], [ 22.1950781, 37.5386414 ], [ 22.1949844, 37.5387427 ], [ 22.1947969, 37.538763 ], [ 22.1946606, 37.5386684 ], [ 22.1946606, 37.5385265 ], [ 22.1944987, 37.5384657 ], [ 22.1943454, 37.5385468 ], [ 22.1943454, 37.5386549 ], [ 22.1945073, 37.5387022 ], [ 22.1945584, 37.53879 ], [ 22.1944647, 37.5388778 ], [ 22.1946436, 37.5389319 ], [ 22.1947629, 37.5389589 ], [ 22.1948055, 37.5391143 ], [ 22.1947543, 37.5392427 ], [ 22.1947543, 37.5394048 ], [ 22.1946351, 37.5394521 ], [ 22.1945754, 37.539567 ], [ 22.1944135, 37.5396075 ], [ 22.1942772, 37.5397021 ], [ 22.1942687, 37.5398372 ], [ 22.1944306, 37.539844 ], [ 22.1945925, 37.5398372 ], [ 22.1947288, 37.5398642 ], [ 22.194618, 37.539925 ], [ 22.1944135, 37.5399318 ], [ 22.1942431, 37.5399318 ], [ 22.1941494, 37.5399926 ], [ 22.1941494, 37.5401683 ], [ 22.1941494, 37.5403169 ], [ 22.1942346, 37.540398 ], [ 22.1942431, 37.5405263 ], [ 22.1941409, 37.5406952 ], [ 22.1940131, 37.5407898 ], [ 22.1940131, 37.5409182 ], [ 22.193996, 37.5410668 ], [ 22.1938938, 37.5412019 ], [ 22.1938938, 37.5413708 ], [ 22.1939193, 37.5415195 ], [ 22.1938086, 37.5416613 ], [ 22.193783, 37.5417965 ], [ 22.1938086, 37.5419856 ], [ 22.1937915, 37.5421207 ], [ 22.1938767, 37.5421951 ], [ 22.1938597, 37.5424856 ], [ 22.1939534, 37.5422626 ], [ 22.193996, 37.5421275 ], [ 22.1940983, 37.5419654 ], [ 22.194192, 37.5418235 ], [ 22.1940983, 37.5417897 ], [ 22.1939619, 37.5417965 ], [ 22.1939449, 37.5417086 ], [ 22.1940131, 37.5415803 ], [ 22.1940727, 37.5414722 ], [ 22.194192, 37.5413911 ], [ 22.194192, 37.5412965 ], [ 22.1940557, 37.5413371 ], [ 22.1940386, 37.5412695 ], [ 22.1940983, 37.5411749 ], [ 22.1942005, 37.5410263 ], [ 22.1943539, 37.5408709 ], [ 22.1943965, 37.5407425 ], [ 22.1945158, 37.5405128 ], [ 22.1946521, 37.5403709 ], [ 22.1947799, 37.5401615 ], [ 22.1949248, 37.5399994 ], [ 22.1949929, 37.539844 ], [ 22.1950866, 37.5396683 ], [ 22.1951378, 37.5394927 ], [ 22.1951378, 37.5393238 ], [ 22.1951378, 37.5391211 ], [ 22.1951804, 37.5389454 ], [ 22.1951718, 37.5387495 ], [ 22.1951944, 37.5385634 ], [ 22.1953176, 37.5384656 ], [ 22.1954917, 37.5383794 ], [ 22.1956222, 37.5382471 ], [ 22.1958035, 37.5380171 ], [ 22.1958978, 37.5378561 ], [ 22.1959921, 37.5376663 ], [ 22.1961734, 37.5374995 ], [ 22.1962967, 37.5373213 ], [ 22.19642, 37.5370682 ], [ 22.1966013, 37.5367751 ], [ 22.1966616, 37.5366673 ], [ 22.1967058, 37.5365342 ], [ 22.1967544, 37.5364361 ], [ 22.1968649, 37.5363345 ], [ 22.1969621, 37.5362469 ], [ 22.1971079, 37.5361278 ], [ 22.1972006, 37.5362049 ], [ 22.1970416, 37.536324 ], [ 22.1969532, 37.5364221 ], [ 22.1968472, 37.5365307 ], [ 22.1967765, 37.5366568 ], [ 22.1967677, 37.5367864 ], [ 22.1967014, 37.5368985 ], [ 22.1965909, 37.5370387 ], [ 22.1965114, 37.5372068 ], [ 22.1964275, 37.53734 ], [ 22.1963524, 37.5374976 ], [ 22.1962508, 37.5375957 ], [ 22.1961447, 37.5376973 ], [ 22.1960696, 37.5378059 ], [ 22.1960387, 37.537939 ], [ 22.1959592, 37.5380757 ], [ 22.195862, 37.5381562 ], [ 22.1957603, 37.5382824 ], [ 22.1956543, 37.538398 ], [ 22.195535, 37.5384961 ], [ 22.1954025, 37.5385591 ], [ 22.1953362, 37.5386572 ], [ 22.195323, 37.5387623 ], [ 22.1952876, 37.5388709 ], [ 22.1953274, 37.538983 ], [ 22.1953053, 37.5391337 ], [ 22.1952744, 37.5392633 ], [ 22.1953274, 37.5393964 ], [ 22.1952699, 37.539505 ], [ 22.1952611, 37.5396276 ], [ 22.1952037, 37.5397853 ], [ 22.195133, 37.5398869 ], [ 22.19508, 37.539999 ], [ 22.1949783, 37.5401146 ], [ 22.1949342, 37.5402162 ], [ 22.1948149, 37.5403773 ], [ 22.1947486, 37.5404789 ], [ 22.1946691, 37.540542 ], [ 22.1945763, 37.5406366 ], [ 22.1945277, 37.5407627 ], [ 22.1944614, 37.5408713 ], [ 22.1943686, 37.5410009 ], [ 22.1943245, 37.5411445 ], [ 22.1943289, 37.5412846 ], [ 22.1943289, 37.5414738 ], [ 22.1943289, 37.5416209 ], [ 22.1943554, 37.5417471 ], [ 22.1943377, 37.5418662 ], [ 22.1942599, 37.5419651 ], [ 22.1941963, 37.5420483 ], [ 22.1941301, 37.5422165 ], [ 22.1940638, 37.5423286 ], [ 22.1940682, 37.5424687 ], [ 22.194066, 37.542584 ], [ 22.193970343656506, 37.542656454143305 ], [ 22.197782516117655, 37.542656454143305 ], [ 22.1977616, 37.5426129 ] ], [ [ 22.1995172, 37.5355132 ], [ 22.1994406, 37.5356145 ], [ 22.1994235, 37.5357497 ], [ 22.1992872, 37.5356483 ], [ 22.1991253, 37.5355808 ], [ 22.1989634, 37.5355673 ], [ 22.1989123, 37.5354862 ], [ 22.1989123, 37.5353375 ], [ 22.1989464, 37.5351956 ], [ 22.1989464, 37.5350538 ], [ 22.1990401, 37.5349457 ], [ 22.1992105, 37.5349659 ], [ 22.1992957, 37.535047 ], [ 22.1994065, 37.5351281 ], [ 22.1994917, 37.5352227 ], [ 22.1995172, 37.5353781 ], [ 22.1995172, 37.5355132 ] ], [ [ 22.1978217, 37.5400119 ], [ 22.1979437, 37.5399607 ], [ 22.1979509, 37.5400916 ], [ 22.1978907, 37.5402046 ], [ 22.1978959, 37.5403029 ], [ 22.1978959, 37.5404094 ], [ 22.1978391, 37.5404913 ], [ 22.1977151, 37.5405568 ], [ 22.1975653, 37.5406182 ], [ 22.1974775, 37.5407206 ], [ 22.1974568, 37.5408148 ], [ 22.1975188, 37.5408968 ], [ 22.1976325, 37.5408968 ], [ 22.1977358, 37.5408968 ], [ 22.1976738, 37.5409746 ], [ 22.1975292, 37.5410401 ], [ 22.1974414, 37.5411015 ], [ 22.1973794, 37.5412244 ], [ 22.1973535, 37.5413145 ], [ 22.1973639, 37.541421 ], [ 22.1972606, 37.5414988 ], [ 22.1971366, 37.5414415 ], [ 22.1970953, 37.5415234 ], [ 22.1970953, 37.5416627 ], [ 22.1971263, 37.5417323 ], [ 22.1971986, 37.5418265 ], [ 22.1972709, 37.5418674 ], [ 22.1973174, 37.5419371 ], [ 22.1972037, 37.5420272 ], [ 22.1971986, 37.5420927 ], [ 22.1973071, 37.5421541 ], [ 22.1973949, 37.5422074 ], [ 22.1974672, 37.5422852 ], [ 22.1975498, 37.5423384 ], [ 22.1975776, 37.5424256 ], [ 22.1974484, 37.5424768 ], [ 22.1973263, 37.5425451 ], [ 22.1971253, 37.5425508 ], [ 22.1969556, 37.5426209 ], [ 22.1968022, 37.5426077 ], [ 22.1966515, 37.5425565 ], [ 22.1967426, 37.5425313 ], [ 22.1968094, 37.5424711 ], [ 22.1968094, 37.5423857 ], [ 22.1966802, 37.5422833 ], [ 22.1966084, 37.5421922 ], [ 22.1966084, 37.5420328 ], [ 22.1965079, 37.5420499 ], [ 22.1963858, 37.5420385 ], [ 22.1962819, 37.5421657 ], [ 22.1961561, 37.5422264 ], [ 22.1960125, 37.5420954 ], [ 22.1960556, 37.5419133 ], [ 22.1961346, 37.5417368 ], [ 22.1961346, 37.5416343 ], [ 22.1962423, 37.5415205 ], [ 22.1963715, 37.541418 ], [ 22.1963284, 37.5415603 ], [ 22.196314, 37.5416799 ], [ 22.1964002, 37.5416116 ], [ 22.1965007, 37.5414863 ], [ 22.1964864, 37.5413554 ], [ 22.1965653, 37.5412359 ], [ 22.196673, 37.5411391 ], [ 22.196673, 37.5409968 ], [ 22.1966012, 37.5408715 ], [ 22.1965151, 37.5407748 ], [ 22.1964864, 37.5406267 ], [ 22.196393, 37.5405755 ], [ 22.196314, 37.5407008 ], [ 22.196314, 37.5407918 ], [ 22.1964361, 37.5409341 ], [ 22.1962853, 37.5410082 ], [ 22.1962207, 37.541122 ], [ 22.196113, 37.5412074 ], [ 22.1961274, 37.541344 ], [ 22.1961274, 37.5414863 ], [ 22.1960412, 37.5415376 ], [ 22.1959479, 37.5416514 ], [ 22.195758, 37.541785 ], [ 22.1957612, 37.5416628 ], [ 22.1958905, 37.5415489 ], [ 22.195991, 37.5414522 ], [ 22.1960412, 37.5413269 ], [ 22.1960269, 37.5412188 ], [ 22.195912, 37.5412302 ], [ 22.1957469, 37.5412302 ], [ 22.1957182, 37.5411732 ], [ 22.1957469, 37.5410082 ], [ 22.1956895, 37.5409228 ], [ 22.1955674, 37.5408545 ], [ 22.195632, 37.5407748 ], [ 22.1956392, 37.5406552 ], [ 22.1957541, 37.5405641 ], [ 22.1957469, 37.5407121 ], [ 22.1957469, 37.5408317 ], [ 22.19579, 37.5408829 ], [ 22.1959335, 37.5408601 ], [ 22.19607, 37.5407349 ], [ 22.1960556, 37.5406609 ], [ 22.1961202, 37.5405812 ], [ 22.1962494, 37.5405527 ], [ 22.1963571, 37.5404446 ], [ 22.1962997, 37.5403592 ], [ 22.1963643, 37.5402055 ], [ 22.1963858, 37.5400973 ], [ 22.1965007, 37.5400518 ], [ 22.1966371, 37.5400973 ], [ 22.1967448, 37.5400404 ], [ 22.1966802, 37.5399664 ], [ 22.1965869, 37.5399607 ], [ 22.1964864, 37.5398867 ], [ 22.1964864, 37.5397842 ], [ 22.1965438, 37.5396988 ], [ 22.1965438, 37.5395907 ], [ 22.1964505, 37.5395907 ], [ 22.1963356, 37.5396875 ], [ 22.1962135, 37.5397729 ], [ 22.1961633, 37.5396875 ], [ 22.1961633, 37.5395679 ], [ 22.1962135, 37.5394825 ], [ 22.1961776, 37.5393174 ], [ 22.1960843, 37.5392377 ], [ 22.1960843, 37.539141 ], [ 22.1961848, 37.539141 ], [ 22.196271, 37.5392776 ], [ 22.1963284, 37.5393687 ], [ 22.1963284, 37.5394541 ], [ 22.1964576, 37.5394768 ], [ 22.1965079, 37.5393914 ], [ 22.1966084, 37.5393061 ], [ 22.1966084, 37.5394939 ], [ 22.1967233, 37.5395907 ], [ 22.1968166, 37.539585 ], [ 22.1969315, 37.5396248 ], [ 22.1970966, 37.5395736 ], [ 22.1972043, 37.5397045 ], [ 22.1972115, 37.5398184 ], [ 22.1972115, 37.539955 ], [ 22.1970679, 37.5400575 ], [ 22.1969243, 37.540103 ], [ 22.1969243, 37.5402453 ], [ 22.1968453, 37.5403421 ], [ 22.1968453, 37.5404958 ], [ 22.1968884, 37.5405869 ], [ 22.1970104, 37.5406097 ], [ 22.1971397, 37.5405243 ], [ 22.1972689, 37.5404218 ], [ 22.1973335, 37.5403535 ], [ 22.1975345, 37.5402852 ], [ 22.1976135, 37.5402055 ], [ 22.1977714, 37.5401258 ], [ 22.1978217, 37.5400119 ] ], [ [ 22.1955276, 37.5420066 ], [ 22.1956439, 37.5420395 ], [ 22.1957686, 37.5420922 ], [ 22.1956356, 37.5420988 ], [ 22.1955109, 37.5421384 ], [ 22.1953863, 37.5421384 ], [ 22.195245, 37.5421318 ], [ 22.1951868, 37.5420856 ], [ 22.1950787, 37.5420131 ], [ 22.1950455, 37.5418747 ], [ 22.1951785, 37.5418616 ], [ 22.1952948, 37.5419275 ], [ 22.1954029, 37.5419275 ], [ 22.1955276, 37.5420066 ] ] ] ] } },
{ "type": "Feature", "properties": { "element": "way", "id": 135416350, "leaf_type": "needleleaved", "natural": "wood", "source": "http://geodata.gov.gr/", "leisure": null, "type": null, "label": "natural:wood" }, "geometry": { "type": "Polygon", "coordinates": [ [ [ 22.178696, 37.537645 ], [ 22.17932, 37.538034 ], [ 22.180052, 37.538097 ], [ 22.180925, 37.538533 ], [ 22.181864, 37.538412 ], [ 22.18187, 37.538141 ], [ 22.181708, 37.5378 ], [ 22.181208, 37.537386 ], [ 22.180704, 37.537107 ], [ 22.180289, 37.536694 ], [ 22.180299, 37.536288 ], [ 22.180474, 37.536087 ], [ 22.180907, 37.535755 ], [ 22.181342, 37.535355 ], [ 22.182206, 37.534826 ], [ 22.182725, 37.534495 ], [ 22.183498, 37.534169 ], [ 22.184445, 37.533709 ], [ 22.185399, 37.532978 ], [ 22.186346, 37.532518 ], [ 22.186696, 37.532117 ], [ 22.186626, 37.531506 ], [ 22.1863, 37.530891 ], [ 22.185614, 37.531152 ], [ 22.184928, 37.531345 ], [ 22.184168, 37.53113 ], [ 22.183834, 37.530854 ], [ 22.18368, 37.530174 ], [ 22.183702, 37.529293 ], [ 22.18372, 37.528548 ], [ 22.183983, 37.528213 ], [ 22.184587, 37.527884 ], [ 22.185025, 37.527348 ], [ 22.185032, 37.527077 ], [ 22.184865, 37.526939 ], [ 22.184615, 37.526732 ], [ 22.183856, 37.526449 ], [ 22.18318, 37.526236 ], [ 22.18285, 37.525824 ], [ 22.182688, 37.525483 ], [ 22.182696, 37.525144 ], [ 22.18304, 37.525014 ], [ 22.183643, 37.524684 ], [ 22.183737, 37.524347 ], [ 22.183741, 37.524144 ], [ 22.183665, 37.523804 ], [ 22.183167, 37.523254 ], [ 22.182667, 37.52284 ], [ 22.182507, 37.522431 ], [ 22.182183, 37.521748 ], [ 22.180814, 37.522066 ], [ 22.17979, 37.522186 ], [ 22.179269, 37.522652 ], [ 22.179174, 37.523057 ], [ 22.179161, 37.523599 ], [ 22.179147, 37.524141 ], [ 22.178876, 37.524814 ], [ 22.178264, 37.525482 ], [ 22.177909, 37.526087 ], [ 22.177719, 37.526897 ], [ 22.177447, 37.52757 ], [ 22.176994, 37.528715 ], [ 22.176633, 37.529591 ], [ 22.176194, 37.530126 ], [ 22.175255, 37.530247 ], [ 22.174799750054188, 37.530190695694259 ], [ 22.174799750054188, 37.531761710060685 ], [ 22.175858, 37.531713 ], [ 22.177191, 37.531907 ], [ 22.17711, 37.530885 ], [ 22.177754, 37.530238 ], [ 22.178008, 37.52949 ], [ 22.178181, 37.528867 ], [ 22.178361, 37.527931 ], [ 22.178699, 37.526934 ], [ 22.178952, 37.526249 ], [ 22.179204, 37.525565 ], [ 22.180014, 37.524575 ], [ 22.1808, 37.524588 ], [ 22.180602, 37.526275 ], [ 22.180664, 37.526965 ], [ 22.180733, 37.527341 ], [ 22.181038, 37.527722 ], [ 22.181344, 37.528102 ], [ 22.181496, 37.528292 ], [ 22.181649, 37.528482 ], [ 22.181797, 37.52886 ], [ 22.181869, 37.529112 ], [ 22.18194, 37.529426 ], [ 22.18209, 37.529741 ], [ 22.182392, 37.530247 ], [ 22.182543, 37.530499 ], [ 22.18254, 37.530625 ], [ 22.182534, 37.530875 ], [ 22.18253, 37.531063 ], [ 22.182523, 37.531313 ], [ 22.182283, 37.531497 ], [ 22.181647, 37.5318 ], [ 22.181249, 37.531982 ], [ 22.180695, 37.532161 ], [ 22.179407, 37.533394 ], [ 22.177799, 37.534871 ], [ 22.177219, 37.535913 ], [ 22.177006, 37.536737 ], [ 22.176796, 37.537297 ], [ 22.178696, 37.537645 ] ] ] } },
{ "type": "Feature", "properties": { "element": "way", "id": 135416729, "leaf_type": "needleleaved", "natural": "wood", "source": "http://geodata.gov.gr/", "leisure": null, "type": null, "label": "natural:wood" }, "geometry": { "type": "Polygon", "coordinates": [ [ [ 22.17971, 37.542318 ], [ 22.179382, 37.541863 ], [ 22.178604, 37.541311 ], [ 22.177819, 37.541029 ], [ 22.177261, 37.54075 ], [ 22.176937, 37.540114 ], [ 22.176166, 37.539292 ], [ 22.175603, 37.539193 ], [ 22.174799750054188, 37.539260306500417 ], [ 22.174799750054188, 37.542656454143305 ], [ 22.179912080678971, 37.542656454143305 ], [ 22.17971, 37.542318 ] ] ] } },
{ "type": "Feature", "properties": { "element": "way", "id": 135416817, "leaf_type": null, "natural": "wood", "source": null, "leisure": null, "type": null, "label": "natural:wood" }, "geometry": { "type": "Polygon", "coordinates": [ [ [ 22.1937335, 37.5426539 ], [ 22.1936398, 37.542619 ], [ 22.193570438357515, 37.542656454143305 ], [ 22.193732782762808, 37.542656454143305 ], [ 22.1937335, 37.5426539 ] ] ] } },
{ "type": "Feature", "properties": { "element": "way", "id": 549373109, "leaf_type": null, "natural": null, "source": null, "leisure": "swimming_pool", "type": null, "label": "leisure:swimming_pool" }, "geometry": { "type": "Polygon", "coordinates": [ [ [ 22.1979949, 37.5424438 ], [ 22.1980257, 37.5424194 ], [ 22.197961, 37.5423742 ], [ 22.1979348, 37.5424011 ], [ 22.1979949, 37.5424438 ] ] ] } },
{ "type": "Feature", "properties": { "element": "way", "id": 896787026, "leaf_type": null, "natural": "wood", "source": null, "leisure": null, "type": null, "label": "natural:wood" }, "geometry": { "type": "Polygon", "coordinates": [ [ [ 22.1943797, 37.5232391 ], [ 22.194485, 37.5231389 ], [ 22.1946042, 37.5230443 ], [ 22.1946042, 37.5229385 ], [ 22.194506, 37.5228717 ], [ 22.1944078, 37.5228717 ], [ 22.1943236, 37.5228328 ], [ 22.1943165, 37.5229274 ], [ 22.1943165, 37.5230443 ], [ 22.1942674, 37.5232669 ], [ 22.1943797, 37.5232391 ] ] ] } },
{ "type": "Feature", "properties": { "element": "way", "id": 896787027, "leaf_type": null, "natural": "wood", "source": null, "leisure": null, "type": null, "label": "natural:wood" }, "geometry": { "type": "Polygon", "coordinates": [ [ [ 22.1953831, 37.5218978 ], [ 22.1955024, 37.5218144 ], [ 22.1956006, 37.5217142 ], [ 22.1956568, 37.521525 ], [ 22.1957199, 37.5213914 ], [ 22.195748, 37.5212467 ], [ 22.1956147, 37.5213023 ], [ 22.1954954, 37.5213079 ], [ 22.1954603, 37.5214526 ], [ 22.1953691, 37.5215806 ], [ 22.195334, 37.5216975 ], [ 22.1952919, 37.521781 ], [ 22.1951726, 37.521831 ], [ 22.1951024, 37.5218923 ], [ 22.1953831, 37.5218978 ] ] ] } },
{ "type": "Feature", "properties": { "element": "way", "id": 896787035, "leaf_type": null, "natural": "wood", "source": null, "leisure": null, "type": null, "label": "natural:wood" }, "geometry": { "type": "Polygon", "coordinates": [ [ [ 22.1830615, 37.5417529 ], [ 22.1830615, 37.5416529 ], [ 22.1830615, 37.5414919 ], [ 22.1829844, 37.5413475 ], [ 22.1829354, 37.541253 ], [ 22.1828443, 37.5412641 ], [ 22.1827322, 37.5413974 ], [ 22.1826132, 37.5414752 ], [ 22.1826692, 37.5415752 ], [ 22.1828093, 37.5416474 ], [ 22.1828793, 37.5417474 ], [ 22.1829424, 37.5418196 ], [ 22.1830475, 37.5418473 ], [ 22.1830615, 37.5417529 ] ] ] } },
{ "type": "Feature", "properties": { "element": "way", "id": 896787036, "leaf_type": null, "natural": "wood", "source": null, "leisure": null, "type": null, "label": "natural:wood" }, "geometry": { "type": "Polygon", "coordinates": [ [ [ 22.1825291, 37.5422528 ], [ 22.1824521, 37.5421361 ], [ 22.182312, 37.5421028 ], [ 22.1822349, 37.5419973 ], [ 22.1822769, 37.5418918 ], [ 22.1822349, 37.5417807 ], [ 22.1821439, 37.5416974 ], [ 22.1820178, 37.541664 ], [ 22.1819127, 37.5416918 ], [ 22.1818567, 37.5418307 ], [ 22.1817586, 37.5419029 ], [ 22.1816956, 37.5420584 ], [ 22.1816815, 37.5422306 ], [ 22.1816815, 37.5423194 ], [ 22.1817376, 37.542375 ], [ 22.1818777, 37.5424472 ], [ 22.1821509, 37.5424138 ], [ 22.182319, 37.5423583 ], [ 22.1824381, 37.5424583 ], [ 22.1825291, 37.5423972 ], [ 22.1825291, 37.5422528 ] ] ] } },
{ "type": "Feature", "properties": { "element": "way", "id": 896787037, "leaf_type": null, "natural": "wood", "source": null, "leisure": null, "type": null, "label": "natural:wood" }, "geometry": { "type": "Polygon", "coordinates": [ [ [ 22.1814224, 37.5421084 ], [ 22.1815344, 37.5420917 ], [ 22.1815835, 37.5420251 ], [ 22.1816815, 37.5419473 ], [ 22.1816255, 37.5418862 ], [ 22.1815204, 37.5418529 ], [ 22.1814154, 37.5419195 ], [ 22.1814714, 37.5419917 ], [ 22.1814294, 37.5420195 ], [ 22.1813313, 37.5420028 ], [ 22.1811772, 37.5420139 ], [ 22.1809741, 37.5420584 ], [ 22.180911, 37.5421361 ], [ 22.18082, 37.5422472 ], [ 22.18082, 37.5423472 ], [ 22.180904, 37.5423583 ], [ 22.1809951, 37.5423083 ], [ 22.1811492, 37.5421806 ], [ 22.1813033, 37.5420639 ], [ 22.1814224, 37.5421084 ] ] ] } },
{ "type": "Feature", "properties": { "element": "way", "id": 896787038, "leaf_type": null, "natural": "wood", "source": null, "leisure": null, "type": null, "label": "natural:wood" }, "geometry": { "type": "Polygon", "coordinates": [ [ [ 22.1882869, 37.5407587 ], [ 22.1881328, 37.5406865 ], [ 22.1880068, 37.5405754 ], [ 22.1878246, 37.5405588 ], [ 22.1876145, 37.5405477 ], [ 22.1874534, 37.5405699 ], [ 22.1872783, 37.5405643 ], [ 22.1871312, 37.5406254 ], [ 22.1869841, 37.5405921 ], [ 22.186851, 37.540581 ], [ 22.186851, 37.5406476 ], [ 22.186928, 37.5407421 ], [ 22.186942, 37.540842 ], [ 22.186851, 37.5409642 ], [ 22.1867529, 37.5410809 ], [ 22.186935, 37.5410198 ], [ 22.1872082, 37.5409864 ], [ 22.1873903, 37.5409476 ], [ 22.1875304, 37.5408698 ], [ 22.1877126, 37.5408698 ], [ 22.1878176, 37.5409365 ], [ 22.1880348, 37.5409698 ], [ 22.1881468, 37.5410642 ], [ 22.1882869, 37.5410142 ], [ 22.1882869, 37.5407587 ] ] ] } },
{ "type": "Feature", "properties": { "element": "way", "id": 896787052, "leaf_type": null, "natural": "wood", "source": null, "leisure": null, "type": null, "label": "natural:wood" }, "geometry": { "type": "MultiPolygon", "coordinates": [ [ [ [ 22.1748734, 37.524142 ], [ 22.1748126, 37.5240166 ], [ 22.1748856, 37.5239105 ], [ 22.1749951, 37.5237851 ], [ 22.1749951, 37.5236018 ], [ 22.1750437, 37.523486 ], [ 22.1749586, 37.5234088 ], [ 22.1748004, 37.5233606 ], [ 22.174799750054188, 37.52335853231525 ], [ 22.174799750054188, 37.524193131077489 ], [ 22.1748734, 37.524142 ] ] ], [ [ [ 22.1748734, 37.5232062 ], [ 22.1749342, 37.5230905 ], [ 22.1748248, 37.522994 ], [ 22.174799750054188, 37.522988589361475 ], [ 22.174799750054188, 37.523232186178319 ], [ 22.1748734, 37.5232062 ] ] ] ] } },
{ "type": "Feature", "properties": { "element": "way", "id": 896787064, "leaf_type": null, "natural": "wood", "source": null, "leisure": null, "type": null, "label": "natural:wood" }, "geometry": { "type": "Polygon", "coordinates": [ [ [ 22.1920119, 37.5425249 ], [ 22.1919945, 37.5422486 ], [ 22.192221, 37.5420276 ], [ 22.1923081, 37.5417375 ], [ 22.1922035, 37.5415856 ], [ 22.1917854, 37.5415856 ], [ 22.1914195, 37.5414474 ], [ 22.1911408, 37.5414474 ], [ 22.1908446, 37.5413645 ], [ 22.1906181, 37.5414198 ], [ 22.1905833, 37.5416823 ], [ 22.1906181, 37.5419447 ], [ 22.1906007, 37.5421519 ], [ 22.1904091, 37.5423592 ], [ 22.1904091, 37.5421243 ], [ 22.1903742, 37.5419171 ], [ 22.1901303, 37.5419171 ], [ 22.1901129, 37.5417652 ], [ 22.1902523, 37.5415441 ], [ 22.1902, 37.5413645 ], [ 22.1900084, 37.5412264 ], [ 22.1895205, 37.5412264 ], [ 22.1892941, 37.5411435 ], [ 22.1887888, 37.5412264 ], [ 22.1884926, 37.5412264 ], [ 22.1883184, 37.5413369 ], [ 22.1881965, 37.5415856 ], [ 22.1881442, 37.5418342 ], [ 22.1879351, 37.5419171 ], [ 22.1879351, 37.5420829 ], [ 22.1882139, 37.5422486 ], [ 22.1885449, 37.5424282 ], [ 22.188646443456687, 37.542656454143305 ], [ 22.1889282, 37.542656454143305 ], [ 22.1889282, 37.5426078 ], [ 22.189085, 37.5424282 ], [ 22.1893637, 37.5424282 ], [ 22.1893812, 37.5425802 ], [ 22.189352913220265, 37.542656454143305 ], [ 22.191956575610192, 37.542656454143305 ], [ 22.1920119, 37.5425249 ] ] ] } },
{ "type": "Feature", "properties": { "element": "way", "id": 896787065, "leaf_type": null, "natural": "wood", "source": null, "leisure": null, "type": null, "label": "natural:wood" }, "geometry": { "type": "Polygon", "coordinates": [ [ [ 22.1863846, 37.5413231 ], [ 22.1861581, 37.541406 ], [ 22.1859316, 37.5413645 ], [ 22.185618, 37.5413645 ], [ 22.1853915, 37.5415027 ], [ 22.1851302, 37.5415856 ], [ 22.1851127, 37.5417928 ], [ 22.1849385, 37.5419447 ], [ 22.1848166, 37.5421934 ], [ 22.1849734, 37.542221 ], [ 22.185165, 37.5419447 ], [ 22.1853741, 37.5417928 ], [ 22.1855657, 37.5418618 ], [ 22.185827, 37.5418618 ], [ 22.1860884, 37.5418618 ], [ 22.1862626, 37.5417513 ], [ 22.1865936, 37.5416961 ], [ 22.1868201, 37.5413231 ], [ 22.1863846, 37.5413231 ] ] ] } },
{ "type": "Feature", "properties": { "element": "way", "id": 896794095, "leaf_type": null, "natural": "scrub", "source": null, "leisure": null, "type": null, "label": "natural:scrub" }, "geometry": { "type": "Polygon", "coordinates": [ [ [ 22.1994406, 37.5356145 ], [ 22.1995172, 37.5355132 ], [ 22.1995172, 37.5353781 ], [ 22.1994917, 37.5352227 ], [ 22.1994065, 37.5351281 ], [ 22.1992957, 37.535047 ], [ 22.1992105, 37.5349659 ], [ 22.1990401, 37.5349457 ], [ 22.1989464, 37.5350538 ], [ 22.1989464, 37.5351956 ], [ 22.1989123, 37.5353375 ], [ 22.1989123, 37.5354862 ], [ 22.1989634, 37.5355673 ], [ 22.1991253, 37.5355808 ], [ 22.1992872, 37.5356483 ], [ 22.1994235, 37.5357497 ], [ 22.1994406, 37.5356145 ] ] ] } },
{ "type": "Feature", "properties": { "element": "way", "id": 896794098, "leaf_type": null, "natural": "heath", "source": null, "leisure": null, "type": null, "label": "natural:heath" }, "geometry": { "type": "Polygon", "coordinates": [ [ [ 22.1956439, 37.5420395 ], [ 22.1955276, 37.5420066 ], [ 22.1954029, 37.5419275 ], [ 22.1952948, 37.5419275 ], [ 22.1951785, 37.5418616 ], [ 22.1950455, 37.5418747 ], [ 22.1950787, 37.5420131 ], [ 22.1951868, 37.5420856 ], [ 22.195245, 37.5421318 ], [ 22.1953863, 37.5421384 ], [ 22.1955109, 37.5421384 ], [ 22.1956356, 37.5420988 ], [ 22.1957686, 37.5420922 ], [ 22.1956439, 37.5420395 ] ] ] } }
]
}
