{
"type": "FeatureCollection",
"name": "patch_72868_polygon",
"crs": { "type": "name", "properties": { "name": "urn:ogc:def:crs:OGC:1.3:CRS84" } },
"features": [
{ "type": "Feature", "properties": { "element": "relation", "id": 1829662, "ele": null, "name": null, "name:el": null, "name:en": null, "natural": "wood", "boat": null, "name:de": null, "name:fr": null, "old_name": null, "waterway": null, "width": null, "source": "http://geodata.gov.gr/", "leaf_type": "needleleaved", "int_name": null, "type": "multipolygon", "label": "natural:wood" }, "geometry": { "type": "Polygon", "coordinates": [ [ [ 22.094054, 38.7402471 ], [ 22.0936151, 38.740098 ], [ 22.093779483491613, 38.740333894954063 ], [ 22.094169258758534, 38.740333894954063 ], [ 22.094054, 38.7402471 ] ] ] } },
{ "type": "Feature", "properties": { "element": "relation", "id": 2374611, "ele": null, "name": null, "name:el": null, "name:en": null, "natural": "wood", "boat": null, "name:de": null, "name:fr": null, "old_name": null, "waterway": null, "width": null, "source": null, "leaf_type": "mixed", "int_name": null, "type": "multipolygon", "label": "natural:wood" }, "geometry": { "type": "Polygon", "coordinates": [ [ [ 22.0881294, 38.7363933 ], [ 22.0883205, 38.7364816 ], [ 22.0884338, 38.7366086 ], [ 22.0885966, 38.7366583 ], [ 22.0888018, 38.7365921 ], [ 22.0889646, 38.7366473 ], [ 22.0890071, 38.7367246 ], [ 22.0889434, 38.7368019 ], [ 22.0888018, 38.7368129 ], [ 22.088632, 38.7367743 ], [ 22.0884904, 38.7368074 ], [ 22.0884904, 38.7369344 ], [ 22.0887311, 38.7369399 ], [ 22.0887381, 38.7370227 ], [ 22.0885753, 38.7370282 ], [ 22.0884338, 38.7371111 ], [ 22.0884338, 38.7372933 ], [ 22.088455, 38.7374423 ], [ 22.0883347, 38.7375528 ], [ 22.0883347, 38.7377129 ], [ 22.0882002, 38.7379227 ], [ 22.0881648, 38.7380994 ], [ 22.0881648, 38.7382981 ], [ 22.0881506, 38.7384472 ], [ 22.0881365, 38.7386625 ], [ 22.0881789, 38.7388668 ], [ 22.0881294, 38.7390269 ], [ 22.088097771029783, 38.739000938376861 ], [ 22.088097771029783, 38.740333894954063 ], [ 22.088149041026039, 38.740333894954063 ], [ 22.0881789, 38.7403078 ], [ 22.0883913, 38.7402305 ], [ 22.0885683, 38.740225 ], [ 22.0887948, 38.7401312 ], [ 22.0886107, 38.7399655 ], [ 22.0888231, 38.7399048 ], [ 22.0890567, 38.7398551 ], [ 22.0894318, 38.7399435 ], [ 22.0894672, 38.740076 ], [ 22.0895663, 38.7402361 ], [ 22.089570358119076, 38.740333894954063 ], [ 22.091219537430813, 38.740333894954063 ], [ 22.0911589, 38.7402692 ], [ 22.0908687, 38.7401919 ], [ 22.0909112, 38.7400097 ], [ 22.0910952, 38.7398993 ], [ 22.0913713, 38.7397226 ], [ 22.0915836, 38.7396343 ], [ 22.0915199, 38.739833 ], [ 22.0914421, 38.7399435 ], [ 22.091343, 38.7400539 ], [ 22.0914208, 38.7402802 ], [ 22.091431702788576, 38.740333894954063 ], [ 22.092026755399438, 38.740333894954063 ], [ 22.0919871, 38.7400815 ], [ 22.0918102, 38.7399214 ], [ 22.0919022, 38.7397613 ], [ 22.0919022, 38.7395349 ], [ 22.0917323, 38.7393913 ], [ 22.0917252, 38.7391981 ], [ 22.0920154, 38.7391263 ], [ 22.0921358, 38.7389938 ], [ 22.0921358, 38.7387398 ], [ 22.0919446, 38.7384914 ], [ 22.0918597, 38.7383202 ], [ 22.0919376, 38.7381049 ], [ 22.0920862, 38.7379282 ], [ 22.0920862, 38.7377626 ], [ 22.0918385, 38.7377239 ], [ 22.0915341, 38.7377129 ], [ 22.0912156, 38.7376742 ], [ 22.0910174, 38.7375638 ], [ 22.0909891, 38.7374037 ], [ 22.0908829, 38.7372657 ], [ 22.0906635, 38.737354 ], [ 22.0907484, 38.7375583 ], [ 22.0905573, 38.7375307 ], [ 22.0903874, 38.7374203 ], [ 22.0901892, 38.7374644 ], [ 22.0899981, 38.7376687 ], [ 22.0899698, 38.7378509 ], [ 22.0899131, 38.7379448 ], [ 22.0896937, 38.7380994 ], [ 22.0898282, 38.7382871 ], [ 22.0898848, 38.7384638 ], [ 22.0897433, 38.7387067 ], [ 22.0897645, 38.7388889 ], [ 22.0899061, 38.7390214 ], [ 22.0898778, 38.7391594 ], [ 22.089722, 38.7392423 ], [ 22.0895309, 38.7392147 ], [ 22.0893398, 38.7392147 ], [ 22.0890779, 38.7393748 ], [ 22.0889505, 38.7394852 ], [ 22.0889434, 38.7396564 ], [ 22.0888018, 38.7396453 ], [ 22.0887311, 38.7393748 ], [ 22.0888018, 38.7392036 ], [ 22.0887452, 38.7389552 ], [ 22.0886603, 38.7386515 ], [ 22.088639, 38.7383313 ], [ 22.0886744, 38.7380883 ], [ 22.0888372, 38.7378288 ], [ 22.0889859, 38.7376522 ], [ 22.0889859, 38.7374258 ], [ 22.0888089, 38.7372381 ], [ 22.0888404, 38.7370974 ], [ 22.0890708, 38.7369399 ], [ 22.0892619, 38.7367908 ], [ 22.0892832, 38.7366914 ], [ 22.0892407, 38.7365645 ], [ 22.0893044, 38.736443 ], [ 22.0894318, 38.7363436 ], [ 22.0895238, 38.736327 ], [ 22.0897008, 38.7364209 ], [ 22.0899131, 38.7363933 ], [ 22.0899839, 38.7362442 ], [ 22.0901609, 38.7360344 ], [ 22.0903095, 38.7359847 ], [ 22.090352, 38.7358798 ], [ 22.0906068, 38.7357197 ], [ 22.0908687, 38.7356093 ], [ 22.0910669, 38.735416 ], [ 22.0911023, 38.7352724 ], [ 22.0910952, 38.7350571 ], [ 22.0912014, 38.7349246 ], [ 22.0913996, 38.7349577 ], [ 22.0916261, 38.7350902 ], [ 22.0916686, 38.7352227 ], [ 22.091619, 38.7353553 ], [ 22.0914775, 38.7353387 ], [ 22.0914775, 38.7354823 ], [ 22.0913288, 38.7356921 ], [ 22.0910598, 38.735808 ], [ 22.0909395, 38.7359571 ], [ 22.0909891, 38.7360675 ], [ 22.0912226, 38.7359571 ], [ 22.0913925, 38.7359626 ], [ 22.0915341, 38.7360565 ], [ 22.091612, 38.7362 ], [ 22.0916969, 38.7362608 ], [ 22.0918951, 38.7362663 ], [ 22.0918031, 38.736062 ], [ 22.0918031, 38.7358025 ], [ 22.0919093, 38.735532 ], [ 22.0919093, 38.735289 ], [ 22.0918526, 38.7350516 ], [ 22.0918385, 38.7348473 ], [ 22.0919093, 38.7345767 ], [ 22.0918809, 38.7344111 ], [ 22.0919093, 38.7342951 ], [ 22.0919305, 38.7341184 ], [ 22.0918031, 38.734008 ], [ 22.0917181, 38.7341129 ], [ 22.0915624, 38.7341626 ], [ 22.0913784, 38.7341681 ], [ 22.0915624, 38.7340688 ], [ 22.091527, 38.7339528 ], [ 22.0916898, 38.733881 ], [ 22.0919305, 38.7338645 ], [ 22.0921004, 38.7338037 ], [ 22.0920216, 38.7336038 ], [ 22.0919168, 38.7334548 ], [ 22.0918737, 38.7332481 ], [ 22.0919045, 38.7330703 ], [ 22.091849, 38.7328299 ], [ 22.0917998, 38.7326088 ], [ 22.0916395, 38.7324838 ], [ 22.0915718, 38.732354 ], [ 22.0915471, 38.7321762 ], [ 22.09143, 38.7320368 ], [ 22.0913006, 38.7320224 ], [ 22.0911589, 38.7320512 ], [ 22.0909802, 38.7319695 ], [ 22.0910849, 38.7318733 ], [ 22.0913746, 38.7317628 ], [ 22.0915907, 38.7316724 ], [ 22.0917748, 38.7315398 ], [ 22.0919376, 38.7313852 ], [ 22.0919376, 38.7312637 ], [ 22.0917323, 38.7312472 ], [ 22.0915058, 38.7311478 ], [ 22.0915058, 38.7313466 ], [ 22.0915624, 38.731457 ], [ 22.0914916, 38.7316061 ], [ 22.0913288, 38.7315619 ], [ 22.091258, 38.7314625 ], [ 22.0911236, 38.7315067 ], [ 22.0909891, 38.7316613 ], [ 22.0908829, 38.7315122 ], [ 22.0909254, 38.7314184 ], [ 22.0910528, 38.7313245 ], [ 22.0910386, 38.7311202 ], [ 22.0909537, 38.7309269 ], [ 22.090897, 38.7307337 ], [ 22.090713, 38.7306232 ], [ 22.0904653, 38.7306232 ], [ 22.0903095, 38.7305846 ], [ 22.0902883, 38.7304852 ], [ 22.0904936, 38.7303361 ], [ 22.0905077, 38.7301318 ], [ 22.090444, 38.7299716 ], [ 22.0903803, 38.7295906 ], [ 22.0901963, 38.7294802 ], [ 22.0898778, 38.729425 ], [ 22.0897928, 38.7295906 ], [ 22.0897787, 38.7298005 ], [ 22.0896088, 38.7298778 ], [ 22.089361, 38.7298281 ], [ 22.0890921, 38.7298502 ], [ 22.0888868, 38.7299882 ], [ 22.088816, 38.7301759 ], [ 22.0886815, 38.7303692 ], [ 22.0885895, 38.7305349 ], [ 22.0886249, 38.7307116 ], [ 22.0887877, 38.7308165 ], [ 22.0891062, 38.7306895 ], [ 22.0892902, 38.730706 ], [ 22.0895097, 38.7306398 ], [ 22.0896725, 38.7306453 ], [ 22.0896866, 38.7308275 ], [ 22.089814, 38.7309324 ], [ 22.0900264, 38.7309545 ], [ 22.0901892, 38.7310815 ], [ 22.0903378, 38.7312693 ], [ 22.0902671, 38.7314018 ], [ 22.0900618, 38.7313852 ], [ 22.0899344, 38.7312748 ], [ 22.0897601, 38.7313494 ], [ 22.0895321, 38.731359 ], [ 22.0893596, 38.7314599 ], [ 22.0891624, 38.7314936 ], [ 22.0890268, 38.731383 ], [ 22.0889898, 38.7312388 ], [ 22.0888358, 38.7310994 ], [ 22.0886941, 38.7310225 ], [ 22.0886139, 38.7311283 ], [ 22.0884291, 38.7311619 ], [ 22.0882874, 38.7312629 ], [ 22.088349, 38.7314263 ], [ 22.0882134, 38.7315561 ], [ 22.088097771029783, 38.731585057516021 ], [ 22.088097771029783, 38.73171055151662 ], [ 22.0881888, 38.7317051 ], [ 22.0882689, 38.731782 ], [ 22.0883675, 38.7319166 ], [ 22.088312, 38.7320031 ], [ 22.0882196, 38.7320464 ], [ 22.0883243, 38.732181 ], [ 22.0884722, 38.7322194 ], [ 22.0886694, 38.7322435 ], [ 22.0885708, 38.7323636 ], [ 22.088312, 38.7325367 ], [ 22.088097771029783, 38.732579704702871 ], [ 22.088097771029783, 38.734721115446106 ], [ 22.0882639, 38.7347479 ], [ 22.0882922, 38.7348749 ], [ 22.0882504, 38.7349377 ], [ 22.0881087, 38.7350218 ], [ 22.088097771029783, 38.73502193725551 ], [ 22.088097771029783, 38.735502321895801 ], [ 22.08814, 38.7356148 ], [ 22.0881294, 38.7357556 ], [ 22.0881896, 38.7358605 ], [ 22.0883099, 38.7359046 ], [ 22.0881223, 38.7359295 ], [ 22.088097771029783, 38.735928524949934 ], [ 22.088097771029783, 38.736378282067584 ], [ 22.0881294, 38.7363933 ] ], [ [ 22.0884607, 38.7335069 ], [ 22.0885587, 38.7333721 ], [ 22.0886895, 38.7331863 ], [ 22.088923, 38.7330515 ], [ 22.0890538, 38.7329568 ], [ 22.0892406, 38.7329021 ], [ 22.0893173, 38.7327983 ], [ 22.0892766, 38.7326492 ], [ 22.0891587, 38.7325287 ], [ 22.0891059, 38.7323574 ], [ 22.0892279, 38.732275 ], [ 22.0891709, 38.7322052 ], [ 22.0891953, 38.7321196 ], [ 22.089301, 38.7320974 ], [ 22.0893701, 38.7321545 ], [ 22.0894352, 38.7321196 ], [ 22.0893864, 38.732053 ], [ 22.0893498, 38.7319293 ], [ 22.0892523, 38.7318469 ], [ 22.0891262, 38.7318469 ], [ 22.0890693, 38.7317295 ], [ 22.0891831, 38.7316407 ], [ 22.0893539, 38.7316407 ], [ 22.089549, 38.7315741 ], [ 22.089671, 38.7314631 ], [ 22.0898616, 38.7314129 ], [ 22.0898494, 38.7315398 ], [ 22.089968, 38.7316526 ], [ 22.0901746, 38.7316924 ], [ 22.0904508, 38.7316903 ], [ 22.0904455, 38.7317761 ], [ 22.090306, 38.7318263 ], [ 22.0901987, 38.7319874 ], [ 22.0903462, 38.7319183 ], [ 22.0905635, 38.731887 ], [ 22.0906627, 38.73191 ], [ 22.0906547, 38.7320083 ], [ 22.0907378, 38.7321004 ], [ 22.0909041, 38.7321945 ], [ 22.0910704, 38.7322092 ], [ 22.0912287, 38.7321715 ], [ 22.0913199, 38.7322113 ], [ 22.0913091, 38.7323326 ], [ 22.0912099, 38.7325481 ], [ 22.0911094, 38.7328595 ], [ 22.0912368, 38.7329865 ], [ 22.0913217, 38.7331963 ], [ 22.0912864, 38.7335 ], [ 22.0911448, 38.733754 ], [ 22.0909749, 38.7339418 ], [ 22.0907626, 38.7340301 ], [ 22.0905502, 38.7340135 ], [ 22.0904369, 38.7342123 ], [ 22.0905148, 38.7343448 ], [ 22.0904299, 38.7344884 ], [ 22.0902246, 38.7345823 ], [ 22.0898565, 38.7346761 ], [ 22.0896796, 38.7346209 ], [ 22.0896725, 38.7344663 ], [ 22.0895875, 38.734262 ], [ 22.089446, 38.7341902 ], [ 22.0894672, 38.7343835 ], [ 22.0894955, 38.7345933 ], [ 22.0891982, 38.7345933 ], [ 22.0890779, 38.7345491 ], [ 22.0889434, 38.7345712 ], [ 22.0887948, 38.7344387 ], [ 22.0887381, 38.7343062 ], [ 22.0887877, 38.7341626 ], [ 22.0887381, 38.7339915 ], [ 22.088632, 38.7337927 ], [ 22.0884975, 38.7336712 ], [ 22.0883693, 38.7336536 ], [ 22.0884607, 38.7335069 ] ] ] } },
{ "type": "Feature", "properties": { "element": "relation", "id": 9648509, "ele": null, "name": null, "name:el": null, "name:en": null, "natural": "wood", "boat": null, "name:de": null, "name:fr": null, "old_name": null, "waterway": null, "width": null, "source": null, "leaf_type": "mixed", "int_name": null, "type": "multipolygon", "label": "natural:wood" }, "geometry": { "type": "Polygon", "coordinates": [ [ [ 22.0882115, 38.7375203 ], [ 22.0882115, 38.7373934 ], [ 22.0881058, 38.7373078 ], [ 22.088097771029783, 38.73730712560296 ], [ 22.088097771029783, 38.73759512859224 ], [ 22.0882115, 38.7375203 ] ] ] } },
{ "type": "Feature", "properties": { "element": "way", "id": 135877210, "ele": null, "name": null, "name:el": null, "name:en": null, "natural": "wood", "boat": null, "name:de": null, "name:fr": null, "old_name": null, "waterway": null, "width": null, "source": "http://geodata.gov.gr/", "leaf_type": "needleleaved", "int_name": null, "type": null, "label": "natural:wood" }, "geometry": { "type": "Polygon", "coordinates": [ [ [ 22.116744, 38.726462 ], [ 22.117097, 38.725757 ], [ 22.117205, 38.725272 ], [ 22.117361, 38.724789 ], [ 22.117651, 38.724644 ], [ 22.11789897594851, 38.7245972326062 ], [ 22.11789897594851, 38.723724909401056 ], [ 22.117233, 38.724226 ], [ 22.116372, 38.724287 ], [ 22.115851, 38.724129 ], [ 22.11543, 38.723785 ], [ 22.115201, 38.723408 ], [ 22.115302, 38.723222 ], [ 22.116075, 38.722861 ], [ 22.117088, 38.722465 ], [ 22.117671, 38.722063 ], [ 22.11789897594851, 38.72187473297695 ], [ 22.11789897594851, 38.719800502312992 ], [ 22.117735, 38.719633 ], [ 22.11717, 38.719325 ], [ 22.116786, 38.719431 ], [ 22.11615, 38.720019 ], [ 22.115941, 38.720689 ], [ 22.115698, 38.720872 ], [ 22.114408, 38.720889 ], [ 22.11422, 38.720774 ], [ 22.114186, 38.720249 ], [ 22.1141, 38.719911 ], [ 22.113633, 38.719493 ], [ 22.113152, 38.719634 ], [ 22.112806, 38.720078 ], [ 22.111947, 38.720135 ], [ 22.111993, 38.719813 ], [ 22.111864, 38.719049 ], [ 22.110235, 38.718378 ], [ 22.108882, 38.71794 ], [ 22.108961, 38.718475 ], [ 22.108996, 38.719973 ], [ 22.108812, 38.722317 ], [ 22.107643, 38.722585 ], [ 22.107198, 38.723249 ], [ 22.106932, 38.724059 ], [ 22.1060949, 38.724238 ], [ 22.1054672, 38.724161 ], [ 22.1044598, 38.7238923 ], [ 22.1032582, 38.7237249 ], [ 22.102555, 38.723843 ], [ 22.101798, 38.723975 ], [ 22.101315, 38.723728 ], [ 22.100957, 38.723387 ], [ 22.100661, 38.723047 ], [ 22.099945, 38.722446 ], [ 22.09901, 38.722463 ], [ 22.097978, 38.722764 ], [ 22.0976497, 38.7227198 ], [ 22.096759, 38.7226 ], [ 22.096107, 38.721823 ], [ 22.096476, 38.719966 ], [ 22.094857, 38.719362 ], [ 22.093442, 38.718716 ], [ 22.092324, 38.718336 ], [ 22.091556, 38.717886 ], [ 22.090937, 38.717641 ], [ 22.09078905789308, 38.717545874503969 ], [ 22.088097771029783, 38.717545874503969 ], [ 22.088097771029783, 38.72567781523604 ], [ 22.090189, 38.725754 ], [ 22.091204, 38.726359 ], [ 22.091564, 38.727274 ], [ 22.093144, 38.727816 ], [ 22.094353, 38.728326 ], [ 22.096077, 38.728348 ], [ 22.096135, 38.727667 ], [ 22.095789, 38.726895 ], [ 22.095926, 38.726323 ], [ 22.09655, 38.725854 ], [ 22.097172, 38.725481 ], [ 22.097796, 38.725012 ], [ 22.098547, 38.724354 ], [ 22.099166, 38.724076 ], [ 22.099762, 38.724661 ], [ 22.099861, 38.725525 ], [ 22.099961, 38.726389 ], [ 22.100467, 38.727497 ], [ 22.105134, 38.726764 ], [ 22.10595, 38.726594 ], [ 22.106793, 38.726311 ], [ 22.108774, 38.725878 ], [ 22.110584, 38.726512 ], [ 22.111014, 38.726482 ], [ 22.111355, 38.726225 ], [ 22.111652, 38.725856 ], [ 22.112181, 38.725678 ], [ 22.112657, 38.72576 ], [ 22.113078, 38.726066 ], [ 22.113166, 38.726367 ], [ 22.113002, 38.72715 ], [ 22.112709, 38.727407 ], [ 22.111695, 38.727839 ], [ 22.111204, 38.728355 ], [ 22.110768, 38.728572 ], [ 22.110007, 38.728485 ], [ 22.109487, 38.72829 ], [ 22.109018, 38.727945 ], [ 22.108748, 38.727343 ], [ 22.108475, 38.726815 ], [ 22.108048, 38.726733 ], [ 22.107563, 38.726987 ], [ 22.107595, 38.727586 ], [ 22.107778, 38.727888 ], [ 22.108146, 38.728417 ], [ 22.107995, 38.728714 ], [ 22.1077, 38.729046 ], [ 22.107692, 38.729345 ], [ 22.107828, 38.729609 ], [ 22.108065, 38.729688 ], [ 22.108401, 38.729618 ], [ 22.108877, 38.729664 ], [ 22.109107, 38.730004 ], [ 22.109385, 38.730345 ], [ 22.109901, 38.73069 ], [ 22.110377, 38.730735 ], [ 22.110809, 38.730667 ], [ 22.111053, 38.730447 ], [ 22.111154, 38.730261 ], [ 22.111536, 38.73023 ], [ 22.111866, 38.730423 ], [ 22.111905, 38.730722 ], [ 22.111886, 38.73147 ], [ 22.11235, 38.731964 ], [ 22.112674, 38.732343 ], [ 22.113046, 38.732723 ], [ 22.113328, 38.732915 ], [ 22.1135473, 38.7331643 ], [ 22.1140076, 38.7333309 ], [ 22.114426, 38.7335401 ], [ 22.1147811, 38.7338757 ], [ 22.1151245, 38.7339761 ], [ 22.1154989, 38.7340841 ], [ 22.1157135, 38.7339836 ], [ 22.1155107, 38.733725 ], [ 22.115221, 38.733566 ], [ 22.1154345, 38.7333811 ], [ 22.1157671, 38.7333309 ], [ 22.1159935, 38.7331643 ], [ 22.1159924, 38.7328538 ], [ 22.1158744, 38.7326195 ], [ 22.1158422, 38.7323098 ], [ 22.1161973, 38.7322939 ], [ 22.116487, 38.7324445 ], [ 22.1167327, 38.732427 ], [ 22.1168733, 38.7321516 ], [ 22.117238, 38.7319424 ], [ 22.1175063, 38.7318252 ], [ 22.117871, 38.7318587 ], [ 22.11789897594851, 38.731864464370936 ], [ 22.11789897594851, 38.730982850418648 ], [ 22.117871, 38.7309548 ], [ 22.11789897594851, 38.73095864976046 ], [ 22.11789897594851, 38.728425050620196 ], [ 22.1176243, 38.7284021 ], [ 22.1173979, 38.7283426 ], [ 22.117399, 38.7280589 ], [ 22.1176983, 38.7279995 ], [ 22.11789897594851, 38.728118468962762 ], [ 22.11789897594851, 38.727017907647557 ], [ 22.1178281, 38.7269792 ], [ 22.1175481, 38.7270788 ], [ 22.1172488, 38.727247 ], [ 22.1168089, 38.7273223 ], [ 22.1165181, 38.7272043 ], [ 22.116397, 38.72698 ], [ 22.116744, 38.726462 ] ] ] } },
{ "type": "Feature", "properties": { "element": "way", "id": 694259208, "ele": null, "name": null, "name:el": null, "name:en": null, "natural": "wood", "boat": null, "name:de": null, "name:fr": null, "old_name": null, "waterway": null, "width": null, "source": "Bing (2019-06-03)", "leaf_type": null, "int_name": null, "type": null, "label": "natural:wood" }, "geometry": { "type": "Polygon", "coordinates": [ [ [ 22.1001041, 38.7401973 ], [ 22.100088, 38.7399964 ], [ 22.0999646, 38.73985 ], [ 22.09975, 38.739783 ], [ 22.099573, 38.7396575 ], [ 22.0992994, 38.7396617 ], [ 22.0990097, 38.7396408 ], [ 22.0987898, 38.739645 ], [ 22.0986503, 38.7395696 ], [ 22.0985484, 38.7394316 ], [ 22.0988542, 38.7394818 ], [ 22.0991814, 38.7394818 ], [ 22.0991117, 38.7393018 ], [ 22.098822, 38.7391345 ], [ 22.0984178, 38.738969 ], [ 22.0983329, 38.7389082 ], [ 22.0981666, 38.7387978 ], [ 22.0980356, 38.7387481 ], [ 22.0979684, 38.7386377 ], [ 22.0978445, 38.7386349 ], [ 22.097887, 38.7387371 ], [ 22.0977419, 38.738726 ], [ 22.0976321, 38.7386322 ], [ 22.0976321, 38.7387592 ], [ 22.0975861, 38.7388254 ], [ 22.0974552, 38.7387205 ], [ 22.0973065, 38.7387426 ], [ 22.0972145, 38.7388365 ], [ 22.097119, 38.7389496 ], [ 22.0969809, 38.7390766 ], [ 22.0967721, 38.739118 ], [ 22.0967792, 38.7392009 ], [ 22.0969561, 38.7392671 ], [ 22.0971402, 38.739372 ], [ 22.0973738, 38.7394024 ], [ 22.0974056, 38.7393223 ], [ 22.0972711, 38.7392423 ], [ 22.0972287, 38.7391401 ], [ 22.0973879, 38.7390904 ], [ 22.0975861, 38.7391815 ], [ 22.0977383, 38.7391318 ], [ 22.0979011, 38.7390049 ], [ 22.098025, 38.7389717 ], [ 22.098117, 38.7390683 ], [ 22.098071, 38.7392009 ], [ 22.0979967, 38.7393803 ], [ 22.0980781, 38.7394852 ], [ 22.0980675, 38.739626 ], [ 22.097933, 38.7398109 ], [ 22.0979082, 38.7398662 ], [ 22.0977595, 38.7400097 ], [ 22.0976711, 38.740087 ], [ 22.0975366, 38.7400842 ], [ 22.0974127, 38.7400401 ], [ 22.097303, 38.7399738 ], [ 22.0972074, 38.7400152 ], [ 22.0972074, 38.7401201 ], [ 22.0973313, 38.740225 ], [ 22.097421930489084, 38.740333894954063 ], [ 22.100033198122876, 38.740333894954063 ], [ 22.1001041, 38.7401973 ] ] ] } },
{ "type": "Feature", "properties": { "element": "way", "id": 694259209, "ele": null, "name": null, "name:el": null, "name:en": null, "natural": "wood", "boat": null, "name:de": null, "name:fr": null, "old_name": null, "waterway": null, "width": null, "source": "Bing (2019-06-03)", "leaf_type": null, "int_name": null, "type": null, "label": "natural:wood" }, "geometry": { "type": "Polygon", "coordinates": [ [ [ 22.1016098, 38.7387806 ], [ 22.1017669, 38.7387421 ], [ 22.101998, 38.7387085 ], [ 22.1020997, 38.7386244 ], [ 22.1020751, 38.7384297 ], [ 22.1021552, 38.738235 ], [ 22.1022692, 38.7382735 ], [ 22.1022938, 38.7383408 ], [ 22.102186, 38.7384682 ], [ 22.1021552, 38.7385907 ], [ 22.1023339, 38.7385811 ], [ 22.1025002, 38.7384922 ], [ 22.1025557, 38.7384105 ], [ 22.1024602, 38.7382975 ], [ 22.10234, 38.7381942 ], [ 22.1022168, 38.7381293 ], [ 22.1020073, 38.7381678 ], [ 22.1017824, 38.7382206 ], [ 22.1016529, 38.7382206 ], [ 22.1016098, 38.7383192 ], [ 22.1016129, 38.7384585 ], [ 22.1015513, 38.7385691 ], [ 22.101539, 38.7386796 ], [ 22.1014404, 38.7388166 ], [ 22.1016098, 38.7387806 ] ] ] } },
{ "type": "Feature", "properties": { "element": "way", "id": 694259214, "ele": null, "name": null, "name:el": null, "name:en": null, "natural": "wood", "boat": null, "name:de": null, "name:fr": null, "old_name": null, "waterway": null, "width": null, "source": "Bing (2019-06-03)", "leaf_type": null, "int_name": null, "type": null, "label": "natural:wood" }, "geometry": { "type": "Polygon", "coordinates": [ [ [ 22.0896328, 38.7339513 ], [ 22.0897076, 38.7338712 ], [ 22.0896422, 38.7337546 ], [ 22.0897309, 38.7336854 ], [ 22.0897683, 38.7335324 ], [ 22.0896842, 38.7334304 ], [ 22.0895068, 38.7335251 ], [ 22.089432, 38.7334122 ], [ 22.0893013, 38.7334122 ], [ 22.0891705, 38.7334887 ], [ 22.0891565, 38.7335907 ], [ 22.0892592, 38.7337182 ], [ 22.089362, 38.7338347 ], [ 22.08939, 38.7339513 ], [ 22.0894927, 38.7340533 ], [ 22.0896328, 38.7339513 ] ] ] } },
{ "type": "Feature", "properties": { "element": "way", "id": 694259218, "ele": null, "name": null, "name:el": null, "name:en": null, "natural": "wood", "boat": null, "name:de": null, "name:fr": null, "old_name": null, "waterway": null, "width": null, "source": "Bing (2019-06-03)", "leaf_type": null, "int_name": null, "type": null, "label": "natural:wood" }, "geometry": { "type": "Polygon", "coordinates": [ [ [ 22.1027991, 38.7389392 ], [ 22.102645, 38.7389849 ], [ 22.1025619, 38.7390521 ], [ 22.1024232, 38.7391555 ], [ 22.1022599, 38.739206 ], [ 22.1021582, 38.7392564 ], [ 22.1020381, 38.7392035 ], [ 22.1020412, 38.7391555 ], [ 22.1021028, 38.7390906 ], [ 22.1020966, 38.7390161 ], [ 22.1019518, 38.7390017 ], [ 22.1017669, 38.7390185 ], [ 22.1015235, 38.7390786 ], [ 22.1013757, 38.7391555 ], [ 22.1011754, 38.7391699 ], [ 22.1009813, 38.7391819 ], [ 22.1008303, 38.7392516 ], [ 22.1007256, 38.7393742 ], [ 22.1009073, 38.7394823 ], [ 22.101083, 38.73954 ], [ 22.1012986, 38.73954 ], [ 22.1015667, 38.7394799 ], [ 22.1017669, 38.7394679 ], [ 22.1016684, 38.7395448 ], [ 22.1014958, 38.7396217 ], [ 22.1012986, 38.7396217 ], [ 22.1011138, 38.739701 ], [ 22.1009166, 38.7397154 ], [ 22.1007163, 38.7397082 ], [ 22.1007132, 38.7398668 ], [ 22.1006239, 38.7399678 ], [ 22.1006331, 38.7400903 ], [ 22.1006855, 38.7402345 ], [ 22.100771218208386, 38.740333894954063 ], [ 22.100826554743612, 38.740333894954063 ], [ 22.1010337, 38.7401744 ], [ 22.1012647, 38.7401096 ], [ 22.1013264, 38.7400206 ], [ 22.101388, 38.7398644 ], [ 22.1015112, 38.7397491 ], [ 22.1016591, 38.7397178 ], [ 22.1017331, 38.7398116 ], [ 22.1017269, 38.7399702 ], [ 22.1016037, 38.7401096 ], [ 22.1015328, 38.7402634 ], [ 22.1014324741002, 38.740333894954063 ], [ 22.102864688478064, 38.740333894954063 ], [ 22.1028638, 38.740285 ], [ 22.1028515, 38.7401192 ], [ 22.10291, 38.739999 ], [ 22.1029069, 38.7398981 ], [ 22.1028361, 38.7398068 ], [ 22.1028946, 38.7396866 ], [ 22.1030517, 38.7395833 ], [ 22.1032058, 38.7395088 ], [ 22.1032643, 38.7394054 ], [ 22.1032705, 38.739278 ], [ 22.1031473, 38.7392901 ], [ 22.1030456, 38.7392588 ], [ 22.1029131, 38.7392011 ], [ 22.1028484, 38.7392708 ], [ 22.1029069, 38.7394054 ], [ 22.1027899, 38.7394871 ], [ 22.1026943, 38.7395809 ], [ 22.102642, 38.7396698 ], [ 22.102491, 38.7396722 ], [ 22.1024263, 38.7397563 ], [ 22.1022846, 38.7398476 ], [ 22.1022137, 38.7399029 ], [ 22.1021398, 38.7398572 ], [ 22.1022014, 38.7397923 ], [ 22.1022168, 38.739689 ], [ 22.1023185, 38.7396361 ], [ 22.1024941, 38.7396001 ], [ 22.1025372, 38.7394703 ], [ 22.1027467, 38.7393766 ], [ 22.1027837, 38.7393141 ], [ 22.1027775, 38.7392348 ], [ 22.1028299, 38.7391867 ], [ 22.1029532, 38.7391507 ], [ 22.1030856, 38.7391339 ], [ 22.1031442, 38.739057 ], [ 22.1029901, 38.7390137 ], [ 22.1029532, 38.7389152 ], [ 22.1029039, 38.7388743 ], [ 22.1027991, 38.7389392 ] ] ] } },
{ "type": "Feature", "properties": { "element": "way", "id": 694259221, "ele": null, "name": null, "name:el": null, "name:en": null, "natural": "wood", "boat": null, "name:de": null, "name:fr": null, "old_name": null, "waterway": null, "width": null, "source": null, "leaf_type": null, "int_name": null, "type": null, "label": "natural:wood" }, "geometry": { "type": "Polygon", "coordinates": [ [ [ 22.1047496, 38.7403188 ], [ 22.1047776, 38.7402277 ], [ 22.1047496, 38.7401512 ], [ 22.1046002, 38.7401876 ], [ 22.1045348, 38.7402787 ], [ 22.104532765362478, 38.740333894954063 ], [ 22.104731862565419, 38.740333894954063 ], [ 22.1047496, 38.7403188 ] ] ] } },
{ "type": "Feature", "properties": { "element": "way", "id": 694259222, "ele": null, "name": null, "name:el": null, "name:en": null, "natural": "wood", "boat": null, "name:de": null, "name:fr": null, "old_name": null, "waterway": null, "width": null, "source": null, "leaf_type": null, "int_name": null, "type": null, "label": "natural:wood" }, "geometry": { "type": "Polygon", "coordinates": [ [ [ 22.1043994, 38.7397797 ], [ 22.1042219, 38.7397396 ], [ 22.1041659, 38.7396886 ], [ 22.1040631, 38.7396886 ], [ 22.1038577, 38.7397141 ], [ 22.1038343, 38.739634 ], [ 22.1039651, 38.739623 ], [ 22.1040118, 38.7395247 ], [ 22.1037035, 38.7395247 ], [ 22.1035961, 38.7396485 ], [ 22.1036148, 38.7398343 ], [ 22.1035121, 38.7399509 ], [ 22.1032879, 38.7400601 ], [ 22.1032272, 38.7401512 ], [ 22.1032225, 38.7403333 ], [ 22.103222657021774, 38.740333894954063 ], [ 22.104192303390864, 38.740333894954063 ], [ 22.1042126, 38.7402423 ], [ 22.1042126, 38.7401439 ], [ 22.1043153, 38.7400419 ], [ 22.1044181, 38.7400019 ], [ 22.1044648, 38.7399217 ], [ 22.1043994, 38.7397797 ] ] ] } },
{ "type": "Feature", "properties": { "element": "way", "id": 940660155, "ele": null, "name": null, "name:el": null, "name:en": null, "natural": "wood", "boat": null, "name:de": null, "name:fr": null, "old_name": null, "waterway": null, "width": null, "source": "Maxar Premium Imagery (2021-05-08)", "leaf_type": "needleleaved", "int_name": null, "type": null, "label": "natural:wood" }, "geometry": { "type": "Polygon", "coordinates": [ [ [ 22.1005118, 38.7396502 ], [ 22.1005118, 38.7394158 ], [ 22.1006513, 38.739215 ], [ 22.1009184, 38.7390719 ], [ 22.1011652, 38.7390635 ], [ 22.1013594, 38.7389305 ], [ 22.1013057, 38.7387631 ], [ 22.1013272, 38.7384869 ], [ 22.1014227, 38.7381848 ], [ 22.1013379, 38.7378342 ], [ 22.1010364, 38.7377748 ], [ 22.1006298, 38.7376417 ], [ 22.1004785, 38.7379254 ], [ 22.1008111, 38.737984 ], [ 22.1009721, 38.7382099 ], [ 22.1008229, 38.7384535 ], [ 22.1005536, 38.738712 ], [ 22.1003712, 38.7389129 ], [ 22.1001674, 38.7387288 ], [ 22.1001148, 38.7384535 ], [ 22.099867, 38.7382099 ], [ 22.0998251, 38.7380099 ], [ 22.0997919, 38.7376994 ], [ 22.0996642, 38.7374994 ], [ 22.099352, 38.7376074 ], [ 22.0990741, 38.7376501 ], [ 22.0986975, 38.7377831 ], [ 22.0983757, 38.7377831 ], [ 22.0981514, 38.7379262 ], [ 22.0981193, 38.7382024 ], [ 22.0981933, 38.7385196 ], [ 22.0984411, 38.7387464 ], [ 22.0988381, 38.7389472 ], [ 22.0990945, 38.7391221 ], [ 22.0994604, 38.7393154 ], [ 22.0998359, 38.7396083 ], [ 22.1004571, 38.7398669 ], [ 22.1005118, 38.7396502 ] ] ] } },
{ "type": "Feature", "properties": { "element": "way", "id": 940660156, "ele": null, "name": null, "name:el": null, "name:en": null, "natural": "wood", "boat": null, "name:de": null, "name:fr": null, "old_name": null, "waterway": null, "width": null, "source": "Maxar Premium Imagery (2021-05-08)", "leaf_type": "needleleaved", "int_name": null, "type": null, "label": "natural:wood" }, "geometry": { "type": "Polygon", "coordinates": [ [ [ 22.0972395, 38.7398677 ], [ 22.0972395, 38.7396585 ], [ 22.0971751, 38.7394995 ], [ 22.0969605, 38.7394828 ], [ 22.0967556, 38.7392978 ], [ 22.0965089, 38.7392476 ], [ 22.096187, 38.7392895 ], [ 22.0958662, 38.7394326 ], [ 22.0956184, 38.7394317 ], [ 22.0950176, 38.7394485 ], [ 22.095319, 38.739692 ], [ 22.0956184, 38.7397832 ], [ 22.0958866, 38.7399506 ], [ 22.0960261, 38.7401933 ], [ 22.096140826704634, 38.740333894954063 ], [ 22.096902057481888, 38.740333894954063 ], [ 22.0969284, 38.7401941 ], [ 22.0971097, 38.7399841 ], [ 22.0972395, 38.7398677 ] ] ] } },
{ "type": "Feature", "properties": { "element": "way", "id": 940660158, "ele": null, "name": null, "name:el": null, "name:en": null, "natural": "wood", "boat": null, "name:de": null, "name:fr": null, "old_name": null, "waterway": null, "width": null, "source": "Maxar Premium Imagery (2021-05-08)", "leaf_type": "needleleaved", "int_name": null, "type": null, "label": "natural:wood" }, "geometry": { "type": "Polygon", "coordinates": [ [ [ 22.1003069, 38.7379421 ], [ 22.100383, 38.7376584 ], [ 22.1003605, 38.7374819 ], [ 22.1000816, 38.737348 ], [ 22.1000397, 38.7376501 ], [ 22.1000386, 38.737917 ], [ 22.1002747, 38.7381848 ], [ 22.1003069, 38.7379421 ] ] ] } },
{ "type": "Feature", "properties": { "element": "way", "id": 940660159, "ele": null, "name": null, "name:el": null, "name:en": null, "natural": "wood", "boat": null, "name:de": null, "name:fr": null, "old_name": null, "waterway": null, "width": null, "source": "Maxar Premium Imagery (2021-05-08)", "leaf_type": "needleleaved", "int_name": null, "type": null, "label": "natural:wood" }, "geometry": { "type": "Polygon", "coordinates": [ [ [ 22.0930552, 38.7386794 ], [ 22.0928825, 38.7386786 ], [ 22.0926046, 38.7386125 ], [ 22.092786, 38.7384777 ], [ 22.0930767, 38.7384786 ], [ 22.0933868, 38.7383689 ], [ 22.0936872, 38.7382601 ], [ 22.0938599, 38.7380936 ], [ 22.0939028, 38.737876 ], [ 22.0941378, 38.7378752 ], [ 22.0944715, 38.7379513 ], [ 22.0947504, 38.7377589 ], [ 22.0949425, 38.737666 ], [ 22.0949435, 38.7375078 ], [ 22.0947826, 38.7373488 ], [ 22.0944393, 38.7372149 ], [ 22.0941485, 38.7373061 ], [ 22.0939136, 38.7375245 ], [ 22.0936775, 38.7377254 ], [ 22.0932913, 38.7377672 ], [ 22.0930016, 38.737784 ], [ 22.0927109, 38.7378752 ], [ 22.092389, 38.7379672 ], [ 22.0922066, 38.7381681 ], [ 22.0923246, 38.7383438 ], [ 22.0923246, 38.7385865 ], [ 22.092433, 38.7388803 ], [ 22.0925939, 38.7389639 ], [ 22.0928192, 38.7391146 ], [ 22.0929694, 38.7389305 ], [ 22.0932258, 38.7387455 ], [ 22.0930552, 38.7386794 ] ] ] } },
{ "type": "Feature", "properties": { "element": "way", "id": 940660160, "ele": null, "name": null, "name:el": null, "name:en": null, "natural": "wood", "boat": null, "name:de": null, "name:fr": null, "old_name": null, "waterway": null, "width": null, "source": "http://geodata.gov.gr/", "leaf_type": "needleleaved", "int_name": null, "type": null, "label": "natural:wood" }, "geometry": { "type": "Polygon", "coordinates": [ [ [ 22.1064438, 38.7374986 ], [ 22.1062088, 38.7376417 ], [ 22.1059513, 38.7377505 ], [ 22.1055425, 38.7378501 ], [ 22.1054256, 38.7379932 ], [ 22.1057153, 38.7380434 ], [ 22.1061015, 38.7379848 ], [ 22.1063697, 38.7379848 ], [ 22.1066487, 38.7379848 ], [ 22.1067227, 38.7377413 ], [ 22.1066691, 38.7374735 ], [ 22.1064438, 38.7374986 ] ] ] } },
{ "type": "Feature", "properties": { "element": "way", "id": 940660477, "ele": null, "name": null, "name:el": null, "name:en": null, "natural": "wood", "boat": null, "name:de": null, "name:fr": null, "old_name": null, "waterway": null, "width": null, "source": "Maxar Premium Imagery (2021-05-08)", "leaf_type": null, "int_name": null, "type": null, "label": "natural:wood" }, "geometry": { "type": "Polygon", "coordinates": [ [ [ 22.1039547, 38.7373647 ], [ 22.1036543, 38.737281 ], [ 22.1034837, 38.7371814 ], [ 22.1032047, 38.7371814 ], [ 22.1030749, 38.7370299 ], [ 22.1030749, 38.7368375 ], [ 22.1028603, 38.7367621 ], [ 22.1024966, 38.7367546 ], [ 22.1026458, 38.7369128 ], [ 22.1028614, 38.7369555 ], [ 22.1028603, 38.7372141 ], [ 22.1029258, 38.7374408 ], [ 22.1031404, 38.7374241 ], [ 22.10343, 38.7374241 ], [ 22.1036768, 38.7375329 ], [ 22.1040834, 38.7375237 ], [ 22.1039547, 38.7373647 ] ] ] } }
]
}
