{
"type": "FeatureCollection",
"name": "patch_72868_point",
"crs": { "type": "name", "properties": { "name": "urn:ogc:def:crs:OGC:1.3:CRS84" } },
"features": [
{ "type": "Feature", "properties": { "element": "node", "id": 356719347, "ele": "2020", "name": "Γιδοβούνι", "name:el": "Γιδοβούνι", "name:en": "Gidovouni", "natural": "peak", "boat": null, "name:de": null, "name:fr": null, "old_name": null, "waterway": null, "width": null, "source": null, "leaf_type": null, "int_name": null, "type": null, "label": "natural:peak" }, "geometry": { "type": "Point", "coordinates": [ 22.1017582, 38.7180307 ] } }
]
}
