{
"type": "FeatureCollection",
"name": "patch_50496_linestring",
"crs": { "type": "name", "properties": { "name": "urn:ogc:def:crs:OGC:1.3:CRS84" } },
"features": [
{ "type": "Feature", "properties": { "element": "way", "id": 558815218, "ele": null, "natural": "cliff", "leaf_type": null, "source": null, "intermittent": null, "name": null, "name:el": null, "name:mk": null, "waterway": null, "landuse": null, "layer": null, "tunnel": null, "access": null, "free_flying:site": null, "leisure": null, "name:en": null, "sport": null, "surface": null, "label": "natural:cliff" }, "geometry": { "type": "LineString", "coordinates": [ [ 24.1776613, 41.1653849 ], [ 24.1776438, 41.1654869 ], [ 24.1777094, 41.1656252 ], [ 24.1777662, 41.165747 ], [ 24.1778056, 41.165849 ], [ 24.1778581, 41.1660202 ], [ 24.177893, 41.1661255 ], [ 24.1779455, 41.1662342 ], [ 24.1779849, 41.1663428 ], [ 24.177963, 41.1664218 ], [ 24.177928, 41.1665139 ], [ 24.1778362, 41.1665962 ], [ 24.1776744, 41.1666818 ], [ 24.1775651, 41.1667147 ], [ 24.1774208, 41.1667279 ], [ 24.177294, 41.1667213 ], [ 24.1771803, 41.1666884 ], [ 24.1770722, 41.1666114 ], [ 24.176959, 41.1665497 ], [ 24.1768089, 41.1665107 ], [ 24.1766642, 41.1664141 ], [ 24.1765387, 41.166334 ], [ 24.176379, 41.1662498 ], [ 24.1762658, 41.1661922 ], [ 24.1761689, 41.1661727 ], [ 24.176087, 41.1661285 ], [ 24.1759164, 41.1659734 ], [ 24.1757718, 41.1658245 ], [ 24.1756749, 41.1657782 ], [ 24.1756258, 41.1657248 ], [ 24.1755876, 41.1656149 ], [ 24.1755384, 41.1654279 ], [ 24.175492, 41.1653139 ], [ 24.1754729, 41.1652348 ], [ 24.1754661, 41.1651906 ], [ 24.1754688, 41.1651444 ], [ 24.1754961, 41.1651228 ], [ 24.175507, 41.1651033 ], [ 24.1755098, 41.1650735 ], [ 24.1755139, 41.1650396 ], [ 24.1755139, 41.1650067 ], [ 24.1754934, 41.1649061 ], [ 24.1755029, 41.1648526 ], [ 24.1755425, 41.1647581 ], [ 24.1755794, 41.1647242 ], [ 24.1756173, 41.1646797 ], [ 24.1756199, 41.1646197 ], [ 24.1755722, 41.1645918 ], [ 24.1755722, 41.1645378 ], [ 24.1756465, 41.1644479 ], [ 24.1757739, 41.164278 ], [ 24.1759406, 41.164004 ], [ 24.1760734, 41.1638521 ], [ 24.176145, 41.1637962 ], [ 24.1762326, 41.1637802 ], [ 24.176307, 41.1637922 ], [ 24.1763627, 41.1637762 ], [ 24.1764503, 41.1637182 ], [ 24.1765591, 41.1637003 ], [ 24.1767556, 41.1636743 ], [ 24.1769494, 41.1636863 ], [ 24.1771272, 41.1637322 ], [ 24.1772281, 41.1638082 ], [ 24.1772706, 41.1639161 ], [ 24.1772971, 41.164034 ], [ 24.1773119, 41.1641531 ], [ 24.1773644, 41.1642847 ], [ 24.1774081, 41.1644164 ], [ 24.1774459, 41.1645254 ], [ 24.1775164, 41.1646394 ] ] } },
{ "type": "Feature", "properties": { "element": "way", "id": 558815220, "ele": null, "natural": "cliff", "leaf_type": null, "source": null, "intermittent": null, "name": null, "name:el": null, "name:mk": null, "waterway": null, "landuse": null, "layer": null, "tunnel": null, "access": null, "free_flying:site": null, "leisure": null, "name:en": null, "sport": null, "surface": null, "label": "natural:cliff" }, "geometry": { "type": "LineString", "coordinates": [ [ 24.1786012, 41.1649634 ], [ 24.1785422, 41.1649419 ], [ 24.1784813, 41.1649333 ], [ 24.1784071, 41.164982 ], [ 24.1783424, 41.1650522 ], [ 24.1783138, 41.1651024 ], [ 24.1782662, 41.1651353 ], [ 24.1782643, 41.1651984 ], [ 24.1782358, 41.1652399 ], [ 24.1781673, 41.1653001 ], [ 24.1781159, 41.1653789 ], [ 24.1781273, 41.1654462 ], [ 24.1781539, 41.1655179 ], [ 24.178152, 41.1655723 ], [ 24.1781025, 41.1655795 ], [ 24.1780492, 41.1656067 ], [ 24.1780245, 41.1656325 ], [ 24.1780093, 41.1656784 ], [ 24.1780264, 41.1657371 ], [ 24.1780454, 41.1658173 ], [ 24.1780302, 41.1658517 ], [ 24.1779922, 41.1658918 ], [ 24.1779674, 41.1659176 ], [ 24.1779636, 41.1659506 ], [ 24.177996, 41.1659921 ], [ 24.178015, 41.1660237 ], [ 24.1780226, 41.1660609 ], [ 24.1780512, 41.1660881 ], [ 24.1781102, 41.1661197 ], [ 24.1781768, 41.1661369 ], [ 24.1782377, 41.166144 ], [ 24.1783157, 41.1661698 ], [ 24.1783709, 41.1661827 ], [ 24.1784394, 41.166187 ], [ 24.1785194, 41.166187 ], [ 24.1785707, 41.1661798 ], [ 24.1785936, 41.1661641 ], [ 24.1786221, 41.1661555 ], [ 24.1786849, 41.1661583 ], [ 24.1787344, 41.166154 ], [ 24.1787592, 41.1661369 ], [ 24.1787745, 41.1661142 ], [ 24.1787872, 41.1660965 ], [ 24.1788058, 41.1660833 ], [ 24.1788302, 41.1660722 ], [ 24.1788547, 41.1660575 ], [ 24.1788792, 41.1660428 ], [ 24.1789017, 41.1660229 ], [ 24.1789163, 41.1660015 ], [ 24.1789291, 41.1659824 ], [ 24.1789486, 41.165961 ], [ 24.1789878, 41.1659198 ], [ 24.1790161, 41.1658932 ], [ 24.1790504, 41.1658704 ], [ 24.1790709, 41.1658616 ], [ 24.1790925, 41.1658557 ], [ 24.1790846, 41.1658402 ], [ 24.179068, 41.1658049 ], [ 24.1790416, 41.1657747 ], [ 24.1790132, 41.165757 ], [ 24.1790044, 41.1657467 ], [ 24.1790015, 41.1657224 ], [ 24.178975, 41.1656907 ], [ 24.1789672, 41.1656693 ], [ 24.1789437, 41.1655986 ], [ 24.1789416, 41.1655531 ], [ 24.178931, 41.1654611 ], [ 24.1789469, 41.1653632 ], [ 24.1789629, 41.1652833 ], [ 24.1789363, 41.1652353 ], [ 24.1788885, 41.1651934 ] ] } },
{ "type": "Feature", "properties": { "element": "way", "id": 558815221, "ele": null, "natural": "cliff", "leaf_type": null, "source": null, "intermittent": null, "name": null, "name:el": null, "name:mk": null, "waterway": null, "landuse": null, "layer": null, "tunnel": null, "access": null, "free_flying:site": null, "leisure": null, "name:en": null, "sport": null, "surface": null, "label": "natural:cliff" }, "geometry": { "type": "LineString", "coordinates": [ [ 24.1805879, 41.1699671 ], [ 24.1806355, 41.1700946 ], [ 24.1806907, 41.1702436 ], [ 24.1807668, 41.1703396 ], [ 24.1808354, 41.1704284 ], [ 24.1809362, 41.1705101 ], [ 24.1810219, 41.1705373 ], [ 24.1811056, 41.1705416 ], [ 24.1812065, 41.1705043 ], [ 24.1812712, 41.1704427 ], [ 24.1812826, 41.1703954 ], [ 24.1812712, 41.1703381 ], [ 24.1812293, 41.1702407 ], [ 24.1811779, 41.1701547 ] ] } },
{ "type": "Feature", "properties": { "element": "way", "id": 558815222, "ele": null, "natural": "cliff", "leaf_type": null, "source": null, "intermittent": null, "name": null, "name:el": null, "name:mk": null, "waterway": null, "landuse": null, "layer": null, "tunnel": null, "access": null, "free_flying:site": null, "leisure": null, "name:en": null, "sport": null, "surface": null, "label": "natural:cliff" }, "geometry": { "type": "LineString", "coordinates": [ [ 24.1802152, 41.1700606 ], [ 24.180162, 41.1701653 ], [ 24.1801306, 41.1702218 ], [ 24.1801306, 41.1703102 ], [ 24.1801565, 41.1704006 ], [ 24.1801824, 41.1704489 ], [ 24.1802329, 41.1704971 ], [ 24.1803448, 41.1705886 ], [ 24.1804499, 41.1706923 ], [ 24.180484, 41.1707211 ], [ 24.1805509, 41.1707621 ], [ 24.1806082, 41.1707971 ] ] } },
{ "type": "Feature", "properties": { "element": "way", "id": 799604153, "ele": null, "natural": null, "leaf_type": null, "source": null, "intermittent": "yes", "name": null, "name:el": null, "name:mk": null, "waterway": "stream", "landuse": null, "layer": null, "tunnel": null, "access": null, "free_flying:site": null, "leisure": null, "name:en": null, "sport": null, "surface": null, "label": "waterway:stream" }, "geometry": { "type": "LineString", "coordinates": [ [ 24.1733186, 41.1804537 ], [ 24.1730284, 41.1806668 ], [ 24.172632, 41.1808799 ], [ 24.172455748621356, 41.18096769617906 ] ] } },
{ "type": "Feature", "properties": { "element": "way", "id": 799604154, "ele": null, "natural": null, "leaf_type": null, "source": null, "intermittent": "yes", "name": null, "name:el": null, "name:mk": null, "waterway": "stream", "landuse": null, "layer": null, "tunnel": null, "access": null, "free_flying:site": null, "leisure": null, "name:en": null, "sport": null, "surface": null, "label": "waterway:stream" }, "geometry": { "type": "LineString", "coordinates": [ [ 24.1726391, 41.1771666 ], [ 24.172455748621356, 41.177232233792388 ] ] } },
{ "type": "Feature", "properties": { "element": "way", "id": 799604157, "ele": null, "natural": null, "leaf_type": null, "source": null, "intermittent": "yes", "name": null, "name:el": null, "name:mk": null, "waterway": "stream", "landuse": null, "layer": null, "tunnel": null, "access": null, "free_flying:site": null, "leisure": null, "name:en": null, "sport": null, "surface": null, "label": "waterway:stream" }, "geometry": { "type": "LineString", "coordinates": [ [ 24.1741114, 41.1722403 ], [ 24.1734121, 41.1723505 ], [ 24.1726803, 41.1725035 ], [ 24.172455748621356, 41.172537314888679 ] ] } },
{ "type": "Feature", "properties": { "element": "way", "id": 799604160, "ele": null, "natural": null, "leaf_type": null, "source": null, "intermittent": "yes", "name": null, "name:el": null, "name:mk": null, "waterway": "stream", "landuse": null, "layer": null, "tunnel": null, "access": null, "free_flying:site": null, "leisure": null, "name:en": null, "sport": null, "surface": null, "label": "waterway:stream" }, "geometry": { "type": "LineString", "coordinates": [ [ 24.191565064056146, 41.187361234515336 ], [ 24.1917269, 41.1868767 ], [ 24.1918082, 41.186433 ], [ 24.1918326, 41.1860842 ], [ 24.1918408, 41.1857538 ], [ 24.1919993, 41.1854448 ], [ 24.1923286, 41.1851664 ], [ 24.1926945, 41.184943 ], [ 24.1928937, 41.1847166 ], [ 24.1928815, 41.18438 ], [ 24.1927677, 41.1838813 ], [ 24.1927514, 41.1834224 ], [ 24.192914, 41.1830338 ], [ 24.1931092, 41.1826758 ], [ 24.1936174, 41.1820424 ], [ 24.1939914, 41.1815865 ], [ 24.1942678, 41.1811673 ], [ 24.1943532, 41.1808552 ], [ 24.1942313, 41.1803963 ], [ 24.1941662, 41.1799801 ], [ 24.1942272, 41.1796099 ], [ 24.194589, 41.179307 ], [ 24.1950606, 41.1791019 ], [ 24.1954631, 41.1789367 ], [ 24.1958371, 41.1786154 ], [ 24.1960526, 41.1783002 ], [ 24.1963941, 41.1779942 ], [ 24.1967071, 41.1777953 ], [ 24.1969104, 41.177728 ], [ 24.1972819, 41.1776499 ] ] } },
{ "type": "Feature", "properties": { "element": "way", "id": 799604161, "ele": null, "natural": null, "leaf_type": null, "source": null, "intermittent": "yes", "name": null, "name:el": null, "name:mk": null, "waterway": "stream", "landuse": null, "layer": null, "tunnel": null, "access": null, "free_flying:site": null, "leisure": null, "name:en": null, "sport": null, "surface": null, "label": "waterway:stream" }, "geometry": { "type": "LineString", "coordinates": [ [ 24.1927405, 41.1729533 ], [ 24.192783, 41.1728094 ], [ 24.1927547, 41.1726176 ], [ 24.1926981, 41.1724791 ], [ 24.1926627, 41.1723139 ], [ 24.1926768, 41.1721328 ], [ 24.1927618, 41.1719569 ], [ 24.1928679, 41.1718078 ], [ 24.1928963, 41.1715946 ], [ 24.1928963, 41.1713602 ], [ 24.1928396, 41.1710991 ], [ 24.1927759, 41.1708114 ], [ 24.1927193, 41.1703691 ], [ 24.1927334, 41.1700707 ], [ 24.1928467, 41.1697084 ], [ 24.1929033, 41.1693567 ], [ 24.1929175, 41.1689944 ], [ 24.192875, 41.1687013 ], [ 24.1927688, 41.1683497 ], [ 24.1926485, 41.1680992 ], [ 24.1926839, 41.1678488 ], [ 24.1928113, 41.1675078 ], [ 24.1930307, 41.1672094 ], [ 24.1932714, 41.1670175 ], [ 24.1933139, 41.1668364 ], [ 24.1933705, 41.1666019 ], [ 24.1935333, 41.1663461 ], [ 24.1938589, 41.1662076 ], [ 24.1942482, 41.1660424 ], [ 24.1943969, 41.1659039 ], [ 24.1946659, 41.1657813 ], [ 24.1950127, 41.1657547 ], [ 24.1954303, 41.1658026 ], [ 24.1956285, 41.165776 ] ] } },
{ "type": "Feature", "properties": { "element": "way", "id": 799604162, "ele": null, "natural": null, "leaf_type": null, "source": null, "intermittent": "yes", "name": null, "name:el": null, "name:mk": null, "waterway": "stream", "landuse": null, "layer": null, "tunnel": null, "access": null, "free_flying:site": null, "leisure": null, "name:en": null, "sport": null, "surface": null, "label": "waterway:stream" }, "geometry": { "type": "LineString", "coordinates": [ [ 24.1884067, 41.1774019 ], [ 24.1885462, 41.1773973 ], [ 24.1888252, 41.1773367 ], [ 24.1890357, 41.1772359 ], [ 24.1892739, 41.1769969 ], [ 24.1895728, 41.1766208 ], [ 24.1898857, 41.1763466 ], [ 24.1902686, 41.1760514 ], [ 24.1906002, 41.1757983 ], [ 24.1909458, 41.1755979 ], [ 24.1913801, 41.1754116 ], [ 24.1918237, 41.1753343 ], [ 24.1922029, 41.1752606 ], [ 24.1924962, 41.175155 ], [ 24.1928698, 41.1749863 ], [ 24.1933695, 41.1748351 ], [ 24.1938458, 41.1747332 ], [ 24.1944483, 41.1746172 ], [ 24.1949246, 41.1744907 ], [ 24.1953216, 41.174343 ], [ 24.1957045, 41.1741673 ], [ 24.1959193, 41.1739845 ], [ 24.1962696, 41.1738368 ], [ 24.1967179, 41.1737525 ], [ 24.1968652, 41.1737166 ], [ 24.1970498, 41.1736716 ], [ 24.1973994, 41.1735676 ], [ 24.1978791, 41.1734942 ], [ 24.1982043, 41.1734268 ], [ 24.19831, 41.1732738 ], [ 24.1985377, 41.1731943 ], [ 24.198928, 41.1732004 ], [ 24.1993102, 41.1732187 ], [ 24.1994634, 41.1732303 ], [ 24.1996354, 41.1732432 ], [ 24.2004891, 41.1733289 ], [ 24.2008794, 41.1733228 ], [ 24.201473, 41.173335 ], [ 24.2018899, 41.1735077 ] ] } },
{ "type": "Feature", "properties": { "element": "way", "id": 800526070, "ele": null, "natural": null, "leaf_type": null, "source": null, "intermittent": "yes", "name": null, "name:el": null, "name:mk": null, "waterway": "stream", "landuse": null, "layer": null, "tunnel": null, "access": null, "free_flying:site": null, "leisure": null, "name:en": null, "sport": null, "surface": null, "label": "waterway:stream" }, "geometry": { "type": "LineString", "coordinates": [ [ 24.201953326509322, 41.1777021381425 ], [ 24.2012815, 41.1775905 ], [ 24.2009279, 41.1774537 ] ] } },
{ "type": "Feature", "properties": { "element": "way", "id": 800526076, "ele": null, "natural": null, "leaf_type": null, "source": null, "intermittent": "yes", "name": null, "name:el": null, "name:mk": null, "waterway": "stream", "landuse": null, "layer": null, "tunnel": null, "access": null, "free_flying:site": null, "leisure": null, "name:en": null, "sport": null, "surface": null, "label": "waterway:stream" }, "geometry": { "type": "LineString", "coordinates": [ [ 24.201953326509322, 41.176297472810234 ], [ 24.2014764, 41.1763326 ], [ 24.2008088, 41.1764476 ] ] } },
{ "type": "Feature", "properties": { "element": "way", "id": 865136708, "ele": null, "natural": null, "leaf_type": null, "source": null, "intermittent": "yes", "name": null, "name:el": null, "name:mk": null, "waterway": "stream", "landuse": null, "layer": null, "tunnel": null, "access": null, "free_flying:site": null, "leisure": null, "name:en": null, "sport": null, "surface": null, "label": "waterway:stream" }, "geometry": { "type": "LineString", "coordinates": [ [ 24.197398, 41.1775902 ], [ 24.1975853, 41.1774985 ], [ 24.1977723, 41.1772996 ], [ 24.1978495, 41.1771222 ], [ 24.1979999, 41.1769875 ], [ 24.1982073, 41.1768927 ], [ 24.1983902, 41.1768835 ], [ 24.1985244, 41.1767764 ], [ 24.1985122, 41.1766264 ], [ 24.198622, 41.1765316 ], [ 24.198747, 41.1764732 ], [ 24.1989431, 41.1763449 ], [ 24.1990936, 41.1762378 ], [ 24.1990895, 41.1759471 ], [ 24.1992643, 41.1757666 ], [ 24.1999392, 41.1755615 ], [ 24.2002888, 41.1755156 ], [ 24.2009004, 41.17543 ] ] } },
{ "type": "Feature", "properties": { "element": "way", "id": 865136709, "ele": null, "natural": null, "leaf_type": null, "source": null, "intermittent": "yes", "name": null, "name:el": null, "name:mk": null, "waterway": "stream", "landuse": null, "layer": "-1", "tunnel": "culvert", "access": null, "free_flying:site": null, "leisure": null, "name:en": null, "sport": null, "surface": null, "label": "waterway:stream" }, "geometry": { "type": "LineString", "coordinates": [ [ 24.1972819, 41.1776499 ], [ 24.197398, 41.1775902 ] ] } },
{ "type": "Feature", "properties": { "element": "way", "id": 865136710, "ele": null, "natural": null, "leaf_type": null, "source": null, "intermittent": "yes", "name": null, "name:el": null, "name:mk": null, "waterway": "stream", "landuse": null, "layer": "-1", "tunnel": "culvert", "access": null, "free_flying:site": null, "leisure": null, "name:en": null, "sport": null, "surface": null, "label": "waterway:stream" }, "geometry": { "type": "LineString", "coordinates": [ [ 24.1882908, 41.1774103 ], [ 24.1884067, 41.1774019 ] ] } },
{ "type": "Feature", "properties": { "element": "way", "id": 865136711, "ele": null, "natural": null, "leaf_type": null, "source": null, "intermittent": "yes", "name": null, "name:el": null, "name:mk": null, "waterway": "stream", "landuse": null, "layer": null, "tunnel": null, "access": null, "free_flying:site": null, "leisure": null, "name:en": null, "sport": null, "surface": null, "label": "waterway:stream" }, "geometry": { "type": "LineString", "coordinates": [ [ 24.1873553, 41.1778051 ], [ 24.1875216, 41.1776759 ], [ 24.1878059, 41.1776032 ], [ 24.1880152, 41.1774982 ], [ 24.1882908, 41.1774103 ] ] } }
]
}
