{
"type": "FeatureCollection",
"name": "patch_71204_linestring",
"crs": { "type": "name", "properties": { "name": "urn:ogc:def:crs:OGC:1.3:CRS84" } },
"features": [
{ "type": "Feature", "properties": { "osm_id": 8810098, "name": null, "label": "natural:coastline", "natural": "coastline", "waterway": null }, "geometry": { "type": "LineString", "coordinates": [ [ 24.087372580330086, 40.721922581223829 ], [ 24.0887038, 40.722065100359941 ], [ 24.0892406, 40.72220170035996 ], [ 24.0897622, 40.72244140035999 ], [ 24.0904339, 40.722900600360042 ], [ 24.091499, 40.723445300360105 ], [ 24.0920014, 40.723648900360132 ], [ 24.0927303, 40.723680800360135 ], [ 24.0930438, 40.723810100360154 ], [ 24.0933215, 40.723989200360165 ], [ 24.0936188, 40.724073000360185 ], [ 24.0941428, 40.724088100360198 ], [ 24.0962047, 40.724770100360267 ], [ 24.0971876, 40.725301100360333 ], [ 24.0972569, 40.725349200360327 ], [ 24.0974233, 40.725464800360342 ], [ 24.0978829, 40.725784100360393 ], [ 24.0987746, 40.726244200360433 ], [ 24.0998839, 40.726714000360502 ], [ 24.1017069, 40.727352100360562 ], [ 24.101995, 40.727514000360586 ], [ 24.10263, 40.727978400360655 ], [ 24.1030833, 40.728267800360683 ], [ 24.1037482, 40.728454200360702 ], [ 24.1043988, 40.728770700360734 ], [ 24.1049506, 40.729129200360795 ], [ 24.1056219, 40.729462600360826 ], [ 24.1061034, 40.729592400360836 ], [ 24.1065042, 40.72956120036082 ], [ 24.1066227, 40.729544400360837 ], [ 24.1068725, 40.729509100360836 ], [ 24.1070946, 40.72955810036084 ], [ 24.1073855, 40.729575100360833 ], [ 24.1078351, 40.729691100360846 ], [ 24.1082608, 40.72987440036087 ], [ 24.1087273, 40.7300356003609 ], [ 24.1091291, 40.730183600360917 ], [ 24.1093977, 40.730282500360929 ], [ 24.1099049, 40.730343900360921 ], [ 24.111496, 40.731241900361034 ], [ 24.1120743, 40.731568300361076 ], [ 24.1144929, 40.73268970036122 ], [ 24.1152824, 40.732982700361234 ], [ 24.1155761, 40.733030200361242 ], [ 24.1162776, 40.732986100361252 ], [ 24.116647474378485, 40.733003584284411 ] ] } },
{ "type": "Feature", "properties": { "osm_id": 345579522, "name": null, "label": "waterway:river", "natural": null, "waterway": "river" }, "geometry": { "type": "LineString", "coordinates": [ [ 24.09186732471726, 40.736673731188084 ], [ 24.0918965, 40.736652000361687 ], [ 24.0920293, 40.736366200361658 ], [ 24.0920979, 40.735788000361588 ], [ 24.0921837, 40.734950000361472 ], [ 24.0922737, 40.734436800361415 ], [ 24.0924666, 40.734186600361383 ], [ 24.0929681, 40.733969000361363 ], [ 24.0938426, 40.734102200361377 ], [ 24.0945499, 40.734215900361399 ], [ 24.0952229, 40.734219100361379 ], [ 24.0955616, 40.733959300361384 ], [ 24.0956488, 40.733846200361356 ], [ 24.0958809, 40.733193000361275 ], [ 24.0961274, 40.732890600361237 ], [ 24.0967061, 40.732660000361207 ], [ 24.0974606, 40.732195500361151 ], [ 24.0979922, 40.731857600361117 ], [ 24.0980922, 40.731619800361067 ], [ 24.0980333, 40.731352400361047 ], [ 24.0978973, 40.731111300361036 ], [ 24.0978592, 40.730613100360969 ], [ 24.0979878, 40.730308200360923 ], [ 24.0975129, 40.729131700360803 ], [ 24.0974714, 40.728986500360762 ], [ 24.0974609, 40.728862200360759 ], [ 24.0974745, 40.728748300360742 ], [ 24.0975363, 40.728634400360718 ], [ 24.0976159, 40.728540100360711 ], [ 24.0977368, 40.728435400360695 ], [ 24.0978882, 40.7283209003607 ], [ 24.0980707, 40.728217000360679 ], [ 24.0983117, 40.728087200360655 ], [ 24.0988487, 40.727833000360633 ], [ 24.0996853, 40.727396200360573 ], [ 24.0997972, 40.727339500360564 ], [ 24.0998746, 40.727311500360564 ], [ 24.0999703, 40.727299100360561 ], [ 24.1001007, 40.727303300360568 ], [ 24.1001898, 40.727289300360574 ], [ 24.1004003, 40.727209900360556 ], [ 24.100447, 40.727166300360551 ], [ 24.1004532, 40.727115800360544 ], [ 24.1004494, 40.727072200360546 ], [ 24.1003974, 40.727023500360538 ], [ 24.1002776, 40.726954000360521 ], [ 24.1001303, 40.726889600360515 ], [ 24.1000291, 40.726852300360505 ], [ 24.0999493, 40.726812700360519 ], [ 24.0999073, 40.726770500360509 ], [ 24.0998839, 40.726714000360502 ] ] } }
]
}
