{
"type": "FeatureCollection",
"name": "patch_71204_polygon",
"crs": { "type": "name", "properties": { "name": "urn:ogc:def:crs:OGC:1.3:CRS84" } },
"features": [
{ "type": "Feature", "properties": { "osm_id": 672687438, "name": null, "label": "natural:bare_rock", "natural": "bare_rock", "leisure": null, "building": null }, "geometry": { "type": "Polygon", "coordinates": [ [ [ 24.092443, 40.723563200360125 ], [ 24.0924686, 40.723571500360123 ], [ 24.0925106, 40.723568700360111 ], [ 24.0925234, 40.723559000360119 ], [ 24.0925088, 40.723543800360112 ], [ 24.0924887, 40.723538200360117 ], [ 24.0924631, 40.723535500360114 ], [ 24.0924412, 40.72353960036012 ], [ 24.092443, 40.723563200360125 ] ] ] } },
{ "type": "Feature", "properties": { "osm_id": 672687434, "name": null, "label": "natural:bare_rock", "natural": "bare_rock", "leisure": null, "building": null }, "geometry": { "type": "Polygon", "coordinates": [ [ [ 24.0925508, 40.723625500360136 ], [ 24.0925654, 40.723647600360124 ], [ 24.0925837, 40.723650400360121 ], [ 24.0926001, 40.723644800360134 ], [ 24.0926147, 40.723622700360131 ], [ 24.0925928, 40.723606100360136 ], [ 24.0925672, 40.723596400360108 ], [ 24.0925508, 40.723606100360136 ], [ 24.0925508, 40.723625500360136 ] ] ] } },
{ "type": "Feature", "properties": { "osm_id": 672687436, "name": null, "label": "natural:bare_rock", "natural": "bare_rock", "leisure": null, "building": null }, "geometry": { "type": "Polygon", "coordinates": [ [ [ 24.0923681, 40.723499500360113 ], [ 24.0923863, 40.723520200360113 ], [ 24.0923991, 40.723531300360101 ], [ 24.0924174, 40.723531300360101 ], [ 24.0924357, 40.723518900360119 ], [ 24.0924247, 40.723503600360118 ], [ 24.0924101, 40.723495300360113 ], [ 24.0923937, 40.723487000360102 ], [ 24.0923663, 40.723481500360108 ], [ 24.0923681, 40.723499500360113 ] ] ] } },
{ "type": "Feature", "properties": { "osm_id": 1367278915, "name": null, "label": "natural:beach", "natural": "beach", "leisure": null, "building": null }, "geometry": { "type": "Polygon", "coordinates": [ [ [ 24.0974752, 40.725691000360371 ], [ 24.0979687, 40.72599590036041 ], [ 24.0991811, 40.726573200360491 ], [ 24.0999267, 40.726869900360512 ], [ 24.1008333, 40.727207400360562 ], [ 24.1015897, 40.727435000360579 ], [ 24.1019062, 40.727735800360612 ], [ 24.1023031, 40.728004200360644 ], [ 24.1028825, 40.728288700360686 ], [ 24.1037482, 40.728454200360702 ], [ 24.1030833, 40.728267800360683 ], [ 24.10263, 40.727978400360655 ], [ 24.101995, 40.727514000360586 ], [ 24.1017069, 40.727352100360562 ], [ 24.0998839, 40.726714000360502 ], [ 24.0987746, 40.726244200360433 ], [ 24.0978829, 40.725784100360393 ], [ 24.0974233, 40.725464800360342 ], [ 24.0972569, 40.725349200360327 ], [ 24.0974752, 40.725691000360371 ] ] ] } },
{ "type": "Feature", "properties": { "osm_id": 1367278916, "name": null, "label": "natural:beach", "natural": "beach", "leisure": null, "building": null }, "geometry": { "type": "Polygon", "coordinates": [ [ [ 24.1070617, 40.729661400360847 ], [ 24.1075101, 40.729739200360854 ], [ 24.1078416, 40.729870200360878 ], [ 24.1082713, 40.730043600360901 ], [ 24.1086822, 40.7301639003609 ], [ 24.1091291, 40.730183600360917 ], [ 24.1087273, 40.7300356003609 ], [ 24.1082608, 40.72987440036087 ], [ 24.1078351, 40.729691100360846 ], [ 24.1073855, 40.729575100360833 ], [ 24.1070946, 40.72955810036084 ], [ 24.1068725, 40.729509100360836 ], [ 24.1066227, 40.729544400360837 ], [ 24.1070617, 40.729661400360847 ] ] ] } },
{ "type": "Feature", "properties": { "osm_id": 561249506, "name": null, "label": "leisure:swimming_pool", "natural": null, "leisure": "swimming_pool", "building": null }, "geometry": { "type": "Polygon", "coordinates": [ [ [ 24.1094538, 40.730693500360978 ], [ 24.1094833, 40.730696700360973 ], [ 24.109496, 40.730705200360973 ], [ 24.1095016, 40.730720100360983 ], [ 24.1095199, 40.730729700360968 ], [ 24.1095409, 40.73073500036098 ], [ 24.109576, 40.730741400360969 ], [ 24.1095915, 40.73073720036097 ], [ 24.1095985, 40.730727600360972 ], [ 24.1095999, 40.730715900360984 ], [ 24.1095999, 40.730698800360969 ], [ 24.1094749, 40.730628600360973 ], [ 24.1094468, 40.730650900360963 ], [ 24.1094342, 40.730675400360973 ], [ 24.1094538, 40.730693500360978 ] ] ] } },
{ "type": "Feature", "properties": { "osm_id": 1367278917, "name": null, "label": "natural:beach", "natural": "beach", "leisure": null, "building": null }, "geometry": { "type": "Polygon", "coordinates": [ [ [ 24.1116337, 40.731558200361093 ], [ 24.1118531, 40.731731600361101 ], [ 24.1131981, 40.732301400361159 ], [ 24.1138472, 40.7325986003612 ], [ 24.1144683, 40.732864000361232 ], [ 24.1151408, 40.733033900361256 ], [ 24.1155798, 40.733076300361262 ], [ 24.1162616, 40.733041000361261 ], [ 24.1162776, 40.732986100361252 ], [ 24.1155761, 40.733030200361242 ], [ 24.1152824, 40.732982700361234 ], [ 24.1144929, 40.73268970036122 ], [ 24.1120743, 40.731568300361076 ], [ 24.111496, 40.731241900361034 ], [ 24.1116337, 40.731558200361093 ] ] ] } },
{ "type": "Feature", "properties": { "osm_id": 1367278918, "name": null, "label": "natural:beach", "natural": "beach", "leisure": null, "building": null }, "geometry": { "type": "Polygon", "coordinates": [ [ [ 24.1162776, 40.732986100361252 ], [ 24.1162616, 40.733041000361261 ], [ 24.116647474378485, 40.733062481310952 ], [ 24.116647474378485, 40.733003584284411 ], [ 24.1162776, 40.732986100361252 ] ] ] } },
{ "type": "Feature", "properties": { "osm_id": 1108098860, "name": null, "label": "building:yes", "natural": null, "leisure": null, "building": "yes" }, "geometry": { "type": "Polygon", "coordinates": [ [ [ 24.0912097, 40.736644500361678 ], [ 24.0911833, 40.73666900036168 ], [ 24.0911711, 40.736661400361683 ], [ 24.091157770551952, 40.736673731188084 ], [ 24.091256914736078, 40.736673731188084 ], [ 24.0912097, 40.736644500361678 ] ] ] } },
{ "type": "Feature", "properties": { "osm_id": 1379297377, "name": null, "label": "building:yes", "natural": null, "leisure": null, "building": "yes" }, "geometry": { "type": "Polygon", "coordinates": [ [ [ 24.0914162, 40.736491800361662 ], [ 24.0914419, 40.736403500361654 ], [ 24.0913358, 40.736385700361652 ], [ 24.0913101, 40.736474100361661 ], [ 24.0914162, 40.736491800361662 ] ] ] } },
{ "type": "Feature", "properties": { "osm_id": 136783946, "name": null, "label": "natural:wood", "natural": "wood", "leisure": null, "building": null }, "geometry": { "type": "Polygon", "coordinates": [ [ [ 24.096603, 40.736292000361644 ], [ 24.094882, 40.735857000361591 ], [ 24.093446, 40.73520400036152 ], [ 24.094163, 40.734658000361456 ], [ 24.095739, 40.733674000361347 ], [ 24.094733, 40.732038000361136 ], [ 24.09301, 40.731276000361049 ], [ 24.089997, 40.730624000360962 ], [ 24.087557, 40.729316000360811 ], [ 24.087372580330086, 40.729281066786783 ], [ 24.087372580330086, 40.736673731188084 ], [ 24.09728247899027, 40.736673731188084 ], [ 24.096603, 40.736292000361644 ] ] ] } }
]
}
