{
"type": "FeatureCollection",
"name": "patch_93050_point",
"crs": { "type": "name", "properties": { "name": "urn:ogc:def:crs:OGC:1.3:CRS84" } },
"features": [
{ "type": "Feature", "properties": { "element": "node", "id": 4237989075, "historic": "archaeological_site", "name": "Μυκηναϊκό φράγμα της Τίρυνθας", "name:de": "Mykenischer Staudamm bei Tiryns", "name:el": "Μυκηναϊκό φράγμα της Τίρυνθας", "name:en": "Mycenaean Dam of Tiryns", "source": "survey", "wikidata": "Q19946222", "castle_type": null, "historic:civilization": null, "start_date": null, "amenity": null, "brand": null, "brand:wikidata": null, "brand:wikipedia": null, "operator": null, "memorial": null, "natural": null, "email": null, "tourism": null, "website": null, "phone": null, "addr:postcode": null, "healthcare": null, "landuse": null, "int_name": null, "intermittent": null, "waterway": null, "leisure": null, "building": null, "religion": null, "man_made": null, "tower:type": null, "layer": null, "label": "historic:archaeological_site" }, "geometry": { "type": "Point", "coordinates": [ 22.8438334, 37.607969 ] } },
{ "type": "Feature", "properties": { "element": "node", "id": 8921556785, "historic": "castle", "name": "Πύργος Αγίου Αδριανού", "name:de": null, "name:el": "Πύργος Αγίου Αδριανού", "name:en": "Tower of Agios Adrianos", "source": "https://www.kastra.eu/castlegr.php?kastro=rio", "wikidata": "Q56398382", "castle_type": "towerhouse", "historic:civilization": "ottoman", "start_date": "1750", "amenity": null, "brand": null, "brand:wikidata": null, "brand:wikipedia": null, "operator": null, "memorial": null, "natural": null, "email": null, "tourism": null, "website": null, "phone": null, "addr:postcode": null, "healthcare": null, "landuse": null, "int_name": null, "intermittent": null, "waterway": null, "leisure": null, "building": null, "religion": null, "man_made": null, "tower:type": null, "layer": null, "label": "historic:castle" }, "geometry": { "type": "Point", "coordinates": [ 22.8450541, 37.5980259 ] } },
{ "type": "Feature", "properties": { "element": "node", "id": 9191299730, "historic": null, "name": "ΕΛΙΝΟΙΛ", "name:de": null, "name:el": null, "name:en": null, "source": null, "wikidata": null, "castle_type": null, "historic:civilization": null, "start_date": null, "amenity": "fuel", "brand": "ΕΛΙΝΟΙΛ", "brand:wikidata": "Q12876543", "brand:wikipedia": "el:ΕΛΙΝΟΙΛ", "operator": "ΣΤΑΥΡΟΠΟΥΛΟΣ ΙΩΑΝΝΗΣ", "memorial": null, "natural": null, "email": null, "tourism": null, "website": null, "phone": null, "addr:postcode": null, "healthcare": null, "landuse": null, "int_name": null, "intermittent": null, "waterway": null, "leisure": null, "building": null, "religion": null, "man_made": null, "tower:type": null, "layer": null, "label": "amenity:fuel" }, "geometry": { "type": "Point", "coordinates": [ 22.8546596, 37.6114709 ] } },
{ "type": "Feature", "properties": { "element": "node", "id": 9368513304, "historic": "memorial", "name": "Θεόδωρος Κολοκοτρώνης", "name:de": null, "name:el": null, "name:en": null, "source": null, "wikidata": null, "castle_type": null, "historic:civilization": null, "start_date": null, "amenity": null, "brand": null, "brand:wikidata": null, "brand:wikipedia": null, "operator": null, "memorial": "bust", "natural": null, "email": null, "tourism": null, "website": null, "phone": null, "addr:postcode": null, "healthcare": null, "landuse": null, "int_name": null, "intermittent": null, "waterway": null, "leisure": null, "building": null, "religion": null, "man_made": null, "tower:type": null, "layer": null, "label": "historic:memorial" }, "geometry": { "type": "Point", "coordinates": [ 22.8588433, 37.6161352 ] } },
{ "type": "Feature", "properties": { "element": "node", "id": 9368693658, "historic": null, "name": "Karayannis Villas", "name:de": null, "name:el": null, "name:en": null, "source": null, "wikidata": null, "castle_type": null, "historic:civilization": null, "start_date": null, "amenity": null, "brand": null, "brand:wikidata": null, "brand:wikipedia": null, "operator": null, "memorial": null, "natural": null, "email": "info@karayiannis-villas.gr", "tourism": "hotel", "website": "https://www.karayiannis-villas.gr/", "phone": null, "addr:postcode": null, "healthcare": null, "landuse": null, "int_name": null, "intermittent": null, "waterway": null, "leisure": null, "building": null, "religion": null, "man_made": null, "tower:type": null, "layer": null, "label": "tourism:hotel" }, "geometry": { "type": "Point", "coordinates": [ 22.8515339, 37.6157478 ] } },
{ "type": "Feature", "properties": { "element": "node", "id": 9368695233, "historic": null, "name": "Anassia Villas", "name:de": null, "name:el": null, "name:en": null, "source": null, "wikidata": "Q111857946", "castle_type": null, "historic:civilization": null, "start_date": null, "amenity": null, "brand": null, "brand:wikidata": null, "brand:wikipedia": null, "operator": null, "memorial": null, "natural": null, "email": "info@anassia.com", "tourism": "hotel", "website": "https://anassia.com/", "phone": "+30 27520 91242", "addr:postcode": null, "healthcare": null, "landuse": null, "int_name": null, "intermittent": null, "waterway": null, "leisure": null, "building": null, "religion": null, "man_made": null, "tower:type": null, "layer": null, "label": "tourism:hotel" }, "geometry": { "type": "Point", "coordinates": [ 22.8491578, 37.6126964 ] } },
{ "type": "Feature", "properties": { "element": "node", "id": 9970933817, "historic": null, "name": "Φαρμακειο Παπαιωαννου", "name:de": null, "name:el": "Φαρμακειο Παπαιωαννου", "name:en": "Papaioannou Pharmacy", "source": null, "wikidata": null, "castle_type": null, "historic:civilization": null, "start_date": null, "amenity": "pharmacy", "brand": null, "brand:wikidata": null, "brand:wikipedia": null, "operator": null, "memorial": null, "natural": null, "email": null, "tourism": null, "website": null, "phone": "+302752097170", "addr:postcode": "21100", "healthcare": "pharmacy", "landuse": null, "int_name": null, "intermittent": null, "waterway": null, "leisure": null, "building": null, "religion": null, "man_made": null, "tower:type": null, "layer": null, "label": "amenity:pharmacy" }, "geometry": { "type": "Point", "coordinates": [ 22.8444952, 37.5991949 ] } }
]
}
