{
"type": "FeatureCollection",
"name": "patch_51495_features",
"crs": { "type": "name", "properties": { "name": "urn:ogc:def:crs:OGC:1.3:CRS84" } },
"features": [
{ "type": "Feature", "properties": { "osm_id": 10214771, "name": null, "label": "natural:coastline", "natural": "coastline" }, "geometry": { "type": "MultiLineString", "coordinates": [ [ [ 24.415278854176069, 37.121069258674993 ], [ 24.4156036, 37.120893999863547 ], [ 24.4163423, 37.120965899863556 ], [ 24.416601418758528, 37.121069258674993 ] ], [ [ 24.417629490299586, 37.121069258674993 ], [ 24.4183809, 37.120791499863536 ] ] ] } },
{ "type": "Feature", "properties": { "osm_id": 10214760, "name": null, "label": "natural:coastline", "natural": "coastline" }, "geometry": { "type": "LineString", "coordinates": [ [ 24.4183809, 37.120791499863536 ], [ 24.418430629392073, 37.121069258674993 ] ] } }
]
}
