{
"type": "FeatureCollection",
"name": "patch_71390_point",
"crs": { "type": "name", "properties": { "name": "urn:ogc:def:crs:OGC:1.3:CRS84" } },
"features": [
{ "type": "Feature", "properties": { "element": "node", "id": 8255336760, "ele": "219", "name": "Χωματάς", "natural": "peak", "addr:city": null, "amenity": null, "phone": null, "cuisine": null, "parking": null, "surface": null, "building": null, "denomination": null, "religion": null, "leisure": null, "intermittent": null, "waterway": null, "landuse": null, "trees": null, "addr:postcode": null, "historic": null, "layer": null, "tunnel": null, "type": null, "int_name": null, "name:el": null, "name:en": null, "place": null, "population": null, "wikidata": null, "wikipedia": null, "label": "natural:peak" }, "geometry": { "type": "Point", "coordinates": [ 25.8455135, 35.1456226 ] } },
{ "type": "Feature", "properties": { "element": "node", "id": 11225363661, "ele": null, "name": "Tholos Beach", "natural": null, "addr:city": "Kavousi", "amenity": "restaurant", "phone": "2842094793", "cuisine": null, "parking": null, "surface": null, "building": null, "denomination": null, "religion": null, "leisure": null, "intermittent": null, "waterway": null, "landuse": null, "trees": null, "addr:postcode": null, "historic": null, "layer": null, "tunnel": null, "type": null, "int_name": null, "name:el": null, "name:en": null, "place": null, "population": null, "wikidata": null, "wikipedia": null, "label": "amenity:restaurant" }, "geometry": { "type": "Point", "coordinates": [ 25.8619778, 35.1516063 ] } },
{ "type": "Feature", "properties": { "element": "node", "id": 11225363677, "ele": null, "name": null, "natural": null, "addr:city": null, "amenity": "shower", "phone": null, "cuisine": null, "parking": null, "surface": null, "building": null, "denomination": null, "religion": null, "leisure": null, "intermittent": null, "waterway": null, "landuse": null, "trees": null, "addr:postcode": null, "historic": null, "layer": null, "tunnel": null, "type": null, "int_name": null, "name:el": null, "name:en": null, "place": null, "population": null, "wikidata": null, "wikipedia": null, "label": "amenity:shower" }, "geometry": { "type": "Point", "coordinates": [ 25.8620105, 35.1518339 ] } },
{ "type": "Feature", "properties": { "element": "node", "id": 11225363684, "ele": null, "name": "Petros Kantina", "natural": null, "addr:city": null, "amenity": "restaurant", "phone": null, "cuisine": "greek", "parking": null, "surface": null, "building": null, "denomination": null, "religion": null, "leisure": null, "intermittent": null, "waterway": null, "landuse": null, "trees": null, "addr:postcode": null, "historic": null, "layer": null, "tunnel": null, "type": null, "int_name": null, "name:el": null, "name:en": null, "place": null, "population": null, "wikidata": null, "wikipedia": null, "label": "amenity:restaurant" }, "geometry": { "type": "Point", "coordinates": [ 25.8613751, 35.1537151 ] } },
{ "type": "Feature", "properties": { "element": "node", "id": 11225363694, "ele": null, "name": null, "natural": null, "addr:city": null, "amenity": "shower", "phone": null, "cuisine": null, "parking": null, "surface": null, "building": null, "denomination": null, "religion": null, "leisure": null, "intermittent": null, "waterway": null, "landuse": null, "trees": null, "addr:postcode": null, "historic": null, "layer": null, "tunnel": null, "type": null, "int_name": null, "name:el": null, "name:en": null, "place": null, "population": null, "wikidata": null, "wikipedia": null, "label": "amenity:shower" }, "geometry": { "type": "Point", "coordinates": [ 25.8611449, 35.1522619 ] } }
]
}
