{
"type": "FeatureCollection",
"name": "patch_71390_multipolygon",
"crs": { "type": "name", "properties": { "name": "urn:ogc:def:crs:OGC:1.3:CRS84" } },
"features": [
{ "type": "Feature", "properties": { "element": "way", "id": 823407831, "ele": null, "name": null, "natural": null, "addr:city": null, "amenity": null, "phone": null, "cuisine": null, "parking": null, "surface": null, "building": null, "denomination": null, "religion": null, "leisure": null, "intermittent": null, "waterway": null, "landuse": "orchard", "trees": null, "addr:postcode": null, "historic": null, "layer": null, "tunnel": null, "type": null, "int_name": null, "name:el": null, "name:en": null, "place": null, "population": null, "wikidata": null, "wikipedia": null, "label": "landuse:orchard" }, "geometry": { "type": "MultiPolygon", "coordinates": [ [ [ [ 25.8715533, 35.1507941 ], [ 25.8717893, 35.151531 ], [ 25.8713816, 35.1515836 ], [ 25.8709524, 35.151531 ], [ 25.8707057, 35.1508029 ], [ 25.8703624, 35.1507678 ], [ 25.869783, 35.1502327 ], [ 25.8694182, 35.1500835 ], [ 25.8690534, 35.1505222 ], [ 25.8683668, 35.1507941 ], [ 25.8679484, 35.1507941 ], [ 25.8674441, 35.151031 ], [ 25.867691, 35.1514783 ], [ 25.8675837, 35.1516538 ], [ 25.8678304, 35.1520222 ], [ 25.8683132, 35.1519433 ], [ 25.8686136, 35.1518994 ], [ 25.8687746, 35.1521714 ], [ 25.86856, 35.1525047 ], [ 25.8690106, 35.1531626 ], [ 25.8692037, 35.153031 ], [ 25.8688604, 35.1521275 ], [ 25.8691179, 35.1521275 ], [ 25.8695256, 35.1528819 ], [ 25.8698904, 35.1528205 ], [ 25.8691072, 35.1518819 ], [ 25.8686458, 35.151724 ], [ 25.8683991, 35.1509082 ], [ 25.8688497, 35.1507678 ], [ 25.8693325, 35.151724 ], [ 25.869944, 35.151645 ], [ 25.8696651, 35.1509959 ], [ 25.8702873, 35.1510924 ], [ 25.8706521, 35.1517503 ], [ 25.8709311, 35.151645 ], [ 25.8715963, 35.1516187 ], [ 25.8718645, 35.1517591 ], [ 25.872276976622715, 35.151686157203173 ], [ 25.872276976622715, 35.15071567799653 ], [ 25.8715533, 35.1507941 ] ] ], [ [ [ 25.8720683, 35.1518906 ], [ 25.87224, 35.1521012 ], [ 25.872276976622715, 35.152095974764933 ], [ 25.872276976622715, 35.151858326084046 ], [ 25.8720683, 35.1518906 ] ] ] ] } },
{ "type": "Feature", "properties": { "element": "way", "id": 839392157, "ele": null, "name": null, "natural": "scree", "addr:city": null, "amenity": null, "phone": null, "cuisine": null, "parking": null, "surface": null, "building": null, "denomination": null, "religion": null, "leisure": null, "intermittent": null, "waterway": null, "landuse": null, "trees": null, "addr:postcode": null, "historic": null, "layer": null, "tunnel": null, "type": null, "int_name": null, "name:el": null, "name:en": null, "place": null, "population": null, "wikidata": null, "wikipedia": null, "label": "natural:scree" }, "geometry": { "type": "MultiPolygon", "coordinates": [ [ [ [ 25.8716833, 35.1396738 ], [ 25.8708464, 35.1399809 ], [ 25.8701705, 35.1399194 ], [ 25.8696019, 35.1399809 ], [ 25.8696662, 35.1397089 ], [ 25.8692049, 35.1397352 ], [ 25.8693229, 35.1394018 ], [ 25.8690118, 35.1394632 ], [ 25.8691727, 35.1392 ], [ 25.8689474, 35.1391587 ], [ 25.868962303780737, 35.139145820014086 ], [ 25.868071258186536, 35.139145820014086 ], [ 25.8679556, 35.139858 ], [ 25.8665072, 35.1402616 ], [ 25.8647799, 35.1406827 ], [ 25.8644795, 35.1409284 ], [ 25.8666896, 35.1406213 ], [ 25.8675157, 35.1407178 ], [ 25.868492, 35.1407617 ], [ 25.8693933, 35.1406915 ], [ 25.8698653, 35.1407968 ], [ 25.8691036, 35.1413144 ], [ 25.8684813, 35.1417355 ], [ 25.8681809, 35.1419987 ], [ 25.8688246, 35.1418145 ], [ 25.8684169, 35.1422005 ], [ 25.8685886, 35.1422532 ], [ 25.8692752, 35.1417355 ], [ 25.8696829, 35.1419549 ], [ 25.8685886, 35.1424988 ], [ 25.8691143, 35.1423321 ], [ 25.8696952, 35.1421803 ], [ 25.8706915, 35.1419198 ], [ 25.8708738, 35.1415864 ], [ 25.8708846, 35.1408758 ], [ 25.8713459, 35.1403757 ], [ 25.8721398, 35.1398229 ], [ 25.872276976622715, 35.139791048380552 ], [ 25.872276976622715, 35.139599464000391 ], [ 25.8716833, 35.1396738 ] ] ], [ [ [ 25.8649408, 35.1392893 ], [ 25.8650481, 35.1394911 ], [ 25.866084566113162, 35.139145820014086 ], [ 25.865343181273396, 35.139145820014086 ], [ 25.8649408, 35.1392893 ] ] ] ] } },
{ "type": "Feature", "properties": { "element": "way", "id": 839392159, "ele": null, "name": null, "natural": "scree", "addr:city": null, "amenity": null, "phone": null, "cuisine": null, "parking": null, "surface": null, "building": null, "denomination": null, "religion": null, "leisure": null, "intermittent": null, "waterway": null, "landuse": null, "trees": null, "addr:postcode": null, "historic": null, "layer": null, "tunnel": null, "type": null, "int_name": null, "name:el": null, "name:en": null, "place": null, "population": null, "wikidata": null, "wikipedia": null, "label": "natural:scree" }, "geometry": { "type": "MultiPolygon", "coordinates": [ [ [ [ 25.8716356, 35.1418863 ], [ 25.8706915, 35.1419198 ], [ 25.8696952, 35.1421803 ], [ 25.8708953, 35.14216 ], [ 25.8721184, 35.1421776 ], [ 25.8715927, 35.1424759 ], [ 25.8699297, 35.142625 ], [ 25.8688032, 35.1427478 ], [ 25.8675908, 35.1429935 ], [ 25.8676767, 35.14359 ], [ 25.8682882, 35.1433005 ], [ 25.8691572, 35.1432128 ], [ 25.8699619, 35.1429759 ], [ 25.8702945, 35.1433181 ], [ 25.8699404, 35.1436339 ], [ 25.8697044, 35.1439848 ], [ 25.868889, 35.1446253 ], [ 25.8699941, 35.1440989 ], [ 25.8702301, 35.1437831 ], [ 25.8705842, 35.1435111 ], [ 25.871024, 35.1433532 ], [ 25.8716034, 35.1427741 ], [ 25.872276976622715, 35.142437030563173 ], [ 25.872276976622715, 35.141875563621305 ], [ 25.8716356, 35.1418863 ] ] ], [ [ [ 25.8715819, 35.1444033 ], [ 25.8706378, 35.1449911 ], [ 25.8708202, 35.1451052 ], [ 25.8713245, 35.144956 ], [ 25.8719038, 35.1451666 ], [ 25.872276976622715, 35.145071682665147 ], [ 25.872276976622715, 35.143701268800328 ], [ 25.8715819, 35.1444033 ] ] ] ] } },
{ "type": "Feature", "properties": { "element": "way", "id": 841970504, "ele": null, "name": null, "natural": "bare_rock", "addr:city": null, "amenity": null, "phone": null, "cuisine": null, "parking": null, "surface": null, "building": null, "denomination": null, "religion": null, "leisure": null, "intermittent": null, "waterway": null, "landuse": null, "trees": null, "addr:postcode": null, "historic": null, "layer": null, "tunnel": null, "type": null, "int_name": null, "name:el": null, "name:en": null, "place": null, "population": null, "wikidata": null, "wikipedia": null, "label": "natural:bare_rock" }, "geometry": { "type": "MultiPolygon", "coordinates": [ [ [ [ 25.8445717, 35.1474304 ], [ 25.8451403, 35.1469742 ], [ 25.8453549, 35.1465092 ], [ 25.845151, 35.1463864 ], [ 25.8448828, 35.1458864 ], [ 25.8449043, 35.1453688 ], [ 25.8447648, 35.1448336 ], [ 25.844499011194763, 35.144864309343944 ], [ 25.844499011194763, 35.145972255538808 ], [ 25.8446146, 35.1460922 ], [ 25.8445162, 35.1468061 ], [ 25.844499011194763, 35.146816791683193 ], [ 25.844499011194763, 35.147522097884234 ], [ 25.8445717, 35.1474304 ] ] ], [ [ [ 25.844518, 35.1478467 ], [ 25.844499011194763, 35.147849379551751 ], [ 25.844499011194763, 35.147873014884944 ], [ 25.844518, 35.1478467 ] ] ] ] } }
]
}
