{
"type": "FeatureCollection",
"name": "patch_12972_linestring",
"crs": { "type": "name", "properties": { "name": "urn:ogc:def:crs:OGC:1.3:CRS84" } },
"features": [
{ "type": "Feature", "properties": { "element": "way", "id": 27459570, "boat": "no", "waterway": "stream", "landuse": null, "boundary": null, "leisure": null, "name": null, "opening_hours": null, "protect_class": null, "protection_title": null, "source": null, "natural": null, "access": null, "free_flying:site": null, "name:el": null, "name:en": null, "sport": null, "surface": null, "type": null, "information": null, "tourism": null, "wikidata": null, "label": "waterway:stream" }, "geometry": { "type": "LineString", "coordinates": [ [ 21.402831010554319, 38.44365300825433 ], [ 21.4028161, 38.4436075 ], [ 21.4028386, 38.4434499 ], [ 21.4028925, 38.4431112 ], [ 21.402839, 38.4425015 ], [ 21.4026298, 38.4423701 ], [ 21.4023607, 38.4422706 ], [ 21.4023375, 38.442209 ], [ 21.4023424, 38.4421626 ], [ 21.4024818, 38.4418942 ], [ 21.4024283, 38.4417308 ], [ 21.4021654, 38.4413674 ], [ 21.4019571, 38.4412627 ], [ 21.4018972, 38.4411284 ], [ 21.4016761, 38.4410985 ], [ 21.4014645, 38.4411147 ], [ 21.4012373, 38.4411814 ], [ 21.4011408, 38.4412096 ], [ 21.4009653, 38.4411826 ], [ 21.400386, 38.4408347 ], [ 21.3998424, 38.440218 ], [ 21.3996848, 38.4401459 ], [ 21.3995567, 38.4401298 ], [ 21.3992432, 38.4401824 ], [ 21.3985972, 38.44024 ], [ 21.3981806, 38.4402052 ], [ 21.3977914, 38.4402126 ], [ 21.3971543, 38.4402935 ], [ 21.396877, 38.4404005 ], [ 21.396763, 38.4403988 ], [ 21.3965104, 38.440364 ], [ 21.3960342, 38.4402907 ], [ 21.3951307, 38.4402214 ], [ 21.3945627, 38.440207 ], [ 21.3944394, 38.4401759 ], [ 21.3941971, 38.4400395 ], [ 21.3936894, 38.439694 ], [ 21.3933185, 38.4394798 ], [ 21.3930077, 38.4391924 ], [ 21.3925299, 38.4388692 ], [ 21.3923555, 38.438569 ], [ 21.3922773, 38.4383956 ], [ 21.3922585, 38.4381353 ], [ 21.3921294, 38.4375729 ], [ 21.3919475, 38.4373327 ], [ 21.3918144, 38.4372923 ], [ 21.3917346, 38.4372877 ], [ 21.391380496006235, 38.437335427997944 ] ] } },
{ "type": "Feature", "properties": { "element": "way", "id": 1229022613, "boat": null, "waterway": null, "landuse": null, "boundary": null, "leisure": null, "name": null, "opening_hours": null, "protect_class": null, "protection_title": null, "source": null, "natural": "cliff", "access": null, "free_flying:site": null, "name:el": null, "name:en": null, "sport": null, "surface": null, "type": null, "information": null, "tourism": null, "wikidata": null, "label": "natural:cliff" }, "geometry": { "type": "LineString", "coordinates": [ [ 21.3944973, 38.4360276 ], [ 21.3944049, 38.4359842 ], [ 21.3943063, 38.4358635 ], [ 21.3942139, 38.4356752 ], [ 21.394066, 38.4353374 ], [ 21.3938873, 38.4350429 ], [ 21.3938503, 38.4348595 ], [ 21.393727, 38.4346568 ], [ 21.3935422, 38.4345554 ], [ 21.3933635, 38.4345168 ], [ 21.393117, 38.4345602 ], [ 21.392889, 38.4346568 ], [ 21.3925994, 38.4348112 ], [ 21.3923837, 38.434874 ], [ 21.3922112, 38.4348933 ] ] } },
{ "type": "Feature", "properties": { "element": "way", "id": 1229022614, "boat": null, "waterway": null, "landuse": null, "boundary": null, "leisure": null, "name": null, "opening_hours": null, "protect_class": null, "protection_title": null, "source": null, "natural": "cliff", "access": null, "free_flying:site": null, "name:el": null, "name:en": null, "sport": null, "surface": null, "type": null, "information": null, "tourism": null, "wikidata": null, "label": "natural:cliff" }, "geometry": { "type": "LineString", "coordinates": [ [ 21.4029229, 38.4385913 ], [ 21.4025026, 38.4385913 ], [ 21.4022224, 38.4383499 ], [ 21.4018114, 38.4381231 ], [ 21.4018114, 38.4379476 ], [ 21.4015873, 38.4378598 ], [ 21.4013538, 38.437911 ], [ 21.4012043, 38.4381012 ], [ 21.4009989, 38.4382402 ], [ 21.4007467, 38.4382914 ], [ 21.4005692, 38.4382402 ], [ 21.4002423, 38.4382548 ], [ 21.3993924, 38.4382109 ], [ 21.3989534, 38.4380792 ], [ 21.3986919, 38.4379915 ], [ 21.3983837, 38.4379841 ], [ 21.3980381, 38.4379402 ], [ 21.3977299, 38.438028 ], [ 21.3972722, 38.4379622 ], [ 21.3968332, 38.4379988 ], [ 21.3966464, 38.4377281 ] ] } },
{ "type": "Feature", "properties": { "element": "way", "id": 1229022615, "boat": null, "waterway": null, "landuse": null, "boundary": null, "leisure": null, "name": null, "opening_hours": null, "protect_class": null, "protection_title": null, "source": null, "natural": "cliff", "access": null, "free_flying:site": null, "name:el": null, "name:en": null, "sport": null, "surface": null, "type": null, "information": null, "tourism": null, "wikidata": null, "label": "natural:cliff" }, "geometry": { "type": "LineString", "coordinates": [ [ 21.397954, 38.4374354 ], [ 21.3976738, 38.437216 ], [ 21.3973843, 38.4371282 ], [ 21.3971041, 38.4370916 ], [ 21.3968706, 38.4371282 ] ] } },
{ "type": "Feature", "properties": { "element": "way", "id": 1229022616, "boat": null, "waterway": null, "landuse": null, "boundary": null, "leisure": null, "name": null, "opening_hours": null, "protect_class": null, "protection_title": null, "source": null, "natural": "cliff", "access": null, "free_flying:site": null, "name:el": null, "name:en": null, "sport": null, "surface": null, "type": null, "information": null, "tourism": null, "wikidata": null, "label": "natural:cliff" }, "geometry": { "type": "LineString", "coordinates": [ [ 21.3970947, 38.437472 ], [ 21.3967305, 38.437494 ], [ 21.3964223, 38.4373989 ], [ 21.3962355, 38.437216 ], [ 21.39603, 38.4369892 ], [ 21.3959086, 38.4368648 ], [ 21.3958525, 38.4366673 ], [ 21.3956377, 38.4362649 ] ] } }
]
}
