{
"type": "FeatureCollection",
"name": "patch_50496_features",
"crs": { "type": "name", "properties": { "name": "urn:ogc:def:crs:OGC:1.3:CRS84" } },
"features": [
{ "type": "Feature", "properties": { "osm_id": 1225749008, "name": "Κορύλοβος (Ανατολικά) - Απογείωση Αλεξιπτώτου Πλαγιάς", "label": "sport:free_flying;leisure:pitch", "sport": "free_flying", "leisure": "pitch", "natural": null, "landuse": null, "waterway": null }, "geometry": { "type": "Polygon", "coordinates": [ [ [ 24.1735227, 41.169409800410634 ], [ 24.1740162, 41.169218000410609 ], [ 24.1738419, 41.168981800410585 ], [ 24.1733537, 41.169177600410606 ], [ 24.1735227, 41.169409800410634 ] ] ] } },
{ "type": "Feature", "properties": { "osm_id": 136757627, "name": null, "label": "natural:wood", "sport": null, "leisure": null, "natural": "wood", "landuse": null, "waterway": null }, "geometry": { "type": "Polygon", "coordinates": [ [ [ 24.19172, 41.18711900041253 ], [ 24.191922, 41.185871000412376 ], [ 24.192333, 41.185091000412292 ], [ 24.192399, 41.184156000412194 ], [ 24.192738, 41.182701000412031 ], [ 24.193766, 41.181452000411909 ], [ 24.194314, 41.180724000411821 ], [ 24.194448, 41.179633000411712 ], [ 24.19479, 41.179009000411639 ], [ 24.196232, 41.178019000411545 ], [ 24.197696, 41.177167000411451 ], [ 24.197741, 41.176977000411426 ], [ 24.196914, 41.176407000411373 ], [ 24.195744, 41.175890000411322 ], [ 24.194712, 41.175891000411319 ], [ 24.193682, 41.176309000411365 ], [ 24.192653, 41.176986000411432 ], [ 24.19182, 41.177585000411504 ], [ 24.191822, 41.177591000411503 ], [ 24.191886, 41.177865000411522 ], [ 24.191951, 41.178162000411575 ], [ 24.191974, 41.178281000411566 ], [ 24.191969, 41.178286000411568 ], [ 24.190871, 41.178911000411652 ], [ 24.190047, 41.179536000411701 ], [ 24.189017, 41.179849000411743 ], [ 24.188832, 41.180005000411754 ], [ 24.188769, 41.180013000411769 ], [ 24.188287, 41.180220000411779 ], [ 24.188017, 41.180360000411788 ], [ 24.187642, 41.180594300411826 ], [ 24.1875584, 41.180771800411847 ], [ 24.1876318, 41.180946300411868 ], [ 24.1878235, 41.181179500411872 ], [ 24.1877406, 41.181534000411922 ], [ 24.1875244, 41.181847200411944 ], [ 24.187285, 41.182060000411973 ], [ 24.1870926, 41.182230100411999 ], [ 24.1871086, 41.182517800412022 ], [ 24.1870781, 41.183033300412077 ], [ 24.1866307, 41.183490000412135 ], [ 24.1866217, 41.183810900412162 ], [ 24.186717, 41.184073000412191 ], [ 24.187147, 41.185040000412293 ], [ 24.188075, 41.18589900041237 ], [ 24.188648, 41.186920000412485 ], [ 24.188534, 41.18724500041251 ], [ 24.188664, 41.187256000412525 ], [ 24.188710790892859, 41.187361234515343 ], [ 24.191751347878615, 41.187361234515343 ], [ 24.19172, 41.18711900041253 ] ] ] } },
{ "type": "Feature", "properties": { "osm_id": 136757414, "name": null, "label": "natural:wood", "sport": null, "leisure": null, "natural": "wood", "landuse": null, "waterway": null }, "geometry": { "type": "Polygon", "coordinates": [ [ [ 24.201917, 41.172323000410955 ], [ 24.201591, 41.172804000411006 ], [ 24.201296, 41.173313000411049 ], [ 24.20103, 41.17372200041109 ], [ 24.200764, 41.174185000411136 ], [ 24.200588, 41.174572000411175 ], [ 24.200502, 41.174824000411206 ], [ 24.200385, 41.175170000411242 ], [ 24.20033, 41.175490000411287 ], [ 24.200272, 41.175719000411313 ], [ 24.200159, 41.176200000411349 ], [ 24.200105, 41.176632000411402 ], [ 24.200139, 41.176906000411428 ], [ 24.200175, 41.177274000411465 ], [ 24.200274, 41.17784500041153 ], [ 24.200309, 41.178115000411552 ], [ 24.200374, 41.178438000411589 ], [ 24.200407, 41.178663000411618 ], [ 24.200475, 41.179166000411662 ], [ 24.200481, 41.179553000411708 ], [ 24.200455, 41.17978200041172 ], [ 24.200433, 41.180380000411787 ], [ 24.200379, 41.180812000411848 ], [ 24.200294, 41.181203000411884 ], [ 24.20021, 41.18163500041193 ], [ 24.200125, 41.182071000411973 ], [ 24.200071, 41.182462000412009 ], [ 24.200017, 41.182938000412065 ], [ 24.199991, 41.183217000412093 ], [ 24.199906, 41.183604000412153 ], [ 24.199794, 41.184197000412212 ], [ 24.199737, 41.184427000412228 ], [ 24.199684, 41.184998000412293 ], [ 24.19963, 41.18536600041233 ], [ 24.199515, 41.18584700041238 ], [ 24.199461, 41.186279000412419 ], [ 24.199448, 41.186361000412425 ], [ 24.199446, 41.186374000412435 ], [ 24.198913, 41.186879000412482 ], [ 24.198740593126359, 41.187361234515343 ], [ 24.201704500179343, 41.187361234515343 ], [ 24.201773, 41.186923000412492 ], [ 24.201767, 41.186559000412466 ], [ 24.201794, 41.186330000412426 ], [ 24.201788, 41.185943000412387 ], [ 24.201784, 41.185647000412352 ], [ 24.201808, 41.185233000412303 ], [ 24.201802, 41.184846000412264 ], [ 24.201799, 41.184595000412244 ], [ 24.201763, 41.184231000412211 ], [ 24.201727, 41.183862000412162 ], [ 24.201721, 41.183475000412137 ], [ 24.201953326509326, 41.183316674229388 ], [ 24.201953326509326, 41.176735387473713 ], [ 24.201836, 41.176530000411397 ], [ 24.201946, 41.176252000411353 ], [ 24.201953326509326, 41.176237197903994 ], [ 24.201953326509326, 41.172277009179695 ], [ 24.201917, 41.172323000410955 ] ] ] } },
{ "type": "Feature", "properties": { "osm_id": 558632482, "name": null, "label": "landuse:quarry", "sport": null, "leisure": null, "natural": null, "landuse": "quarry", "waterway": null }, "geometry": { "type": "Polygon", "coordinates": [ [ [ 24.1801183, 41.170362800410743 ], [ 24.18018, 41.170474200410737 ], [ 24.1803094, 41.17057160041076 ], [ 24.1804696, 41.17072930041077 ], [ 24.1806113, 41.170808100410774 ], [ 24.1807407, 41.170812800410786 ], [ 24.1808886, 41.17080350041077 ], [ 24.1810427, 41.170766400410784 ], [ 24.1811536, 41.17072930041077 ], [ 24.181246, 41.170715400410764 ], [ 24.1813323, 41.170636500410772 ], [ 24.1813754, 41.170525200410744 ], [ 24.1814309, 41.170413900410736 ], [ 24.1813754, 41.17026540041072 ], [ 24.1812953, 41.170135600410717 ], [ 24.1811782, 41.170028900410706 ], [ 24.1811597, 41.169922200410703 ], [ 24.1812214, 41.169810900410681 ], [ 24.1812706, 41.169727400410665 ], [ 24.1812522, 41.169648500410666 ], [ 24.1810796, 41.169616000410649 ], [ 24.1808701, 41.16960210041065 ], [ 24.1808147, 41.169592800410655 ], [ 24.1807345, 41.16963460041066 ], [ 24.1806976, 41.169671700410667 ], [ 24.1806668, 41.169718100410662 ], [ 24.1806298, 41.169745900410668 ], [ 24.180562, 41.169764500410665 ], [ 24.1804388, 41.169815500410664 ], [ 24.1803094, 41.169871200410675 ], [ 24.1802539, 41.169940700410692 ], [ 24.1802046, 41.170042800410698 ], [ 24.1801553, 41.170140200410707 ], [ 24.1801245, 41.170181900410725 ], [ 24.180106, 41.17026080041073 ], [ 24.1801183, 41.170362800410743 ] ] ] } },
{ "type": "Feature", "properties": { "osm_id": 558815219, "name": null, "label": "landuse:quarry", "sport": null, "leisure": null, "natural": null, "landuse": "quarry", "waterway": null }, "geometry": { "type": "Polygon", "coordinates": [ [ [ 24.1779927, 41.16596220041027 ], [ 24.1780219, 41.16599440041027 ], [ 24.1780286, 41.166031600410271 ], [ 24.1780601, 41.166055300410271 ], [ 24.1781028, 41.166089200410291 ], [ 24.1781433, 41.166104400410291 ], [ 24.1781995, 41.166114500410281 ], [ 24.1782534, 41.166126400410292 ], [ 24.1782826, 41.166141600410292 ], [ 24.1783163, 41.166153500410282 ], [ 24.1783523, 41.166167000410276 ], [ 24.1784018, 41.16617040041028 ], [ 24.1784624, 41.166168700410289 ], [ 24.1785254, 41.166168700410289 ], [ 24.1785636, 41.166163600410272 ], [ 24.1785951, 41.16614670041028 ], [ 24.1786468, 41.166139900410272 ], [ 24.1786962, 41.16614670041028 ], [ 24.1787254, 41.166145000410289 ], [ 24.1787434, 41.166129800410275 ], [ 24.1787614, 41.166109500410286 ], [ 24.1787771, 41.166087500410285 ], [ 24.1788176, 41.166068800410272 ], [ 24.178867, 41.166041800410277 ], [ 24.1789008, 41.166011300410268 ], [ 24.17893, 41.165967300410266 ], [ 24.1790019, 41.165896300410253 ], [ 24.1790446, 41.165862400410262 ], [ 24.1790828, 41.165850600410259 ], [ 24.1790581, 41.165808300410255 ], [ 24.1790064, 41.16577440041025 ], [ 24.1789794, 41.16571860041023 ], [ 24.1789457, 41.165678000410246 ], [ 24.1789187, 41.165612000410249 ], [ 24.1789053, 41.165546000410224 ], [ 24.1789075, 41.165483400410217 ], [ 24.1789075, 41.165407200410208 ], [ 24.1789277, 41.165359900410195 ], [ 24.1789367, 41.165326000410197 ], [ 24.17893, 41.165300600410198 ], [ 24.17893, 41.165258300410194 ], [ 24.178903, 41.16523460041018 ], [ 24.1788648, 41.165194000410189 ], [ 24.1788333, 41.165170300410175 ], [ 24.1788131, 41.165116200410175 ], [ 24.1788176, 41.165063700410172 ], [ 24.1788603, 41.16499600041017 ], [ 24.1788715, 41.16495710041017 ], [ 24.1786985, 41.164889400410154 ], [ 24.1786378, 41.164947000410152 ], [ 24.1786175, 41.164997700410176 ], [ 24.1785658, 41.16498420041016 ], [ 24.1785231, 41.164958800410169 ], [ 24.1784782, 41.164963900410157 ], [ 24.1784422, 41.164982500410161 ], [ 24.1784107, 41.165019700410163 ], [ 24.1783793, 41.165058700410185 ], [ 24.1783456, 41.165109400410181 ], [ 24.1783141, 41.165146600410175 ], [ 24.1782624, 41.1652448004102 ], [ 24.1782152, 41.165305700410194 ], [ 24.1781657, 41.165356500410212 ], [ 24.1781568, 41.165398800410195 ], [ 24.1781792, 41.16547490041021 ], [ 24.1781815, 41.165518900410213 ], [ 24.1781792, 41.165600100410224 ], [ 24.1781388, 41.165598400410218 ], [ 24.1780916, 41.165598400410218 ], [ 24.1780601, 41.165640700410236 ], [ 24.1780534, 41.165678000410246 ], [ 24.1780579, 41.165735500410229 ], [ 24.1780736, 41.165818400410252 ], [ 24.1780668, 41.165862400410262 ], [ 24.1780354, 41.165877600410262 ], [ 24.1779972, 41.165908100410263 ], [ 24.1779837, 41.165930100410264 ], [ 24.1779927, 41.16596220041027 ] ] ] } },
{ "type": "Feature", "properties": { "osm_id": 558632481, "name": null, "label": "landuse:quarry", "sport": null, "leisure": null, "natural": null, "landuse": "quarry", "waterway": null }, "geometry": { "type": "Polygon", "coordinates": [ [ [ 24.1754612, 41.165279900410198 ], [ 24.1755627, 41.165555000410222 ], [ 24.1758266, 41.165868300410246 ], [ 24.176007, 41.166037700410271 ], [ 24.1761531, 41.166154200410283 ], [ 24.1763078, 41.166193000410296 ], [ 24.1765398, 41.166309400410306 ], [ 24.1767289, 41.166438800410312 ], [ 24.1768578, 41.166497100410325 ], [ 24.1769781, 41.166535900410324 ], [ 24.1771758, 41.166658800410339 ], [ 24.1773047, 41.166697600410345 ], [ 24.1774251, 41.166697600410345 ], [ 24.1775196, 41.166697600410345 ], [ 24.1776485, 41.166658800410339 ], [ 24.1777774, 41.166594100410329 ], [ 24.177872, 41.166529400410333 ], [ 24.1779149, 41.166477700410312 ], [ 24.1779321, 41.166393600410309 ], [ 24.1779579, 41.166309400410306 ], [ 24.1778806, 41.166193000410296 ], [ 24.177829, 41.166063600410276 ], [ 24.1778032, 41.165908300410258 ], [ 24.1777517, 41.165804800410257 ], [ 24.1777259, 41.165694800410236 ], [ 24.1776829, 41.165636600410217 ], [ 24.1776055, 41.165487800410219 ], [ 24.1776227, 41.165397200410204 ], [ 24.1776829, 41.165235400410189 ], [ 24.177786, 41.165157800410185 ], [ 24.177872, 41.165190100410179 ], [ 24.177872, 41.16512540041019 ], [ 24.1778892, 41.164911900410168 ], [ 24.177872, 41.16473080041014 ], [ 24.1777688, 41.164724300410128 ], [ 24.1776055, 41.164698400410138 ], [ 24.1775196, 41.164672500410127 ], [ 24.177468, 41.164607800410124 ], [ 24.1774165, 41.164504300410101 ], [ 24.1773563, 41.164374900410088 ], [ 24.1773305, 41.16427780041009 ], [ 24.177279, 41.164167800410063 ], [ 24.177279, 41.16409670041007 ], [ 24.1772532, 41.163947900410044 ], [ 24.1772188, 41.163837900410037 ], [ 24.1771328, 41.163760200410039 ], [ 24.1770039, 41.163714900410021 ], [ 24.1767117, 41.163695500410022 ], [ 24.1764797, 41.163734300410034 ], [ 24.1763421, 41.163805500410035 ], [ 24.1761617, 41.163818500410031 ], [ 24.1760156, 41.163954300410055 ], [ 24.175878, 41.164167800410063 ], [ 24.1757405, 41.164387800410097 ], [ 24.1755932, 41.164538700410112 ], [ 24.1756033, 41.164630400410118 ], [ 24.175583, 41.164806100410139 ], [ 24.1754308, 41.165081200410164 ], [ 24.1754612, 41.165279900410198 ] ] ] } },
{ "type": "Feature", "properties": { "osm_id": 799604157, "name": null, "label": "waterway:stream", "sport": null, "leisure": null, "natural": null, "landuse": null, "waterway": "stream" }, "geometry": { "type": "LineString", "coordinates": [ [ 24.1741114, 41.172240300410934 ], [ 24.1734121, 41.172350500410936 ], [ 24.1726803, 41.172503500410961 ], [ 24.172455748621353, 41.172537315313036 ] ] } },
{ "type": "Feature", "properties": { "osm_id": 799604154, "name": null, "label": "waterway:stream", "sport": null, "leisure": null, "natural": null, "landuse": null, "waterway": "stream" }, "geometry": { "type": "LineString", "coordinates": [ [ 24.1726391, 41.177166600411461 ], [ 24.172455748621353, 41.177232234275074 ] ] } },
{ "type": "Feature", "properties": { "osm_id": 799604153, "name": null, "label": "waterway:stream", "sport": null, "leisure": null, "natural": null, "landuse": null, "waterway": "stream" }, "geometry": { "type": "LineString", "coordinates": [ [ 24.1733186, 41.180453700411817 ], [ 24.1730284, 41.180666800411828 ], [ 24.172632, 41.180879900411853 ], [ 24.172455748621353, 41.180967696692811 ] ] } },
{ "type": "Feature", "properties": { "osm_id": 865136711, "name": null, "label": "waterway:stream", "sport": null, "leisure": null, "natural": null, "landuse": null, "waterway": "stream" }, "geometry": { "type": "LineString", "coordinates": [ [ 24.1873553, 41.177805100411533 ], [ 24.1875216, 41.177675900411501 ], [ 24.1878059, 41.177603200411497 ], [ 24.1880152, 41.177498200411499 ], [ 24.1882908, 41.177410300411481 ] ] } },
{ "type": "Feature", "properties": { "osm_id": 865136710, "name": null, "label": "waterway:stream", "sport": null, "leisure": null, "natural": null, "landuse": null, "waterway": "stream" }, "geometry": { "type": "LineString", "coordinates": [ [ 24.1882908, 41.177410300411481 ], [ 24.1884067, 41.177401900411475 ] ] } },
{ "type": "Feature", "properties": { "osm_id": 799604160, "name": null, "label": "waterway:stream", "sport": null, "leisure": null, "natural": null, "landuse": null, "waterway": "stream" }, "geometry": { "type": "LineString", "coordinates": [ [ 24.191565064271867, 41.187361234515343 ], [ 24.1917269, 41.186876700412476 ], [ 24.1918082, 41.186433000412443 ], [ 24.1918326, 41.186084200412409 ], [ 24.1918408, 41.185753800412364 ], [ 24.1919993, 41.185444800412327 ], [ 24.1923286, 41.185166400412299 ], [ 24.1926945, 41.184943000412282 ], [ 24.1928937, 41.184716600412258 ], [ 24.1928815, 41.184380000412226 ], [ 24.1927677, 41.183881300412168 ], [ 24.1927514, 41.18342240041212 ], [ 24.192914, 41.183033800412083 ], [ 24.1931092, 41.182675800412042 ], [ 24.1936174, 41.18204240041198 ], [ 24.1939914, 41.181586500411939 ], [ 24.1942678, 41.181167300411872 ], [ 24.1943532, 41.180855200411841 ], [ 24.1942313, 41.1803963004118 ], [ 24.1941662, 41.179980100411761 ], [ 24.1942272, 41.179609900411712 ], [ 24.194589, 41.179307000411683 ], [ 24.1950606, 41.179101900411666 ], [ 24.1954631, 41.178936700411647 ], [ 24.1958371, 41.178615400411609 ], [ 24.1960526, 41.178300200411584 ], [ 24.1963941, 41.177994200411547 ], [ 24.1967071, 41.177795300411525 ], [ 24.1969104, 41.177728000411534 ], [ 24.1972819, 41.177649900411502 ] ] } },
{ "type": "Feature", "properties": { "osm_id": 371161798, "name": "Αγγίτης", "label": "waterway:river", "sport": null, "leisure": null, "natural": null, "landuse": null, "waterway": "river" }, "geometry": { "type": "MultiLineString", "coordinates": [ [ [ 24.199939368129037, 41.187361234515343 ], [ 24.2000346, 41.186461300412439 ], [ 24.1999962, 41.184703500412255 ], [ 24.200256, 41.183646800412156 ], [ 24.2004931, 41.182830200412049 ], [ 24.2009604, 41.182266700411994 ], [ 24.2014428, 41.182032200411967 ], [ 24.2017603, 41.181473300411909 ], [ 24.2018877, 41.18065870041184 ], [ 24.2016841, 41.179558100411711 ], [ 24.2009934, 41.178502700411599 ], [ 24.2009279, 41.17745370041149 ], [ 24.2008961, 41.176944300411428 ], [ 24.2007989, 41.176557300411389 ], [ 24.2008088, 41.176447600411386 ], [ 24.2009004, 41.175430000411268 ], [ 24.20091, 41.175323100411248 ], [ 24.2010629, 41.174570000411187 ], [ 24.201716, 41.173628700411072 ], [ 24.2018899, 41.173507700411072 ], [ 24.201953326509326, 41.173463596791692 ] ], [ [ 24.201953326509326, 41.168284489144497 ], [ 24.2010248, 41.166962100410373 ], [ 24.2007995, 41.166552200410329 ], [ 24.200719, 41.166390700410318 ], [ 24.2006707, 41.166140300410284 ], [ 24.2005366, 41.165797000410244 ], [ 24.2005259, 41.165522400410211 ], [ 24.2006493, 41.1652922004102 ], [ 24.2007458, 41.165122600410164 ], [ 24.2007083, 41.164908600410165 ], [ 24.2005742, 41.164702600410131 ], [ 24.2002416, 41.164399800410095 ], [ 24.1999458, 41.163966500410048 ], [ 24.1997856, 41.163753600410047 ], [ 24.1997695, 41.163672800410012 ], [ 24.199786695484715, 41.163583654569905 ] ] ] } },
{ "type": "Feature", "properties": { "osm_id": 799604162, "name": null, "label": "waterway:stream", "sport": null, "leisure": null, "natural": null, "landuse": null, "waterway": "stream" }, "geometry": { "type": "LineString", "coordinates": [ [ 24.1884067, 41.177401900411475 ], [ 24.1885462, 41.177397300411492 ], [ 24.1888252, 41.177336700411473 ], [ 24.1890357, 41.177235900411468 ], [ 24.1892739, 41.176996900411439 ], [ 24.1895728, 41.176620800411406 ], [ 24.1898857, 41.176346600411364 ], [ 24.1902686, 41.176051400411339 ], [ 24.1906002, 41.175798300411302 ], [ 24.1909458, 41.175597900411283 ], [ 24.1913801, 41.175411600411266 ], [ 24.1918237, 41.175334300411265 ], [ 24.1922029, 41.175260600411249 ], [ 24.1924962, 41.175155000411245 ], [ 24.1928698, 41.174986300411227 ], [ 24.1933695, 41.174835100411215 ], [ 24.1938458, 41.17473320041119 ], [ 24.1944483, 41.174617200411177 ], [ 24.1949246, 41.174490700411162 ], [ 24.1953216, 41.174343000411149 ], [ 24.1957045, 41.174167300411142 ], [ 24.1959193, 41.173984500411123 ], [ 24.1962696, 41.173836800411102 ], [ 24.1967179, 41.173752500411091 ], [ 24.1968652, 41.173716600411083 ], [ 24.1970498, 41.17367160041109 ], [ 24.1973994, 41.173567600411069 ], [ 24.1978791, 41.173494200411078 ], [ 24.1982043, 41.173426800411065 ], [ 24.19831, 41.173273800411032 ], [ 24.1985377, 41.173194300411026 ], [ 24.198928, 41.173200400411034 ], [ 24.1993102, 41.173218700411034 ], [ 24.1994634, 41.173230300411021 ], [ 24.1996354, 41.173243200411036 ], [ 24.2004891, 41.17332890041105 ], [ 24.2008794, 41.173322800411043 ], [ 24.201473, 41.173335000411043 ], [ 24.2018899, 41.173507700411072 ] ] } },
{ "type": "Feature", "properties": { "osm_id": 865136708, "name": null, "label": "waterway:stream", "sport": null, "leisure": null, "natural": null, "landuse": null, "waterway": "stream" }, "geometry": { "type": "LineString", "coordinates": [ [ 24.197398, 41.177590200411501 ], [ 24.1975853, 41.177498500411481 ], [ 24.1977723, 41.177299600411473 ], [ 24.1978495, 41.177122200411453 ], [ 24.1979999, 41.17698750041145 ], [ 24.1982073, 41.176892700411436 ], [ 24.1983902, 41.176883500411428 ], [ 24.1985244, 41.176776400411427 ], [ 24.1985122, 41.176626400411401 ], [ 24.198622, 41.176531600411387 ], [ 24.198747, 41.17647320041138 ], [ 24.1989431, 41.176344900411372 ], [ 24.1990936, 41.176237800411364 ], [ 24.1990895, 41.175947100411335 ], [ 24.1992643, 41.175766600411308 ], [ 24.1999392, 41.175561500411284 ], [ 24.2002888, 41.175515600411273 ], [ 24.2009004, 41.175430000411268 ] ] } },
{ "type": "Feature", "properties": { "osm_id": 865136709, "name": null, "label": "waterway:stream", "sport": null, "leisure": null, "natural": null, "landuse": null, "waterway": "stream" }, "geometry": { "type": "LineString", "coordinates": [ [ 24.1972819, 41.177649900411502 ], [ 24.197398, 41.177590200411501 ] ] } },
{ "type": "Feature", "properties": { "osm_id": 800526070, "name": null, "label": "waterway:stream", "sport": null, "leisure": null, "natural": null, "landuse": null, "waterway": "stream" }, "geometry": { "type": "LineString", "coordinates": [ [ 24.201953326509326, 41.17770213858271 ], [ 24.2012815, 41.177590500411497 ], [ 24.2009279, 41.17745370041149 ] ] } },
{ "type": "Feature", "properties": { "osm_id": 800526076, "name": null, "label": "waterway:stream", "sport": null, "leisure": null, "natural": null, "landuse": null, "waterway": "stream" }, "geometry": { "type": "LineString", "coordinates": [ [ 24.201953326509326, 41.176297473226946 ], [ 24.2014764, 41.176332600411378 ], [ 24.2008088, 41.176447600411386 ] ] } },
{ "type": "Feature", "properties": { "osm_id": 799604161, "name": null, "label": "waterway:stream", "sport": null, "leisure": null, "natural": null, "landuse": null, "waterway": "stream" }, "geometry": { "type": "LineString", "coordinates": [ [ 24.1927405, 41.17295330041101 ], [ 24.192783, 41.172809400410991 ], [ 24.1927547, 41.17261760041098 ], [ 24.1926981, 41.17247910041096 ], [ 24.1926627, 41.172313900410941 ], [ 24.1926768, 41.172132800410935 ], [ 24.1927618, 41.171956900410905 ], [ 24.1928679, 41.171807800410875 ], [ 24.1928963, 41.171594600410863 ], [ 24.1928963, 41.171360200410831 ], [ 24.1928396, 41.171099100410821 ], [ 24.1927759, 41.170811400410784 ], [ 24.1927193, 41.170369100410724 ], [ 24.1927334, 41.170070700410697 ], [ 24.1928467, 41.169708400410656 ], [ 24.1929033, 41.169356700410631 ], [ 24.1929175, 41.16899440041059 ], [ 24.192875, 41.168701300410561 ], [ 24.1927688, 41.168349700410523 ], [ 24.1926485, 41.168099200410495 ], [ 24.1926839, 41.167848800410468 ], [ 24.1928113, 41.167507800410434 ], [ 24.1930307, 41.1672094004104 ], [ 24.1932714, 41.167017500410381 ], [ 24.1933139, 41.166836400410361 ], [ 24.1933705, 41.166601900410349 ], [ 24.1935333, 41.166346100410316 ], [ 24.1938589, 41.166207600410303 ], [ 24.1942482, 41.166042400410262 ], [ 24.1943969, 41.165903900410257 ], [ 24.1946659, 41.165781300410238 ], [ 24.1950127, 41.165754700410247 ], [ 24.1954303, 41.16580260041026 ], [ 24.1956285, 41.165776000410254 ] ] } },
{ "type": "Feature", "properties": { "osm_id": 558815221, "name": null, "label": "natural:cliff", "sport": null, "leisure": null, "natural": "cliff", "landuse": null, "waterway": null }, "geometry": { "type": "LineString", "coordinates": [ [ 24.1805879, 41.169967100410688 ], [ 24.1806355, 41.170094600410714 ], [ 24.1806907, 41.170243600410728 ], [ 24.1807668, 41.170339600410735 ], [ 24.1808354, 41.170428400410728 ], [ 24.1809362, 41.170510100410738 ], [ 24.1810219, 41.17053730041075 ], [ 24.1811056, 41.170541600410751 ], [ 24.1812065, 41.170504300410748 ], [ 24.1812712, 41.170442700410739 ], [ 24.1812826, 41.17039540041074 ], [ 24.1812712, 41.170338100410724 ], [ 24.1812293, 41.170240700410723 ], [ 24.1811779, 41.170154700410713 ] ] } },
{ "type": "Feature", "properties": { "osm_id": 558815222, "name": null, "label": "natural:cliff", "sport": null, "leisure": null, "natural": "cliff", "landuse": null, "waterway": null }, "geometry": { "type": "LineString", "coordinates": [ [ 24.1802152, 41.170060600410707 ], [ 24.180162, 41.170165300410716 ], [ 24.1801306, 41.170221800410715 ], [ 24.1801306, 41.170310200410732 ], [ 24.1801565, 41.170400600410751 ], [ 24.1801824, 41.170448900410733 ], [ 24.1802329, 41.170497100410749 ], [ 24.1803448, 41.170588600410746 ], [ 24.1804499, 41.170692300410764 ], [ 24.180484, 41.170721100410773 ], [ 24.1805509, 41.170762100410769 ], [ 24.1806082, 41.17079710041078 ] ] } },
{ "type": "Feature", "properties": { "osm_id": 558815220, "name": null, "label": "natural:cliff", "sport": null, "leisure": null, "natural": "cliff", "landuse": null, "waterway": null }, "geometry": { "type": "LineString", "coordinates": [ [ 24.1786012, 41.164963400410151 ], [ 24.1785422, 41.164941900410163 ], [ 24.1784813, 41.164933300410162 ], [ 24.1784071, 41.164982000410163 ], [ 24.1783424, 41.165052200410173 ], [ 24.1783138, 41.165102400410177 ], [ 24.1782662, 41.165135300410164 ], [ 24.1782643, 41.165198400410191 ], [ 24.1782358, 41.165239900410199 ], [ 24.1781673, 41.165300100410199 ], [ 24.1781159, 41.165378900410197 ], [ 24.1781273, 41.165446200410202 ], [ 24.1781539, 41.165517900410222 ], [ 24.178152, 41.165572300410219 ], [ 24.1781025, 41.165579500410232 ], [ 24.1780492, 41.16560670041023 ], [ 24.1780245, 41.16563250041024 ], [ 24.1780093, 41.165678400410222 ], [ 24.1780264, 41.16573710041024 ], [ 24.1780454, 41.165817300410254 ], [ 24.1780302, 41.165851700410251 ], [ 24.1779922, 41.165891800410257 ], [ 24.1779674, 41.16591760041026 ], [ 24.1779636, 41.165950600410262 ], [ 24.177996, 41.165992100410271 ], [ 24.178015, 41.166023700410264 ], [ 24.1780226, 41.166060900410272 ], [ 24.1780512, 41.166088100410292 ], [ 24.1781102, 41.166119700410292 ], [ 24.1781768, 41.166136900410294 ], [ 24.1782377, 41.166144000410299 ], [ 24.1783157, 41.16616980041028 ], [ 24.1783709, 41.166182700410282 ], [ 24.1784394, 41.166187000410297 ], [ 24.1785194, 41.166187000410297 ], [ 24.1785707, 41.166179800410291 ], [ 24.1785936, 41.166164100410285 ], [ 24.1786221, 41.166155500410284 ], [ 24.1786849, 41.166158300410295 ], [ 24.1787344, 41.16615400041028 ], [ 24.1787592, 41.166136900410294 ], [ 24.1787745, 41.166114200410277 ], [ 24.1787872, 41.166096500410276 ], [ 24.1788058, 41.166083300410278 ], [ 24.1788302, 41.166072200410277 ], [ 24.1788547, 41.166057500410268 ], [ 24.1788792, 41.166042800410274 ], [ 24.1789017, 41.166022900410283 ], [ 24.1789163, 41.166001500410275 ], [ 24.1789291, 41.165982400410272 ], [ 24.1789486, 41.165961000410263 ], [ 24.1789878, 41.165919800410265 ], [ 24.1790161, 41.165893200410252 ], [ 24.1790504, 41.165870400410256 ], [ 24.1790709, 41.165861600410246 ], [ 24.1790925, 41.165855700410262 ], [ 24.1790846, 41.165840200410258 ], [ 24.179068, 41.165804900410258 ], [ 24.1790416, 41.165774700410246 ], [ 24.1790132, 41.165757000410238 ], [ 24.1790044, 41.165746700410239 ], [ 24.1790015, 41.165722400410232 ], [ 24.178975, 41.165690700410231 ], [ 24.1789672, 41.165669300410237 ], [ 24.1789437, 41.165598600410235 ], [ 24.1789416, 41.165553100410229 ], [ 24.178931, 41.165461100410212 ], [ 24.1789469, 41.165363200410205 ], [ 24.1789629, 41.165283300410188 ], [ 24.1789363, 41.165235300410188 ], [ 24.1788885, 41.165193400410175 ] ] } },
{ "type": "Feature", "properties": { "osm_id": 558815218, "name": null, "label": "natural:cliff", "sport": null, "leisure": null, "natural": "cliff", "landuse": null, "waterway": null }, "geometry": { "type": "LineString", "coordinates": [ [ 24.1776613, 41.16538490041021 ], [ 24.1776438, 41.165486900410208 ], [ 24.1777094, 41.165625200410226 ], [ 24.1777662, 41.165747000410249 ], [ 24.1778056, 41.165849000410262 ], [ 24.1778581, 41.166020200410266 ], [ 24.177893, 41.166125500410288 ], [ 24.1779455, 41.166234200410287 ], [ 24.1779849, 41.166342800410305 ], [ 24.177963, 41.166421800410319 ], [ 24.177928, 41.166513900410315 ], [ 24.1778362, 41.166596200410332 ], [ 24.1776744, 41.166681800410338 ], [ 24.1775651, 41.166714700410338 ], [ 24.1774208, 41.166727900410351 ], [ 24.177294, 41.166721300410359 ], [ 24.1771803, 41.16668840041033 ], [ 24.1770722, 41.166611400410339 ], [ 24.176959, 41.166549700410314 ], [ 24.1768089, 41.166510700410342 ], [ 24.1766642, 41.166414100410314 ], [ 24.1765387, 41.166334000410309 ], [ 24.176379, 41.166249800410299 ], [ 24.1762658, 41.166192200410293 ], [ 24.1761689, 41.166172700410286 ], [ 24.176087, 41.166128500410281 ], [ 24.1759164, 41.165973400410266 ], [ 24.1757718, 41.165824500410253 ], [ 24.1756749, 41.165778200410251 ], [ 24.1756258, 41.165724800410239 ], [ 24.1755876, 41.165614900410226 ], [ 24.1755384, 41.165427900410208 ], [ 24.175492, 41.165313900410183 ], [ 24.1754729, 41.165234800410182 ], [ 24.1754661, 41.165190600410185 ], [ 24.1754688, 41.165144400410178 ], [ 24.1754961, 41.165122800410167 ], [ 24.175507, 41.165103300410173 ], [ 24.1755098, 41.165073500410166 ], [ 24.1755139, 41.165039600410182 ], [ 24.1755139, 41.16500670041016 ], [ 24.1754934, 41.164906100410171 ], [ 24.1755029, 41.164852600410157 ], [ 24.1755425, 41.164758100410147 ], [ 24.1755794, 41.164724200410134 ], [ 24.1756173, 41.164679700410126 ], [ 24.1756199, 41.164619700410128 ], [ 24.1755722, 41.164591800410108 ], [ 24.1755722, 41.164537800410109 ], [ 24.1756465, 41.164447900410096 ], [ 24.1757739, 41.164278000410079 ], [ 24.1759406, 41.164004000410046 ], [ 24.1760734, 41.163852100410054 ], [ 24.176145, 41.163796200410033 ], [ 24.1762326, 41.163780200410038 ], [ 24.176307, 41.163792200410036 ], [ 24.1763627, 41.163776200410034 ], [ 24.1764503, 41.163718200410031 ], [ 24.1765591, 41.163700300410035 ], [ 24.1767556, 41.163674300410015 ], [ 24.1769494, 41.163686300410028 ], [ 24.1771272, 41.163732200410024 ], [ 24.1772281, 41.163808200410045 ], [ 24.1772706, 41.163916100410049 ], [ 24.1772971, 41.164034000410069 ], [ 24.1773119, 41.164153100410076 ], [ 24.1773644, 41.164284700410093 ], [ 24.1774081, 41.164416400410104 ], [ 24.1774459, 41.164525400410113 ], [ 24.1775164, 41.164639400410124 ] ] } },
{ "type": "Feature", "properties": { "osm_id": 5878094893, "name": null, "label": "natural:peak", "sport": null, "leisure": null, "natural": "peak", "landuse": null, "waterway": null }, "geometry": { "type": "Point", "coordinates": [ 24.1765577, 41.173178800411037 ] } }
]
}
