{
"type": "FeatureCollection",
"name": "patch_50496_polygon",
"crs": { "type": "name", "properties": { "name": "urn:ogc:def:crs:OGC:1.3:CRS84" } },
"features": [
{ "type": "Feature", "properties": { "osm_id": 1225749008, "name": "Κορύλοβος (Ανατολικά) - Απογείωση Αλεξιπτώτου Πλαγιάς", "label": "sport:free_flying;leisure:pitch", "sport": "free_flying", "leisure": "pitch", "natural": null, "landuse": null }, "geometry": { "type": "Polygon", "coordinates": [ [ [ 24.1735227, 41.169409800410634 ], [ 24.1740162, 41.169218000410609 ], [ 24.1738419, 41.168981800410585 ], [ 24.1733537, 41.169177600410606 ], [ 24.1735227, 41.169409800410634 ] ] ] } },
{ "type": "Feature", "properties": { "osm_id": 136757627, "name": null, "label": "natural:wood", "sport": null, "leisure": null, "natural": "wood", "landuse": null }, "geometry": { "type": "Polygon", "coordinates": [ [ [ 24.19172, 41.18711900041253 ], [ 24.191922, 41.185871000412376 ], [ 24.192333, 41.185091000412292 ], [ 24.192399, 41.184156000412194 ], [ 24.192738, 41.182701000412031 ], [ 24.193766, 41.181452000411909 ], [ 24.194314, 41.180724000411821 ], [ 24.194448, 41.179633000411712 ], [ 24.19479, 41.179009000411639 ], [ 24.196232, 41.178019000411545 ], [ 24.197696, 41.177167000411451 ], [ 24.197741, 41.176977000411426 ], [ 24.196914, 41.176407000411373 ], [ 24.195744, 41.175890000411322 ], [ 24.194712, 41.175891000411319 ], [ 24.193682, 41.176309000411365 ], [ 24.192653, 41.176986000411432 ], [ 24.19182, 41.177585000411504 ], [ 24.191822, 41.177591000411503 ], [ 24.191886, 41.177865000411522 ], [ 24.191951, 41.178162000411575 ], [ 24.191974, 41.178281000411566 ], [ 24.191969, 41.178286000411568 ], [ 24.190871, 41.178911000411652 ], [ 24.190047, 41.179536000411701 ], [ 24.189017, 41.179849000411743 ], [ 24.188832, 41.180005000411754 ], [ 24.188769, 41.180013000411769 ], [ 24.188287, 41.180220000411779 ], [ 24.188017, 41.180360000411788 ], [ 24.187642, 41.180594300411826 ], [ 24.1875584, 41.180771800411847 ], [ 24.1876318, 41.180946300411868 ], [ 24.1878235, 41.181179500411872 ], [ 24.1877406, 41.181534000411922 ], [ 24.1875244, 41.181847200411944 ], [ 24.187285, 41.182060000411973 ], [ 24.1870926, 41.182230100411999 ], [ 24.1871086, 41.182517800412022 ], [ 24.1870781, 41.183033300412077 ], [ 24.1866307, 41.183490000412135 ], [ 24.1866217, 41.183810900412162 ], [ 24.186717, 41.184073000412191 ], [ 24.187147, 41.185040000412293 ], [ 24.188075, 41.18589900041237 ], [ 24.188648, 41.186920000412485 ], [ 24.188534, 41.18724500041251 ], [ 24.188664, 41.187256000412525 ], [ 24.188710790892859, 41.187361234515343 ], [ 24.191751347878615, 41.187361234515343 ], [ 24.19172, 41.18711900041253 ] ] ] } },
{ "type": "Feature", "properties": { "osm_id": 136757414, "name": null, "label": "natural:wood", "sport": null, "leisure": null, "natural": "wood", "landuse": null }, "geometry": { "type": "Polygon", "coordinates": [ [ [ 24.201917, 41.172323000410955 ], [ 24.201591, 41.172804000411006 ], [ 24.201296, 41.173313000411049 ], [ 24.20103, 41.17372200041109 ], [ 24.200764, 41.174185000411136 ], [ 24.200588, 41.174572000411175 ], [ 24.200502, 41.174824000411206 ], [ 24.200385, 41.175170000411242 ], [ 24.20033, 41.175490000411287 ], [ 24.200272, 41.175719000411313 ], [ 24.200159, 41.176200000411349 ], [ 24.200105, 41.176632000411402 ], [ 24.200139, 41.176906000411428 ], [ 24.200175, 41.177274000411465 ], [ 24.200274, 41.17784500041153 ], [ 24.200309, 41.178115000411552 ], [ 24.200374, 41.178438000411589 ], [ 24.200407, 41.178663000411618 ], [ 24.200475, 41.179166000411662 ], [ 24.200481, 41.179553000411708 ], [ 24.200455, 41.17978200041172 ], [ 24.200433, 41.180380000411787 ], [ 24.200379, 41.180812000411848 ], [ 24.200294, 41.181203000411884 ], [ 24.20021, 41.18163500041193 ], [ 24.200125, 41.182071000411973 ], [ 24.200071, 41.182462000412009 ], [ 24.200017, 41.182938000412065 ], [ 24.199991, 41.183217000412093 ], [ 24.199906, 41.183604000412153 ], [ 24.199794, 41.184197000412212 ], [ 24.199737, 41.184427000412228 ], [ 24.199684, 41.184998000412293 ], [ 24.19963, 41.18536600041233 ], [ 24.199515, 41.18584700041238 ], [ 24.199461, 41.186279000412419 ], [ 24.199448, 41.186361000412425 ], [ 24.199446, 41.186374000412435 ], [ 24.198913, 41.186879000412482 ], [ 24.198740593126359, 41.187361234515343 ], [ 24.201704500179343, 41.187361234515343 ], [ 24.201773, 41.186923000412492 ], [ 24.201767, 41.186559000412466 ], [ 24.201794, 41.186330000412426 ], [ 24.201788, 41.185943000412387 ], [ 24.201784, 41.185647000412352 ], [ 24.201808, 41.185233000412303 ], [ 24.201802, 41.184846000412264 ], [ 24.201799, 41.184595000412244 ], [ 24.201763, 41.184231000412211 ], [ 24.201727, 41.183862000412162 ], [ 24.201721, 41.183475000412137 ], [ 24.201953326509326, 41.183316674229388 ], [ 24.201953326509326, 41.176735387473713 ], [ 24.201836, 41.176530000411397 ], [ 24.201946, 41.176252000411353 ], [ 24.201953326509326, 41.176237197903994 ], [ 24.201953326509326, 41.172277009179695 ], [ 24.201917, 41.172323000410955 ] ] ] } },
{ "type": "Feature", "properties": { "osm_id": 558632482, "name": null, "label": "landuse:quarry", "sport": null, "leisure": null, "natural": null, "landuse": "quarry" }, "geometry": { "type": "Polygon", "coordinates": [ [ [ 24.1801183, 41.170362800410743 ], [ 24.18018, 41.170474200410737 ], [ 24.1803094, 41.17057160041076 ], [ 24.1804696, 41.17072930041077 ], [ 24.1806113, 41.170808100410774 ], [ 24.1807407, 41.170812800410786 ], [ 24.1808886, 41.17080350041077 ], [ 24.1810427, 41.170766400410784 ], [ 24.1811536, 41.17072930041077 ], [ 24.181246, 41.170715400410764 ], [ 24.1813323, 41.170636500410772 ], [ 24.1813754, 41.170525200410744 ], [ 24.1814309, 41.170413900410736 ], [ 24.1813754, 41.17026540041072 ], [ 24.1812953, 41.170135600410717 ], [ 24.1811782, 41.170028900410706 ], [ 24.1811597, 41.169922200410703 ], [ 24.1812214, 41.169810900410681 ], [ 24.1812706, 41.169727400410665 ], [ 24.1812522, 41.169648500410666 ], [ 24.1810796, 41.169616000410649 ], [ 24.1808701, 41.16960210041065 ], [ 24.1808147, 41.169592800410655 ], [ 24.1807345, 41.16963460041066 ], [ 24.1806976, 41.169671700410667 ], [ 24.1806668, 41.169718100410662 ], [ 24.1806298, 41.169745900410668 ], [ 24.180562, 41.169764500410665 ], [ 24.1804388, 41.169815500410664 ], [ 24.1803094, 41.169871200410675 ], [ 24.1802539, 41.169940700410692 ], [ 24.1802046, 41.170042800410698 ], [ 24.1801553, 41.170140200410707 ], [ 24.1801245, 41.170181900410725 ], [ 24.180106, 41.17026080041073 ], [ 24.1801183, 41.170362800410743 ] ] ] } },
{ "type": "Feature", "properties": { "osm_id": 558815219, "name": null, "label": "landuse:quarry", "sport": null, "leisure": null, "natural": null, "landuse": "quarry" }, "geometry": { "type": "Polygon", "coordinates": [ [ [ 24.1779927, 41.16596220041027 ], [ 24.1780219, 41.16599440041027 ], [ 24.1780286, 41.166031600410271 ], [ 24.1780601, 41.166055300410271 ], [ 24.1781028, 41.166089200410291 ], [ 24.1781433, 41.166104400410291 ], [ 24.1781995, 41.166114500410281 ], [ 24.1782534, 41.166126400410292 ], [ 24.1782826, 41.166141600410292 ], [ 24.1783163, 41.166153500410282 ], [ 24.1783523, 41.166167000410276 ], [ 24.1784018, 41.16617040041028 ], [ 24.1784624, 41.166168700410289 ], [ 24.1785254, 41.166168700410289 ], [ 24.1785636, 41.166163600410272 ], [ 24.1785951, 41.16614670041028 ], [ 24.1786468, 41.166139900410272 ], [ 24.1786962, 41.16614670041028 ], [ 24.1787254, 41.166145000410289 ], [ 24.1787434, 41.166129800410275 ], [ 24.1787614, 41.166109500410286 ], [ 24.1787771, 41.166087500410285 ], [ 24.1788176, 41.166068800410272 ], [ 24.178867, 41.166041800410277 ], [ 24.1789008, 41.166011300410268 ], [ 24.17893, 41.165967300410266 ], [ 24.1790019, 41.165896300410253 ], [ 24.1790446, 41.165862400410262 ], [ 24.1790828, 41.165850600410259 ], [ 24.1790581, 41.165808300410255 ], [ 24.1790064, 41.16577440041025 ], [ 24.1789794, 41.16571860041023 ], [ 24.1789457, 41.165678000410246 ], [ 24.1789187, 41.165612000410249 ], [ 24.1789053, 41.165546000410224 ], [ 24.1789075, 41.165483400410217 ], [ 24.1789075, 41.165407200410208 ], [ 24.1789277, 41.165359900410195 ], [ 24.1789367, 41.165326000410197 ], [ 24.17893, 41.165300600410198 ], [ 24.17893, 41.165258300410194 ], [ 24.178903, 41.16523460041018 ], [ 24.1788648, 41.165194000410189 ], [ 24.1788333, 41.165170300410175 ], [ 24.1788131, 41.165116200410175 ], [ 24.1788176, 41.165063700410172 ], [ 24.1788603, 41.16499600041017 ], [ 24.1788715, 41.16495710041017 ], [ 24.1786985, 41.164889400410154 ], [ 24.1786378, 41.164947000410152 ], [ 24.1786175, 41.164997700410176 ], [ 24.1785658, 41.16498420041016 ], [ 24.1785231, 41.164958800410169 ], [ 24.1784782, 41.164963900410157 ], [ 24.1784422, 41.164982500410161 ], [ 24.1784107, 41.165019700410163 ], [ 24.1783793, 41.165058700410185 ], [ 24.1783456, 41.165109400410181 ], [ 24.1783141, 41.165146600410175 ], [ 24.1782624, 41.1652448004102 ], [ 24.1782152, 41.165305700410194 ], [ 24.1781657, 41.165356500410212 ], [ 24.1781568, 41.165398800410195 ], [ 24.1781792, 41.16547490041021 ], [ 24.1781815, 41.165518900410213 ], [ 24.1781792, 41.165600100410224 ], [ 24.1781388, 41.165598400410218 ], [ 24.1780916, 41.165598400410218 ], [ 24.1780601, 41.165640700410236 ], [ 24.1780534, 41.165678000410246 ], [ 24.1780579, 41.165735500410229 ], [ 24.1780736, 41.165818400410252 ], [ 24.1780668, 41.165862400410262 ], [ 24.1780354, 41.165877600410262 ], [ 24.1779972, 41.165908100410263 ], [ 24.1779837, 41.165930100410264 ], [ 24.1779927, 41.16596220041027 ] ] ] } },
{ "type": "Feature", "properties": { "osm_id": 558632481, "name": null, "label": "landuse:quarry", "sport": null, "leisure": null, "natural": null, "landuse": "quarry" }, "geometry": { "type": "Polygon", "coordinates": [ [ [ 24.1754612, 41.165279900410198 ], [ 24.1755627, 41.165555000410222 ], [ 24.1758266, 41.165868300410246 ], [ 24.176007, 41.166037700410271 ], [ 24.1761531, 41.166154200410283 ], [ 24.1763078, 41.166193000410296 ], [ 24.1765398, 41.166309400410306 ], [ 24.1767289, 41.166438800410312 ], [ 24.1768578, 41.166497100410325 ], [ 24.1769781, 41.166535900410324 ], [ 24.1771758, 41.166658800410339 ], [ 24.1773047, 41.166697600410345 ], [ 24.1774251, 41.166697600410345 ], [ 24.1775196, 41.166697600410345 ], [ 24.1776485, 41.166658800410339 ], [ 24.1777774, 41.166594100410329 ], [ 24.177872, 41.166529400410333 ], [ 24.1779149, 41.166477700410312 ], [ 24.1779321, 41.166393600410309 ], [ 24.1779579, 41.166309400410306 ], [ 24.1778806, 41.166193000410296 ], [ 24.177829, 41.166063600410276 ], [ 24.1778032, 41.165908300410258 ], [ 24.1777517, 41.165804800410257 ], [ 24.1777259, 41.165694800410236 ], [ 24.1776829, 41.165636600410217 ], [ 24.1776055, 41.165487800410219 ], [ 24.1776227, 41.165397200410204 ], [ 24.1776829, 41.165235400410189 ], [ 24.177786, 41.165157800410185 ], [ 24.177872, 41.165190100410179 ], [ 24.177872, 41.16512540041019 ], [ 24.1778892, 41.164911900410168 ], [ 24.177872, 41.16473080041014 ], [ 24.1777688, 41.164724300410128 ], [ 24.1776055, 41.164698400410138 ], [ 24.1775196, 41.164672500410127 ], [ 24.177468, 41.164607800410124 ], [ 24.1774165, 41.164504300410101 ], [ 24.1773563, 41.164374900410088 ], [ 24.1773305, 41.16427780041009 ], [ 24.177279, 41.164167800410063 ], [ 24.177279, 41.16409670041007 ], [ 24.1772532, 41.163947900410044 ], [ 24.1772188, 41.163837900410037 ], [ 24.1771328, 41.163760200410039 ], [ 24.1770039, 41.163714900410021 ], [ 24.1767117, 41.163695500410022 ], [ 24.1764797, 41.163734300410034 ], [ 24.1763421, 41.163805500410035 ], [ 24.1761617, 41.163818500410031 ], [ 24.1760156, 41.163954300410055 ], [ 24.175878, 41.164167800410063 ], [ 24.1757405, 41.164387800410097 ], [ 24.1755932, 41.164538700410112 ], [ 24.1756033, 41.164630400410118 ], [ 24.175583, 41.164806100410139 ], [ 24.1754308, 41.165081200410164 ], [ 24.1754612, 41.165279900410198 ] ] ] } }
]
}
