{
"type": "FeatureCollection",
"name": "patch_47811_point",
"crs": { "type": "name", "properties": { "name": "urn:ogc:def:crs:OGC:1.3:CRS84" } },
"features": [
{ "type": "Feature", "properties": { "osm_id": 348247530, "name": null, "label": "natural:peak", "natural": "peak", "amenity": null }, "geometry": { "type": "Point", "coordinates": [ 23.6683424, 40.568849400341286 ] } },
{ "type": "Feature", "properties": { "osm_id": 9771769953, "name": null, "label": "amenity:drinking_water", "natural": null, "amenity": "drinking_water" }, "geometry": { "type": "Point", "coordinates": [ 23.662717, 40.57046090034148 ] } },
{ "type": "Feature", "properties": { "osm_id": 348252529, "name": null, "label": "natural:peak", "natural": "peak", "amenity": null }, "geometry": { "type": "Point", "coordinates": [ 23.6851652, 40.567675800341121 ] } },
{ "type": "Feature", "properties": { "osm_id": 10305185442, "name": "Σελίτσα", "label": "natural:peak", "natural": "peak", "amenity": null }, "geometry": { "type": "Point", "coordinates": [ 23.6901308, 40.579215800342553 ] } }
]
}
