{
"type": "FeatureCollection",
"name": "patch_47811_polygon",
"crs": { "type": "name", "properties": { "name": "urn:ogc:def:crs:OGC:1.3:CRS84" } },
"features": [
{ "type": "Feature", "properties": { "osm_id": -1850515, "name": "Εθνικό Πάρκο Κορώνειας-Βόλβης", "label": "tourism:information", "tourism": "information", "natural": null, "building": null, "landuse": null }, "geometry": { "type": "Polygon", "coordinates": [ [ [ 23.691755, 40.56835800034122 ], [ 23.691167, 40.567924000341151 ], [ 23.690945, 40.567320000341077 ], [ 23.691384, 40.566826000341038 ], [ 23.692071, 40.566467000340985 ], [ 23.692084399333403, 40.566453708680477 ], [ 23.692084399333403, 40.559884736723717 ], [ 23.66095473059071, 40.559884736723717 ], [ 23.66095473059071, 40.582221882595171 ], [ 23.680558778081028, 40.582221882595171 ], [ 23.681023, 40.582041000342898 ], [ 23.681521, 40.581547000342844 ], [ 23.68169, 40.580934000342765 ], [ 23.681716, 40.5803040003427 ], [ 23.681766, 40.579664000342625 ], [ 23.681947, 40.579061000342548 ], [ 23.682516, 40.578612000342481 ], [ 23.68292, 40.578055000342417 ], [ 23.683207, 40.577470000342331 ], [ 23.683516, 40.576885000342273 ], [ 23.684062, 40.57641900034222 ], [ 23.684655, 40.575979000342159 ], [ 23.685365, 40.57566500034212 ], [ 23.68618, 40.575749000342128 ], [ 23.686995, 40.575832000342139 ], [ 23.687811, 40.575708000342125 ], [ 23.688521, 40.575395000342091 ], [ 23.68922, 40.575054000342043 ], [ 23.689965, 40.57477700034201 ], [ 23.690723, 40.574536000341979 ], [ 23.691456, 40.574249000341943 ], [ 23.692084399333403, 40.573956454463442 ], [ 23.692084399333403, 40.568532813391151 ], [ 23.691755, 40.56835800034122 ] ] ] } },
{ "type": "Feature", "properties": { "osm_id": -17347937, "name": "Χαλκιδική", "label": "natural:peninsula", "tourism": null, "natural": "peninsula", "building": null, "landuse": null }, "geometry": { "type": "Polygon", "coordinates": [ [ [ 23.66095473059071, 40.582221882595171 ], [ 23.692084399333403, 40.582221882595171 ], [ 23.692084399333403, 40.559884736723717 ], [ 23.66095473059071, 40.559884736723717 ], [ 23.66095473059071, 40.582221882595171 ] ] ] } },
{ "type": "Feature", "properties": { "osm_id": 1134617370, "name": null, "label": "building:yes", "tourism": null, "natural": null, "building": "yes", "landuse": null }, "geometry": { "type": "Polygon", "coordinates": [ [ [ 23.6617181, 40.569902100341416 ], [ 23.6618552, 40.569790700341379 ], [ 23.661785, 40.569740900341387 ], [ 23.6616479, 40.569852300341395 ], [ 23.6617181, 40.569902100341416 ] ] ] } },
{ "type": "Feature", "properties": { "osm_id": 1134617374, "name": null, "label": "building:yes", "tourism": null, "natural": null, "building": "yes", "landuse": null }, "geometry": { "type": "Polygon", "coordinates": [ [ [ 23.6619895, 40.570426800341473 ], [ 23.6620684, 40.570413000341475 ], [ 23.6620366, 40.570308500341461 ], [ 23.6619577, 40.570322400341468 ], [ 23.6619895, 40.570426800341473 ] ] ] } },
{ "type": "Feature", "properties": { "osm_id": 1134617368, "name": null, "label": "building:yes", "tourism": null, "natural": null, "building": "yes", "landuse": null }, "geometry": { "type": "Polygon", "coordinates": [ [ [ 23.6612704, 40.569402200341344 ], [ 23.6613946, 40.569362500341349 ], [ 23.6613457, 40.569274200341326 ], [ 23.6612215, 40.569313900341328 ], [ 23.6612704, 40.569402200341344 ] ] ] } },
{ "type": "Feature", "properties": { "osm_id": 1134617367, "name": null, "label": "building:yes", "tourism": null, "natural": null, "building": "yes", "landuse": null }, "geometry": { "type": "Polygon", "coordinates": [ [ [ 23.6611645, 40.569248400341337 ], [ 23.6612805, 40.569211100341313 ], [ 23.6612015, 40.569069500341307 ], [ 23.6610855, 40.569106800341309 ], [ 23.6611645, 40.569248400341337 ] ] ] } },
{ "type": "Feature", "properties": { "osm_id": 1134617376, "name": null, "label": "building:yes", "tourism": null, "natural": null, "building": "yes", "landuse": null }, "geometry": { "type": "MultiPolygon", "coordinates": [ [ [ [ 23.6609561, 40.569541100341368 ], [ 23.66095473059071, 40.569537910301165 ], [ 23.66095473059071, 40.569541438847047 ], [ 23.6609561, 40.569541100341368 ] ] ], [ [ [ 23.6609649, 40.569630600341362 ], [ 23.66095473059071, 40.569606852632702 ], [ 23.66095473059071, 40.569633118141162 ], [ 23.6609649, 40.569630600341362 ] ] ] ] } },
{ "type": "Feature", "properties": { "osm_id": -1842556, "name": null, "label": "natural:wood", "tourism": null, "natural": "wood", "building": null, "landuse": null }, "geometry": { "type": "Polygon", "coordinates": [ [ [ 23.662428, 40.58161800034285 ], [ 23.663713, 40.581295000342806 ], [ 23.665001, 40.58053800034272 ], [ 23.666, 40.580215000342676 ], [ 23.666714, 40.580108000342662 ], [ 23.66714, 40.580544000342726 ], [ 23.666421, 40.581738000342874 ], [ 23.667176951803913, 40.582221882595171 ], [ 23.692084399333403, 40.582221882595171 ], [ 23.692084399333403, 40.559884736723717 ], [ 23.66095473059071, 40.559884736723717 ], [ 23.66095473059071, 40.581509127695909 ], [ 23.662428, 40.58161800034285 ] ] ] } },
{ "type": "Feature", "properties": { "osm_id": 1198242606, "name": null, "label": "landuse:residential", "tourism": null, "natural": null, "building": null, "landuse": "residential" }, "geometry": { "type": "Polygon", "coordinates": [ [ [ 23.661025, 40.569961300341419 ], [ 23.6611739, 40.569968400341409 ], [ 23.6613134, 40.569979600341426 ], [ 23.6614743, 40.570015300341431 ], [ 23.6615816, 40.570056000341424 ], [ 23.6616781, 40.570100800341422 ], [ 23.6617613, 40.570156900341431 ], [ 23.6618699, 40.570217000341451 ], [ 23.661937, 40.570260800341451 ], [ 23.6620791, 40.570304600341458 ], [ 23.6623108, 40.570367800341465 ], [ 23.6623915, 40.570416700341468 ], [ 23.6624344, 40.570463500341482 ], [ 23.6625224, 40.570428300341476 ], [ 23.6626646, 40.57045240034148 ], [ 23.6629217, 40.57039190034147 ], [ 23.6613442, 40.568788700341273 ], [ 23.66095473059071, 40.568480781093122 ], [ 23.66095473059071, 40.569958665954566 ], [ 23.661025, 40.569961300341419 ] ] ] } },
{ "type": "Feature", "properties": { "osm_id": 1134617366, "name": null, "label": "building:yes", "tourism": null, "natural": null, "building": "yes", "landuse": null }, "geometry": { "type": "Polygon", "coordinates": [ [ [ 23.6610683, 40.568925500341273 ], [ 23.6611729, 40.56880820034128 ], [ 23.6610369, 40.568738200341265 ], [ 23.66095473059071, 40.56883034635964 ], [ 23.66095473059071, 40.568867045503296 ], [ 23.6610683, 40.568925500341273 ] ] ] } },
{ "type": "Feature", "properties": { "osm_id": 1134617373, "name": null, "label": "building:yes", "tourism": null, "natural": null, "building": "yes", "landuse": null }, "geometry": { "type": "Polygon", "coordinates": [ [ [ 23.6626408, 40.570395600341456 ], [ 23.6627856, 40.570393600341461 ], [ 23.6627842, 40.57033450034146 ], [ 23.6626394, 40.570336500341469 ], [ 23.6626408, 40.570395600341456 ] ] ] } },
{ "type": "Feature", "properties": { "osm_id": 1134617372, "name": null, "label": "building:yes", "tourism": null, "natural": null, "building": "yes", "landuse": null }, "geometry": { "type": "Polygon", "coordinates": [ [ [ 23.662083, 40.570130200341424 ], [ 23.6622244, 40.57008060034142 ], [ 23.6621897, 40.570023500341421 ], [ 23.6620482, 40.570073100341425 ], [ 23.662083, 40.570130200341424 ] ] ] } },
{ "type": "Feature", "properties": { "osm_id": 1134617371, "name": null, "label": "building:yes", "tourism": null, "natural": null, "building": "yes", "landuse": null }, "geometry": { "type": "Polygon", "coordinates": [ [ [ 23.6620323, 40.569979700341406 ], [ 23.6621071, 40.569955400341406 ], [ 23.6620678, 40.569885800341403 ], [ 23.661993, 40.56991010034141 ], [ 23.6620323, 40.569979700341406 ] ] ] } },
{ "type": "Feature", "properties": { "osm_id": 1134617369, "name": null, "label": "building:yes", "tourism": null, "natural": null, "building": "yes", "landuse": null }, "geometry": { "type": "Polygon", "coordinates": [ [ [ 23.6617228, 40.569611400341373 ], [ 23.6618941, 40.569554700341364 ], [ 23.6618365, 40.569454400341357 ], [ 23.6616652, 40.569511200341367 ], [ 23.6617228, 40.569611400341373 ] ] ] } },
{ "type": "Feature", "properties": { "osm_id": -5695352, "name": "Χαλκιδική", "label": "natural:peninsula", "tourism": null, "natural": "peninsula", "building": null, "landuse": null }, "geometry": { "type": "Polygon", "coordinates": [ [ [ 23.66095473059071, 40.582221882595171 ], [ 23.692084399333403, 40.582221882595171 ], [ 23.692084399333403, 40.559884736723717 ], [ 23.66095473059071, 40.559884736723717 ], [ 23.66095473059071, 40.582221882595171 ] ] ] } }
]
}
