{
"type": "FeatureCollection",
"name": "patch_76802_point",
"crs": { "type": "name", "properties": { "name": "urn:ogc:def:crs:OGC:1.3:CRS84" } },
"features": [
{ "type": "Feature", "properties": { "@type": "node", "@id": 5825524447, "access": null, "bicycle": null, "bridge": null, "cycleway": null, "ele": "201", "foot": null, "ford": null, "generator:method": null, "generator:output:electricity": null, "generator:source": null, "generator:type": null, "highway": null, "int_name": null, "intermittent": null, "landuse": null, "lanes": null, "layer": null, "leaf_type": null, "lit": null, "maxspeed": null, "name": null, "name:el": null, "natural": "peak", "oneway": null, "plant:output:electricity": null, "plant:source": null, "power": null, "reg_ref": null, "sidewalk": null, "source": null, "surface": null, "waterway": null, "label": "natural:peak" }, "geometry": { "type": "Point", "coordinates": [ 27.7800679, 36.0059493 ] } },
{ "type": "Feature", "properties": { "@type": "node", "@id": 5825524448, "access": null, "bicycle": null, "bridge": null, "cycleway": null, "ele": "142", "foot": null, "ford": null, "generator:method": null, "generator:output:electricity": null, "generator:source": null, "generator:type": null, "highway": null, "int_name": null, "intermittent": null, "landuse": null, "lanes": null, "layer": null, "leaf_type": null, "lit": null, "maxspeed": null, "name": null, "name:el": null, "natural": "peak", "oneway": null, "plant:output:electricity": null, "plant:source": null, "power": null, "reg_ref": null, "sidewalk": null, "source": null, "surface": null, "waterway": null, "label": "natural:peak" }, "geometry": { "type": "Point", "coordinates": [ 27.7699506, 36.0093645 ] } },
{ "type": "Feature", "properties": { "@type": "node", "@id": 5825524449, "access": null, "bicycle": null, "bridge": null, "cycleway": null, "ele": "114", "foot": null, "ford": null, "generator:method": null, "generator:output:electricity": null, "generator:source": null, "generator:type": null, "highway": null, "int_name": null, "intermittent": null, "landuse": null, "lanes": null, "layer": null, "leaf_type": null, "lit": null, "maxspeed": null, "name": null, "name:el": null, "natural": "peak", "oneway": null, "plant:output:electricity": null, "plant:source": null, "power": null, "reg_ref": null, "sidewalk": null, "source": null, "surface": null, "waterway": null, "label": "natural:peak" }, "geometry": { "type": "Point", "coordinates": [ 27.7615768, 36.0093428 ] } },
{ "type": "Feature", "properties": { "@type": "node", "@id": 5825524450, "access": null, "bicycle": null, "bridge": null, "cycleway": null, "ele": "141", "foot": null, "ford": null, "generator:method": null, "generator:output:electricity": null, "generator:source": null, "generator:type": null, "highway": null, "int_name": null, "intermittent": null, "landuse": null, "lanes": null, "layer": null, "leaf_type": null, "lit": null, "maxspeed": null, "name": null, "name:el": null, "natural": "peak", "oneway": null, "plant:output:electricity": null, "plant:source": null, "power": null, "reg_ref": null, "sidewalk": null, "source": null, "surface": null, "waterway": null, "label": "natural:peak" }, "geometry": { "type": "Point", "coordinates": [ 27.7753257, 36.0183856 ] } }
]
}
