{
"type": "FeatureCollection",
"name": "patch_22987_polygon",
"crs": { "type": "name", "properties": { "name": "urn:ogc:def:crs:OGC:1.3:CRS84" } },
"features": [
{ "type": "Feature", "properties": { "osm_id": 49810634, "name": null, "label": "landuse:farmland", "landuse": "farmland", "amenity": null, "building": null, "leisure": null }, "geometry": { "type": "Polygon", "coordinates": [ [ [ 26.507363, 41.535884000447268 ], [ 26.5083538, 41.536749200447346 ], [ 26.5095277, 41.536498200447319 ], [ 26.5107471, 41.537019600447373 ], [ 26.5120524, 41.537019600447373 ], [ 26.5139713, 41.536236200447313 ], [ 26.5150715, 41.536648000447343 ], [ 26.5162474, 41.537276600447392 ], [ 26.517733, 41.537276600447392 ], [ 26.5195601, 41.536903700447375 ], [ 26.5209294, 41.535494200447246 ], [ 26.5231329, 41.534876800447179 ], [ 26.5241179, 41.530268300446757 ], [ 26.525363017951559, 41.525072861392935 ], [ 26.507315633736205, 41.525072861392935 ], [ 26.507315633736205, 41.535864301477758 ], [ 26.507363, 41.535884000447268 ] ] ] } },
{ "type": "Feature", "properties": { "osm_id": 28632071, "name": null, "label": "landuse:residential", "landuse": "residential", "amenity": null, "building": null, "leisure": null }, "geometry": { "type": "Polygon", "coordinates": [ [ [ 26.5226102, 41.539685800447621 ], [ 26.5249062, 41.540729800447721 ], [ 26.5264941, 41.539958900447651 ], [ 26.5296483, 41.538674000447529 ], [ 26.5318799, 41.538304600447496 ], [ 26.5313311, 41.537519900447407 ], [ 26.5304728, 41.53662040044734 ], [ 26.5287562, 41.535335500447225 ], [ 26.5272112, 41.534179000447111 ], [ 26.5249796, 41.533151000447013 ], [ 26.5234471, 41.53470670044716 ], [ 26.523211, 41.53594350044726 ], [ 26.522975, 41.537116000447384 ], [ 26.5206881, 41.538804800447537 ], [ 26.5205164, 41.539318800447589 ], [ 26.5226102, 41.539685800447621 ] ] ] } },
{ "type": "Feature", "properties": { "osm_id": 1422606241, "name": null, "label": "landuse:forest", "landuse": "forest", "amenity": null, "building": null, "leisure": null }, "geometry": { "type": "Polygon", "coordinates": [ [ [ 26.5289323, 41.545123500448142 ], [ 26.5290096, 41.545154000448122 ], [ 26.5291478, 41.545150900448135 ], [ 26.5293673, 41.545166100448135 ], [ 26.5298552, 41.545184400448136 ], [ 26.5299934, 41.545117500448121 ], [ 26.5302658, 41.544715800448103 ], [ 26.5301316, 41.54450590044808 ], [ 26.5298145, 41.544499800448065 ], [ 26.5289201, 41.544454100448071 ], [ 26.5289323, 41.545123500448142 ] ] ] } },
{ "type": "Feature", "properties": { "osm_id": 49810637, "name": null, "label": "landuse:farmland", "landuse": "farmland", "amenity": null, "building": null, "leisure": null }, "geometry": { "type": "Polygon", "coordinates": [ [ [ 26.5333996, 41.538531200447515 ], [ 26.53611, 41.539087600447573 ], [ 26.5374059, 41.539293200447595 ], [ 26.537834671718972, 41.539361196274875 ], [ 26.537834671718972, 41.527613473272488 ], [ 26.5333996, 41.538531200447515 ] ] ] } },
{ "type": "Feature", "properties": { "osm_id": 37348518, "name": null, "label": "landuse:farmland", "landuse": "farmland", "amenity": null, "building": null, "leisure": null }, "geometry": { "type": "Polygon", "coordinates": [ [ [ 26.5360792, 41.539182700447562 ], [ 26.5332355, 41.538598900447511 ], [ 26.5318521, 41.541327700447773 ], [ 26.5316805, 41.54364030044799 ], [ 26.532022, 41.546619700448275 ], [ 26.532701558892075, 41.548258402040354 ], [ 26.537834671718972, 41.548258402040354 ], [ 26.537834671718972, 41.539461128215379 ], [ 26.5360792, 41.539182700447562 ] ] ] } },
{ "type": "Feature", "properties": { "osm_id": 49810713, "name": null, "label": "landuse:farmland", "landuse": "farmland", "amenity": null, "building": null, "leisure": null }, "geometry": { "type": "Polygon", "coordinates": [ [ [ 26.5243755, 41.530301100446756 ], [ 26.5234659, 41.534556600447154 ], [ 26.5249446, 41.533020100446997 ], [ 26.5272927, 41.534101700447088 ], [ 26.5288486, 41.535266400447206 ], [ 26.5305728, 41.536557000447324 ], [ 26.5314429, 41.537468800447407 ], [ 26.5320076, 41.538288700447495 ], [ 26.5331459, 41.538483300447524 ], [ 26.537834671718972, 41.526941144234577 ], [ 26.537834671718972, 41.525072861392935 ], [ 26.525634290501987, 41.525072861392935 ], [ 26.5243755, 41.530301100446756 ] ] ] } },
{ "type": "Feature", "properties": { "osm_id": 49810756, "name": null, "label": "landuse:farmland", "landuse": "farmland", "amenity": null, "building": null, "leisure": null }, "geometry": { "type": "Polygon", "coordinates": [ [ [ 26.5318972, 41.546648700448273 ], [ 26.5317225, 41.546227100448235 ], [ 26.5315497, 41.543640000447986 ], [ 26.5317228, 41.54130720044779 ], [ 26.5330387, 41.538657900447532 ], [ 26.5319195, 41.538474200447517 ], [ 26.529735, 41.538851600447551 ], [ 26.5266658, 41.540127800447664 ], [ 26.5250993, 41.540954700447735 ], [ 26.5232703, 41.540173200447654 ], [ 26.5221153, 41.542354100447874 ], [ 26.5217768, 41.54400060044803 ], [ 26.519609601283701, 41.548258402040354 ], [ 26.532564732630966, 41.548258402040354 ], [ 26.5318972, 41.546648700448273 ] ] ] } },
{ "type": "Feature", "properties": { "osm_id": 562489120, "name": "Ναός Κοιμήσεως της Θεοτόκου", "label": "amenity:place_of_worship;building:yes", "landuse": null, "amenity": "place_of_worship", "building": "yes", "leisure": null }, "geometry": { "type": "Polygon", "coordinates": [ [ [ 26.5250463, 41.53806730044748 ], [ 26.5250975, 41.537958500447459 ], [ 26.5248542, 41.537894200447447 ], [ 26.524803, 41.538003100447462 ], [ 26.5250463, 41.53806730044748 ] ] ] } },
{ "type": "Feature", "properties": { "osm_id": 562489119, "name": null, "label": "leisure:playground", "landuse": null, "amenity": null, "building": null, "leisure": "playground" }, "geometry": { "type": "Polygon", "coordinates": [ [ [ 26.5254075, 41.538061300447488 ], [ 26.5257161, 41.537874700447468 ], [ 26.5254989, 41.537725100447446 ], [ 26.5252792, 41.537952300447458 ], [ 26.5254075, 41.538061300447488 ] ] ] } },
{ "type": "Feature", "properties": { "osm_id": 562491342, "name": null, "label": "amenity:grave_yard", "landuse": null, "amenity": "grave_yard", "building": null, "leisure": null }, "geometry": { "type": "Polygon", "coordinates": [ [ [ 26.5217109, 41.540527000447696 ], [ 26.5222205, 41.540864300447737 ], [ 26.522832, 41.540450800447701 ], [ 26.5224297, 41.540021100447667 ], [ 26.5222688, 41.539972900447644 ], [ 26.521845, 41.539792300447637 ], [ 26.5214534, 41.540410600447693 ], [ 26.5217109, 41.540527000447696 ] ] ] } }
]
}
