{
"type": "FeatureCollection",
"name": "patch_32721_linestring",
"crs": { "type": "name", "properties": { "name": "urn:ogc:def:crs:OGC:1.3:CRS84" } },
"features": [
{ "type": "Feature", "properties": { "@type": "way", "@id": 552156676, "addr:postcode": null, "admin_level": null, "amenity": null, "boundary": null, "building": null, "highway": null, "intermittent": "yes", "landuse": null, "layer": null, "leaf_type": null, "name": null, "natural": null, "place": null, "population": null, "reg_ref": null, "religion": null, "source": null, "tracktype": null, "tunnel": null, "waterway": "stream", "wikidata": null, "label": "waterway:stream" }, "geometry": { "type": "MultiLineString", "coordinates": [ [ [ 21.9979978, 38.4568366 ], [ 21.9976934, 38.4567534 ], [ 21.9976226, 38.4566315 ], [ 21.9974598, 38.4564985 ], [ 21.9972545, 38.456432 ], [ 21.9968935, 38.4563932 ], [ 21.9966245, 38.456443 ], [ 21.996391, 38.4564985 ], [ 21.9961503, 38.4566426 ], [ 21.9961574, 38.4567867 ], [ 21.9960937, 38.456953 ], [ 21.9960087, 38.4570916 ], [ 21.9958884, 38.4571858 ], [ 21.9957397, 38.4571913 ], [ 21.9955557, 38.4570805 ], [ 21.9954, 38.4570195 ], [ 21.9951806, 38.4569585 ], [ 21.9949399, 38.4569807 ], [ 21.9948196, 38.4570805 ], [ 21.9946568, 38.4571525 ], [ 21.9944515, 38.4571969 ], [ 21.9942604, 38.457147 ], [ 21.9941046, 38.4569973 ], [ 21.9940126, 38.4568255 ], [ 21.9938286, 38.456637 ], [ 21.9935808, 38.4564098 ], [ 21.9934463, 38.4564763 ], [ 21.9932765, 38.4565761 ], [ 21.9931207, 38.4565816 ], [ 21.9929296, 38.4564264 ], [ 21.9927314, 38.4562934 ], [ 21.9923492, 38.4562823 ], [ 21.9920873, 38.456177 ], [ 21.9917617, 38.4561049 ], [ 21.9915847, 38.4560661 ], [ 21.991245, 38.4560439 ], [ 21.9908557, 38.4562823 ], [ 21.9906221, 38.4563765 ], [ 21.9904593, 38.4564375 ], [ 21.9900063, 38.4562601 ], [ 21.9897868, 38.4561936 ], [ 21.9894329, 38.4561936 ], [ 21.9890011, 38.4562546 ], [ 21.9885198, 38.4562768 ], [ 21.9881092, 38.4563322 ], [ 21.9878898, 38.4562989 ], [ 21.9873023, 38.4561326 ], [ 21.9871041, 38.4560329 ], [ 21.9867927, 38.4557834 ], [ 21.986729421983558, 38.455650110801415 ] ], [ [ 21.986729421983558, 38.449194560958851 ], [ 21.9867431, 38.4491648 ], [ 21.9867856, 38.4490373 ], [ 21.986729421983558, 38.4489768082259 ] ] ] } }
]
}
