{
"type": "FeatureCollection",
"name": "patch_42693_linestring",
"crs": { "type": "name", "properties": { "name": "urn:ogc:def:crs:OGC:1.3:CRS84" } },
"features": [
{ "type": "Feature", "properties": { "element": "way", "id": 434989636, "ele": null, "name": null, "name:de": null, "name:el": null, "name:en": null, "natural": "coastline", "source": null, "tourism": null, "leaf_type": null, "admin_level": "7", "amenity": null, "denomination": null, "religion": null, "wikidata": null, "parking": null, "building": null, "access": null, "intermittent": null, "waterway": null, "layer": null, "tunnel": null, "label": "natural:coastline" }, "geometry": { "type": "LineString", "coordinates": [ [ 24.826258, 35.4155683 ], [ 24.8261836, 35.4156496 ], [ 24.8261122, 35.415639 ], [ 24.8261053, 35.415605 ], [ 24.8261018, 35.415523 ], [ 24.8259839, 35.4155315 ], [ 24.8258555, 35.4155626 ], [ 24.8256855, 35.4155739 ], [ 24.825564, 35.4155174 ], [ 24.8255571, 35.4154212 ], [ 24.8254911, 35.4152742 ], [ 24.8254391, 35.4152119 ], [ 24.8253836, 35.4151978 ], [ 24.8252968, 35.4152148 ], [ 24.8250956, 35.4150762 ], [ 24.8248145, 35.4149857 ], [ 24.8247326, 35.4149202 ], [ 24.8248503, 35.4148242 ], [ 24.8248771, 35.4147796 ], [ 24.8249361, 35.4145891 ], [ 24.8249723, 35.4145331 ], [ 24.8250334, 35.4144745 ], [ 24.8252843, 35.4143234 ], [ 24.8251988, 35.4142324 ], [ 24.8252675, 35.4141284 ], [ 24.8254098, 35.4140484 ], [ 24.8255128, 35.4140404 ], [ 24.8257876, 35.4140684 ], [ 24.8261017, 35.4139804 ], [ 24.8270762, 35.4137084 ], [ 24.8272073, 35.4134002 ], [ 24.8271975, 35.4129782 ], [ 24.8270453, 35.4129603 ], [ 24.8269766, 35.4129003 ], [ 24.8269668, 35.4128523 ], [ 24.8270134, 35.4128063 ], [ 24.8270944, 35.4127723 ], [ 24.8270748, 35.4126483 ], [ 24.8269717, 35.4123504 ], [ 24.8267534, 35.4121664 ], [ 24.8266552, 35.4119564 ], [ 24.8264884, 35.4117185 ], [ 24.8264344, 35.4116845 ], [ 24.8263019, 35.4116545 ], [ 24.8261277, 35.4116665 ], [ 24.8259535, 35.4117745 ], [ 24.8256493, 35.4119244 ], [ 24.8254653, 35.4119204 ], [ 24.8252273, 35.4119304 ], [ 24.8249672, 35.4120384 ], [ 24.8248175, 35.4121264 ], [ 24.8247248, 35.4122736 ], [ 24.8245501, 35.4123163 ], [ 24.8244514, 35.4123943 ], [ 24.8244068, 35.4123716 ], [ 24.824316, 35.4123093 ], [ 24.8241599, 35.4122622 ], [ 24.8241532, 35.4122126 ], [ 24.8241858, 35.4121928 ], [ 24.8243438, 35.4122033 ], [ 24.8244604, 35.4121729 ], [ 24.8244782, 35.4120764 ], [ 24.8244357, 35.4120092 ], [ 24.8242717, 35.4119063 ], [ 24.8241746, 35.4118791 ], [ 24.8240899, 35.4117833 ], [ 24.8239892, 35.411772 ], [ 24.823946, 35.4118724 ], [ 24.8240088, 35.4119118 ], [ 24.8240482, 35.4119198 ], [ 24.8240771, 35.4119739 ], [ 24.8240476, 35.4120339 ], [ 24.8240853, 35.4120877 ], [ 24.8241233, 35.4121066 ], [ 24.8241368, 35.412152 ], [ 24.8240643, 35.4121794 ], [ 24.8240189, 35.4121604 ], [ 24.8239893, 35.4120939 ], [ 24.8238709, 35.411938 ], [ 24.8235417, 35.4116125 ], [ 24.8235073, 35.4114285 ], [ 24.8233258, 35.4113245 ], [ 24.8232914, 35.4112006 ], [ 24.8233454, 35.4110926 ], [ 24.8232178, 35.4110126 ], [ 24.8230804, 35.4108486 ], [ 24.8230264, 35.4105727 ], [ 24.8228301, 35.4105087 ], [ 24.8227222, 35.4103607 ], [ 24.8228301, 35.4102807 ], [ 24.8228498, 35.4101487 ], [ 24.8228449, 35.4100807 ], [ 24.8227909, 35.4100247 ], [ 24.8227516, 35.4100207 ], [ 24.8226093, 35.4100247 ], [ 24.8223542, 35.4098248 ], [ 24.8222609, 35.4095928 ], [ 24.8220695, 35.4095448 ], [ 24.8220843, 35.4093928 ], [ 24.8219469, 35.4093848 ], [ 24.8216181, 35.4091769 ], [ 24.8209753, 35.4088889 ], [ 24.8209605, 35.4087649 ], [ 24.8208722, 35.4086729 ], [ 24.8206514, 35.4086889 ], [ 24.8205091, 35.4086689 ], [ 24.8204698, 35.408453 ], [ 24.8202785, 35.408393 ], [ 24.8200724, 35.408265 ], [ 24.8197387, 35.407945 ], [ 24.819459, 35.407821 ], [ 24.8193019, 35.407865 ], [ 24.8191989, 35.408045 ], [ 24.8189143, 35.408073 ], [ 24.8184972, 35.408025 ], [ 24.8185953, 35.407905 ], [ 24.8185463, 35.407865 ], [ 24.8181782, 35.407749 ], [ 24.8180654, 35.4076091 ], [ 24.8177498, 35.4075204 ], [ 24.8174841, 35.4076052 ], [ 24.8172715, 35.4077234 ], [ 24.8170488, 35.4078305 ], [ 24.8168484, 35.407921 ], [ 24.8168582, 35.408097 ], [ 24.8167748, 35.408145 ], [ 24.8165196, 35.408085 ], [ 24.8163626, 35.408081 ], [ 24.8162595, 35.408089 ], [ 24.8162546, 35.408089 ], [ 24.816235, 35.408217 ], [ 24.8160976, 35.408157 ], [ 24.8159259, 35.408257 ], [ 24.8157786, 35.408189 ], [ 24.8155434, 35.4079927 ], [ 24.8151674, 35.4078749 ], [ 24.8150569, 35.4077664 ], [ 24.8148316, 35.407749 ], [ 24.814439, 35.407845 ], [ 24.8140991, 35.4082031 ], [ 24.8138305, 35.408285 ], [ 24.8137732, 35.4083147 ], [ 24.8136525, 35.4082622 ], [ 24.8135627, 35.4081301 ], [ 24.8133199, 35.4081005 ], [ 24.8131429, 35.4081311 ], [ 24.8128639, 35.4082273 ], [ 24.8127513, 35.4084328 ], [ 24.8126035, 35.4085303 ], [ 24.8126011, 35.408765 ] ] } },
{ "type": "Feature", "properties": { "element": "way", "id": 434989671, "ele": null, "name": null, "name:de": null, "name:el": null, "name:en": null, "natural": "coastline", "source": null, "tourism": null, "leaf_type": null, "admin_level": "7", "amenity": null, "denomination": null, "religion": null, "wikidata": null, "parking": null, "building": null, "access": null, "intermittent": null, "waterway": null, "layer": null, "tunnel": null, "label": "natural:coastline" }, "geometry": { "type": "LineString", "coordinates": [ [ 24.8126011, 35.408765 ], [ 24.8123787, 35.4088813 ], [ 24.8123704, 35.4091411 ], [ 24.8122846, 35.4094362 ], [ 24.8121049, 35.4096985 ], [ 24.8119439, 35.409775 ], [ 24.8111661, 35.4098953 ], [ 24.8101576, 35.4103172 ], [ 24.8090805, 35.4104689 ], [ 24.8085218, 35.4106869 ], [ 24.8081331, 35.4109531 ], [ 24.8075782, 35.4110193 ], [ 24.8070172, 35.411063 ], [ 24.8068611, 35.4109642 ], [ 24.8068459, 35.4107779 ], [ 24.8069148, 35.4106975 ], [ 24.8068585, 35.4105423 ], [ 24.8065554, 35.4103784 ], [ 24.806314, 35.4100898 ], [ 24.8058634, 35.4099215 ], [ 24.8057668, 35.4098144 ], [ 24.8055393, 35.409603 ], [ 24.8053919, 35.4094892 ], [ 24.8053854, 35.4092176 ], [ 24.8043202, 35.4093608 ], [ 24.8037283, 35.4095018 ], [ 24.8030015, 35.4097869 ], [ 24.8027406, 35.4096759 ], [ 24.8025064, 35.4096983 ], [ 24.8024018, 35.4097828 ], [ 24.8021529, 35.4098287 ], [ 24.8017812, 35.4097427 ], [ 24.8015185, 35.4097014 ], [ 24.8012838, 35.4097448 ], [ 24.8009152, 35.4097279 ], [ 24.800738468560628, 35.409636752338663 ] ] } },
{ "type": "Feature", "properties": { "element": "way", "id": 487540780, "ele": null, "name": null, "name:de": null, "name:el": null, "name:en": null, "natural": "cliff", "source": null, "tourism": null, "leaf_type": null, "admin_level": null, "amenity": null, "denomination": null, "religion": null, "wikidata": null, "parking": null, "building": null, "access": null, "intermittent": null, "waterway": null, "layer": null, "tunnel": null, "label": "natural:cliff" }, "geometry": { "type": "LineString", "coordinates": [ [ 24.8193287, 35.4078239 ], [ 24.819259, 35.4078403 ], [ 24.8191946, 35.4079136 ], [ 24.8191276, 35.4079376 ], [ 24.8188392, 35.4079037 ], [ 24.8186461, 35.4078676 ], [ 24.8185174, 35.4078228 ], [ 24.8183524, 35.4077201 ], [ 24.8181807, 35.4076698 ], [ 24.8181177, 35.4075824 ], [ 24.8180372, 35.4075157 ], [ 24.8179675, 35.4074206 ], [ 24.8178857, 35.4073758 ], [ 24.8176363, 35.407367 ], [ 24.8175196, 35.4073933 ], [ 24.8174378, 35.4074949 ], [ 24.8174217, 35.4075583 ], [ 24.8173238, 35.4076315 ], [ 24.8171052, 35.4077572 ], [ 24.8169429, 35.407825 ], [ 24.8167873, 35.4079212 ] ] } },
{ "type": "Feature", "properties": { "element": "way", "id": 487540793, "ele": null, "name": null, "name:de": null, "name:el": null, "name:en": null, "natural": "cliff", "source": null, "tourism": null, "leaf_type": null, "admin_level": null, "amenity": null, "denomination": null, "religion": null, "wikidata": null, "parking": null, "building": null, "access": null, "intermittent": null, "waterway": null, "layer": null, "tunnel": null, "label": "natural:cliff" }, "geometry": { "type": "LineString", "coordinates": [ [ 24.8070228, 35.4107817 ], [ 24.8070013, 35.4103598 ], [ 24.8065212, 35.4097958 ], [ 24.8064139, 35.4096187 ], [ 24.8061242, 35.4094176 ], [ 24.8056682, 35.4092536 ], [ 24.8054045, 35.4091549 ], [ 24.8049279, 35.4092033 ], [ 24.8045078, 35.4093026 ], [ 24.8041793, 35.4093187 ], [ 24.8036698, 35.4094575 ], [ 24.8028308, 35.409527 ] ] } },
{ "type": "Feature", "properties": { "element": "way", "id": 487540795, "ele": null, "name": null, "name:de": null, "name:el": null, "name:en": null, "natural": "cliff", "source": null, "tourism": null, "leaf_type": null, "admin_level": null, "amenity": null, "denomination": null, "religion": null, "wikidata": null, "parking": null, "building": null, "access": null, "intermittent": null, "waterway": null, "layer": null, "tunnel": null, "label": "natural:cliff" }, "geometry": { "type": "LineString", "coordinates": [ [ 24.8094119, 35.4091181 ], [ 24.8090445, 35.4092099 ], [ 24.8087736, 35.409258 ], [ 24.8085724, 35.4092711 ], [ 24.8083417, 35.4092777 ], [ 24.8078992, 35.409234 ], [ 24.8073386, 35.4091334 ], [ 24.8063596, 35.4089498 ], [ 24.8059331, 35.4089082 ], [ 24.8055147, 35.408882 ], [ 24.8048361, 35.408882 ], [ 24.8039644, 35.4089301 ], [ 24.8027091, 35.4089979 ], [ 24.8019715, 35.4089847 ], [ 24.8014189, 35.4089279 ], [ 24.8007564, 35.4088033 ], [ 24.800738468560628, 35.408798735036498 ] ] } },
{ "type": "Feature", "properties": { "element": "way", "id": 487540796, "ele": null, "name": null, "name:de": null, "name:el": null, "name:en": null, "natural": "cliff", "source": null, "tourism": null, "leaf_type": null, "admin_level": null, "amenity": null, "denomination": null, "religion": null, "wikidata": null, "parking": null, "building": null, "access": null, "intermittent": null, "waterway": null, "layer": null, "tunnel": null, "label": "natural:cliff" }, "geometry": { "type": "LineString", "coordinates": [ [ 24.8149436, 35.4054208 ], [ 24.8144769, 35.4055826 ], [ 24.8141551, 35.4057509 ], [ 24.8138332, 35.4059651 ], [ 24.8135409, 35.4062472 ], [ 24.8127684, 35.4070888 ], [ 24.8125109, 35.4073708 ], [ 24.8122252, 35.4076867 ] ] } },
{ "type": "Feature", "properties": { "element": "way", "id": 487850695, "ele": null, "name": null, "name:de": null, "name:el": null, "name:en": null, "natural": "coastline", "source": null, "tourism": null, "leaf_type": null, "admin_level": null, "amenity": null, "denomination": null, "religion": null, "wikidata": null, "parking": null, "building": null, "access": null, "intermittent": null, "waterway": null, "layer": null, "tunnel": null, "label": "natural:coastline" }, "geometry": { "type": "LineString", "coordinates": [ [ 24.8165681, 35.4103696 ], [ 24.816552, 35.4104352 ], [ 24.8164661, 35.4105336 ], [ 24.8163186, 35.4106101 ], [ 24.8160692, 35.4106822 ], [ 24.8158734, 35.410809 ], [ 24.8157661, 35.4108549 ], [ 24.8156266, 35.410785 ], [ 24.8155649, 35.4106079 ], [ 24.8155971, 35.4104811 ], [ 24.8155515, 35.4104068 ], [ 24.8155917, 35.4103478 ], [ 24.8157285, 35.4103041 ], [ 24.8158278, 35.410245 ], [ 24.8157875, 35.4101314 ], [ 24.8159243, 35.4101292 ], [ 24.8161148, 35.4102232 ], [ 24.8164179, 35.4102844 ], [ 24.8165681, 35.4103696 ] ] } },
{ "type": "Feature", "properties": { "element": "way", "id": 505832389, "ele": null, "name": null, "name:de": null, "name:el": null, "name:en": null, "natural": "coastline", "source": null, "tourism": null, "leaf_type": null, "admin_level": null, "amenity": null, "denomination": null, "religion": null, "wikidata": null, "parking": null, "building": null, "access": null, "intermittent": null, "waterway": null, "layer": null, "tunnel": null, "label": "natural:coastline" }, "geometry": { "type": "LineString", "coordinates": [ [ 24.8267223, 35.415414 ], [ 24.8267135, 35.4153837 ], [ 24.826756, 35.4153563 ], [ 24.8267878, 35.4153592 ], [ 24.8268179, 35.4153246 ], [ 24.8268462, 35.4152943 ], [ 24.8268798, 35.4152871 ], [ 24.8269311, 35.4152914 ], [ 24.8269559, 35.4153044 ], [ 24.8269648, 35.4153289 ], [ 24.8269506, 35.4153563 ], [ 24.8269276, 35.4153578 ], [ 24.8268745, 35.4153736 ], [ 24.8268267, 35.4153823 ], [ 24.8267984, 35.4153981 ], [ 24.8267648, 35.4154212 ], [ 24.8267418, 35.4154284 ], [ 24.8267223, 35.415414 ] ] } },
{ "type": "Feature", "properties": { "element": "way", "id": 505832437, "ele": null, "name": null, "name:de": null, "name:el": null, "name:en": null, "natural": "coastline", "source": null, "tourism": null, "leaf_type": null, "admin_level": null, "amenity": null, "denomination": null, "religion": null, "wikidata": null, "parking": null, "building": null, "access": null, "intermittent": null, "waterway": null, "layer": null, "tunnel": null, "label": "natural:coastline" }, "geometry": { "type": "LineString", "coordinates": [ [ 24.827101, 35.4154053 ], [ 24.827055, 35.4154039 ], [ 24.827032, 35.4153794 ], [ 24.8270639, 35.4153563 ], [ 24.8271028, 35.4153477 ], [ 24.8271329, 35.4153549 ], [ 24.8271435, 35.4153779 ], [ 24.827101, 35.4154053 ] ] } },
{ "type": "Feature", "properties": { "element": "way", "id": 505832458, "ele": null, "name": null, "name:de": null, "name:el": null, "name:en": null, "natural": "coastline", "source": null, "tourism": null, "leaf_type": null, "admin_level": null, "amenity": null, "denomination": null, "religion": null, "wikidata": null, "parking": null, "building": null, "access": null, "intermittent": null, "waterway": null, "layer": null, "tunnel": null, "label": "natural:coastline" }, "geometry": { "type": "LineString", "coordinates": [ [ 24.8276779, 35.415339 ], [ 24.8276496, 35.4153174 ], [ 24.8276372, 35.4152885 ], [ 24.8276744, 35.4152813 ], [ 24.827708, 35.4152828 ], [ 24.827731, 35.4152957 ], [ 24.8277416, 35.4153188 ], [ 24.8277222, 35.4153433 ], [ 24.8276779, 35.415339 ] ] } },
{ "type": "Feature", "properties": { "element": "way", "id": 505832787, "ele": null, "name": null, "name:de": null, "name:el": null, "name:en": null, "natural": "coastline", "source": null, "tourism": null, "leaf_type": null, "admin_level": null, "amenity": null, "denomination": null, "religion": null, "wikidata": null, "parking": null, "building": null, "access": null, "intermittent": null, "waterway": null, "layer": null, "tunnel": null, "label": "natural:coastline" }, "geometry": { "type": "LineString", "coordinates": [ [ 24.8268207, 35.4128458 ], [ 24.8267952, 35.4128513 ], [ 24.8267751, 35.4128447 ], [ 24.8267831, 35.412825 ], [ 24.8268086, 35.4128163 ], [ 24.8268368, 35.4128163 ], [ 24.8268381, 35.4128294 ], [ 24.8268207, 35.4128458 ] ] } },
{ "type": "Feature", "properties": { "element": "way", "id": 505833171, "ele": null, "name": null, "name:de": null, "name:el": null, "name:en": null, "natural": "coastline", "source": null, "tourism": null, "leaf_type": null, "admin_level": null, "amenity": null, "denomination": null, "religion": null, "wikidata": null, "parking": null, "building": null, "access": null, "intermittent": null, "waterway": null, "layer": null, "tunnel": null, "label": "natural:coastline" }, "geometry": { "type": "LineString", "coordinates": [ [ 24.8157962, 35.4086089 ], [ 24.8157624, 35.4085879 ], [ 24.8157343, 35.4085584 ], [ 24.8157425, 35.4085384 ], [ 24.8157682, 35.4085242 ], [ 24.8157939, 35.4085299 ], [ 24.8158289, 35.4085223 ], [ 24.8158429, 35.4085051 ], [ 24.8158394, 35.4084814 ], [ 24.8158207, 35.4084614 ], [ 24.8157986, 35.4084376 ], [ 24.8158149, 35.4084195 ], [ 24.8158417, 35.4084081 ], [ 24.8158674, 35.4084024 ], [ 24.8158814, 35.4084128 ], [ 24.8158663, 35.4084309 ], [ 24.8158896, 35.4084452 ], [ 24.8158931, 35.4084661 ], [ 24.8159013, 35.4084833 ], [ 24.8159223, 35.408489 ], [ 24.8159316, 35.4085194 ], [ 24.8159468, 35.4085261 ], [ 24.8159748, 35.4085251 ], [ 24.8159807, 35.408507 ], [ 24.8159959, 35.4084785 ], [ 24.8160239, 35.4084633 ], [ 24.8160426, 35.408468 ], [ 24.8160659, 35.4084538 ], [ 24.8160858, 35.408469 ], [ 24.8161173, 35.4084747 ], [ 24.8161161, 35.4085042 ], [ 24.8161138, 35.4085346 ], [ 24.8160916, 35.4085537 ], [ 24.8160764, 35.4085737 ], [ 24.8160391, 35.408566 ], [ 24.8159947, 35.4085622 ], [ 24.8159433, 35.4085565 ], [ 24.8159013, 35.4085527 ], [ 24.8158791, 35.408566 ], [ 24.8158523, 35.4085803 ], [ 24.8158231, 35.4085841 ], [ 24.8158184, 35.4086012 ], [ 24.8157962, 35.4086089 ] ] } },
{ "type": "Feature", "properties": { "element": "way", "id": 505833438, "ele": null, "name": null, "name:de": null, "name:el": null, "name:en": null, "natural": "coastline", "source": null, "tourism": null, "leaf_type": null, "admin_level": null, "amenity": null, "denomination": null, "religion": null, "wikidata": null, "parking": null, "building": null, "access": null, "intermittent": null, "waterway": null, "layer": null, "tunnel": null, "label": "natural:coastline" }, "geometry": { "type": "LineString", "coordinates": [ [ 24.815746, 35.4083881 ], [ 24.815718, 35.4083643 ], [ 24.8156958, 35.408332 ], [ 24.8157028, 35.408312 ], [ 24.8157343, 35.4083129 ], [ 24.8157647, 35.4083129 ], [ 24.8157869, 35.4083205 ], [ 24.8158067, 35.4083386 ], [ 24.8158032, 35.4083634 ], [ 24.8157799, 35.4083862 ], [ 24.815746, 35.4083881 ] ] } },
{ "type": "Feature", "properties": { "element": "way", "id": 505833710, "ele": null, "name": null, "name:de": null, "name:el": null, "name:en": null, "natural": "coastline", "source": null, "tourism": null, "leaf_type": null, "admin_level": null, "amenity": null, "denomination": null, "religion": null, "wikidata": null, "parking": null, "building": null, "access": null, "intermittent": null, "waterway": null, "layer": null, "tunnel": null, "label": "natural:coastline" }, "geometry": { "type": "LineString", "coordinates": [ [ 24.8023378, 35.4101383 ], [ 24.8022771, 35.4100774 ], [ 24.8023051, 35.4099975 ], [ 24.8023425, 35.409929 ], [ 24.8024359, 35.409967 ], [ 24.8025199, 35.4100013 ], [ 24.8025573, 35.410085 ], [ 24.8025479, 35.4101574 ], [ 24.8024639, 35.4100774 ], [ 24.8024125, 35.4101288 ], [ 24.8023378, 35.4101383 ] ] } },
{ "type": "Feature", "properties": { "element": "way", "id": 1389438770, "ele": null, "name": null, "name:de": null, "name:el": null, "name:en": null, "natural": null, "source": null, "tourism": null, "leaf_type": null, "admin_level": null, "amenity": null, "denomination": null, "religion": null, "wikidata": null, "parking": null, "building": null, "access": null, "intermittent": "yes", "waterway": "stream", "layer": null, "tunnel": null, "label": "waterway:stream" }, "geometry": { "type": "LineString", "coordinates": [ [ 24.8160904, 35.4057041 ], [ 24.8160746, 35.4058434 ], [ 24.8160252, 35.4060212 ], [ 24.8159824, 35.4062009 ], [ 24.8159149, 35.4063641 ], [ 24.8158407, 35.4065052 ], [ 24.8158182, 35.4066189 ], [ 24.8157687, 35.4067747 ], [ 24.8156855, 35.4069397 ], [ 24.8155978, 35.4071102 ], [ 24.8154718, 35.4073412 ], [ 24.8153684, 35.4075007 ], [ 24.8153009, 35.4076473 ], [ 24.8151674, 35.4078749 ] ] } },
{ "type": "Feature", "properties": { "element": "way", "id": 1389438771, "ele": null, "name": null, "name:de": null, "name:el": null, "name:en": null, "natural": null, "source": null, "tourism": null, "leaf_type": null, "admin_level": null, "amenity": null, "denomination": null, "religion": null, "wikidata": null, "parking": null, "building": null, "access": null, "intermittent": "yes", "waterway": "stream", "layer": null, "tunnel": null, "label": "waterway:stream" }, "geometry": { "type": "LineString", "coordinates": [ [ 24.8157462, 35.4024261 ], [ 24.8158115, 35.4025636 ], [ 24.8158834, 35.4027213 ], [ 24.8159847, 35.4028863 ], [ 24.8160409, 35.4030256 ], [ 24.8160656, 35.4031815 ], [ 24.8160589, 35.4033703 ], [ 24.8160589, 35.4035518 ], [ 24.8160634, 35.4037131 ], [ 24.8160994, 35.4038433 ], [ 24.8161916, 35.4040193 ], [ 24.8162591, 35.4041715 ], [ 24.8162861, 35.4043163 ], [ 24.8162861, 35.4045125 ], [ 24.8162568, 35.4046573 ], [ 24.8161871, 35.4048461 ], [ 24.8161241, 35.4050038 ], [ 24.8161039, 35.4051596 ], [ 24.8161061, 35.4053429 ] ] } },
{ "type": "Feature", "properties": { "element": "way", "id": 1389438772, "ele": null, "name": null, "name:de": null, "name:el": null, "name:en": null, "natural": null, "source": null, "tourism": null, "leaf_type": null, "admin_level": null, "amenity": null, "denomination": null, "religion": null, "wikidata": null, "parking": null, "building": null, "access": null, "intermittent": "yes", "waterway": "stream", "layer": "-1", "tunnel": "culvert", "label": "waterway:stream" }, "geometry": { "type": "LineString", "coordinates": [ [ 24.8161061, 35.4053429 ], [ 24.8160904, 35.4057041 ] ] } }
]
}
