{
"type": "FeatureCollection",
"name": "patch_76107_polygon",
"crs": { "type": "name", "properties": { "name": "urn:ogc:def:crs:OGC:1.3:CRS84" } },
"features": [
{ "type": "Feature", "properties": { "osm_id": -1842451, "name": null, "label": "natural:wood", "natural": "wood", "leisure": null, "tourism": null }, "geometry": { "type": "Polygon", "coordinates": [ [ [ 21.861076, 40.959969000387652 ], [ 21.862722, 40.959999000387654 ], [ 21.864488, 40.960552000387722 ], [ 21.865997, 40.960580000387722 ], [ 21.867515, 40.960296000387679 ], [ 21.868301, 40.960162000387669 ], [ 21.868379, 40.960086000387655 ], [ 21.868949, 40.959638000387599 ], [ 21.869225, 40.959420000387581 ], [ 21.869478, 40.95916500038755 ], [ 21.870257, 40.958659000387499 ], [ 21.870883, 40.958196000387453 ], [ 21.871263, 40.957799000387404 ], [ 21.871827, 40.957343000387354 ], [ 21.872327, 40.956993000387307 ], [ 21.8724067, 40.956954500387312 ], [ 21.873042, 40.956647000387264 ], [ 21.873542, 40.956290000387213 ], [ 21.873667, 40.956200000387227 ], [ 21.87445, 40.955604000387147 ], [ 21.874817, 40.955565000387146 ], [ 21.874969, 40.955437000387143 ], [ 21.875516, 40.954809000387066 ], [ 21.87596, 40.954098000386985 ], [ 21.8765611, 40.953742900386942 ], [ 21.8773114, 40.953839100386958 ], [ 21.8780158, 40.954286000387015 ], [ 21.878468, 40.954703000387056 ], [ 21.8785188, 40.954738400387058 ], [ 21.879248, 40.955246000387106 ], [ 21.880111, 40.955276000387116 ], [ 21.880543, 40.955290000387109 ], [ 21.880705, 40.955285000387121 ], [ 21.882582, 40.95453900038703 ], [ 21.884384, 40.954173000386994 ], [ 21.885981, 40.953643000386933 ], [ 21.888102, 40.953203000386885 ], [ 21.889686, 40.953072000386868 ], [ 21.890723, 40.953571000386937 ], [ 21.890988865329188, 40.953782265088456 ], [ 21.890988865329188, 40.949830807124656 ], [ 21.890822, 40.950144000386537 ], [ 21.890381, 40.950598000386584 ], [ 21.889714, 40.950494000386577 ], [ 21.889172, 40.950299000386558 ], [ 21.888756, 40.949968000386519 ], [ 21.888583, 40.949641000386485 ], [ 21.888596, 40.949225000386427 ], [ 21.888669, 40.94885700038639 ], [ 21.88874, 40.948535000386357 ], [ 21.888445, 40.948252000386326 ], [ 21.887595, 40.948144000386307 ], [ 21.887171, 40.948044000386304 ], [ 21.886622, 40.948080000386312 ], [ 21.885944, 40.948299000386328 ], [ 21.885509, 40.948568000386366 ], [ 21.885129, 40.949023000386397 ], [ 21.884938, 40.94925100038644 ], [ 21.8845, 40.949613000386485 ], [ 21.883518, 40.949826000386508 ], [ 21.882787, 40.949812000386501 ], [ 21.881936, 40.949750000386487 ], [ 21.88145, 40.949695000386484 ], [ 21.880899, 40.94977700038649 ], [ 21.880526, 40.950002000386519 ], [ 21.880402, 40.950046000386521 ], [ 21.879795, 40.949988000386512 ], [ 21.879435, 40.949797000386489 ], [ 21.879385, 40.949472000386471 ], [ 21.879099, 40.948866000386396 ], [ 21.878331, 40.9481130003863 ], [ 21.878032, 40.947922000386292 ], [ 21.877875, 40.9471340003862 ], [ 21.877387, 40.947125000386201 ], [ 21.876838, 40.947161000386195 ], [ 21.876102, 40.947286000386214 ], [ 21.875004, 40.947312000386212 ], [ 21.873367, 40.947051000386196 ], [ 21.872707, 40.946715000386135 ], [ 21.872114, 40.946196000386095 ], [ 21.871883, 40.945822000386052 ], [ 21.872077, 40.94545600038601 ], [ 21.872808, 40.945469000386019 ], [ 21.873715, 40.94571700038604 ], [ 21.874328, 40.945590000386026 ], [ 21.874887, 40.945276000385981 ], [ 21.875142, 40.944911000385922 ], [ 21.87571, 40.944321000385891 ], [ 21.876221, 40.943591000385801 ], [ 21.876417, 40.943179000385747 ], [ 21.876793, 40.942862000385709 ], [ 21.877106, 40.94259100038569 ], [ 21.877299, 40.942271000385638 ], [ 21.877309, 40.941947000385618 ], [ 21.877562, 40.94167500038558 ], [ 21.877811, 40.941494000385553 ], [ 21.877997, 40.941405000385544 ], [ 21.877994, 40.941498000385565 ], [ 21.878479, 40.941599000385573 ], [ 21.878837, 40.941837000385597 ], [ 21.878829, 40.942068000385618 ], [ 21.879374, 40.942170000385623 ], [ 21.879862, 40.942179000385643 ], [ 21.880227, 40.942186000385632 ], [ 21.880606, 40.941777000385578 ], [ 21.880971, 40.941784000385596 ], [ 21.88152, 40.941794000385606 ], [ 21.882062, 40.941989000385597 ], [ 21.882414, 40.942411000385661 ], [ 21.883257, 40.942750000385693 ], [ 21.88428, 40.943138000385744 ], [ 21.884947, 40.943243000385749 ], [ 21.885365, 40.94352800038579 ], [ 21.885595, 40.943948000385845 ], [ 21.8878, 40.945514000386012 ], [ 21.88864, 40.945945000386061 ], [ 21.889108, 40.946554000386129 ], [ 21.889211, 40.947157000386198 ], [ 21.889438, 40.947670000386267 ], [ 21.889966, 40.948326000386338 ], [ 21.890192, 40.94888500038639 ], [ 21.89037, 40.949027000386415 ], [ 21.890988865329188, 40.949745343473282 ], [ 21.890988865329188, 40.940920502565994 ], [ 21.860270257748848, 40.940920502565994 ], [ 21.860270257748848, 40.960033429300665 ], [ 21.861076, 40.959969000387652 ] ] ] } },
{ "type": "Feature", "properties": { "osm_id": 136714359, "name": null, "label": "natural:wood", "natural": "wood", "leisure": null, "tourism": null }, "geometry": { "type": "Polygon", "coordinates": [ [ [ 21.8782934, 40.96363230038807 ], [ 21.8780519, 40.963565400388063 ], [ 21.8778024, 40.963480300388042 ], [ 21.8776011, 40.963340500388028 ], [ 21.8774401, 40.963212800388014 ], [ 21.8773033, 40.963012200387986 ], [ 21.8774187, 40.962847100387961 ], [ 21.87762, 40.962810600387975 ], [ 21.8777568, 40.962646500387955 ], [ 21.8776683, 40.962421600387927 ], [ 21.8776683, 40.962318200387919 ], [ 21.8777971, 40.962178400387899 ], [ 21.8779098, 40.962087200387892 ], [ 21.8781191, 40.962117600387899 ], [ 21.8783203, 40.962214900387906 ], [ 21.8783203, 40.962075100387892 ], [ 21.8781996, 40.961953500387871 ], [ 21.8780144, 40.961862300387871 ], [ 21.8778695, 40.961789400387858 ], [ 21.8777729, 40.961655700387851 ], [ 21.8777729, 40.961497600387816 ], [ 21.8779339, 40.961406400387808 ], [ 21.8780547, 40.961309200387817 ], [ 21.8780949, 40.961181500387788 ], [ 21.8782237, 40.961132900387796 ], [ 21.8783122, 40.960968800387768 ], [ 21.8782961, 40.960804600387746 ], [ 21.8781915, 40.960670900387726 ], [ 21.8781835, 40.960518900387704 ], [ 21.8780386, 40.960300100387691 ], [ 21.8778776, 40.960196800387678 ], [ 21.8776119, 40.96011770038767 ], [ 21.877306, 40.96005690038767 ], [ 21.8770887, 40.95999620038765 ], [ 21.8767989, 40.959886700387642 ], [ 21.8766299, 40.959746900387614 ], [ 21.8764769, 40.959643600387615 ], [ 21.8764045, 40.959443000387587 ], [ 21.8762998, 40.959339600387572 ], [ 21.8760181, 40.959266700387559 ], [ 21.8757524, 40.959145100387538 ], [ 21.8755271, 40.959126900387552 ], [ 21.8752775, 40.959151200387566 ], [ 21.875197, 40.95927880038758 ], [ 21.8754144, 40.959315300387566 ], [ 21.875519, 40.959449100387587 ], [ 21.8755271, 40.959619300387622 ], [ 21.8756639, 40.959740800387628 ], [ 21.8758812, 40.959801600387628 ], [ 21.8759778, 40.959953600387649 ], [ 21.8758329, 40.959911000387649 ], [ 21.8756237, 40.959868500387635 ], [ 21.8753983, 40.959722600387622 ], [ 21.8753017, 40.959564600387601 ], [ 21.8751648, 40.959485500387594 ], [ 21.8751246, 40.959667900387608 ], [ 21.8750602, 40.959789500387629 ], [ 21.8749555, 40.959941400387635 ], [ 21.8748428, 40.960105600387671 ], [ 21.874714, 40.96020280038767 ], [ 21.8746899, 40.960367000387691 ], [ 21.8749636, 40.960342600387676 ], [ 21.8751809, 40.960342600387676 ], [ 21.8754627, 40.960342600387676 ], [ 21.8757444, 40.96037300038769 ], [ 21.8760261, 40.960354800387698 ], [ 21.8763159, 40.960391300387684 ], [ 21.8766057, 40.960415600387684 ], [ 21.8768553, 40.960476400387719 ], [ 21.8770484, 40.960616200387705 ], [ 21.8768714, 40.960634400387733 ], [ 21.876654, 40.960634400387733 ], [ 21.8764447, 40.960749900387739 ], [ 21.8763401, 40.960853300387754 ], [ 21.8761388, 40.960908000387754 ], [ 21.8758893, 40.96101130038776 ], [ 21.8757685, 40.961132900387796 ], [ 21.8760342, 40.961139000387782 ], [ 21.8762596, 40.961132900387796 ], [ 21.8765091, 40.961096400387774 ], [ 21.8767748, 40.961145000387788 ], [ 21.8770645, 40.961181500387788 ], [ 21.8772065, 40.961315200387808 ], [ 21.8770053, 40.961412500387809 ], [ 21.876804, 40.96153410038783 ], [ 21.8765142, 40.961564500387837 ], [ 21.8766913, 40.961746800387857 ], [ 21.8768362, 40.961838000387857 ], [ 21.8767718, 40.962026400387884 ], [ 21.8767718, 40.962178400387899 ], [ 21.8765947, 40.962366800387926 ], [ 21.8764176, 40.962506700387941 ], [ 21.8763613, 40.962689000387954 ], [ 21.8763266, 40.962828000387987 ], [ 21.876069, 40.962797600387965 ], [ 21.8758517, 40.962797600387965 ], [ 21.8756665, 40.962803700387958 ], [ 21.8753204, 40.962749000387966 ], [ 21.8751031, 40.962749000387966 ], [ 21.8749099, 40.962718600387959 ], [ 21.8746925, 40.962682200387952 ], [ 21.8744752, 40.962682200387952 ], [ 21.8745959, 40.962791600387966 ], [ 21.874773, 40.962919200387987 ], [ 21.8749904, 40.962973900387979 ], [ 21.8752319, 40.963059000388 ], [ 21.8755458, 40.963059000388 ], [ 21.8758195, 40.963101600388001 ], [ 21.8759885, 40.963223100388014 ], [ 21.8761173, 40.963326500388028 ], [ 21.8761334, 40.963442000388035 ], [ 21.8759483, 40.963521000388056 ], [ 21.8757873, 40.963454100388049 ], [ 21.8755136, 40.963399400388028 ], [ 21.875248, 40.963478400388063 ], [ 21.8749582, 40.963539200388048 ], [ 21.8747569, 40.963502800388049 ], [ 21.8745476, 40.963514900388049 ], [ 21.8743544, 40.963527100388049 ], [ 21.874113, 40.963502800388049 ], [ 21.8739278, 40.963593900388069 ], [ 21.8736622, 40.963660800388062 ], [ 21.8733965, 40.96369120038807 ], [ 21.8731309, 40.963673000388084 ], [ 21.8730082, 40.963721200388072 ], [ 21.8725594, 40.963673000388084 ], [ 21.8721086, 40.963709400388069 ], [ 21.871970230667923, 40.963748097981444 ], [ 21.876305373716022, 40.963748097981444 ], [ 21.8762246, 40.96365660038807 ], [ 21.8763615, 40.963577600388071 ], [ 21.876603, 40.96366270038807 ], [ 21.8765949, 40.963535000388049 ], [ 21.8765305, 40.963352600388035 ], [ 21.8766996, 40.963346600388036 ], [ 21.8768606, 40.963383000388042 ], [ 21.8770457, 40.963358700388035 ], [ 21.8772711, 40.963443800388049 ], [ 21.8774562, 40.963577600388071 ], [ 21.8776575, 40.963741700388084 ], [ 21.877681616484278, 40.963748097981444 ], [ 21.878526596011334, 40.963748097981444 ], [ 21.8782934, 40.96363230038807 ] ] ] } },
{ "type": "Feature", "properties": { "osm_id": 1190136331, "name": null, "label": "natural:wood", "natural": "wood", "leisure": null, "tourism": null }, "geometry": { "type": "Polygon", "coordinates": [ [ [ 21.8763754, 40.958606900387508 ], [ 21.8765632, 40.958598800387477 ], [ 21.8767297, 40.95856400038749 ], [ 21.8769172, 40.958637300387508 ], [ 21.8771026, 40.958641000387509 ], [ 21.8773144, 40.958693600387505 ], [ 21.8774942, 40.958705800387513 ], [ 21.8776495, 40.958783200387522 ], [ 21.8778428, 40.958833400387526 ], [ 21.8780223, 40.958799400387527 ], [ 21.8781942, 40.958728100387511 ], [ 21.8783686, 40.958705800387513 ], [ 21.878567, 40.958638900387498 ], [ 21.8786824, 40.958529600387493 ], [ 21.8788591, 40.958481300387476 ], [ 21.8790254, 40.958455000387474 ], [ 21.879192, 40.958363500387478 ], [ 21.8793878, 40.958345200387463 ], [ 21.8795675, 40.958239900387454 ], [ 21.8796718, 40.958248400387461 ], [ 21.8797767, 40.958286500387459 ], [ 21.8799964, 40.95819780038746 ], [ 21.8800879, 40.958106200387434 ], [ 21.8800905, 40.957988700387432 ], [ 21.8801361, 40.957879300387411 ], [ 21.8800849, 40.957814900387412 ], [ 21.8799296, 40.957828700387417 ], [ 21.8797901, 40.957814500387393 ], [ 21.8796158, 40.957737600387404 ], [ 21.8794251, 40.957711600387398 ], [ 21.8792886, 40.95776190038741 ], [ 21.8791005, 40.957770400387417 ], [ 21.878894, 40.957770400387417 ], [ 21.8786526, 40.957837200387409 ], [ 21.8783793, 40.957889500387417 ], [ 21.8781027, 40.957910100387409 ], [ 21.8778989, 40.957952700387409 ], [ 21.8776363, 40.957946200387418 ], [ 21.8773035, 40.957972900387432 ], [ 21.8770889, 40.958041800387427 ], [ 21.8768746, 40.958081900387434 ], [ 21.8767565, 40.958225700387459 ], [ 21.8766385, 40.958308800387464 ], [ 21.8764991, 40.958434400387482 ], [ 21.8762359, 40.958576500387494 ], [ 21.8763754, 40.958606900387508 ] ] ] } },
{ "type": "Feature", "properties": { "osm_id": 139701492, "name": "Δημ. Δάσος Άνω Κορυφής-Δραγός-Όρμας", "label": "leisure:nature_reserve;tourism:information", "natural": null, "leisure": "nature_reserve", "tourism": "information" }, "geometry": { "type": "Polygon", "coordinates": [ [ [ 21.861531, 40.960474500387704 ], [ 21.863153, 40.960401000387698 ], [ 21.864808, 40.960215500387676 ], [ 21.866526, 40.959918600387653 ], [ 21.8675541, 40.959631300387606 ], [ 21.8699514, 40.958635300387492 ], [ 21.8708031, 40.958209700387449 ], [ 21.8715905, 40.957922500387426 ], [ 21.8725927, 40.957481600387368 ], [ 21.873473, 40.957101500387324 ], [ 21.8741431, 40.956722100387296 ], [ 21.8750313, 40.956049400387201 ], [ 21.8757297, 40.955738000387164 ], [ 21.8767616, 40.955293100387124 ], [ 21.8777265, 40.955121800387097 ], [ 21.8789011, 40.954954200387085 ], [ 21.8801937, 40.954856400387065 ], [ 21.8816073, 40.954711300387061 ], [ 21.8827232, 40.954497600387043 ], [ 21.8841697, 40.954240400387008 ], [ 21.8860429, 40.953761400386945 ], [ 21.8873459, 40.953276300386896 ], [ 21.8886292, 40.952399100386806 ], [ 21.8893672, 40.951723600386707 ], [ 21.8895943, 40.951088200386629 ], [ 21.8894079, 40.950215600386549 ], [ 21.8891858, 40.949554000386478 ], [ 21.888824, 40.948498000386344 ], [ 21.8883757, 40.947327800386219 ], [ 21.8879564, 40.946180700386087 ], [ 21.8876465, 40.945445400386006 ], [ 21.8873629, 40.944827700385936 ], [ 21.8870167, 40.944321500385882 ], [ 21.886726, 40.943973900385835 ], [ 21.886228, 40.943536900385787 ], [ 21.8856372, 40.943183800385754 ], [ 21.8850158, 40.942879600385709 ], [ 21.8841235, 40.942597500385681 ], [ 21.8830201, 40.942356600385651 ], [ 21.8820628, 40.942275900385631 ], [ 21.8810152, 40.942193600385636 ], [ 21.8802657, 40.942184400385642 ], [ 21.8796667, 40.942155300385643 ], [ 21.8789824, 40.941940100385615 ], [ 21.8783988, 40.941339400385537 ], [ 21.878075166398371, 40.940920502565994 ], [ 21.860270257748848, 40.940920502565994 ], [ 21.860270257748848, 40.960534255999669 ], [ 21.861531, 40.960474500387704 ] ] ] } }
]
}
