{
"type": "FeatureCollection",
"name": "patch_76107_linestring",
"crs": { "type": "name", "properties": { "name": "urn:ogc:def:crs:OGC:1.3:CRS84" } },
"features": [
{ "type": "Feature", "properties": { "osm_id": 274711278, "name": null, "label": "waterway:stream", "waterway": "stream" }, "geometry": { "type": "LineString", "coordinates": [ [ 21.876207646176702, 40.940920502565994 ], [ 21.8770075, 40.94169810038558 ], [ 21.8778717, 40.942688200385675 ], [ 21.8785722, 40.943307900385761 ], [ 21.8794732, 40.943431500385778 ], [ 21.8809379, 40.94306990038573 ], [ 21.8817869, 40.943267500385758 ], [ 21.8827935, 40.943762200385819 ] ] } },
{ "type": "Feature", "properties": { "osm_id": 27895885, "name": null, "label": "waterway:river", "waterway": "river" }, "geometry": { "type": "LineString", "coordinates": [ [ 21.8827935, 40.943762200385819 ], [ 21.884508, 40.944064700385837 ], [ 21.8853696, 40.944752300385915 ], [ 21.8863302, 40.946161800386079 ], [ 21.8874202, 40.94710400038619 ], [ 21.8887604, 40.9480960003863 ], [ 21.8895715, 40.949238000386437 ], [ 21.8896645, 40.950062300386534 ], [ 21.8890474, 40.950966500386627 ], [ 21.8899433, 40.951717100386723 ], [ 21.890988865329188, 40.952968310056484 ] ] } },
{ "type": "Feature", "properties": { "osm_id": 27500656, "name": null, "label": "waterway:stream", "waterway": "stream" }, "geometry": { "type": "LineString", "coordinates": [ [ 21.860270257748848, 40.945416479027259 ], [ 21.8607865, 40.945591000386031 ], [ 21.8614574, 40.945733700386043 ], [ 21.8630597, 40.945989500386062 ], [ 21.8652482, 40.94655530038613 ], [ 21.8668896, 40.94677670038616 ], [ 21.8681923, 40.947155500386209 ], [ 21.8697181, 40.947181500386208 ], [ 21.8709197, 40.948218800386321 ], [ 21.8719497, 40.948996700386409 ], [ 21.8729797, 40.949774600386483 ], [ 21.8741416, 40.950213400386552 ], [ 21.874353, 40.950293300386548 ], [ 21.8755546, 40.950941500386627 ], [ 21.8759644, 40.952371500386789 ], [ 21.8763135, 40.952684100386826 ], [ 21.8768826, 40.952880400386832 ], [ 21.8776943, 40.953339000386912 ], [ 21.8785989, 40.953987200386976 ], [ 21.8801895, 40.954442000387012 ], [ 21.8817344, 40.954960600387075 ], [ 21.8820777, 40.954571600387048 ], [ 21.8832794, 40.954701300387057 ], [ 21.884481, 40.954312300387009 ], [ 21.8865409, 40.954182700387001 ], [ 21.8880859, 40.954182700387001 ], [ 21.8891158, 40.954182700387001 ], [ 21.8903175, 40.954182700387001 ], [ 21.890988865329188, 40.95437282226105 ] ] } },
{ "type": "Feature", "properties": { "osm_id": 27500658, "name": null, "label": "waterway:stream", "waterway": "stream" }, "geometry": { "type": "LineString", "coordinates": [ [ 21.860270257748848, 40.960251699604861 ], [ 21.8614784, 40.95988680038765 ], [ 21.8623367, 40.95988680038765 ], [ 21.86371, 40.95988680038765 ], [ 21.8652549, 40.960146100387675 ], [ 21.8676582, 40.959757200387621 ], [ 21.8685554, 40.959500200387595 ], [ 21.8699074, 40.959003000387533 ], [ 21.8715355, 40.958436400387477 ], [ 21.8726114, 40.958094300387437 ], [ 21.8727579, 40.958034700387437 ], [ 21.8732555, 40.95783240038741 ], [ 21.8734254, 40.957656000387388 ], [ 21.873751, 40.95675260038729 ], [ 21.8744659, 40.95553380038713 ], [ 21.8747844, 40.955020600387087 ], [ 21.8754356, 40.954250800387008 ], [ 21.8756268, 40.953892600386979 ], [ 21.875832, 40.953411500386906 ], [ 21.8757263, 40.952626900386811 ], [ 21.8759644, 40.952371500386789 ] ] } }
]
}
