{
"type": "FeatureCollection",
"name": "patch_71390_point",
"crs": { "type": "name", "properties": { "name": "urn:ogc:def:crs:OGC:1.3:CRS84" } },
"features": [
{ "type": "Feature", "properties": { "@type": "node", "@id": 8255336760, "addr:city": null, "addr:postcode": null, "amenity": null, "barrier": null, "bicycle": null, "building": null, "cuisine": null, "denomination": null, "ele": "219", "foot": null, "ford": null, "highway": null, "historic": null, "int_name": null, "int_ref": null, "intermittent": null, "landuse": null, "lanes": null, "layer": null, "leisure": null, "lit": null, "maxspeed": null, "maxspeed:type": null, "motor_vehicle": null, "name": "Χωματάς", "name:el": null, "name:en": null, "natural": "peak", "old_ref": null, "parking": null, "phone": null, "place": null, "population": null, "ref": null, "religion": null, "shoulder": null, "smoothness": null, "source:old_ref": null, "source:ref": null, "surface": null, "tracktype": null, "trees": null, "tunnel": null, "waterway": null, "wikidata": null, "wikipedia": null, "label": "natural:peak" }, "geometry": { "type": "Point", "coordinates": [ 25.8455135, 35.1456226 ] } },
{ "type": "Feature", "properties": { "@type": "node", "@id": 11225363661, "addr:city": "Kavousi", "addr:postcode": null, "amenity": "restaurant", "barrier": null, "bicycle": null, "building": null, "cuisine": null, "denomination": null, "ele": null, "foot": null, "ford": null, "highway": null, "historic": null, "int_name": null, "int_ref": null, "intermittent": null, "landuse": null, "lanes": null, "layer": null, "leisure": null, "lit": null, "maxspeed": null, "maxspeed:type": null, "motor_vehicle": null, "name": "Tholos Beach", "name:el": null, "name:en": null, "natural": null, "old_ref": null, "parking": null, "phone": "2842094793", "place": null, "population": null, "ref": null, "religion": null, "shoulder": null, "smoothness": null, "source:old_ref": null, "source:ref": null, "surface": null, "tracktype": null, "trees": null, "tunnel": null, "waterway": null, "wikidata": null, "wikipedia": null, "label": "amenity:restaurant" }, "geometry": { "type": "Point", "coordinates": [ 25.8619778, 35.1516063 ] } },
{ "type": "Feature", "properties": { "@type": "node", "@id": 11225363677, "addr:city": null, "addr:postcode": null, "amenity": "shower", "barrier": null, "bicycle": null, "building": null, "cuisine": null, "denomination": null, "ele": null, "foot": null, "ford": null, "highway": null, "historic": null, "int_name": null, "int_ref": null, "intermittent": null, "landuse": null, "lanes": null, "layer": null, "leisure": null, "lit": null, "maxspeed": null, "maxspeed:type": null, "motor_vehicle": null, "name": null, "name:el": null, "name:en": null, "natural": null, "old_ref": null, "parking": null, "phone": null, "place": null, "population": null, "ref": null, "religion": null, "shoulder": null, "smoothness": null, "source:old_ref": null, "source:ref": null, "surface": null, "tracktype": null, "trees": null, "tunnel": null, "waterway": null, "wikidata": null, "wikipedia": null, "label": "amenity:shower" }, "geometry": { "type": "Point", "coordinates": [ 25.8620105, 35.1518339 ] } },
{ "type": "Feature", "properties": { "@type": "node", "@id": 11225363684, "addr:city": null, "addr:postcode": null, "amenity": "restaurant", "barrier": null, "bicycle": null, "building": null, "cuisine": "greek", "denomination": null, "ele": null, "foot": null, "ford": null, "highway": null, "historic": null, "int_name": null, "int_ref": null, "intermittent": null, "landuse": null, "lanes": null, "layer": null, "leisure": null, "lit": null, "maxspeed": null, "maxspeed:type": null, "motor_vehicle": null, "name": "Petros Kantina", "name:el": null, "name:en": null, "natural": null, "old_ref": null, "parking": null, "phone": null, "place": null, "population": null, "ref": null, "religion": null, "shoulder": null, "smoothness": null, "source:old_ref": null, "source:ref": null, "surface": null, "tracktype": null, "trees": null, "tunnel": null, "waterway": null, "wikidata": null, "wikipedia": null, "label": "amenity:restaurant" }, "geometry": { "type": "Point", "coordinates": [ 25.8613751, 35.1537151 ] } },
{ "type": "Feature", "properties": { "@type": "node", "@id": 11225363694, "addr:city": null, "addr:postcode": null, "amenity": "shower", "barrier": null, "bicycle": null, "building": null, "cuisine": null, "denomination": null, "ele": null, "foot": null, "ford": null, "highway": null, "historic": null, "int_name": null, "int_ref": null, "intermittent": null, "landuse": null, "lanes": null, "layer": null, "leisure": null, "lit": null, "maxspeed": null, "maxspeed:type": null, "motor_vehicle": null, "name": null, "name:el": null, "name:en": null, "natural": null, "old_ref": null, "parking": null, "phone": null, "place": null, "population": null, "ref": null, "religion": null, "shoulder": null, "smoothness": null, "source:old_ref": null, "source:ref": null, "surface": null, "tracktype": null, "trees": null, "tunnel": null, "waterway": null, "wikidata": null, "wikipedia": null, "label": "amenity:shower" }, "geometry": { "type": "Point", "coordinates": [ 25.8611449, 35.1522619 ] } }
]
}
