{
"type": "FeatureCollection",
"name": "patch_71390_polygon",
"crs": { "type": "name", "properties": { "name": "urn:ogc:def:crs:OGC:1.3:CRS84" } },
"features": [
{ "type": "Feature", "properties": { "@type": "relation", "@id": 895666, "addr:city": null, "addr:postcode": null, "amenity": null, "barrier": null, "bicycle": null, "building": null, "cuisine": null, "denomination": null, "ele": null, "foot": null, "ford": null, "highway": null, "historic": null, "int_name": "Katergo", "int_ref": null, "intermittent": null, "landuse": null, "lanes": null, "layer": null, "leisure": null, "lit": null, "maxspeed": null, "maxspeed:type": null, "motor_vehicle": null, "name": "Κάτεργο", "name:el": "Κάτεργο", "name:en": "Katergo", "natural": "bare_rock", "old_ref": null, "parking": null, "phone": null, "place": "islet", "population": "0", "ref": null, "religion": null, "shoulder": null, "smoothness": null, "source:old_ref": null, "source:ref": null, "surface": null, "tracktype": null, "trees": null, "tunnel": null, "waterway": null, "wikidata": "Q6375956", "wikipedia": "en:Katergo", "label": "natural:bare_rock" }, "geometry": { "type": "Polygon", "coordinates": [ [ [ 25.8471192, 35.1572985 ], [ 25.8471809, 35.1573227 ], [ 25.8472292, 35.1572744 ], [ 25.8472306, 35.1572229 ], [ 25.8472252, 35.1571615 ], [ 25.8473003, 35.157122 ], [ 25.84737, 35.1571023 ], [ 25.8475202, 35.1570409 ], [ 25.8475846, 35.1569883 ], [ 25.8475806, 35.1569532 ], [ 25.8475712, 35.1569104 ], [ 25.8476074, 35.1568863 ], [ 25.8476637, 35.1568753 ], [ 25.8476959, 35.1568457 ], [ 25.8476785, 35.1568019 ], [ 25.8476315, 35.1567821 ], [ 25.8475739, 35.1567865 ], [ 25.8474545, 35.156826 ], [ 25.8473969, 35.1568271 ], [ 25.8473754, 35.1568654 ], [ 25.8473432, 35.1568819 ], [ 25.8472976, 35.1568972 ], [ 25.8472922, 35.1569301 ], [ 25.8472547, 35.1569608 ], [ 25.8472534, 35.1570266 ], [ 25.8472815, 35.1570497 ], [ 25.847256, 35.1571045 ], [ 25.8472265, 35.1571418 ], [ 25.8471689, 35.157167 ], [ 25.8470951, 35.1571999 ], [ 25.8470656, 35.1572437 ], [ 25.8471192, 35.1572985 ] ] ] } },
{ "type": "Feature", "properties": { "@type": "way", "@id": 214734400, "addr:city": null, "addr:postcode": null, "amenity": "parking", "barrier": null, "bicycle": null, "building": null, "cuisine": null, "denomination": null, "ele": null, "foot": null, "ford": null, "highway": null, "historic": null, "int_name": null, "int_ref": null, "intermittent": null, "landuse": null, "lanes": null, "layer": null, "leisure": null, "lit": null, "maxspeed": null, "maxspeed:type": null, "motor_vehicle": null, "name": null, "name:el": null, "name:en": null, "natural": null, "old_ref": null, "parking": "surface", "phone": null, "place": null, "population": null, "ref": null, "religion": null, "shoulder": null, "smoothness": null, "source:old_ref": null, "source:ref": null, "surface": "unpaved", "tracktype": null, "trees": null, "tunnel": null, "waterway": null, "wikidata": null, "wikipedia": null, "label": "amenity:parking" }, "geometry": { "type": "Polygon", "coordinates": [ [ [ 25.8633704, 35.1516257 ], [ 25.8633812, 35.1516497 ], [ 25.8634476, 35.151717 ], [ 25.8635851, 35.1517301 ], [ 25.8637393, 35.1517722 ], [ 25.863854, 35.1518239 ], [ 25.8638535, 35.1517256 ], [ 25.8637086, 35.1516471 ], [ 25.8636602, 35.1516076 ], [ 25.8636446, 35.1515607 ], [ 25.8635907, 35.1515674 ], [ 25.8635294, 35.1515588 ], [ 25.8634787, 35.1515776 ], [ 25.8633669, 35.1515768 ], [ 25.8633704, 35.1516257 ] ] ] } },
{ "type": "Feature", "properties": { "@type": "way", "@id": 350405169, "addr:city": null, "addr:postcode": null, "amenity": null, "barrier": null, "bicycle": null, "building": null, "cuisine": null, "denomination": null, "ele": null, "foot": null, "ford": null, "highway": null, "historic": null, "int_name": null, "int_ref": null, "intermittent": null, "landuse": null, "lanes": null, "layer": null, "leisure": null, "lit": null, "maxspeed": null, "maxspeed:type": null, "motor_vehicle": null, "name": "Tholos Beach", "name:el": null, "name:en": null, "natural": "beach", "old_ref": null, "parking": null, "phone": null, "place": null, "population": null, "ref": null, "religion": null, "shoulder": null, "smoothness": null, "source:old_ref": null, "source:ref": null, "surface": null, "tracktype": null, "trees": null, "tunnel": null, "waterway": null, "wikidata": null, "wikipedia": null, "label": "natural:beach" }, "geometry": { "type": "Polygon", "coordinates": [ [ [ 25.8609729, 35.1527383 ], [ 25.8610372, 35.1528304 ], [ 25.8612129, 35.1526056 ], [ 25.861394, 35.1524192 ], [ 25.8616327, 35.1522382 ], [ 25.8617899, 35.1521569 ], [ 25.8620892, 35.1520098 ], [ 25.8623225, 35.1519322 ], [ 25.8625926, 35.1518982 ], [ 25.8627608, 35.1518722 ], [ 25.8628852, 35.151853 ], [ 25.863187, 35.1518259 ], [ 25.8634043, 35.1518281 ], [ 25.863593, 35.1518304 ], [ 25.8637315, 35.1518862 ], [ 25.863824, 35.1519553 ], [ 25.8638723, 35.1520354 ], [ 25.8639327, 35.1522097 ], [ 25.864028, 35.1521828 ], [ 25.8639568, 35.1519532 ], [ 25.863854, 35.1518239 ], [ 25.8637393, 35.1517722 ], [ 25.8635851, 35.1517301 ], [ 25.8634476, 35.151717 ], [ 25.8633704, 35.1516257 ], [ 25.8630399, 35.1516379 ], [ 25.8627218, 35.1516654 ], [ 25.8622116, 35.1517542 ], [ 25.8620734, 35.1517844 ], [ 25.861773, 35.1518956 ], [ 25.8615829, 35.1519633 ], [ 25.8614496, 35.1520171 ], [ 25.8613439, 35.152078 ], [ 25.8611563, 35.1522211 ], [ 25.8609966, 35.1523618 ], [ 25.8608667, 35.1525681 ], [ 25.8609729, 35.1527383 ] ] ] } },
{ "type": "Feature", "properties": { "@type": "way", "@id": 435470026, "addr:city": null, "addr:postcode": null, "amenity": "place_of_worship", "barrier": null, "bicycle": null, "building": "yes", "cuisine": null, "denomination": "greek_orthodox", "ele": null, "foot": null, "ford": null, "highway": null, "historic": null, "int_name": null, "int_ref": null, "intermittent": null, "landuse": null, "lanes": null, "layer": null, "leisure": null, "lit": null, "maxspeed": null, "maxspeed:type": null, "motor_vehicle": null, "name": "Άγιος Ραφαήλ", "name:el": null, "name:en": null, "natural": null, "old_ref": null, "parking": null, "phone": null, "place": null, "population": null, "ref": null, "religion": "christian", "shoulder": null, "smoothness": null, "source:old_ref": null, "source:ref": null, "surface": null, "tracktype": null, "trees": null, "tunnel": null, "waterway": null, "wikidata": null, "wikipedia": null, "label": "building:yes;amenity:place_of_worship" }, "geometry": { "type": "Polygon", "coordinates": [ [ [ 25.8646549, 35.1514899 ], [ 25.8647461, 35.151486 ], [ 25.8647431, 35.1514402 ], [ 25.8646519, 35.1514441 ], [ 25.8646549, 35.1514899 ] ] ] } },
{ "type": "Feature", "properties": { "@type": "way", "@id": 435470030, "addr:city": null, "addr:postcode": null, "amenity": null, "barrier": null, "bicycle": null, "building": "yes", "cuisine": null, "denomination": null, "ele": null, "foot": null, "ford": null, "highway": null, "historic": null, "int_name": null, "int_ref": null, "intermittent": null, "landuse": null, "lanes": null, "layer": null, "leisure": null, "lit": null, "maxspeed": null, "maxspeed:type": null, "motor_vehicle": null, "name": null, "name:el": null, "name:en": null, "natural": null, "old_ref": null, "parking": null, "phone": null, "place": null, "population": null, "ref": null, "religion": null, "shoulder": null, "smoothness": null, "source:old_ref": null, "source:ref": null, "surface": null, "tracktype": null, "trees": null, "tunnel": null, "waterway": null, "wikidata": null, "wikipedia": null, "label": "building:yes" }, "geometry": { "type": "Polygon", "coordinates": [ [ [ 25.8643732, 35.1518494 ], [ 25.8645017, 35.1518026 ], [ 25.8644058, 35.1516265 ], [ 25.8643614, 35.1516427 ], [ 25.8643495, 35.1516208 ], [ 25.8643037, 35.1516375 ], [ 25.8643268, 35.15168 ], [ 25.8642885, 35.1516939 ], [ 25.8643732, 35.1518494 ] ] ] } },
{ "type": "Feature", "properties": { "@type": "way", "@id": 567876910, "addr:city": null, "addr:postcode": null, "amenity": null, "barrier": null, "bicycle": null, "building": null, "cuisine": null, "denomination": null, "ele": null, "foot": null, "ford": null, "highway": null, "historic": null, "int_name": null, "int_ref": null, "intermittent": null, "landuse": null, "lanes": null, "layer": null, "leisure": null, "lit": null, "maxspeed": null, "maxspeed:type": null, "motor_vehicle": null, "name": null, "name:el": null, "name:en": null, "natural": "bare_rock", "old_ref": null, "parking": null, "phone": null, "place": null, "population": null, "ref": null, "religion": null, "shoulder": null, "smoothness": null, "source:old_ref": null, "source:ref": null, "surface": null, "tracktype": null, "trees": null, "tunnel": null, "waterway": null, "wikidata": null, "wikipedia": null, "label": "natural:bare_rock" }, "geometry": { "type": "Polygon", "coordinates": [ [ [ 25.8722514, 35.1586613 ], [ 25.8722385, 35.1586903 ], [ 25.8722385, 35.158718 ], [ 25.8722676, 35.1587325 ], [ 25.872276976622715, 35.158731524831239 ], [ 25.872276976622715, 35.158660443051296 ], [ 25.8722514, 35.1586613 ] ] ] } },
{ "type": "Feature", "properties": { "@type": "way", "@id": 567876914, "addr:city": null, "addr:postcode": null, "amenity": null, "barrier": null, "bicycle": null, "building": null, "cuisine": null, "denomination": null, "ele": null, "foot": null, "ford": null, "highway": null, "historic": null, "int_name": null, "int_ref": null, "intermittent": null, "landuse": null, "lanes": null, "layer": null, "leisure": null, "lit": null, "maxspeed": null, "maxspeed:type": null, "motor_vehicle": null, "name": null, "name:el": null, "name:en": null, "natural": "bare_rock", "old_ref": null, "parking": null, "phone": null, "place": null, "population": null, "ref": null, "religion": null, "shoulder": null, "smoothness": null, "source:old_ref": null, "source:ref": null, "surface": null, "tracktype": null, "trees": null, "tunnel": null, "waterway": null, "wikidata": null, "wikipedia": null, "label": "natural:bare_rock" }, "geometry": { "type": "Polygon", "coordinates": [ [ [ 25.8721161, 35.1583981 ], [ 25.872137, 35.1583731 ], [ 25.8721386, 35.1583573 ], [ 25.8721273, 35.1583441 ], [ 25.8721015, 35.1583375 ], [ 25.8720838, 35.1583665 ], [ 25.8720806, 35.1583889 ], [ 25.8721161, 35.1583981 ] ] ] } },
{ "type": "Feature", "properties": { "@type": "way", "@id": 567876916, "addr:city": null, "addr:postcode": null, "amenity": null, "barrier": null, "bicycle": null, "building": null, "cuisine": null, "denomination": null, "ele": null, "foot": null, "ford": null, "highway": null, "historic": null, "int_name": null, "int_ref": null, "intermittent": null, "landuse": null, "lanes": null, "layer": null, "leisure": null, "lit": null, "maxspeed": null, "maxspeed:type": null, "motor_vehicle": null, "name": null, "name:el": null, "name:en": null, "natural": "bare_rock", "old_ref": null, "parking": null, "phone": null, "place": null, "population": null, "ref": null, "religion": null, "shoulder": null, "smoothness": null, "source:old_ref": null, "source:ref": null, "surface": null, "tracktype": null, "trees": null, "tunnel": null, "waterway": null, "wikidata": null, "wikipedia": null, "label": "natural:bare_rock" }, "geometry": { "type": "Polygon", "coordinates": [ [ [ 25.8722661, 35.1584812 ], [ 25.8722354, 35.1584944 ], [ 25.8722338, 35.1585155 ], [ 25.8722709, 35.1585182 ], [ 25.872276976622715, 35.158511800724753 ], [ 25.872276976622715, 35.158487482769644 ], [ 25.8722661, 35.1584812 ] ] ] } },
{ "type": "Feature", "properties": { "@type": "way", "@id": 590993426, "addr:city": null, "addr:postcode": null, "amenity": null, "barrier": null, "bicycle": null, "building": null, "cuisine": null, "denomination": null, "ele": null, "foot": null, "ford": null, "highway": null, "historic": null, "int_name": null, "int_ref": null, "intermittent": null, "landuse": null, "lanes": null, "layer": null, "leisure": "swimming_pool", "lit": null, "maxspeed": null, "maxspeed:type": null, "motor_vehicle": null, "name": null, "name:el": null, "name:en": null, "natural": null, "old_ref": null, "parking": null, "phone": null, "place": null, "population": null, "ref": null, "religion": null, "shoulder": null, "smoothness": null, "source:old_ref": null, "source:ref": null, "surface": null, "tracktype": null, "trees": null, "tunnel": null, "waterway": null, "wikidata": null, "wikipedia": null, "label": "leisure:swimming_pool" }, "geometry": { "type": "Polygon", "coordinates": [ [ [ 25.8670451, 35.15288 ], [ 25.8670918, 35.1528647 ], [ 25.8670591, 35.1528036 ], [ 25.8670101, 35.1528227 ], [ 25.8670451, 35.15288 ] ] ] } },
{ "type": "Feature", "properties": { "@type": "way", "@id": 590993427, "addr:city": null, "addr:postcode": null, "amenity": null, "barrier": null, "bicycle": null, "building": null, "cuisine": null, "denomination": null, "ele": null, "foot": null, "ford": null, "highway": null, "historic": null, "int_name": null, "int_ref": null, "intermittent": null, "landuse": null, "lanes": null, "layer": null, "leisure": "swimming_pool", "lit": null, "maxspeed": null, "maxspeed:type": null, "motor_vehicle": null, "name": null, "name:el": null, "name:en": null, "natural": null, "old_ref": null, "parking": null, "phone": null, "place": null, "population": null, "ref": null, "religion": null, "shoulder": null, "smoothness": null, "source:old_ref": null, "source:ref": null, "surface": null, "tracktype": null, "trees": null, "tunnel": null, "waterway": null, "wikidata": null, "wikipedia": null, "label": "leisure:swimming_pool" }, "geometry": { "type": "Polygon", "coordinates": [ [ [ 25.8662695, 35.1543647 ], [ 25.8663209, 35.154336 ], [ 25.8662415, 35.1542616 ], [ 25.8661924, 35.1542959 ], [ 25.8662695, 35.1543647 ] ] ] } },
{ "type": "Feature", "properties": { "@type": "way", "@id": 725460944, "addr:city": null, "addr:postcode": null, "amenity": null, "barrier": null, "bicycle": null, "building": "yes", "cuisine": null, "denomination": null, "ele": null, "foot": null, "ford": null, "highway": null, "historic": null, "int_name": null, "int_ref": null, "intermittent": null, "landuse": null, "lanes": null, "layer": null, "leisure": null, "lit": null, "maxspeed": null, "maxspeed:type": null, "motor_vehicle": null, "name": null, "name:el": null, "name:en": null, "natural": null, "old_ref": null, "parking": null, "phone": null, "place": null, "population": null, "ref": null, "religion": null, "shoulder": null, "smoothness": null, "source:old_ref": null, "source:ref": null, "surface": null, "tracktype": null, "trees": null, "tunnel": null, "waterway": null, "wikidata": null, "wikipedia": null, "label": "building:yes" }, "geometry": { "type": "Polygon", "coordinates": [ [ [ 25.8691385, 35.1453641 ], [ 25.8691985, 35.1453306 ], [ 25.8691192, 35.1452356 ], [ 25.8690591, 35.1452692 ], [ 25.8691385, 35.1453641 ] ] ] } },
{ "type": "Feature", "properties": { "@type": "way", "@id": 725461556, "addr:city": null, "addr:postcode": null, "amenity": null, "barrier": null, "bicycle": null, "building": "yes", "cuisine": null, "denomination": null, "ele": null, "foot": null, "ford": null, "highway": null, "historic": null, "int_name": null, "int_ref": null, "intermittent": null, "landuse": null, "lanes": null, "layer": null, "leisure": null, "lit": null, "maxspeed": null, "maxspeed:type": null, "motor_vehicle": null, "name": null, "name:el": null, "name:en": null, "natural": null, "old_ref": null, "parking": null, "phone": null, "place": null, "population": null, "ref": null, "religion": null, "shoulder": null, "smoothness": null, "source:old_ref": null, "source:ref": null, "surface": null, "tracktype": null, "trees": null, "tunnel": null, "waterway": null, "wikidata": null, "wikipedia": null, "label": "building:yes" }, "geometry": { "type": "Polygon", "coordinates": [ [ [ 25.8670582, 35.1486014 ], [ 25.8671255, 35.1485849 ], [ 25.867144, 35.1486355 ], [ 25.8672092, 35.1486195 ], [ 25.8671593, 35.1484837 ], [ 25.8670884, 35.1485011 ], [ 25.867099, 35.14853 ], [ 25.8670375, 35.1485451 ], [ 25.8670582, 35.1486014 ] ] ] } },
{ "type": "Feature", "properties": { "@type": "way", "@id": 725461557, "addr:city": null, "addr:postcode": null, "amenity": null, "barrier": null, "bicycle": null, "building": "yes", "cuisine": null, "denomination": null, "ele": null, "foot": null, "ford": null, "highway": null, "historic": null, "int_name": null, "int_ref": null, "intermittent": null, "landuse": null, "lanes": null, "layer": null, "leisure": null, "lit": null, "maxspeed": null, "maxspeed:type": null, "motor_vehicle": null, "name": null, "name:el": null, "name:en": null, "natural": null, "old_ref": null, "parking": null, "phone": null, "place": null, "population": null, "ref": null, "religion": null, "shoulder": null, "smoothness": null, "source:old_ref": null, "source:ref": null, "surface": null, "tracktype": null, "trees": null, "tunnel": null, "waterway": null, "wikidata": null, "wikipedia": null, "label": "building:yes" }, "geometry": { "type": "Polygon", "coordinates": [ [ [ 25.8657009, 35.1492366 ], [ 25.8658147, 35.1491876 ], [ 25.8657573, 35.1490984 ], [ 25.8656435, 35.1491475 ], [ 25.8657009, 35.1492366 ] ] ] } },
{ "type": "Feature", "properties": { "@type": "way", "@id": 725464363, "addr:city": null, "addr:postcode": null, "amenity": null, "barrier": null, "bicycle": null, "building": "yes", "cuisine": null, "denomination": null, "ele": null, "foot": null, "ford": null, "highway": null, "historic": null, "int_name": null, "int_ref": null, "intermittent": null, "landuse": null, "lanes": null, "layer": null, "leisure": null, "lit": null, "maxspeed": null, "maxspeed:type": null, "motor_vehicle": null, "name": null, "name:el": null, "name:en": null, "natural": null, "old_ref": null, "parking": null, "phone": null, "place": null, "population": null, "ref": null, "religion": null, "shoulder": null, "smoothness": null, "source:old_ref": null, "source:ref": null, "surface": null, "tracktype": null, "trees": null, "tunnel": null, "waterway": null, "wikidata": null, "wikipedia": null, "label": "building:yes" }, "geometry": { "type": "Polygon", "coordinates": [ [ [ 25.8658122, 35.1543769 ], [ 25.8659099, 35.1542936 ], [ 25.8658176, 35.1542212 ], [ 25.8657199, 35.1543045 ], [ 25.8658122, 35.1543769 ] ] ] } },
{ "type": "Feature", "properties": { "@type": "way", "@id": 725464364, "addr:city": null, "addr:postcode": null, "amenity": null, "barrier": null, "bicycle": null, "building": "yes", "cuisine": null, "denomination": null, "ele": null, "foot": null, "ford": null, "highway": null, "historic": null, "int_name": null, "int_ref": null, "intermittent": null, "landuse": null, "lanes": null, "layer": null, "leisure": null, "lit": null, "maxspeed": null, "maxspeed:type": null, "motor_vehicle": null, "name": null, "name:el": null, "name:en": null, "natural": null, "old_ref": null, "parking": null, "phone": null, "place": null, "population": null, "ref": null, "religion": null, "shoulder": null, "smoothness": null, "source:old_ref": null, "source:ref": null, "surface": null, "tracktype": null, "trees": null, "tunnel": null, "waterway": null, "wikidata": null, "wikipedia": null, "label": "building:yes" }, "geometry": { "type": "Polygon", "coordinates": [ [ [ 25.8664439, 35.1543289 ], [ 25.8665907, 35.1542271 ], [ 25.8664734, 35.154114 ], [ 25.8663266, 35.1542158 ], [ 25.8664439, 35.1543289 ] ] ] } },
{ "type": "Feature", "properties": { "@type": "way", "@id": 725464366, "addr:city": null, "addr:postcode": null, "amenity": null, "barrier": null, "bicycle": null, "building": null, "cuisine": null, "denomination": null, "ele": null, "foot": null, "ford": null, "highway": null, "historic": null, "int_name": null, "int_ref": null, "intermittent": null, "landuse": null, "lanes": null, "layer": null, "leisure": null, "lit": null, "maxspeed": null, "maxspeed:type": null, "motor_vehicle": null, "name": null, "name:el": null, "name:en": null, "natural": "beach", "old_ref": null, "parking": null, "phone": null, "place": null, "population": null, "ref": null, "religion": null, "shoulder": null, "smoothness": null, "source:old_ref": null, "source:ref": null, "surface": null, "tracktype": null, "trees": null, "tunnel": null, "waterway": null, "wikidata": null, "wikipedia": null, "label": "natural:beach" }, "geometry": { "type": "Polygon", "coordinates": [ [ [ 25.8683071, 35.1568352 ], [ 25.8682859, 35.1566988 ], [ 25.8682216, 35.1566725 ], [ 25.8681337, 35.1566995 ], [ 25.8680303, 35.1567638 ], [ 25.8683071, 35.1568352 ] ] ] } },
{ "type": "Feature", "properties": { "@type": "way", "@id": 725467289, "addr:city": null, "addr:postcode": null, "amenity": null, "barrier": null, "bicycle": null, "building": "yes", "cuisine": null, "denomination": null, "ele": null, "foot": null, "ford": null, "highway": null, "historic": null, "int_name": null, "int_ref": null, "intermittent": null, "landuse": null, "lanes": null, "layer": null, "leisure": null, "lit": null, "maxspeed": null, "maxspeed:type": null, "motor_vehicle": null, "name": null, "name:el": null, "name:en": null, "natural": null, "old_ref": null, "parking": null, "phone": null, "place": null, "population": null, "ref": null, "religion": null, "shoulder": null, "smoothness": null, "source:old_ref": null, "source:ref": null, "surface": null, "tracktype": null, "trees": null, "tunnel": null, "waterway": null, "wikidata": null, "wikipedia": null, "label": "building:yes" }, "geometry": { "type": "Polygon", "coordinates": [ [ [ 25.8486126, 35.1477672 ], [ 25.8486603, 35.1477656 ], [ 25.8486582, 35.1477233 ], [ 25.8486105, 35.1477249 ], [ 25.8486126, 35.1477672 ] ] ] } },
{ "type": "Feature", "properties": { "@type": "way", "@id": 819935121, "addr:city": null, "addr:postcode": null, "amenity": "place_of_worship", "barrier": null, "bicycle": null, "building": "yes", "cuisine": null, "denomination": null, "ele": null, "foot": null, "ford": null, "highway": null, "historic": null, "int_name": null, "int_ref": null, "intermittent": null, "landuse": null, "lanes": null, "layer": null, "leisure": null, "lit": null, "maxspeed": null, "maxspeed:type": null, "motor_vehicle": null, "name": "Ἅγιος Ἀντώνιος", "name:el": null, "name:en": null, "natural": null, "old_ref": null, "parking": null, "phone": null, "place": null, "population": null, "ref": null, "religion": "christian", "shoulder": null, "smoothness": null, "source:old_ref": null, "source:ref": null, "surface": null, "tracktype": null, "trees": null, "tunnel": null, "waterway": null, "wikidata": null, "wikipedia": null, "label": "building:yes;amenity:place_of_worship" }, "geometry": { "type": "Polygon", "coordinates": [ [ [ 25.8522959, 35.148362 ], [ 25.8523093, 35.1483335 ], [ 25.8522396, 35.1483181 ], [ 25.8522262, 35.1483444 ], [ 25.8522959, 35.148362 ] ] ] } },
{ "type": "Feature", "properties": { "@type": "way", "@id": 819935122, "addr:city": null, "addr:postcode": null, "amenity": "place_of_worship", "barrier": null, "bicycle": null, "building": "yes", "cuisine": null, "denomination": null, "ele": null, "foot": null, "ford": null, "highway": null, "historic": null, "int_name": null, "int_ref": null, "intermittent": null, "landuse": null, "lanes": null, "layer": null, "leisure": null, "lit": null, "maxspeed": null, "maxspeed:type": null, "motor_vehicle": null, "name": "Ἀνάληψις", "name:el": null, "name:en": null, "natural": null, "old_ref": null, "parking": null, "phone": null, "place": null, "population": null, "ref": null, "religion": "christian", "shoulder": null, "smoothness": null, "source:old_ref": null, "source:ref": null, "surface": null, "tracktype": null, "trees": null, "tunnel": null, "waterway": null, "wikidata": null, "wikipedia": null, "label": "building:yes;amenity:place_of_worship" }, "geometry": { "type": "Polygon", "coordinates": [ [ [ 25.8605088, 35.1532153 ], [ 25.8606134, 35.1531955 ], [ 25.8606, 35.1531407 ], [ 25.8604874, 35.153156 ], [ 25.8605088, 35.1532153 ] ] ] } },
{ "type": "Feature", "properties": { "@type": "way", "@id": 822190675, "addr:city": null, "addr:postcode": null, "amenity": null, "barrier": null, "bicycle": null, "building": "yes", "cuisine": null, "denomination": null, "ele": null, "foot": null, "ford": null, "highway": null, "historic": null, "int_name": null, "int_ref": null, "intermittent": null, "landuse": null, "lanes": null, "layer": null, "leisure": null, "lit": null, "maxspeed": null, "maxspeed:type": null, "motor_vehicle": null, "name": null, "name:el": null, "name:en": null, "natural": null, "old_ref": null, "parking": null, "phone": null, "place": null, "population": null, "ref": null, "religion": null, "shoulder": null, "smoothness": null, "source:old_ref": null, "source:ref": null, "surface": null, "tracktype": null, "trees": null, "tunnel": null, "waterway": null, "wikidata": null, "wikipedia": null, "label": "building:yes" }, "geometry": { "type": "Polygon", "coordinates": [ [ [ 25.8610307, 35.1443685 ], [ 25.8611483, 35.1443398 ], [ 25.8611208, 35.1442191 ], [ 25.8610107, 35.1442416 ], [ 25.8610307, 35.1443685 ] ] ] } },
{ "type": "Feature", "properties": { "@type": "way", "@id": 822522136, "addr:city": null, "addr:postcode": null, "amenity": null, "barrier": null, "bicycle": null, "building": "yes", "cuisine": null, "denomination": null, "ele": null, "foot": null, "ford": null, "highway": null, "historic": null, "int_name": null, "int_ref": null, "intermittent": null, "landuse": null, "lanes": null, "layer": null, "leisure": null, "lit": null, "maxspeed": null, "maxspeed:type": null, "motor_vehicle": null, "name": null, "name:el": null, "name:en": null, "natural": null, "old_ref": null, "parking": null, "phone": null, "place": null, "population": null, "ref": null, "religion": null, "shoulder": null, "smoothness": null, "source:old_ref": null, "source:ref": null, "surface": null, "tracktype": null, "trees": null, "tunnel": null, "waterway": null, "wikidata": null, "wikipedia": null, "label": "building:yes" }, "geometry": { "type": "Polygon", "coordinates": [ [ [ 25.8671654, 35.1528386 ], [ 25.8673049, 35.1527947 ], [ 25.867203, 35.1526851 ], [ 25.8671064, 35.1527246 ], [ 25.8671654, 35.1528386 ] ] ] } },
{ "type": "Feature", "properties": { "@type": "way", "@id": 822522137, "addr:city": null, "addr:postcode": null, "amenity": null, "barrier": null, "bicycle": null, "building": "yes", "cuisine": null, "denomination": null, "ele": null, "foot": null, "ford": null, "highway": null, "historic": null, "int_name": null, "int_ref": null, "intermittent": null, "landuse": null, "lanes": null, "layer": null, "leisure": null, "lit": null, "maxspeed": null, "maxspeed:type": null, "motor_vehicle": null, "name": null, "name:el": null, "name:en": null, "natural": null, "old_ref": null, "parking": null, "phone": null, "place": null, "population": null, "ref": null, "religion": null, "shoulder": null, "smoothness": null, "source:old_ref": null, "source:ref": null, "surface": null, "tracktype": null, "trees": null, "tunnel": null, "waterway": null, "wikidata": null, "wikipedia": null, "label": "building:yes" }, "geometry": { "type": "Polygon", "coordinates": [ [ [ 25.8644939, 35.1531237 ], [ 25.8645851, 35.1530886 ], [ 25.8645476, 35.1529965 ], [ 25.864451, 35.153014 ], [ 25.8644939, 35.1531237 ] ] ] } },
{ "type": "Feature", "properties": { "@type": "way", "@id": 822522138, "addr:city": null, "addr:postcode": null, "amenity": null, "barrier": null, "bicycle": null, "building": "yes", "cuisine": null, "denomination": null, "ele": null, "foot": null, "ford": null, "highway": null, "historic": null, "int_name": null, "int_ref": null, "intermittent": null, "landuse": null, "lanes": null, "layer": null, "leisure": null, "lit": null, "maxspeed": null, "maxspeed:type": null, "motor_vehicle": null, "name": null, "name:el": null, "name:en": null, "natural": null, "old_ref": null, "parking": null, "phone": null, "place": null, "population": null, "ref": null, "religion": null, "shoulder": null, "smoothness": null, "source:old_ref": null, "source:ref": null, "surface": null, "tracktype": null, "trees": null, "tunnel": null, "waterway": null, "wikidata": null, "wikipedia": null, "label": "building:yes" }, "geometry": { "type": "Polygon", "coordinates": [ [ [ 25.8642203, 35.1524263 ], [ 25.8643706, 35.1523693 ], [ 25.8642794, 35.1521544 ], [ 25.8641184, 35.1521807 ], [ 25.8642203, 35.1524263 ] ] ] } },
{ "type": "Feature", "properties": { "@type": "way", "@id": 822522141, "addr:city": null, "addr:postcode": null, "amenity": null, "barrier": null, "bicycle": null, "building": "yes", "cuisine": null, "denomination": null, "ele": null, "foot": null, "ford": null, "highway": null, "historic": null, "int_name": null, "int_ref": null, "intermittent": null, "landuse": null, "lanes": null, "layer": null, "leisure": null, "lit": null, "maxspeed": null, "maxspeed:type": null, "motor_vehicle": null, "name": null, "name:el": null, "name:en": null, "natural": null, "old_ref": null, "parking": null, "phone": null, "place": null, "population": null, "ref": null, "religion": null, "shoulder": null, "smoothness": null, "source:old_ref": null, "source:ref": null, "surface": null, "tracktype": null, "trees": null, "tunnel": null, "waterway": null, "wikidata": null, "wikipedia": null, "label": "building:yes" }, "geometry": { "type": "Polygon", "coordinates": [ [ [ 25.8699297, 35.145318 ], [ 25.870037, 35.1452565 ], [ 25.8697849, 35.1450021 ], [ 25.8696937, 35.1450723 ], [ 25.8699297, 35.145318 ] ] ] } },
{ "type": "Feature", "properties": { "@type": "way", "@id": 822522142, "addr:city": null, "addr:postcode": null, "amenity": null, "barrier": null, "bicycle": null, "building": "yes", "cuisine": null, "denomination": null, "ele": null, "foot": null, "ford": null, "highway": null, "historic": null, "int_name": null, "int_ref": null, "intermittent": null, "landuse": null, "lanes": null, "layer": null, "leisure": null, "lit": null, "maxspeed": null, "maxspeed:type": null, "motor_vehicle": null, "name": null, "name:el": null, "name:en": null, "natural": null, "old_ref": null, "parking": null, "phone": null, "place": null, "population": null, "ref": null, "religion": null, "shoulder": null, "smoothness": null, "source:old_ref": null, "source:ref": null, "surface": null, "tracktype": null, "trees": null, "tunnel": null, "waterway": null, "wikidata": null, "wikipedia": null, "label": "building:yes" }, "geometry": { "type": "Polygon", "coordinates": [ [ [ 25.8691386, 35.1472069 ], [ 25.8695141, 35.1471849 ], [ 25.8694712, 35.1470534 ], [ 25.8691386, 35.1470841 ], [ 25.8691386, 35.1472069 ] ] ] } },
{ "type": "Feature", "properties": { "@type": "way", "@id": 822522143, "addr:city": null, "addr:postcode": null, "amenity": null, "barrier": null, "bicycle": null, "building": "yes", "cuisine": null, "denomination": null, "ele": null, "foot": null, "ford": null, "highway": null, "historic": null, "int_name": null, "int_ref": null, "intermittent": null, "landuse": null, "lanes": null, "layer": null, "leisure": null, "lit": null, "maxspeed": null, "maxspeed:type": null, "motor_vehicle": null, "name": null, "name:el": null, "name:en": null, "natural": null, "old_ref": null, "parking": null, "phone": null, "place": null, "population": null, "ref": null, "religion": null, "shoulder": null, "smoothness": null, "source:old_ref": null, "source:ref": null, "surface": null, "tracktype": null, "trees": null, "tunnel": null, "waterway": null, "wikidata": null, "wikipedia": null, "label": "building:yes" }, "geometry": { "type": "Polygon", "coordinates": [ [ [ 25.8697877, 35.1460401 ], [ 25.8699111, 35.1459568 ], [ 25.8698145, 35.1458471 ], [ 25.8696858, 35.1459173 ], [ 25.8697877, 35.1460401 ] ] ] } },
{ "type": "Feature", "properties": { "@type": "way", "@id": 822522144, "addr:city": null, "addr:postcode": null, "amenity": null, "barrier": null, "bicycle": null, "building": "yes", "cuisine": null, "denomination": null, "ele": null, "foot": null, "ford": null, "highway": null, "historic": null, "int_name": null, "int_ref": null, "intermittent": null, "landuse": null, "lanes": null, "layer": null, "leisure": null, "lit": null, "maxspeed": null, "maxspeed:type": null, "motor_vehicle": null, "name": null, "name:el": null, "name:en": null, "natural": null, "old_ref": null, "parking": null, "phone": null, "place": null, "population": null, "ref": null, "religion": null, "shoulder": null, "smoothness": null, "source:old_ref": null, "source:ref": null, "surface": null, "tracktype": null, "trees": null, "tunnel": null, "waterway": null, "wikidata": null, "wikipedia": null, "label": "building:yes" }, "geometry": { "type": "Polygon", "coordinates": [ [ [ 25.8709303, 35.1467902 ], [ 25.8710108, 35.1467595 ], [ 25.8708498, 35.1464349 ], [ 25.8707908, 35.1464568 ], [ 25.8709303, 35.1467902 ] ] ] } },
{ "type": "Feature", "properties": { "@type": "way", "@id": 822522192, "addr:city": null, "addr:postcode": null, "amenity": null, "barrier": null, "bicycle": null, "building": null, "cuisine": null, "denomination": null, "ele": null, "foot": null, "ford": null, "highway": null, "historic": null, "int_name": null, "int_ref": null, "intermittent": null, "landuse": null, "lanes": null, "layer": null, "leisure": null, "lit": null, "maxspeed": null, "maxspeed:type": null, "motor_vehicle": null, "name": null, "name:el": null, "name:en": null, "natural": "wood", "old_ref": null, "parking": null, "phone": null, "place": null, "population": null, "ref": null, "religion": null, "shoulder": null, "smoothness": null, "source:old_ref": null, "source:ref": null, "surface": null, "tracktype": null, "trees": null, "tunnel": null, "waterway": null, "wikidata": null, "wikipedia": null, "label": "natural:wood" }, "geometry": { "type": "Polygon", "coordinates": [ [ [ 25.8484552, 35.155922 ], [ 25.8495389, 35.1556764 ], [ 25.8503113, 35.1559834 ], [ 25.8508156, 35.1559834 ], [ 25.8515881, 35.1563518 ], [ 25.8520494, 35.1571149 ], [ 25.8526931, 35.1573255 ], [ 25.8529721, 35.1572027 ], [ 25.8530257, 35.1564044 ], [ 25.8526288, 35.1558781 ], [ 25.8514808, 35.1549659 ], [ 25.8503542, 35.1545448 ], [ 25.8496354, 35.1545536 ], [ 25.8490561, 35.1551501 ], [ 25.8483694, 35.1552553 ], [ 25.8484552, 35.155922 ] ] ] } },
{ "type": "Feature", "properties": { "@type": "way", "@id": 822522193, "addr:city": null, "addr:postcode": null, "amenity": null, "barrier": null, "bicycle": null, "building": null, "cuisine": null, "denomination": null, "ele": null, "foot": null, "ford": null, "highway": null, "historic": null, "int_name": null, "int_ref": null, "intermittent": null, "landuse": null, "lanes": null, "layer": null, "leisure": null, "lit": null, "maxspeed": null, "maxspeed:type": null, "motor_vehicle": null, "name": null, "name:el": null, "name:en": null, "natural": "wood", "old_ref": null, "parking": null, "phone": null, "place": null, "population": null, "ref": null, "religion": null, "shoulder": null, "smoothness": null, "source:old_ref": null, "source:ref": null, "surface": null, "tracktype": null, "trees": null, "tunnel": null, "waterway": null, "wikidata": null, "wikipedia": null, "label": "natural:wood" }, "geometry": { "type": "Polygon", "coordinates": [ [ [ 25.8552144, 35.1589745 ], [ 25.8559332, 35.1591938 ], [ 25.8566092, 35.1593955 ], [ 25.85721, 35.1593341 ], [ 25.8572207, 35.1587201 ], [ 25.8585189, 35.1585798 ], [ 25.8586691, 35.1582026 ], [ 25.857843, 35.1582816 ], [ 25.8571885, 35.1584745 ], [ 25.85515, 35.1583079 ], [ 25.8545278, 35.1584833 ], [ 25.8552144, 35.1589745 ] ] ] } },
{ "type": "Feature", "properties": { "@type": "way", "@id": 823389688, "addr:city": null, "addr:postcode": null, "amenity": null, "barrier": null, "bicycle": null, "building": null, "cuisine": null, "denomination": null, "ele": null, "foot": null, "ford": null, "highway": null, "historic": null, "int_name": null, "int_ref": null, "intermittent": null, "landuse": "orchard", "lanes": null, "layer": null, "leisure": null, "lit": null, "maxspeed": null, "maxspeed:type": null, "motor_vehicle": null, "name": null, "name:el": null, "name:en": null, "natural": null, "old_ref": null, "parking": null, "phone": null, "place": null, "population": null, "ref": null, "religion": null, "shoulder": null, "smoothness": null, "source:old_ref": null, "source:ref": null, "surface": null, "tracktype": null, "trees": "olive_trees", "tunnel": null, "waterway": null, "wikidata": null, "wikipedia": null, "label": "landuse:orchard" }, "geometry": { "type": "Polygon", "coordinates": [ [ [ 25.8518488, 35.1398721 ], [ 25.8514841, 35.14046 ], [ 25.8512695, 35.141039 ], [ 25.851409, 35.1420479 ], [ 25.8517952, 35.1433846 ], [ 25.85113, 35.1440777 ], [ 25.8512802, 35.144262 ], [ 25.8522351, 35.1443585 ], [ 25.8524928, 35.1457741 ], [ 25.8522996, 35.1462216 ], [ 25.8523962, 35.1463532 ], [ 25.8527932, 35.1461777 ], [ 25.8535978, 35.1466953 ], [ 25.8540914, 35.1469936 ], [ 25.8547244, 35.1467128 ], [ 25.8563551, 35.1469146 ], [ 25.8576855, 35.1472918 ], [ 25.8583507, 35.1479788 ], [ 25.8601746, 35.1502334 ], [ 25.8604428, 35.1509001 ], [ 25.8608183, 35.1510229 ], [ 25.8607218, 35.1505316 ], [ 25.861387, 35.1502071 ], [ 25.8614513, 35.1496281 ], [ 25.8607325, 35.1484234 ], [ 25.8597776, 35.1470812 ], [ 25.8589964, 35.1465899 ], [ 25.858814, 35.1463443 ], [ 25.8582775, 35.1451825 ], [ 25.8572798, 35.1446298 ], [ 25.8560352, 35.1438753 ], [ 25.8549194, 35.142919 ], [ 25.8541899, 35.1424102 ], [ 25.8540933, 35.1417346 ], [ 25.8536427, 35.1412609 ], [ 25.8530955, 35.1399587 ], [ 25.852649257439694, 35.139145820014086 ], [ 25.85167022605113, 35.139145820014086 ], [ 25.8518488, 35.1398721 ] ] ] } },
{ "type": "Feature", "properties": { "@type": "way", "@id": 823407814, "addr:city": null, "addr:postcode": null, "amenity": null, "barrier": null, "bicycle": null, "building": null, "cuisine": null, "denomination": null, "ele": null, "foot": null, "ford": null, "highway": null, "historic": null, "int_name": null, "int_ref": null, "intermittent": null, "landuse": "orchard", "lanes": null, "layer": null, "leisure": null, "lit": null, "maxspeed": null, "maxspeed:type": null, "motor_vehicle": null, "name": null, "name:el": null, "name:en": null, "natural": null, "old_ref": null, "parking": null, "phone": null, "place": null, "population": null, "ref": null, "religion": null, "shoulder": null, "smoothness": null, "source:old_ref": null, "source:ref": null, "surface": null, "tracktype": null, "trees": "olive_trees", "tunnel": null, "waterway": null, "wikidata": null, "wikipedia": null, "label": "landuse:orchard" }, "geometry": { "type": "Polygon", "coordinates": [ [ [ 25.85333, 35.1391546 ], [ 25.8535553, 35.1398741 ], [ 25.8542312, 35.1399969 ], [ 25.8545853, 35.1406023 ], [ 25.8537592, 35.140883 ], [ 25.8538235, 35.141092 ], [ 25.8543171, 35.1414956 ], [ 25.8547891, 35.1419869 ], [ 25.8550359, 35.1426098 ], [ 25.8556474, 35.1432327 ], [ 25.8561517, 35.1434871 ], [ 25.8564521, 35.1436099 ], [ 25.856892, 35.1441012 ], [ 25.8576752, 35.1442767 ], [ 25.8585871, 35.145075 ], [ 25.8590163, 35.1462883 ], [ 25.8591558, 35.1464813 ], [ 25.8599712, 35.1466655 ], [ 25.8601428, 35.1470164 ], [ 25.8604003, 35.1476656 ], [ 25.8617307, 35.1490253 ], [ 25.8622779, 35.1501921 ], [ 25.862589, 35.1501044 ], [ 25.8624817, 35.1493061 ], [ 25.8618165, 35.1486397 ], [ 25.8616985, 35.1481572 ], [ 25.8615054, 35.147701 ], [ 25.8617843, 35.147508 ], [ 25.8615161, 35.1463851 ], [ 25.8612694, 35.1458763 ], [ 25.861087, 35.1457447 ], [ 25.8607329, 35.1457535 ], [ 25.8605183, 35.1457798 ], [ 25.8602287, 35.1456131 ], [ 25.8600999, 35.1451482 ], [ 25.8597673, 35.1442445 ], [ 25.8595849, 35.1434286 ], [ 25.8592416, 35.1423935 ], [ 25.8590163, 35.1412617 ], [ 25.8587159, 35.1402966 ], [ 25.8582694650318, 35.139145820014086 ], [ 25.853327569926481, 35.139145820014086 ], [ 25.85333, 35.1391546 ] ] ] } },
{ "type": "Feature", "properties": { "@type": "way", "@id": 823407815, "addr:city": null, "addr:postcode": null, "amenity": null, "barrier": null, "bicycle": null, "building": null, "cuisine": null, "denomination": null, "ele": null, "foot": null, "ford": null, "highway": null, "historic": null, "int_name": null, "int_ref": null, "intermittent": null, "landuse": "orchard", "lanes": null, "layer": null, "leisure": null, "lit": null, "maxspeed": null, "maxspeed:type": null, "motor_vehicle": null, "name": null, "name:el": null, "name:en": null, "natural": null, "old_ref": null, "parking": null, "phone": null, "place": null, "population": null, "ref": null, "religion": null, "shoulder": null, "smoothness": null, "source:old_ref": null, "source:ref": null, "surface": null, "tracktype": null, "trees": "olive_trees", "tunnel": null, "waterway": null, "wikidata": null, "wikipedia": null, "label": "landuse:orchard" }, "geometry": { "type": "Polygon", "coordinates": [ [ [ 25.8587052, 35.1397048 ], [ 25.8591021, 35.1408066 ], [ 25.8594669, 35.1425437 ], [ 25.8598639, 35.1438685 ], [ 25.8600892, 35.1445966 ], [ 25.860411, 35.145395 ], [ 25.8606149, 35.145509 ], [ 25.8611299, 35.1455441 ], [ 25.8613445, 35.1451757 ], [ 25.8620418, 35.1451493 ], [ 25.861956, 35.1455617 ], [ 25.8620633, 35.1457108 ], [ 25.862353, 35.1462372 ], [ 25.8620096, 35.1464916 ], [ 25.8616127, 35.1458336 ], [ 25.8615161, 35.1458512 ], [ 25.861956, 35.1465957 ], [ 25.8623208, 35.1464554 ], [ 25.8626963, 35.1466835 ], [ 25.8620204, 35.1469116 ], [ 25.8622886, 35.1479643 ], [ 25.8627392, 35.1491398 ], [ 25.8635331, 35.1493211 ], [ 25.8641554, 35.1491719 ], [ 25.8642438, 35.1492442 ], [ 25.8649279, 35.1498036 ], [ 25.8652176, 35.1496369 ], [ 25.865121, 35.1491105 ], [ 25.865754, 35.1488572 ], [ 25.8654321, 35.1480852 ], [ 25.8654643, 35.1474273 ], [ 25.864724, 35.147436 ], [ 25.864724, 35.1471202 ], [ 25.865239, 35.1470676 ], [ 25.8648206, 35.1458899 ], [ 25.8644022, 35.1455653 ], [ 25.8638228, 35.1454863 ], [ 25.8632542, 35.1452407 ], [ 25.8631147, 35.1450038 ], [ 25.8635117, 35.1448196 ], [ 25.8633186, 35.1444248 ], [ 25.8636404, 35.1442669 ], [ 25.8635668, 35.1440116 ], [ 25.8632445, 35.1428945 ], [ 25.8631469, 35.1425561 ], [ 25.863104, 35.1421262 ], [ 25.8628894, 35.1418192 ], [ 25.8622993, 35.1419771 ], [ 25.8621706, 35.1417841 ], [ 25.8625461, 35.1414332 ], [ 25.8618165, 35.1400996 ], [ 25.8615161, 35.1395732 ], [ 25.8613981, 35.1398276 ], [ 25.8610762, 35.1400821 ], [ 25.8605291, 35.1401698 ], [ 25.8602608, 35.1400733 ], [ 25.8593596, 35.140161 ], [ 25.8593274, 35.1400031 ], [ 25.8600248, 35.1398101 ], [ 25.8599926, 35.1397399 ], [ 25.8591665, 35.1399592 ], [ 25.8590485, 35.1397487 ], [ 25.8597566, 35.139503 ], [ 25.859522056488757, 35.139145820014086 ], [ 25.858481590143047, 35.139145820014086 ], [ 25.8587052, 35.1397048 ] ] ] } },
{ "type": "Feature", "properties": { "@type": "way", "@id": 823407827, "addr:city": null, "addr:postcode": null, "amenity": null, "barrier": null, "bicycle": null, "building": null, "cuisine": null, "denomination": null, "ele": null, "foot": null, "ford": null, "highway": null, "historic": null, "int_name": null, "int_ref": null, "intermittent": null, "landuse": "orchard", "lanes": null, "layer": null, "leisure": null, "lit": null, "maxspeed": null, "maxspeed:type": null, "motor_vehicle": null, "name": null, "name:el": null, "name:en": null, "natural": null, "old_ref": null, "parking": null, "phone": null, "place": null, "population": null, "ref": null, "religion": null, "shoulder": null, "smoothness": null, "source:old_ref": null, "source:ref": null, "surface": null, "tracktype": null, "trees": null, "tunnel": null, "waterway": null, "wikidata": null, "wikipedia": null, "label": "landuse:orchard" }, "geometry": { "type": "Polygon", "coordinates": [ [ [ 25.8624882, 35.1391638 ], [ 25.8618015, 35.1393042 ], [ 25.8622092, 35.1405939 ], [ 25.862574, 35.1412028 ], [ 25.8630461, 35.1416502 ], [ 25.863104, 35.1421262 ], [ 25.8632445, 35.1428945 ], [ 25.8661789, 35.1426328 ], [ 25.8673054, 35.1425964 ], [ 25.866769, 35.1417454 ], [ 25.866769, 35.1412541 ], [ 25.8668441, 35.140754 ], [ 25.8661467, 35.1408066 ], [ 25.8658249, 35.1406663 ], [ 25.865224, 35.1407364 ], [ 25.8651597, 35.1405785 ], [ 25.8657927, 35.1403329 ], [ 25.8651168, 35.1402188 ], [ 25.8648903, 35.1397626 ], [ 25.864728148624859, 35.139145820014086 ], [ 25.862465118000991, 35.139145820014086 ], [ 25.8624882, 35.1391638 ] ] ] } },
{ "type": "Feature", "properties": { "@type": "way", "@id": 823407828, "addr:city": null, "addr:postcode": null, "amenity": null, "barrier": null, "bicycle": null, "building": null, "cuisine": null, "denomination": null, "ele": null, "foot": null, "ford": null, "highway": null, "historic": null, "int_name": null, "int_ref": null, "intermittent": null, "landuse": "orchard", "lanes": null, "layer": null, "leisure": null, "lit": null, "maxspeed": null, "maxspeed:type": null, "motor_vehicle": null, "name": null, "name:el": null, "name:en": null, "natural": null, "old_ref": null, "parking": null, "phone": null, "place": null, "population": null, "ref": null, "religion": null, "shoulder": null, "smoothness": null, "source:old_ref": null, "source:ref": null, "surface": null, "tracktype": null, "trees": null, "tunnel": null, "waterway": null, "wikidata": null, "wikipedia": null, "label": "landuse:orchard" }, "geometry": { "type": "Polygon", "coordinates": [ [ [ 25.8635668, 35.1440116 ], [ 25.8639036, 35.1442058 ], [ 25.8642147, 35.1449428 ], [ 25.8658348, 35.1442146 ], [ 25.8659206, 35.1445831 ], [ 25.8650623, 35.1451182 ], [ 25.8645151, 35.1453469 ], [ 25.865073, 35.1457504 ], [ 25.8653734, 35.1456013 ], [ 25.8657382, 35.1457855 ], [ 25.8665322, 35.1454872 ], [ 25.8663712, 35.1451889 ], [ 25.8675407, 35.1448819 ], [ 25.8677874, 35.1458314 ], [ 25.8667897, 35.1459542 ], [ 25.8669291, 35.1467701 ], [ 25.866736, 35.146814 ], [ 25.8667253, 35.1472614 ], [ 25.8664571, 35.1473052 ], [ 25.8664034, 35.1468491 ], [ 25.8662103, 35.1461122 ], [ 25.8652447, 35.1462701 ], [ 25.8654643, 35.1474273 ], [ 25.8654321, 35.1480852 ], [ 25.865754, 35.1488572 ], [ 25.8666609, 35.1483843 ], [ 25.8672832, 35.1482439 ], [ 25.8675514, 35.1488317 ], [ 25.8683346, 35.1487264 ], [ 25.868914, 35.1486475 ], [ 25.8701478, 35.1483229 ], [ 25.8701371, 35.1479193 ], [ 25.8696543, 35.1479193 ], [ 25.8689783, 35.1476825 ], [ 25.8688496, 35.1473842 ], [ 25.8683239, 35.147393 ], [ 25.8684204, 35.1468227 ], [ 25.8690427, 35.1466999 ], [ 25.8690427, 35.1469456 ], [ 25.8695362, 35.1468929 ], [ 25.8693968, 35.1463753 ], [ 25.8696006, 35.1462613 ], [ 25.8702014, 35.1467438 ], [ 25.8705126, 35.1466824 ], [ 25.8698474, 35.1457086 ], [ 25.8695899, 35.145577 ], [ 25.8689462, 35.1457349 ], [ 25.8686787, 35.1454016 ], [ 25.8686251, 35.144998 ], [ 25.8683461, 35.1445243 ], [ 25.8674986, 35.1437961 ], [ 25.8673054, 35.1425964 ], [ 25.8661789, 35.1426328 ], [ 25.8632445, 35.1428945 ], [ 25.8635668, 35.1440116 ] ] ] } },
{ "type": "Feature", "properties": { "@type": "way", "@id": 823407829, "addr:city": null, "addr:postcode": null, "amenity": null, "barrier": null, "bicycle": null, "building": null, "cuisine": null, "denomination": null, "ele": null, "foot": null, "ford": null, "highway": null, "historic": null, "int_name": null, "int_ref": null, "intermittent": null, "landuse": "orchard", "lanes": null, "layer": null, "leisure": null, "lit": null, "maxspeed": null, "maxspeed:type": null, "motor_vehicle": null, "name": null, "name:el": null, "name:en": null, "natural": null, "old_ref": null, "parking": null, "phone": null, "place": null, "population": null, "ref": null, "religion": null, "shoulder": null, "smoothness": null, "source:old_ref": null, "source:ref": null, "surface": null, "tracktype": null, "trees": null, "tunnel": null, "waterway": null, "wikidata": null, "wikipedia": null, "label": "landuse:orchard" }, "geometry": { "type": "Polygon", "coordinates": [ [ [ 25.8718215, 35.1481711 ], [ 25.8720682, 35.1484782 ], [ 25.872276976622715, 35.148546167777127 ], [ 25.872276976622715, 35.148003351199321 ], [ 25.8718215, 35.1481711 ] ] ] } },
{ "type": "Feature", "properties": { "@type": "way", "@id": 823407830, "addr:city": null, "addr:postcode": null, "amenity": null, "barrier": null, "bicycle": null, "building": null, "cuisine": null, "denomination": null, "ele": null, "foot": null, "ford": null, "highway": null, "historic": null, "int_name": null, "int_ref": null, "intermittent": null, "landuse": "orchard", "lanes": null, "layer": null, "leisure": null, "lit": null, "maxspeed": null, "maxspeed:type": null, "motor_vehicle": null, "name": null, "name:el": null, "name:en": null, "natural": null, "old_ref": null, "parking": null, "phone": null, "place": null, "population": null, "ref": null, "religion": null, "shoulder": null, "smoothness": null, "source:old_ref": null, "source:ref": null, "surface": null, "tracktype": null, "trees": null, "tunnel": null, "waterway": null, "wikidata": null, "wikipedia": null, "label": "landuse:orchard" }, "geometry": { "type": "Polygon", "coordinates": [ [ [ 25.8652983, 35.150645 ], [ 25.8656309, 35.1513029 ], [ 25.8661996, 35.151338 ], [ 25.8672081, 35.1510836 ], [ 25.8680986, 35.150452 ], [ 25.8688174, 35.1496712 ], [ 25.8683239, 35.1490923 ], [ 25.8677445, 35.1488817 ], [ 25.8668755, 35.1489694 ], [ 25.8664249, 35.14868 ], [ 25.8660064, 35.1488466 ], [ 25.8659099, 35.1493642 ], [ 25.8659099, 35.149566 ], [ 25.865706, 35.1496449 ], [ 25.8655666, 35.1495046 ], [ 25.8651696, 35.1498116 ], [ 25.8650516, 35.1500572 ], [ 25.8652983, 35.150645 ] ] ] } },
{ "type": "Feature", "properties": { "@type": "way", "@id": 823407832, "addr:city": null, "addr:postcode": null, "amenity": null, "barrier": null, "bicycle": null, "building": null, "cuisine": null, "denomination": null, "ele": null, "foot": null, "ford": null, "highway": null, "historic": null, "int_name": null, "int_ref": null, "intermittent": null, "landuse": "orchard", "lanes": null, "layer": null, "leisure": null, "lit": null, "maxspeed": null, "maxspeed:type": null, "motor_vehicle": null, "name": null, "name:el": null, "name:en": null, "natural": null, "old_ref": null, "parking": null, "phone": null, "place": null, "population": null, "ref": null, "religion": null, "shoulder": null, "smoothness": null, "source:old_ref": null, "source:ref": null, "surface": null, "tracktype": null, "trees": null, "tunnel": null, "waterway": null, "wikidata": null, "wikipedia": null, "label": "landuse:orchard" }, "geometry": { "type": "Polygon", "coordinates": [ [ [ 25.8672833, 35.1534082 ], [ 25.8674871, 35.1535135 ], [ 25.8677553, 35.1537942 ], [ 25.8684527, 35.1544345 ], [ 25.8684313, 35.1545924 ], [ 25.8689248, 35.1547679 ], [ 25.8696436, 35.1547942 ], [ 25.8706199, 35.1553907 ], [ 25.8715641, 35.1554872 ], [ 25.8714675, 35.1552766 ], [ 25.8706092, 35.1547065 ], [ 25.8707916, 35.1543995 ], [ 25.8699547, 35.1537854 ], [ 25.8693861, 35.1540047 ], [ 25.8691787, 35.1540205 ], [ 25.8689248, 35.1540398 ], [ 25.8684634, 35.153531 ], [ 25.8688068, 35.1533644 ], [ 25.8684849, 35.1528556 ], [ 25.8678626, 35.1530398 ], [ 25.8675837, 35.1525135 ], [ 25.8672618, 35.1525573 ], [ 25.8673584, 35.1530047 ], [ 25.8671652, 35.1531363 ], [ 25.8672833, 35.1534082 ] ] ] } },
{ "type": "Feature", "properties": { "@type": "way", "@id": 826111422, "addr:city": null, "addr:postcode": null, "amenity": null, "barrier": null, "bicycle": null, "building": "yes", "cuisine": null, "denomination": null, "ele": null, "foot": null, "ford": null, "highway": null, "historic": null, "int_name": null, "int_ref": null, "intermittent": null, "landuse": null, "lanes": null, "layer": null, "leisure": null, "lit": null, "maxspeed": null, "maxspeed:type": null, "motor_vehicle": null, "name": null, "name:el": null, "name:en": null, "natural": null, "old_ref": null, "parking": null, "phone": null, "place": null, "population": null, "ref": null, "religion": null, "shoulder": null, "smoothness": null, "source:old_ref": null, "source:ref": null, "surface": null, "tracktype": null, "trees": null, "tunnel": null, "waterway": null, "wikidata": null, "wikipedia": null, "label": "building:yes" }, "geometry": { "type": "Polygon", "coordinates": [ [ [ 25.8705633, 35.1462549 ], [ 25.8706572, 35.146222 ], [ 25.8705955, 35.1461584 ], [ 25.8705258, 35.1462 ], [ 25.8705633, 35.1462549 ] ] ] } },
{ "type": "Feature", "properties": { "@type": "way", "@id": 826111423, "addr:city": null, "addr:postcode": null, "amenity": null, "barrier": null, "bicycle": null, "building": "yes", "cuisine": null, "denomination": null, "ele": null, "foot": null, "ford": null, "highway": null, "historic": null, "int_name": null, "int_ref": null, "intermittent": null, "landuse": null, "lanes": null, "layer": null, "leisure": null, "lit": null, "maxspeed": null, "maxspeed:type": null, "motor_vehicle": null, "name": null, "name:el": null, "name:en": null, "natural": null, "old_ref": null, "parking": null, "phone": null, "place": null, "population": null, "ref": null, "religion": null, "shoulder": null, "smoothness": null, "source:old_ref": null, "source:ref": null, "surface": null, "tracktype": null, "trees": null, "tunnel": null, "waterway": null, "wikidata": null, "wikipedia": null, "label": "building:yes" }, "geometry": { "type": "Polygon", "coordinates": [ [ [ 25.8704989, 35.146086 ], [ 25.8705767, 35.1460465 ], [ 25.8705016, 35.1459654 ], [ 25.8704265, 35.1460114 ], [ 25.8704989, 35.146086 ] ] ] } },
{ "type": "Feature", "properties": { "@type": "way", "@id": 826111424, "addr:city": null, "addr:postcode": null, "amenity": null, "barrier": null, "bicycle": null, "building": "yes", "cuisine": null, "denomination": null, "ele": null, "foot": null, "ford": null, "highway": null, "historic": null, "int_name": null, "int_ref": null, "intermittent": null, "landuse": null, "lanes": null, "layer": null, "leisure": null, "lit": null, "maxspeed": null, "maxspeed:type": null, "motor_vehicle": null, "name": null, "name:el": null, "name:en": null, "natural": null, "old_ref": null, "parking": null, "phone": null, "place": null, "population": null, "ref": null, "religion": null, "shoulder": null, "smoothness": null, "source:old_ref": null, "source:ref": null, "surface": null, "tracktype": null, "trees": null, "tunnel": null, "waterway": null, "wikidata": null, "wikipedia": null, "label": "building:yes" }, "geometry": { "type": "Polygon", "coordinates": [ [ [ 25.8702253, 35.1465246 ], [ 25.87033, 35.1465027 ], [ 25.870287, 35.1463996 ], [ 25.8701797, 35.1464369 ], [ 25.8702253, 35.1465246 ] ] ] } },
{ "type": "Feature", "properties": { "@type": "way", "@id": 826111425, "addr:city": null, "addr:postcode": null, "amenity": null, "barrier": null, "bicycle": null, "building": "yes", "cuisine": null, "denomination": null, "ele": null, "foot": null, "ford": null, "highway": null, "historic": null, "int_name": null, "int_ref": null, "intermittent": null, "landuse": null, "lanes": null, "layer": null, "leisure": null, "lit": null, "maxspeed": null, "maxspeed:type": null, "motor_vehicle": null, "name": null, "name:el": null, "name:en": null, "natural": null, "old_ref": null, "parking": null, "phone": null, "place": null, "population": null, "ref": null, "religion": null, "shoulder": null, "smoothness": null, "source:old_ref": null, "source:ref": null, "surface": null, "tracktype": null, "trees": null, "tunnel": null, "waterway": null, "wikidata": null, "wikipedia": null, "label": "building:yes" }, "geometry": { "type": "Polygon", "coordinates": [ [ [ 25.8714833, 35.1457548 ], [ 25.8715879, 35.1457 ], [ 25.8714806, 35.145553 ], [ 25.8713894, 35.1456057 ], [ 25.8714833, 35.1457548 ] ] ] } },
{ "type": "Feature", "properties": { "@type": "way", "@id": 826111427, "addr:city": null, "addr:postcode": null, "amenity": null, "barrier": null, "bicycle": null, "building": "yes", "cuisine": null, "denomination": null, "ele": null, "foot": null, "ford": null, "highway": null, "historic": null, "int_name": null, "int_ref": null, "intermittent": null, "landuse": null, "lanes": null, "layer": null, "leisure": null, "lit": null, "maxspeed": null, "maxspeed:type": null, "motor_vehicle": null, "name": null, "name:el": null, "name:en": null, "natural": null, "old_ref": null, "parking": null, "phone": null, "place": null, "population": null, "ref": null, "religion": null, "shoulder": null, "smoothness": null, "source:old_ref": null, "source:ref": null, "surface": null, "tracktype": null, "trees": null, "tunnel": null, "waterway": null, "wikidata": null, "wikipedia": null, "label": "building:yes" }, "geometry": { "type": "Polygon", "coordinates": [ [ [ 25.8709737, 35.145518 ], [ 25.8712044, 35.1454368 ], [ 25.8711534, 35.1453447 ], [ 25.8709066, 35.1454434 ], [ 25.8709737, 35.145518 ] ] ] } },
{ "type": "Feature", "properties": { "@type": "way", "@id": 826111430, "addr:city": null, "addr:postcode": null, "amenity": null, "barrier": null, "bicycle": null, "building": "yes", "cuisine": null, "denomination": null, "ele": null, "foot": null, "ford": null, "highway": null, "historic": null, "int_name": null, "int_ref": null, "intermittent": null, "landuse": null, "lanes": null, "layer": null, "leisure": null, "lit": null, "maxspeed": null, "maxspeed:type": null, "motor_vehicle": null, "name": null, "name:el": null, "name:en": null, "natural": null, "old_ref": null, "parking": null, "phone": null, "place": null, "population": null, "ref": null, "religion": null, "shoulder": null, "smoothness": null, "source:old_ref": null, "source:ref": null, "surface": null, "tracktype": null, "trees": null, "tunnel": null, "waterway": null, "wikidata": null, "wikipedia": null, "label": "building:yes" }, "geometry": { "type": "Polygon", "coordinates": [ [ [ 25.8653491, 35.1446143 ], [ 25.865687, 35.1444871 ], [ 25.8656173, 35.1443994 ], [ 25.8653062, 35.1445091 ], [ 25.8653491, 35.1446143 ] ] ] } },
{ "type": "Feature", "properties": { "@type": "way", "@id": 826111431, "addr:city": null, "addr:postcode": null, "amenity": null, "barrier": null, "bicycle": null, "building": "yes", "cuisine": null, "denomination": null, "ele": null, "foot": null, "ford": null, "highway": null, "historic": null, "int_name": null, "int_ref": null, "intermittent": null, "landuse": null, "lanes": null, "layer": null, "leisure": null, "lit": null, "maxspeed": null, "maxspeed:type": null, "motor_vehicle": null, "name": null, "name:el": null, "name:en": null, "natural": null, "old_ref": null, "parking": null, "phone": null, "place": null, "population": null, "ref": null, "religion": null, "shoulder": null, "smoothness": null, "source:old_ref": null, "source:ref": null, "surface": null, "tracktype": null, "trees": null, "tunnel": null, "waterway": null, "wikidata": null, "wikipedia": null, "label": "building:yes" }, "geometry": { "type": "Polygon", "coordinates": [ [ [ 25.8675861, 35.1421315 ], [ 25.867688, 35.1420482 ], [ 25.8675914, 35.1419473 ], [ 25.867468, 35.1420043 ], [ 25.8675861, 35.1421315 ] ] ] } },
{ "type": "Feature", "properties": { "@type": "way", "@id": 835099717, "addr:city": "Θόλος Καβουσίου Ἱεράπετρας", "addr:postcode": "72200", "amenity": null, "barrier": null, "bicycle": null, "building": "yes", "cuisine": null, "denomination": null, "ele": null, "foot": null, "ford": null, "highway": null, "historic": "building", "int_name": null, "int_ref": null, "intermittent": null, "landuse": null, "lanes": null, "layer": null, "leisure": null, "lit": null, "maxspeed": null, "maxspeed:type": null, "motor_vehicle": null, "name": "Ρομαϊκή Σιταποθήκη", "name:el": null, "name:en": null, "natural": null, "old_ref": null, "parking": null, "phone": null, "place": null, "population": null, "ref": null, "religion": null, "shoulder": null, "smoothness": null, "source:old_ref": null, "source:ref": null, "surface": null, "tracktype": null, "trees": null, "tunnel": null, "waterway": null, "wikidata": null, "wikipedia": null, "label": "building:yes;historic:building" }, "geometry": { "type": "Polygon", "coordinates": [ [ [ 25.8598937, 35.152313 ], [ 25.8599849, 35.152313 ], [ 25.8599152, 35.1518042 ], [ 25.8598294, 35.1518174 ], [ 25.8598937, 35.152313 ] ] ] } },
{ "type": "Feature", "properties": { "@type": "way", "@id": 835099718, "addr:city": null, "addr:postcode": null, "amenity": null, "barrier": null, "bicycle": null, "building": "yes", "cuisine": null, "denomination": null, "ele": null, "foot": null, "ford": null, "highway": null, "historic": null, "int_name": null, "int_ref": null, "intermittent": null, "landuse": null, "lanes": null, "layer": null, "leisure": null, "lit": null, "maxspeed": null, "maxspeed:type": null, "motor_vehicle": null, "name": null, "name:el": null, "name:en": null, "natural": null, "old_ref": null, "parking": null, "phone": null, "place": null, "population": null, "ref": null, "religion": null, "shoulder": null, "smoothness": null, "source:old_ref": null, "source:ref": null, "surface": null, "tracktype": null, "trees": null, "tunnel": null, "waterway": null, "wikidata": null, "wikipedia": null, "label": "building:yes" }, "geometry": { "type": "Polygon", "coordinates": [ [ [ 25.8643945, 35.1527867 ], [ 25.864491, 35.1527428 ], [ 25.8644589, 35.152677 ], [ 25.8643677, 35.1527165 ], [ 25.8643945, 35.1527867 ] ] ] } },
{ "type": "Feature", "properties": { "@type": "way", "@id": 835099719, "addr:city": null, "addr:postcode": null, "amenity": null, "barrier": null, "bicycle": null, "building": "yes", "cuisine": null, "denomination": null, "ele": null, "foot": null, "ford": null, "highway": null, "historic": null, "int_name": null, "int_ref": null, "intermittent": null, "landuse": null, "lanes": null, "layer": null, "leisure": null, "lit": null, "maxspeed": null, "maxspeed:type": null, "motor_vehicle": null, "name": null, "name:el": null, "name:en": null, "natural": null, "old_ref": null, "parking": null, "phone": null, "place": null, "population": null, "ref": null, "religion": null, "shoulder": null, "smoothness": null, "source:old_ref": null, "source:ref": null, "surface": null, "tracktype": null, "trees": null, "tunnel": null, "waterway": null, "wikidata": null, "wikipedia": null, "label": "building:yes" }, "geometry": { "type": "Polygon", "coordinates": [ [ [ 25.8604811, 35.1530948 ], [ 25.8605697, 35.1530762 ], [ 25.8605562, 35.1530312 ], [ 25.8604624, 35.1530466 ], [ 25.8604811, 35.1530948 ] ] ] } },
{ "type": "Feature", "properties": { "@type": "way", "@id": 841970500, "addr:city": null, "addr:postcode": null, "amenity": null, "barrier": null, "bicycle": null, "building": null, "cuisine": null, "denomination": null, "ele": null, "foot": null, "ford": null, "highway": null, "historic": null, "int_name": null, "int_ref": null, "intermittent": null, "landuse": null, "lanes": null, "layer": null, "leisure": null, "lit": null, "maxspeed": null, "maxspeed:type": null, "motor_vehicle": null, "name": null, "name:el": null, "name:en": null, "natural": "scree", "old_ref": null, "parking": null, "phone": null, "place": null, "population": null, "ref": null, "religion": null, "shoulder": null, "smoothness": null, "source:old_ref": null, "source:ref": null, "surface": null, "tracktype": null, "trees": null, "tunnel": null, "waterway": null, "wikidata": null, "wikipedia": null, "label": "natural:scree" }, "geometry": { "type": "Polygon", "coordinates": [ [ [ 25.8633762, 35.1496525 ], [ 25.8640579, 35.1494603 ], [ 25.8642438, 35.1492442 ], [ 25.8638542, 35.1492938 ], [ 25.8630863, 35.1495308 ], [ 25.8633762, 35.1496525 ] ] ] } },
{ "type": "Feature", "properties": { "@type": "way", "@id": 841970501, "addr:city": null, "addr:postcode": null, "amenity": null, "barrier": null, "bicycle": null, "building": null, "cuisine": null, "denomination": null, "ele": null, "foot": null, "ford": null, "highway": null, "historic": null, "int_name": null, "int_ref": null, "intermittent": null, "landuse": null, "lanes": null, "layer": null, "leisure": null, "lit": null, "maxspeed": null, "maxspeed:type": null, "motor_vehicle": null, "name": null, "name:el": null, "name:en": null, "natural": "scree", "old_ref": null, "parking": null, "phone": null, "place": null, "population": null, "ref": null, "religion": null, "shoulder": null, "smoothness": null, "source:old_ref": null, "source:ref": null, "surface": null, "tracktype": null, "trees": null, "tunnel": null, "waterway": null, "wikidata": null, "wikipedia": null, "label": "natural:scree" }, "geometry": { "type": "Polygon", "coordinates": [ [ [ 25.871337, 35.1483391 ], [ 25.8708748, 35.1483135 ], [ 25.8702636, 35.1484096 ], [ 25.8702244, 35.1486723 ], [ 25.871337, 35.1483391 ] ] ] } },
{ "type": "Feature", "properties": { "@type": "way", "@id": 841970502, "addr:city": null, "addr:postcode": null, "amenity": null, "barrier": null, "bicycle": null, "building": null, "cuisine": null, "denomination": null, "ele": null, "foot": null, "ford": null, "highway": null, "historic": null, "int_name": null, "int_ref": null, "intermittent": null, "landuse": null, "lanes": null, "layer": null, "leisure": null, "lit": null, "maxspeed": null, "maxspeed:type": null, "motor_vehicle": null, "name": null, "name:el": null, "name:en": null, "natural": "scree", "old_ref": null, "parking": null, "phone": null, "place": null, "population": null, "ref": null, "religion": null, "shoulder": null, "smoothness": null, "source:old_ref": null, "source:ref": null, "surface": null, "tracktype": null, "trees": null, "tunnel": null, "waterway": null, "wikidata": null, "wikipedia": null, "label": "natural:scree" }, "geometry": { "type": "Polygon", "coordinates": [ [ [ 25.8691787, 35.1540205 ], [ 25.8695584, 35.153663 ], [ 25.8698091, 35.1534132 ], [ 25.870052, 35.1527085 ], [ 25.869245, 35.1530672 ], [ 25.8692215, 35.1534452 ], [ 25.8689394, 35.1539705 ], [ 25.8691787, 35.1540205 ] ] ] } },
{ "type": "Feature", "properties": { "@type": "way", "@id": 841970503, "addr:city": null, "addr:postcode": null, "amenity": null, "barrier": null, "bicycle": null, "building": null, "cuisine": null, "denomination": null, "ele": null, "foot": null, "ford": null, "highway": null, "historic": null, "int_name": null, "int_ref": null, "intermittent": null, "landuse": null, "lanes": null, "layer": null, "leisure": null, "lit": null, "maxspeed": null, "maxspeed:type": null, "motor_vehicle": null, "name": null, "name:el": null, "name:en": null, "natural": "bare_rock", "old_ref": null, "parking": null, "phone": null, "place": null, "population": null, "ref": null, "religion": null, "shoulder": null, "smoothness": null, "source:old_ref": null, "source:ref": null, "surface": null, "tracktype": null, "trees": null, "tunnel": null, "waterway": null, "wikidata": null, "wikipedia": null, "label": "natural:bare_rock" }, "geometry": { "type": "Polygon", "coordinates": [ [ [ 25.8446819, 35.1432709 ], [ 25.8447892, 35.1424492 ], [ 25.8446176, 35.1420719 ], [ 25.844499011194763, 35.141794824336102 ], [ 25.844499011194763, 35.143663888629931 ], [ 25.8446819, 35.1432709 ] ] ] } },
{ "type": "Feature", "properties": { "@type": "way", "@id": 841970505, "addr:city": null, "addr:postcode": null, "amenity": null, "barrier": null, "bicycle": null, "building": null, "cuisine": null, "denomination": null, "ele": null, "foot": null, "ford": null, "highway": null, "historic": null, "int_name": null, "int_ref": null, "intermittent": null, "landuse": null, "lanes": null, "layer": null, "leisure": null, "lit": null, "maxspeed": null, "maxspeed:type": null, "motor_vehicle": null, "name": null, "name:el": null, "name:en": null, "natural": "bare_rock", "old_ref": null, "parking": null, "phone": null, "place": null, "population": null, "ref": null, "religion": null, "shoulder": null, "smoothness": null, "source:old_ref": null, "source:ref": null, "surface": null, "tracktype": null, "trees": null, "tunnel": null, "waterway": null, "wikidata": null, "wikipedia": null, "label": "natural:bare_rock" }, "geometry": { "type": "Polygon", "coordinates": [ [ [ 25.8447434, 35.1510383 ], [ 25.8449257, 35.1512926 ], [ 25.845151, 35.151547 ], [ 25.8455802, 35.1519242 ], [ 25.8450438, 35.1512751 ], [ 25.8446683, 35.1508277 ], [ 25.844499011194763, 35.150770418151701 ], [ 25.844499011194763, 35.150922837931915 ], [ 25.8447434, 35.1510383 ] ] ] } },
{ "type": "Feature", "properties": { "@type": "way", "@id": 841970506, "addr:city": null, "addr:postcode": null, "amenity": null, "barrier": null, "bicycle": null, "building": null, "cuisine": null, "denomination": null, "ele": null, "foot": null, "ford": null, "highway": null, "historic": null, "int_name": null, "int_ref": null, "intermittent": null, "landuse": null, "lanes": null, "layer": null, "leisure": null, "lit": null, "maxspeed": null, "maxspeed:type": null, "motor_vehicle": null, "name": null, "name:el": null, "name:en": null, "natural": "bare_rock", "old_ref": null, "parking": null, "phone": null, "place": null, "population": null, "ref": null, "religion": null, "shoulder": null, "smoothness": null, "source:old_ref": null, "source:ref": null, "surface": null, "tracktype": null, "trees": null, "tunnel": null, "waterway": null, "wikidata": null, "wikipedia": null, "label": "natural:bare_rock" }, "geometry": { "type": "Polygon", "coordinates": [ [ [ 25.8502258, 35.1544681 ], [ 25.85073, 35.154591 ], [ 25.8513309, 35.1546962 ], [ 25.8522428, 35.1554243 ], [ 25.8529295, 35.1558716 ], [ 25.8530904, 35.1558366 ], [ 25.8524037, 35.1554331 ], [ 25.8515669, 35.1547313 ], [ 25.8512236, 35.154512 ], [ 25.850612, 35.1544857 ], [ 25.8500649, 35.1543453 ], [ 25.8502258, 35.1544681 ] ] ] } },
{ "type": "Feature", "properties": { "@type": "way", "@id": 1151105372, "addr:city": null, "addr:postcode": null, "amenity": null, "barrier": null, "bicycle": null, "building": null, "cuisine": null, "denomination": null, "ele": null, "foot": null, "ford": null, "highway": null, "historic": null, "int_name": null, "int_ref": null, "intermittent": null, "landuse": null, "lanes": null, "layer": null, "leisure": null, "lit": null, "maxspeed": null, "maxspeed:type": null, "motor_vehicle": null, "name": null, "name:el": null, "name:en": null, "natural": "scrub", "old_ref": null, "parking": null, "phone": null, "place": null, "population": null, "ref": null, "religion": null, "shoulder": null, "smoothness": null, "source:old_ref": null, "source:ref": null, "surface": null, "tracktype": null, "trees": null, "tunnel": null, "waterway": null, "wikidata": null, "wikipedia": null, "label": "natural:scrub" }, "geometry": { "type": "Polygon", "coordinates": [ [ [ 25.858864, 35.157935 ], [ 25.8588821, 35.1578757 ], [ 25.8589329, 35.1578283 ], [ 25.8589474, 35.15776 ], [ 25.8589474, 35.1576948 ], [ 25.8590091, 35.1576325 ], [ 25.8590599, 35.1575613 ], [ 25.859118, 35.1574634 ], [ 25.859118, 35.1573803 ], [ 25.8590998, 35.1573061 ], [ 25.8590381, 35.1573061 ], [ 25.8590309, 35.1573744 ], [ 25.8590309, 35.1574604 ], [ 25.8589946, 35.1575286 ], [ 25.8589293, 35.1576028 ], [ 25.8588966, 35.1576977 ], [ 25.8588386, 35.1578016 ], [ 25.8588132, 35.1579113 ], [ 25.858864, 35.157935 ] ] ] } },
{ "type": "Feature", "properties": { "@type": "way", "@id": 1211629885, "addr:city": null, "addr:postcode": null, "amenity": null, "barrier": null, "bicycle": null, "building": "yes", "cuisine": null, "denomination": null, "ele": null, "foot": null, "ford": null, "highway": null, "historic": null, "int_name": null, "int_ref": null, "intermittent": null, "landuse": null, "lanes": null, "layer": null, "leisure": null, "lit": null, "maxspeed": null, "maxspeed:type": null, "motor_vehicle": null, "name": null, "name:el": null, "name:en": null, "natural": null, "old_ref": null, "parking": null, "phone": null, "place": null, "population": null, "ref": null, "religion": null, "shoulder": null, "smoothness": null, "source:old_ref": null, "source:ref": null, "surface": null, "tracktype": null, "trees": null, "tunnel": null, "waterway": null, "wikidata": null, "wikipedia": null, "label": "building:yes" }, "geometry": { "type": "Polygon", "coordinates": [ [ [ 25.8619479, 35.1516429 ], [ 25.8620387, 35.1516142 ], [ 25.8620102, 35.1515538 ], [ 25.8619193, 35.1515824 ], [ 25.8619479, 35.1516429 ] ] ] } },
{ "type": "Feature", "properties": { "@type": "way", "@id": 1311762619, "addr:city": null, "addr:postcode": null, "amenity": null, "barrier": null, "bicycle": null, "building": null, "cuisine": null, "denomination": null, "ele": null, "foot": null, "ford": null, "highway": null, "historic": null, "int_name": null, "int_ref": null, "intermittent": null, "landuse": null, "lanes": null, "layer": null, "leisure": "swimming_pool", "lit": null, "maxspeed": null, "maxspeed:type": null, "motor_vehicle": null, "name": null, "name:el": null, "name:en": null, "natural": null, "old_ref": null, "parking": null, "phone": null, "place": null, "population": null, "ref": null, "religion": null, "shoulder": null, "smoothness": null, "source:old_ref": null, "source:ref": null, "surface": null, "tracktype": null, "trees": null, "tunnel": null, "waterway": null, "wikidata": null, "wikipedia": null, "label": "leisure:swimming_pool" }, "geometry": { "type": "Polygon", "coordinates": [ [ [ 25.866122, 35.1522873 ], [ 25.8662055, 35.1521781 ], [ 25.8661806, 35.1521666 ], [ 25.8660927, 35.1522722 ], [ 25.866122, 35.1522873 ] ] ] } },
{ "type": "Feature", "properties": { "@type": "way", "@id": 1311762620, "addr:city": null, "addr:postcode": null, "amenity": null, "barrier": null, "bicycle": null, "building": null, "cuisine": null, "denomination": null, "ele": null, "foot": null, "ford": null, "highway": null, "historic": null, "int_name": null, "int_ref": null, "intermittent": null, "landuse": null, "lanes": null, "layer": null, "leisure": "swimming_pool", "lit": null, "maxspeed": null, "maxspeed:type": null, "motor_vehicle": null, "name": null, "name:el": null, "name:en": null, "natural": null, "old_ref": null, "parking": null, "phone": null, "place": null, "population": null, "ref": null, "religion": null, "shoulder": null, "smoothness": null, "source:old_ref": null, "source:ref": null, "surface": null, "tracktype": null, "trees": null, "tunnel": null, "waterway": null, "wikidata": null, "wikipedia": null, "label": "leisure:swimming_pool" }, "geometry": { "type": "Polygon", "coordinates": [ [ [ 25.8641425, 35.1515542 ], [ 25.8641649, 35.1515786 ], [ 25.8641827, 35.1515801 ], [ 25.8641948, 35.1515717 ], [ 25.8642098, 35.1515648 ], [ 25.8642107, 35.1515473 ], [ 25.864206, 35.1515366 ], [ 25.864193, 35.1515274 ], [ 25.8641874, 35.1515114 ], [ 25.8641818, 35.1514923 ], [ 25.8641696, 35.1514816 ], [ 25.8641547, 35.1514816 ], [ 25.8641294, 35.1514877 ], [ 25.8641164, 35.1515014 ], [ 25.8641425, 35.1515542 ] ] ] } },
{ "type": "Feature", "properties": { "@type": "relation", "@id": 18457272, "addr:city": null, "addr:postcode": null, "amenity": null, "barrier": null, "bicycle": null, "building": null, "cuisine": null, "denomination": null, "ele": null, "foot": null, "ford": null, "highway": null, "historic": null, "int_name": null, "int_ref": null, "intermittent": null, "landuse": null, "lanes": null, "layer": null, "leisure": null, "lit": null, "maxspeed": null, "maxspeed:type": null, "motor_vehicle": null, "name": "Legamenis Beach", "name:el": null, "name:en": null, "natural": "beach", "old_ref": null, "parking": null, "phone": null, "place": null, "population": null, "ref": null, "religion": null, "shoulder": null, "smoothness": null, "source:old_ref": null, "source:ref": null, "surface": null, "tracktype": null, "trees": null, "tunnel": null, "waterway": null, "wikidata": null, "wikipedia": null, "label": "natural:beach" }, "geometry": { "type": "Polygon", "coordinates": [ [ [ 25.8591932, 35.1553413 ], [ 25.8592194, 35.1553329 ], [ 25.8592832, 35.1553125 ], [ 25.8593863, 35.1552887 ], [ 25.8593043, 35.1551889 ], [ 25.8591993, 35.1550667 ], [ 25.8591763, 35.155353 ], [ 25.8591932, 35.1553413 ] ] ] } }
]
}
