{
"type": "FeatureCollection",
"name": "patch_42882_point",
"crs": { "type": "name", "properties": { "name": "urn:ogc:def:crs:OGC:1.3:CRS84" } },
"features": [
{ "type": "Feature", "properties": { "element": "node", "id": 1600877616, "historic": "city_gate", "amenity": null, "cuisine": null, "wifi": null, "name": null, "name:el": null, "name:en": null, "name:ru": null, "wheelchair": null, "int_name": null, "tourism": null, "castle_type": null, "fee": null, "historic:civilization": null, "opening_hours": null, "source": null, "wikidata": null, "wikipedia": null, "religion": null, "access": null, "parking": null, "leaf_type": null, "natural": null, "ele": null, "ruin_type": null, "ruins": null, "highway": null, "sac_scale": null, "surface": null, "check_date:surface": null, "barrier": null, "historic:period": null, "building": null, "archaeological_site": null, "fortification_type": null, "name:ca": null, "name:de": null, "name:es": null, "name:fr": null, "name:pl": null, "operator": null, "start_date": null, "wall": null, "man_made": null, "tower": null, "handrail": null, "incline": null, "ramp": null, "step_count": null, "landuse": null, "label": "historic:city_gate" }, "geometry": { "type": "Point", "coordinates": [ 22.8688584, 37.8899913 ] } },
{ "type": "Feature", "properties": { "element": "node", "id": 1600877815, "historic": "city_gate", "amenity": null, "cuisine": null, "wifi": null, "name": null, "name:el": null, "name:en": null, "name:ru": null, "wheelchair": null, "int_name": null, "tourism": null, "castle_type": null, "fee": null, "historic:civilization": null, "opening_hours": null, "source": null, "wikidata": null, "wikipedia": null, "religion": null, "access": null, "parking": null, "leaf_type": null, "natural": null, "ele": null, "ruin_type": null, "ruins": null, "highway": null, "sac_scale": null, "surface": null, "check_date:surface": null, "barrier": null, "historic:period": null, "building": null, "archaeological_site": null, "fortification_type": null, "name:ca": null, "name:de": null, "name:es": null, "name:fr": null, "name:pl": null, "operator": null, "start_date": null, "wall": null, "man_made": null, "tower": null, "handrail": null, "incline": null, "ramp": null, "step_count": null, "landuse": null, "label": "historic:city_gate" }, "geometry": { "type": "Point", "coordinates": [ 22.8697287, 37.8906693 ] } },
{ "type": "Feature", "properties": { "element": "node", "id": 1600877961, "historic": "city_gate", "amenity": null, "cuisine": null, "wifi": null, "name": null, "name:el": null, "name:en": null, "name:ru": null, "wheelchair": null, "int_name": null, "tourism": null, "castle_type": null, "fee": null, "historic:civilization": null, "opening_hours": null, "source": null, "wikidata": null, "wikipedia": null, "religion": null, "access": null, "parking": null, "leaf_type": null, "natural": null, "ele": null, "ruin_type": null, "ruins": null, "highway": null, "sac_scale": null, "surface": null, "check_date:surface": null, "barrier": null, "historic:period": null, "building": null, "archaeological_site": null, "fortification_type": null, "name:ca": null, "name:de": null, "name:es": null, "name:fr": null, "name:pl": null, "operator": null, "start_date": null, "wall": null, "man_made": null, "tower": null, "handrail": null, "incline": null, "ramp": null, "step_count": null, "landuse": null, "label": "historic:city_gate" }, "geometry": { "type": "Point", "coordinates": [ 22.8705363, 37.8910944 ] } },
{ "type": "Feature", "properties": { "element": "node", "id": 2334442832, "historic": null, "amenity": "cafe", "cuisine": "greek", "wifi": "no", "name": null, "name:el": null, "name:en": null, "name:ru": null, "wheelchair": null, "int_name": null, "tourism": null, "castle_type": null, "fee": null, "historic:civilization": null, "opening_hours": null, "source": null, "wikidata": null, "wikipedia": null, "religion": null, "access": null, "parking": null, "leaf_type": null, "natural": null, "ele": null, "ruin_type": null, "ruins": null, "highway": null, "sac_scale": null, "surface": null, "check_date:surface": null, "barrier": null, "historic:period": null, "building": null, "archaeological_site": null, "fortification_type": null, "name:ca": null, "name:de": null, "name:es": null, "name:fr": null, "name:pl": null, "operator": null, "start_date": null, "wall": null, "man_made": null, "tower": null, "handrail": null, "incline": null, "ramp": null, "step_count": null, "landuse": null, "label": "amenity:cafe" }, "geometry": { "type": "Point", "coordinates": [ 22.8681029, 37.8895334 ] } },
{ "type": "Feature", "properties": { "element": "node", "id": 2338904852, "historic": "ruins", "amenity": null, "cuisine": null, "wifi": null, "name": "Άγιος Δημήτριος", "name:el": "Άγιος Δημήτριος", "name:en": "Aghios Dimitrios", "name:ru": "Агиос Димитриос", "wheelchair": null, "int_name": null, "tourism": null, "castle_type": null, "fee": null, "historic:civilization": null, "opening_hours": null, "source": null, "wikidata": null, "wikipedia": null, "religion": null, "access": null, "parking": null, "leaf_type": null, "natural": null, "ele": null, "ruin_type": null, "ruins": null, "highway": null, "sac_scale": null, "surface": null, "check_date:surface": null, "barrier": null, "historic:period": null, "building": null, "archaeological_site": null, "fortification_type": null, "name:ca": null, "name:de": null, "name:es": null, "name:fr": null, "name:pl": null, "operator": null, "start_date": null, "wall": null, "man_made": null, "tower": null, "handrail": null, "incline": null, "ramp": null, "step_count": null, "landuse": null, "label": "historic:ruins" }, "geometry": { "type": "Point", "coordinates": [ 22.8484151, 37.8857086 ] } },
{ "type": "Feature", "properties": { "element": "node", "id": 4887559731, "historic": null, "amenity": "toilets", "cuisine": null, "wifi": null, "name": null, "name:el": null, "name:en": null, "name:ru": null, "wheelchair": "yes", "int_name": null, "tourism": null, "castle_type": null, "fee": null, "historic:civilization": null, "opening_hours": null, "source": null, "wikidata": null, "wikipedia": null, "religion": null, "access": null, "parking": null, "leaf_type": null, "natural": null, "ele": null, "ruin_type": null, "ruins": null, "highway": null, "sac_scale": null, "surface": null, "check_date:surface": null, "barrier": null, "historic:period": null, "building": null, "archaeological_site": null, "fortification_type": null, "name:ca": null, "name:de": null, "name:es": null, "name:fr": null, "name:pl": null, "operator": null, "start_date": null, "wall": null, "man_made": null, "tower": null, "handrail": null, "incline": null, "ramp": null, "step_count": null, "landuse": null, "label": "amenity:toilets" }, "geometry": { "type": "Point", "coordinates": [ 22.8682222, 37.8894567 ] } },
{ "type": "Feature", "properties": { "element": "node", "id": 5405053627, "historic": null, "amenity": null, "cuisine": null, "wifi": null, "name": "Ακροκόρινθος", "name:el": null, "name:en": null, "name:ru": null, "wheelchair": null, "int_name": "Acrocorinth", "tourism": "attraction", "castle_type": null, "fee": null, "historic:civilization": null, "opening_hours": null, "source": null, "wikidata": null, "wikipedia": null, "religion": null, "access": null, "parking": null, "leaf_type": null, "natural": null, "ele": null, "ruin_type": null, "ruins": null, "highway": null, "sac_scale": null, "surface": null, "check_date:surface": null, "barrier": null, "historic:period": null, "building": null, "archaeological_site": null, "fortification_type": null, "name:ca": null, "name:de": null, "name:es": null, "name:fr": null, "name:pl": null, "operator": null, "start_date": null, "wall": null, "man_made": null, "tower": null, "handrail": null, "incline": null, "ramp": null, "step_count": null, "landuse": null, "label": "tourism:attraction" }, "geometry": { "type": "Point", "coordinates": [ 22.8696499, 37.8906845 ] } },
{ "type": "Feature", "properties": { "element": "node", "id": 5903955823, "historic": null, "amenity": null, "cuisine": null, "wifi": null, "name": null, "name:el": null, "name:en": null, "name:ru": null, "wheelchair": null, "int_name": null, "tourism": "viewpoint", "castle_type": null, "fee": null, "historic:civilization": null, "opening_hours": null, "source": null, "wikidata": null, "wikipedia": null, "religion": null, "access": null, "parking": null, "leaf_type": null, "natural": null, "ele": null, "ruin_type": null, "ruins": null, "highway": null, "sac_scale": null, "surface": null, "check_date:surface": null, "barrier": null, "historic:period": null, "building": null, "archaeological_site": null, "fortification_type": null, "name:ca": null, "name:de": null, "name:es": null, "name:fr": null, "name:pl": null, "operator": null, "start_date": null, "wall": null, "man_made": null, "tower": null, "handrail": null, "incline": null, "ramp": null, "step_count": null, "landuse": null, "label": "tourism:viewpoint" }, "geometry": { "type": "Point", "coordinates": [ 22.8712423, 37.8894717 ] } },
{ "type": "Feature", "properties": { "element": "node", "id": 8603647997, "historic": null, "amenity": null, "cuisine": null, "wifi": null, "name": null, "name:el": null, "name:en": null, "name:ru": null, "wheelchair": null, "int_name": null, "tourism": "viewpoint", "castle_type": null, "fee": null, "historic:civilization": null, "opening_hours": null, "source": null, "wikidata": null, "wikipedia": null, "religion": null, "access": null, "parking": null, "leaf_type": null, "natural": null, "ele": null, "ruin_type": null, "ruins": null, "highway": null, "sac_scale": null, "surface": null, "check_date:surface": null, "barrier": null, "historic:period": null, "building": null, "archaeological_site": null, "fortification_type": null, "name:ca": null, "name:de": null, "name:es": null, "name:fr": null, "name:pl": null, "operator": null, "start_date": null, "wall": null, "man_made": null, "tower": null, "handrail": null, "incline": null, "ramp": null, "step_count": null, "landuse": null, "label": "tourism:viewpoint" }, "geometry": { "type": "Point", "coordinates": [ 22.8573569, 37.8835385 ] } },
{ "type": "Feature", "properties": { "element": "node", "id": 8918491883, "historic": "castle", "amenity": null, "cuisine": null, "wifi": null, "name": "Ακροκόρινθος", "name:el": "Ακροκόρινθος", "name:en": "Acrocorinth", "name:ru": null, "wheelchair": null, "int_name": null, "tourism": null, "castle_type": "fortress", "fee": "no", "historic:civilization": "medieval", "opening_hours": "Mo-Su 08:30-15:30", "source": "https://www.kastra.eu/castlegr.php?kastro=acrocorinth", "wikidata": "Q420810", "wikipedia": "el:Ακροκόρινθος", "religion": null, "access": null, "parking": null, "leaf_type": null, "natural": null, "ele": null, "ruin_type": null, "ruins": null, "highway": null, "sac_scale": null, "surface": null, "check_date:surface": null, "barrier": null, "historic:period": null, "building": null, "archaeological_site": null, "fortification_type": null, "name:ca": null, "name:de": null, "name:es": null, "name:fr": null, "name:pl": null, "operator": null, "start_date": null, "wall": null, "man_made": null, "tower": null, "handrail": null, "incline": null, "ramp": null, "step_count": null, "landuse": null, "label": "historic:castle" }, "geometry": { "type": "Point", "coordinates": [ 22.8690521, 37.890077 ] } },
{ "type": "Feature", "properties": { "element": "node", "id": 8918491884, "historic": "castle", "amenity": null, "cuisine": null, "wifi": null, "name": "Καστέλι του Πεντεσκούφι", "name:el": "Καστέλι του Πεντεσκούφι", "name:en": "Castle of Penteskoufi", "name:ru": "замок Пентескуфи", "wheelchair": null, "int_name": null, "tourism": null, "castle_type": "castle", "fee": null, "historic:civilization": "medieval", "opening_hours": null, "source": "https://www.kastra.eu/castlegr.php?kastro=penteskouf", "wikidata": "Q38280817", "wikipedia": "de:Penteskouphi", "religion": null, "access": null, "parking": null, "leaf_type": null, "natural": null, "ele": null, "ruin_type": null, "ruins": null, "highway": null, "sac_scale": null, "surface": null, "check_date:surface": null, "barrier": null, "historic:period": null, "building": null, "archaeological_site": null, "fortification_type": null, "name:ca": null, "name:de": null, "name:es": null, "name:fr": null, "name:pl": null, "operator": null, "start_date": null, "wall": null, "man_made": null, "tower": null, "handrail": null, "incline": null, "ramp": null, "step_count": null, "landuse": null, "label": "historic:castle" }, "geometry": { "type": "Point", "coordinates": [ 22.8574628, 37.88358 ] } },
{ "type": "Feature", "properties": { "element": "node", "id": 10610413168, "historic": null, "amenity": "place_of_worship", "cuisine": null, "wifi": null, "name": "Αγιος Ιωάννης Θεολόγος", "name:el": null, "name:en": null, "name:ru": null, "wheelchair": null, "int_name": null, "tourism": null, "castle_type": null, "fee": null, "historic:civilization": null, "opening_hours": null, "source": null, "wikidata": null, "wikipedia": null, "religion": "christian", "access": null, "parking": null, "leaf_type": null, "natural": null, "ele": null, "ruin_type": null, "ruins": null, "highway": null, "sac_scale": null, "surface": null, "check_date:surface": null, "barrier": null, "historic:period": null, "building": null, "archaeological_site": null, "fortification_type": null, "name:ca": null, "name:de": null, "name:es": null, "name:fr": null, "name:pl": null, "operator": null, "start_date": null, "wall": null, "man_made": null, "tower": null, "handrail": null, "incline": null, "ramp": null, "step_count": null, "landuse": null, "label": "amenity:place_of_worship" }, "geometry": { "type": "Point", "coordinates": [ 22.8559818, 37.8751733 ] } },
{ "type": "Feature", "properties": { "element": "node", "id": 11940358269, "historic": null, "amenity": "parking", "cuisine": null, "wifi": null, "name": null, "name:el": null, "name:en": null, "name:ru": null, "wheelchair": null, "int_name": null, "tourism": null, "castle_type": null, "fee": "no", "historic:civilization": null, "opening_hours": null, "source": null, "wikidata": null, "wikipedia": null, "religion": null, "access": "yes", "parking": "surface", "leaf_type": null, "natural": null, "ele": null, "ruin_type": null, "ruins": null, "highway": null, "sac_scale": null, "surface": null, "check_date:surface": null, "barrier": null, "historic:period": null, "building": null, "archaeological_site": null, "fortification_type": null, "name:ca": null, "name:de": null, "name:es": null, "name:fr": null, "name:pl": null, "operator": null, "start_date": null, "wall": null, "man_made": null, "tower": null, "handrail": null, "incline": null, "ramp": null, "step_count": null, "landuse": null, "label": "amenity:parking" }, "geometry": { "type": "Point", "coordinates": [ 22.8682783, 37.8892667 ] } }
]
}
