{
"type": "FeatureCollection",
"name": "patch_79678_polygon",
"crs": { "type": "name", "properties": { "name": "urn:ogc:def:crs:OGC:1.3:CRS84" } },
"features": [
{ "type": "Feature", "properties": { "@type": "way", "@id": 98737772, "amenity": null, "board_type": null, "boundary": null, "brand": null, "brand:wikidata": null, "bridge": null, "building": null, "bus": null, "demolished:highway": null, "destination:backward": null, "destination:forward": null, "direction": null, "generator:method": null, "generator:output:electricity": null, "generator:source": null, "generator:type": null, "highway": null, "historic": null, "information": null, "int_name": null, "intermittent": null, "landuse": "residential", "lanes": null, "layer": null, "leaf_type": null, "leisure": null, "maxspeed": null, "name": null, "name:de": null, "name:el": null, "name:en": null, "name:ru": null, "natural": null, "oneway": null, "operator": null, "place": null, "power": null, "public_transport": null, "reg_ref": null, "service": null, "shop": null, "source": "Bing", "source:reg_ref": null, "sport": null, "surface": null, "tourism": null, "waterway": null, "wikidata": null, "wikipedia": null, "label": "landuse:residential" }, "geometry": { "type": "Polygon", "coordinates": [ [ [ 24.4858245, 35.2879382 ], [ 24.4864332, 35.2882065 ], [ 24.4869202, 35.2880773 ], [ 24.4874681, 35.2880972 ], [ 24.4881742, 35.2875805 ], [ 24.488162, 35.2872227 ], [ 24.4884908, 35.2867954 ], [ 24.4889656, 35.2868351 ], [ 24.4890021, 35.286368 ], [ 24.4886247, 35.2859904 ], [ 24.4878942, 35.2859804 ], [ 24.4874924, 35.2864078 ], [ 24.4868593, 35.2867258 ], [ 24.4859219, 35.2867755 ], [ 24.4859828, 35.2872624 ], [ 24.4855323, 35.2873817 ], [ 24.4853984, 35.2875904 ], [ 24.4858245, 35.2879382 ] ] ] } },
{ "type": "Feature", "properties": { "@type": "way", "@id": 103857330, "amenity": null, "board_type": null, "boundary": null, "brand": null, "brand:wikidata": null, "bridge": null, "building": null, "bus": null, "demolished:highway": null, "destination:backward": null, "destination:forward": null, "direction": null, "generator:method": null, "generator:output:electricity": null, "generator:source": null, "generator:type": null, "highway": null, "historic": null, "information": null, "int_name": null, "intermittent": null, "landuse": "residential", "lanes": null, "layer": null, "leaf_type": null, "leisure": null, "maxspeed": null, "name": null, "name:de": null, "name:el": null, "name:en": null, "name:ru": null, "natural": null, "oneway": null, "operator": null, "place": null, "power": null, "public_transport": null, "reg_ref": null, "service": null, "shop": null, "source": "Bing", "source:reg_ref": null, "sport": null, "surface": null, "tourism": null, "waterway": null, "wikidata": null, "wikipedia": null, "label": "landuse:residential" }, "geometry": { "type": "Polygon", "coordinates": [ [ [ 24.4825126, 35.279104 ], [ 24.482702, 35.2793359 ], [ 24.4824495, 35.2797138 ], [ 24.4821549, 35.279834 ], [ 24.4821233, 35.2801776 ], [ 24.481955, 35.2808303 ], [ 24.4819129, 35.2813198 ], [ 24.4824916, 35.2814744 ], [ 24.4829334, 35.2815174 ], [ 24.4833438, 35.2811996 ], [ 24.4831965, 35.2805812 ], [ 24.4833122, 35.2801003 ], [ 24.483712, 35.2797739 ], [ 24.4839119, 35.279688 ], [ 24.4839119, 35.2792757 ], [ 24.483609121566936, 35.278974540222059 ], [ 24.482591873391382, 35.278974540222059 ], [ 24.4825126, 35.279104 ] ] ] } },
{ "type": "Feature", "properties": { "@type": "way", "@id": 136906936, "amenity": null, "board_type": null, "boundary": null, "brand": null, "brand:wikidata": null, "bridge": null, "building": null, "bus": null, "demolished:highway": null, "destination:backward": null, "destination:forward": null, "direction": null, "generator:method": null, "generator:output:electricity": null, "generator:source": null, "generator:type": null, "highway": null, "historic": null, "information": null, "int_name": null, "intermittent": null, "landuse": null, "lanes": null, "layer": null, "leaf_type": "broadleaved", "leisure": null, "maxspeed": null, "name": null, "name:de": null, "name:el": null, "name:en": null, "name:ru": null, "natural": "wood", "oneway": null, "operator": null, "place": null, "power": null, "public_transport": null, "reg_ref": null, "service": null, "shop": null, "source": "http://geodata.gov.gr/", "source:reg_ref": null, "sport": null, "surface": null, "tourism": null, "waterway": null, "wikidata": null, "wikipedia": null, "label": "natural:wood" }, "geometry": { "type": "Polygon", "coordinates": [ [ [ 24.462057, 35.287407 ], [ 24.461980813756284, 35.287533706908874 ], [ 24.461980813756284, 35.291763545296845 ], [ 24.462319, 35.291409 ], [ 24.462506, 35.291351 ], [ 24.462763, 35.291408 ], [ 24.463114, 35.291483 ], [ 24.463348, 35.291482 ], [ 24.463557, 35.291347 ], [ 24.463626, 35.291175 ], [ 24.463602, 35.290983 ], [ 24.463435, 35.290715 ], [ 24.463494, 35.290591 ], [ 24.463751, 35.2906 ], [ 24.46408, 35.290793 ], [ 24.464319, 35.291071 ], [ 24.464561, 35.29076 ], [ 24.464821, 35.290506 ], [ 24.465081, 35.290222 ], [ 24.465104, 35.290037 ], [ 24.464935, 35.289706 ], [ 24.464923, 35.289521 ], [ 24.464916, 35.289304 ], [ 24.465027, 35.289052 ], [ 24.465264, 35.288915 ], [ 24.465466, 35.288885 ], [ 24.465608, 35.288836 ], [ 24.46557, 35.288702 ], [ 24.465598, 35.288245 ], [ 24.465663, 35.288007 ], [ 24.465843, 35.287924 ], [ 24.466126, 35.287918 ], [ 24.466351, 35.287858 ], [ 24.466524, 35.28761 ], [ 24.46672, 35.287358 ], [ 24.466095, 35.28669 ], [ 24.465925, 35.286066 ], [ 24.466051, 35.285698 ], [ 24.466158, 35.28513 ], [ 24.466067, 35.284599 ], [ 24.466006, 35.284141 ], [ 24.465578, 35.283602 ], [ 24.465262, 35.282892 ], [ 24.465368, 35.282271 ], [ 24.466258, 35.279773 ], [ 24.46691169653208, 35.278974540222059 ], [ 24.46543279967155, 35.278974540222059 ], [ 24.465433, 35.279011 ], [ 24.465531, 35.279557 ], [ 24.465391, 35.280064 ], [ 24.465109, 35.280572 ], [ 24.46497, 35.281235 ], [ 24.464439, 35.282005 ], [ 24.464204, 35.282271 ], [ 24.462652, 35.283194 ], [ 24.46213, 35.283469 ], [ 24.461980813756284, 35.283622922314947 ], [ 24.461980813756284, 35.284286521942846 ], [ 24.461992, 35.284327 ], [ 24.462137, 35.284716 ], [ 24.462139, 35.285106 ], [ 24.461980813756284, 35.285476607770995 ], [ 24.461980813756284, 35.287120644808098 ], [ 24.462057, 35.287407 ] ] ] } },
{ "type": "Feature", "properties": { "@type": "way", "@id": 138271001, "amenity": null, "board_type": "wildlife", "boundary": "protected_area", "brand": null, "brand:wikidata": null, "bridge": null, "building": null, "bus": null, "demolished:highway": null, "destination:backward": null, "destination:forward": null, "direction": null, "generator:method": null, "generator:output:electricity": null, "generator:source": null, "generator:type": null, "highway": null, "historic": null, "information": "board", "int_name": null, "intermittent": null, "landuse": null, "lanes": null, "layer": null, "leaf_type": null, "leisure": "nature_reserve", "maxspeed": null, "name": "Βρύσινα, Πρασσανό Φαράγγι Δήμου Ρεθύμνης", "name:de": null, "name:el": null, "name:en": "Vryssina, Prassano Gorge of Rethymno Municipality", "name:ru": null, "natural": null, "oneway": null, "operator": null, "place": null, "power": null, "public_transport": null, "reg_ref": null, "service": null, "shop": null, "source": "http://geodata.gov.gr/", "source:reg_ref": null, "sport": null, "surface": null, "tourism": "information", "waterway": null, "wikidata": null, "wikipedia": null, "label": "tourism:information;leisure:nature_reserve" }, "geometry": { "type": "Polygon", "coordinates": [ [ [ 24.4880786, 35.2916011 ], [ 24.4851877, 35.2915281 ], [ 24.4823023, 35.292386 ], [ 24.4813772, 35.2930668 ], [ 24.480702089003149, 35.302622976420352 ], [ 24.489391278815337, 35.302622976420352 ], [ 24.489391278815337, 35.291518875863247 ], [ 24.4880786, 35.2916011 ] ] ] } },
{ "type": "Feature", "properties": { "@type": "way", "@id": 295872786, "amenity": null, "board_type": null, "boundary": null, "brand": null, "brand:wikidata": null, "bridge": null, "building": null, "bus": null, "demolished:highway": null, "destination:backward": null, "destination:forward": null, "direction": null, "generator:method": null, "generator:output:electricity": null, "generator:source": null, "generator:type": null, "highway": null, "historic": null, "information": null, "int_name": null, "intermittent": null, "landuse": null, "lanes": null, "layer": null, "leaf_type": null, "leisure": "pitch", "maxspeed": null, "name": null, "name:de": null, "name:el": null, "name:en": null, "name:ru": null, "natural": null, "oneway": null, "operator": null, "place": null, "power": null, "public_transport": null, "reg_ref": null, "service": null, "shop": null, "source": null, "source:reg_ref": null, "sport": "soccer", "surface": null, "tourism": null, "waterway": null, "wikidata": null, "wikipedia": null, "label": "sport:soccer;leisure:pitch" }, "geometry": { "type": "Polygon", "coordinates": [ [ [ 24.4622819, 35.2996599 ], [ 24.4626466, 35.2991761 ], [ 24.461980813756284, 35.298849464526171 ], [ 24.461980813756284, 35.299512872546401 ], [ 24.4622819, 35.2996599 ] ] ] } },
{ "type": "Feature", "properties": { "@type": "way", "@id": 557102306, "amenity": null, "board_type": null, "boundary": null, "brand": null, "brand:wikidata": null, "bridge": null, "building": null, "bus": null, "demolished:highway": null, "destination:backward": null, "destination:forward": null, "direction": null, "generator:method": null, "generator:output:electricity": null, "generator:source": null, "generator:type": null, "highway": null, "historic": null, "information": null, "int_name": null, "intermittent": null, "landuse": "quarry", "lanes": null, "layer": null, "leaf_type": null, "leisure": null, "maxspeed": null, "name": null, "name:de": null, "name:el": null, "name:en": null, "name:ru": null, "natural": null, "oneway": null, "operator": null, "place": null, "power": null, "public_transport": null, "reg_ref": null, "service": null, "shop": null, "source": null, "source:reg_ref": null, "sport": null, "surface": null, "tourism": null, "waterway": null, "wikidata": null, "wikipedia": null, "label": "landuse:quarry" }, "geometry": { "type": "Polygon", "coordinates": [ [ [ 24.4621668, 35.2952114 ], [ 24.4625305, 35.2952665 ], [ 24.462745, 35.2953716 ], [ 24.4628749, 35.294686 ], [ 24.462789, 35.2943182 ], [ 24.462789, 35.2938803 ], [ 24.463068, 35.2939329 ], [ 24.4632182, 35.2943707 ], [ 24.4635615, 35.2946159 ], [ 24.4639263, 35.2946684 ], [ 24.4641613, 35.2949163 ], [ 24.464098, 35.2951763 ], [ 24.4637106, 35.2954767 ], [ 24.4637106, 35.295827 ], [ 24.4639896, 35.2960546 ], [ 24.4643329, 35.2962473 ], [ 24.4647846, 35.2964198 ], [ 24.4651494, 35.2964198 ], [ 24.4656858, 35.2961571 ], [ 24.4662652, 35.2958243 ], [ 24.46663, 35.2954916 ], [ 24.467101, 35.295284 ], [ 24.4667158, 35.2948436 ], [ 24.4664368, 35.2945283 ], [ 24.4661364, 35.2942306 ], [ 24.4656215, 35.2941255 ], [ 24.465321, 35.2936877 ], [ 24.4649133, 35.2932148 ], [ 24.4642696, 35.2932148 ], [ 24.4633244, 35.2931123 ], [ 24.4626807, 35.2930073 ], [ 24.4621024, 35.2930046 ], [ 24.461980813756284, 35.293029411041083 ], [ 24.461980813756284, 35.295229053474635 ], [ 24.4621668, 35.2952114 ] ] ] } },
{ "type": "Feature", "properties": { "@type": "way", "@id": 1070802429, "amenity": null, "board_type": null, "boundary": null, "brand": null, "brand:wikidata": null, "bridge": null, "building": "roof", "bus": null, "demolished:highway": null, "destination:backward": null, "destination:forward": null, "direction": null, "generator:method": null, "generator:output:electricity": null, "generator:source": null, "generator:type": null, "highway": null, "historic": null, "information": null, "int_name": null, "intermittent": null, "landuse": null, "lanes": null, "layer": "1", "leaf_type": null, "leisure": null, "maxspeed": null, "name": null, "name:de": null, "name:el": null, "name:en": null, "name:ru": null, "natural": null, "oneway": null, "operator": null, "place": null, "power": null, "public_transport": null, "reg_ref": null, "service": null, "shop": null, "source": null, "source:reg_ref": null, "sport": null, "surface": null, "tourism": null, "waterway": null, "wikidata": null, "wikipedia": null, "label": "building:roof" }, "geometry": { "type": "Polygon", "coordinates": [ [ [ 24.4701066, 35.287193 ], [ 24.4701482, 35.2870783 ], [ 24.4700139, 35.2870459 ], [ 24.4699723, 35.2871606 ], [ 24.4701066, 35.287193 ] ] ] } }
]
}
