{
"type": "FeatureCollection",
"name": "patch_79678_linestring",
"crs": { "type": "name", "properties": { "name": "urn:ogc:def:crs:OGC:1.3:CRS84" } },
"features": [
{ "type": "Feature", "properties": { "@type": "way", "@id": 103664210, "amenity": null, "board_type": null, "boundary": null, "brand": null, "brand:wikidata": null, "bridge": null, "building": null, "bus": null, "demolished:highway": null, "destination:backward": null, "destination:forward": null, "direction": null, "generator:method": null, "generator:output:electricity": null, "generator:source": null, "generator:type": null, "highway": null, "historic": null, "information": null, "int_name": null, "intermittent": "yes", "landuse": null, "lanes": null, "layer": null, "leaf_type": null, "leisure": null, "maxspeed": null, "name": null, "name:de": null, "name:el": null, "name:en": "Potamida", "name:ru": null, "natural": null, "oneway": null, "operator": null, "place": null, "power": null, "public_transport": null, "reg_ref": null, "service": null, "shop": null, "source": "Bing", "source:reg_ref": null, "sport": null, "surface": null, "tourism": null, "waterway": "stream", "wikidata": null, "wikipedia": null, "label": "waterway:stream" }, "geometry": { "type": "LineString", "coordinates": [ [ 24.489391278815337, 35.290735039281195 ], [ 24.489388, 35.2907351 ], [ 24.4890745, 35.2902745 ], [ 24.488546, 35.2904207 ], [ 24.4882862, 35.2907497 ], [ 24.4875157, 35.2907424 ], [ 24.4865751, 35.2908229 ], [ 24.4860018, 35.2909764 ], [ 24.4849089, 35.2911665 ], [ 24.4842459, 35.2910495 ], [ 24.483592, 35.2910057 ], [ 24.4827051, 35.2908229 ], [ 24.4822393, 35.2910569 ], [ 24.481657, 35.2914225 ], [ 24.4812717, 35.2916126 ], [ 24.4804117, 35.2915979 ], [ 24.4801901, 35.2915453 ], [ 24.4798173, 35.2915507 ], [ 24.4796274, 35.2916388 ], [ 24.479253, 35.2917552 ], [ 24.4786737, 35.2916825 ], [ 24.4781992, 35.2917199 ], [ 24.477711, 35.2917116 ], [ 24.477383, 35.2914394 ], [ 24.4769007, 35.2913224 ], [ 24.4765344, 35.2911877 ], [ 24.4761065, 35.2908385 ], [ 24.4752813, 35.2907135 ], [ 24.4743684, 35.2904747 ], [ 24.4739048, 35.2904238 ], [ 24.4734993, 35.2906366 ], [ 24.4732951, 35.2906689 ], [ 24.4730571, 35.2906043 ], [ 24.472614, 35.2905206 ], [ 24.4722011, 35.2905409 ], [ 24.471676, 35.2906115 ], [ 24.4714034, 35.2907151 ], [ 24.47127, 35.2907369 ], [ 24.4710281, 35.2907185 ], [ 24.4708569, 35.2907896 ], [ 24.4705702, 35.2910224 ], [ 24.470363, 35.2911569 ], [ 24.4700427, 35.2912917 ], [ 24.4697866, 35.2913279 ], [ 24.4695024, 35.2913518 ], [ 24.4691093, 35.2917479 ], [ 24.4687706, 35.29233 ], [ 24.468209, 35.2926574 ], [ 24.4675583, 35.2926865 ], [ 24.4673801, 35.2925628 ], [ 24.4668007, 35.2926501 ], [ 24.466248, 35.2929266 ], [ 24.465838, 35.2930575 ], [ 24.4652051, 35.2927592 ], [ 24.4646614, 35.2925992 ], [ 24.4639305, 35.2926064 ], [ 24.4632263, 35.2925992 ], [ 24.4626291, 35.2923663 ], [ 24.461980813756284, 35.292295798264895 ] ] } }
]
}
