{
"type": "FeatureCollection",
"name": "patch_79678_point",
"crs": { "type": "name", "properties": { "name": "urn:ogc:def:crs:OGC:1.3:CRS84" } },
"features": [
{ "type": "Feature", "properties": { "@type": "node", "@id": 1293746595, "amenity": "fuel", "board_type": null, "boundary": null, "brand": "Shell", "brand:wikidata": "Q110716465", "bridge": null, "building": null, "bus": null, "demolished:highway": null, "destination:backward": null, "destination:forward": null, "direction": null, "generator:method": null, "generator:output:electricity": null, "generator:source": null, "generator:type": null, "highway": null, "historic": null, "information": null, "int_name": null, "intermittent": null, "landuse": null, "lanes": null, "layer": null, "leaf_type": null, "leisure": null, "maxspeed": null, "name": "SHELL", "name:de": null, "name:el": null, "name:en": null, "name:ru": null, "natural": null, "oneway": null, "operator": "ΕΡΜΗΣ ΑΕΜΕΕ ΥΠ/ΜΑ ΑΡΜΕΝΟΙ ΡΕΘΥΜΝΟΥ", "place": null, "power": null, "public_transport": null, "reg_ref": null, "service": null, "shop": null, "source": null, "source:reg_ref": null, "sport": null, "surface": null, "tourism": null, "waterway": null, "wikidata": null, "wikipedia": null, "label": "amenity:fuel" }, "geometry": { "type": "Point", "coordinates": [ 24.4700662, 35.2871046 ] } },
{ "type": "Feature", "properties": { "@type": "node", "@id": 2967935880, "amenity": null, "board_type": null, "boundary": null, "brand": null, "brand:wikidata": null, "bridge": null, "building": null, "bus": null, "demolished:highway": null, "destination:backward": null, "destination:forward": null, "direction": null, "generator:method": null, "generator:output:electricity": null, "generator:source": null, "generator:type": null, "highway": null, "historic": "wayside_shrine", "information": null, "int_name": null, "intermittent": null, "landuse": null, "lanes": null, "layer": null, "leaf_type": null, "leisure": null, "maxspeed": null, "name": null, "name:de": null, "name:el": null, "name:en": null, "name:ru": null, "natural": null, "oneway": null, "operator": null, "place": null, "power": null, "public_transport": null, "reg_ref": null, "service": null, "shop": null, "source": null, "source:reg_ref": null, "sport": null, "surface": null, "tourism": null, "waterway": null, "wikidata": null, "wikipedia": null, "label": "historic:wayside_shrine" }, "geometry": { "type": "Point", "coordinates": [ 24.4640828, 35.2995966 ] } },
{ "type": "Feature", "properties": { "@type": "node", "@id": 2967935881, "amenity": null, "board_type": null, "boundary": null, "brand": null, "brand:wikidata": null, "bridge": null, "building": null, "bus": null, "demolished:highway": null, "destination:backward": null, "destination:forward": null, "direction": null, "generator:method": null, "generator:output:electricity": null, "generator:source": null, "generator:type": null, "highway": null, "historic": "wayside_shrine", "information": null, "int_name": null, "intermittent": null, "landuse": null, "lanes": null, "layer": null, "leaf_type": null, "leisure": null, "maxspeed": null, "name": null, "name:de": null, "name:el": null, "name:en": null, "name:ru": null, "natural": null, "oneway": null, "operator": null, "place": null, "power": null, "public_transport": null, "reg_ref": null, "service": null, "shop": null, "source": null, "source:reg_ref": null, "sport": null, "surface": null, "tourism": null, "waterway": null, "wikidata": null, "wikipedia": null, "label": "historic:wayside_shrine" }, "geometry": { "type": "Point", "coordinates": [ 24.4698908, 35.2863277 ] } },
{ "type": "Feature", "properties": { "@type": "node", "@id": 6871564986, "amenity": null, "board_type": null, "boundary": null, "brand": null, "brand:wikidata": null, "bridge": null, "building": null, "bus": null, "demolished:highway": null, "destination:backward": null, "destination:forward": null, "direction": null, "generator:method": null, "generator:output:electricity": null, "generator:source": null, "generator:type": null, "highway": null, "historic": null, "information": null, "int_name": null, "intermittent": null, "landuse": null, "lanes": null, "layer": null, "leaf_type": null, "leisure": null, "maxspeed": null, "name": "Brink’s Brewery", "name:de": null, "name:el": null, "name:en": null, "name:ru": null, "natural": null, "oneway": null, "operator": null, "place": null, "power": null, "public_transport": null, "reg_ref": null, "service": null, "shop": "beverages", "source": null, "source:reg_ref": null, "sport": null, "surface": null, "tourism": null, "waterway": null, "wikidata": null, "wikipedia": null, "label": "shop:beverages" }, "geometry": { "type": "Point", "coordinates": [ 24.4690281, 35.2902491 ] } }
]
}
