{
"type": "FeatureCollection",
"name": "patch_68540_features",
"crs": { "type": "name", "properties": { "name": "urn:ogc:def:crs:OGC:1.3:CRS84" } },
"features": [
{ "type": "Feature", "properties": { "osm_id": 136247404, "name": null, "label": "natural:wood", "natural": "wood" }, "geometry": { "type": "MultiPolygon", "coordinates": [ [ [ [ 23.220657, 38.890392000110012 ], [ 23.221717, 38.890399000110023 ], [ 23.221881, 38.89076400011006 ], [ 23.221584, 38.890935000110083 ], [ 23.220954, 38.891018000110122 ], [ 23.22025, 38.8910130001101 ], [ 23.220069162756598, 38.891006710120337 ], [ 23.220069162756598, 38.89386501761642 ], [ 23.220525, 38.894061000110547 ], [ 23.221425, 38.894369000110594 ], [ 23.222196, 38.89462600011062 ], [ 23.222839, 38.894832000110668 ], [ 23.223378, 38.894798000110654 ], [ 23.224281, 38.894336000110584 ], [ 23.224754, 38.89407100011055 ], [ 23.2250151, 38.893888700110516 ], [ 23.225228, 38.893740000110505 ], [ 23.225785, 38.893644000110484 ], [ 23.226211, 38.893747000110494 ], [ 23.226381, 38.893915000110525 ], [ 23.226593, 38.89408400011056 ], [ 23.226847, 38.894319000110592 ], [ 23.22723, 38.894422000110595 ], [ 23.227615, 38.894491000110605 ], [ 23.228469, 38.894531000110611 ], [ 23.228809, 38.894733000110634 ], [ 23.22885, 38.894901000110664 ], [ 23.228718, 38.895234000110719 ], [ 23.22863, 38.895467000110756 ], [ 23.22867, 38.895735000110776 ], [ 23.229139, 38.895872000110806 ], [ 23.229439, 38.895807000110786 ], [ 23.229525, 38.895741000110789 ], [ 23.229719, 38.895540000110749 ], [ 23.230261, 38.895349000110734 ], [ 23.230768, 38.895515000110763 ], [ 23.231236, 38.89571800011079 ], [ 23.231749, 38.895755000110796 ], [ 23.231921, 38.895656000110769 ], [ 23.231967, 38.895356000110738 ], [ 23.231799, 38.895054000110697 ], [ 23.231374, 38.894817000110656 ], [ 23.230694, 38.894445000110593 ], [ 23.230272, 38.893907000110516 ], [ 23.229979, 38.893337000110435 ], [ 23.229601, 38.892700000110352 ], [ 23.229265, 38.892163000110266 ], [ 23.228971, 38.8916600001102 ], [ 23.228505, 38.891222000110133 ], [ 23.227093, 38.891313000110145 ], [ 23.22666, 38.891778000110222 ], [ 23.226102, 38.89197500011025 ], [ 23.22516, 38.892169000110272 ], [ 23.224818, 38.892100000110254 ], [ 23.224735, 38.89186600011022 ], [ 23.224782, 38.891532000110175 ], [ 23.224954, 38.891433000110169 ], [ 23.225428, 38.891068000110124 ], [ 23.225773, 38.890837000110075 ], [ 23.226031, 38.89070500011006 ], [ 23.226674, 38.890542000110038 ], [ 23.227102, 38.890478000110022 ], [ 23.227574, 38.890381000110011 ], [ 23.228004, 38.890150000109976 ], [ 23.228218, 38.890084000109972 ], [ 23.228261, 38.890085000109977 ], [ 23.228858, 38.890189000109991 ], [ 23.229327, 38.890326000110008 ], [ 23.22992, 38.890831000110069 ], [ 23.230085, 38.891433000110169 ], [ 23.230337, 38.891836000110217 ], [ 23.23042, 38.892104000110265 ], [ 23.230588, 38.892406000110313 ], [ 23.23118, 38.893011000110391 ], [ 23.23169, 38.893248000110432 ], [ 23.232202, 38.893386000110453 ], [ 23.232664, 38.893334000110443 ], [ 23.233116, 38.893337000110435 ], [ 23.233441, 38.893137000110414 ], [ 23.233899, 38.892485000110327 ], [ 23.234098, 38.892032000110255 ], [ 23.234429, 38.891278000110134 ], [ 23.23456, 38.891077000110116 ], [ 23.23476, 38.890473000110028 ], [ 23.234766, 38.889919000109948 ], [ 23.234644, 38.889262000109838 ], [ 23.234263, 38.888655000109765 ], [ 23.233693, 38.887693000109621 ], [ 23.233105, 38.886572000109467 ], [ 23.231915, 38.886597000109468 ], [ 23.2301, 38.887857000109648 ], [ 23.229373, 38.888416000109721 ], [ 23.228769, 38.888694000109759 ], [ 23.228044, 38.889064000109833 ], [ 23.226959, 38.889339000109864 ], [ 23.226417, 38.88947600010988 ], [ 23.225513, 38.889705000109906 ], [ 23.224671, 38.889794000109937 ], [ 23.224189, 38.889837000109935 ], [ 23.22389, 38.889741000109922 ], [ 23.223532, 38.889457000109886 ], [ 23.223536, 38.889129000109826 ], [ 23.222541, 38.888944000109817 ], [ 23.221179, 38.888817000109782 ], [ 23.220069162756598, 38.888809674451451 ], [ 23.220069162756598, 38.890388326127301 ], [ 23.220657, 38.890392000110012 ] ] ], [ [ [ 23.220331, 38.901810000111674 ], [ 23.220735, 38.901613000111652 ], [ 23.220958, 38.901244000111589 ], [ 23.22118, 38.901017000111558 ], [ 23.221474, 38.90082000011153 ], [ 23.221805, 38.900622000111497 ], [ 23.222281, 38.900426000111473 ], [ 23.22305, 38.900231000111432 ], [ 23.223379, 38.900233000111442 ], [ 23.224513, 38.899956000111402 ], [ 23.225282, 38.899761000111376 ], [ 23.225539, 38.899592000111348 ], [ 23.225615, 38.899335000111314 ], [ 23.2254, 38.898992000111264 ], [ 23.225073, 38.898875000111246 ], [ 23.224525, 38.898872000111247 ], [ 23.223466, 38.898865000111243 ], [ 23.222736, 38.898860000111242 ], [ 23.222115, 38.89894100011125 ], [ 23.221202, 38.89896400011127 ], [ 23.220913, 38.898705000111214 ], [ 23.220805, 38.898533000111193 ], [ 23.220881, 38.89824800011116 ], [ 23.221428, 38.898025000111112 ], [ 23.2222, 38.897829000111102 ], [ 23.223442, 38.897723000111078 ], [ 23.224281, 38.897843000111095 ], [ 23.225303, 38.897793000111086 ], [ 23.226763, 38.89783100011109 ], [ 23.228697, 38.897901000111105 ], [ 23.229134, 38.897989000111117 ], [ 23.229498, 38.898077000111122 ], [ 23.229972, 38.898138000111132 ], [ 23.23041, 38.898140000111141 ], [ 23.230849, 38.898029000111116 ], [ 23.231037, 38.897517000111044 ], [ 23.230894, 38.897259000111013 ], [ 23.230677, 38.897058000110988 ], [ 23.230532, 38.896972000110964 ], [ 23.230169, 38.896798000110941 ], [ 23.229586, 38.896737000110939 ], [ 23.228018, 38.896584000110906 ], [ 23.227142, 38.896521000110909 ], [ 23.22634, 38.896459000110887 ], [ 23.225395, 38.896110000110845 ], [ 23.224812, 38.895992000110816 ], [ 23.224373, 38.896075000110841 ], [ 23.224079, 38.89627300011086 ], [ 23.223747, 38.896556000110898 ], [ 23.223344, 38.896667000110924 ], [ 23.222686, 38.89677700011093 ], [ 23.221736, 38.896856000110944 ], [ 23.220422, 38.89684800011095 ], [ 23.220069162756598, 38.896749357534738 ], [ 23.220069162756598, 38.899746176916075 ], [ 23.220133, 38.899926000111392 ], [ 23.220069162756598, 38.899999470678701 ], [ 23.220069162756598, 38.901900960972071 ], [ 23.220331, 38.901810000111674 ] ] ] ] } },
{ "type": "Feature", "properties": { "osm_id": 136245383, "name": null, "label": "natural:wood", "natural": "wood" }, "geometry": { "type": "Polygon", "coordinates": [ [ [ 23.227497, 38.884082000109096 ], [ 23.227793, 38.884460000109137 ], [ 23.227788, 38.884977000109217 ], [ 23.227724, 38.885352000109279 ], [ 23.227595, 38.886102000109389 ], [ 23.22747, 38.886571000109456 ], [ 23.227408, 38.886759000109478 ], [ 23.227286, 38.886899000109509 ], [ 23.226803, 38.887131000109541 ], [ 23.226193, 38.887925000109668 ], [ 23.226011, 38.888159000109681 ], [ 23.225587, 38.888391000109721 ], [ 23.224924, 38.888574000109756 ], [ 23.223536, 38.889129000109826 ], [ 23.223532, 38.889457000109886 ], [ 23.22389, 38.889741000109922 ], [ 23.224189, 38.889837000109935 ], [ 23.224671, 38.889794000109937 ], [ 23.225513, 38.889705000109906 ], [ 23.226417, 38.88947600010988 ], [ 23.226959, 38.889339000109864 ], [ 23.228044, 38.889064000109833 ], [ 23.228769, 38.888694000109759 ], [ 23.229373, 38.888416000109721 ], [ 23.2301, 38.887857000109648 ], [ 23.231915, 38.886597000109468 ], [ 23.233105, 38.886572000109467 ], [ 23.233244, 38.886093000109383 ], [ 23.233245, 38.885999000109372 ], [ 23.233252, 38.885388000109295 ], [ 23.233257, 38.884919000109207 ], [ 23.233743, 38.884405000109155 ], [ 23.234348, 38.884033000109092 ], [ 23.235255, 38.883523000109008 ], [ 23.235247318909945, 38.883444316193454 ], [ 23.227016935458778, 38.883444316193454 ], [ 23.227497, 38.884082000109096 ] ] ] } },
{ "type": "Feature", "properties": { "osm_id": 136247450, "name": null, "label": "natural:wood", "natural": "wood" }, "geometry": { "type": "Polygon", "coordinates": [ [ [ 23.220888, 38.883498000109007 ], [ 23.220699, 38.883844000109072 ], [ 23.220513, 38.883959000109073 ], [ 23.220069162756598, 38.883976331615038 ], [ 23.220069162756598, 38.88758870801945 ], [ 23.220374, 38.887787000109633 ], [ 23.220745, 38.88798600010967 ], [ 23.221451, 38.888105000109682 ], [ 23.222191, 38.888066000109689 ], [ 23.223406, 38.887806000109634 ], [ 23.224035, 38.887640000109606 ], [ 23.224858, 38.887382000109582 ], [ 23.225582, 38.887274000109556 ], [ 23.226803, 38.887131000109541 ], [ 23.227286, 38.886899000109509 ], [ 23.227408, 38.886759000109478 ], [ 23.22747, 38.886571000109456 ], [ 23.227595, 38.886102000109389 ], [ 23.227724, 38.885352000109279 ], [ 23.227788, 38.884977000109217 ], [ 23.227793, 38.884460000109137 ], [ 23.227497, 38.884082000109096 ], [ 23.227016935458778, 38.883444316193454 ], [ 23.220897540254882, 38.883444316193454 ], [ 23.220888, 38.883498000109007 ] ] ] } },
{ "type": "Feature", "properties": { "osm_id": 136247629, "name": null, "label": "natural:wood", "natural": "wood" }, "geometry": { "type": "Polygon", "coordinates": [ [ [ 23.249232, 38.883596000109016 ], [ 23.248266, 38.883865000109061 ], [ 23.24779, 38.884304000109132 ], [ 23.247698, 38.885385000109281 ], [ 23.248045, 38.886450000109441 ], [ 23.249084, 38.886782000109491 ], [ 23.250251, 38.886885000109501 ], [ 23.250289865397807, 38.886888378165473 ], [ 23.250289865397807, 38.883525410389019 ], [ 23.249232, 38.883596000109016 ] ] ] } },
{ "type": "Feature", "properties": { "osm_id": 136247133, "name": null, "label": "natural:wood", "natural": "wood" }, "geometry": { "type": "MultiPolygon", "coordinates": [ [ [ [ 23.227791, 38.905742000112241 ], [ 23.227562, 38.905560000112217 ], [ 23.226837, 38.905496000112215 ], [ 23.225725, 38.905626000112228 ], [ 23.22553147949894, 38.905931271954636 ], [ 23.227869681000332, 38.905931271954636 ], [ 23.227791, 38.905742000112241 ] ] ], [ [ [ 23.249729, 38.897103000110995 ], [ 23.249445, 38.897212000111011 ], [ 23.248087, 38.897442000111035 ], [ 23.24762, 38.897608000111056 ], [ 23.247618, 38.897754000111078 ], [ 23.247896, 38.897925000111101 ], [ 23.248081, 38.897975000111103 ], [ 23.248329, 38.898049000111108 ], [ 23.248451, 38.898220000111159 ], [ 23.248385, 38.898534000111198 ], [ 23.248133, 38.898920000111254 ], [ 23.247789, 38.899233000111302 ], [ 23.246886, 38.899542000111339 ], [ 23.246265, 38.899660000111368 ], [ 23.245736, 38.899777000111378 ], [ 23.245146, 38.899846000111374 ], [ 23.24442, 38.899759000111381 ], [ 23.244093, 38.899499000111341 ], [ 23.244048, 38.899277000111297 ], [ 23.243957, 38.898945000111254 ], [ 23.243774, 38.898465000111173 ], [ 23.243633, 38.898354000111176 ], [ 23.243256, 38.898388000111169 ], [ 23.242833, 38.898668000111215 ], [ 23.242761, 38.899540000111351 ], [ 23.242854, 38.900670000111511 ], [ 23.242895, 38.901504000111629 ], [ 23.242706, 38.901793000111653 ], [ 23.242228, 38.901882000111677 ], [ 23.241616, 38.901841000111673 ], [ 23.241297, 38.901627000111638 ], [ 23.241297, 38.900770000111521 ], [ 23.241306, 38.899960000111406 ], [ 23.241312, 38.899370000111311 ], [ 23.241223, 38.898817000111237 ], [ 23.241135, 38.898264000111162 ], [ 23.240674, 38.897303000111023 ], [ 23.240377, 38.896378000110879 ], [ 23.240077, 38.89594700011083 ], [ 23.239589, 38.895944000110816 ], [ 23.239038, 38.896083000110842 ], [ 23.23879, 38.896463000110899 ], [ 23.238726, 38.89674900011093 ], [ 23.238299, 38.897730000111075 ], [ 23.237925, 38.897945000111108 ], [ 23.236962, 38.898036000111126 ], [ 23.236498, 38.897936000111123 ], [ 23.236159, 38.897740000111078 ], [ 23.235945, 38.897423000111047 ], [ 23.236026, 38.897121000110992 ], [ 23.236183, 38.896904000110958 ], [ 23.236976, 38.896703000110932 ], [ 23.237288, 38.896584000110906 ], [ 23.237693, 38.896369000110894 ], [ 23.237882, 38.896152000110845 ], [ 23.237884, 38.89598200011082 ], [ 23.237763, 38.895666000110786 ], [ 23.237393, 38.895421000110758 ], [ 23.237209, 38.895275000110715 ], [ 23.237121, 38.894789000110663 ], [ 23.23697, 38.894376000110597 ], [ 23.236475, 38.894276000110573 ], [ 23.236195, 38.894420000110607 ], [ 23.236094, 38.895122000110703 ], [ 23.235936, 38.895412000110746 ], [ 23.235779, 38.895580000110783 ], [ 23.2355415, 38.89576300011079 ], [ 23.235435, 38.895845000110796 ], [ 23.235216, 38.896061000110834 ], [ 23.235121, 38.896231000110852 ], [ 23.234791, 38.896652000110933 ], [ 23.234663, 38.897015000110969 ], [ 23.234736, 38.897416000111036 ], [ 23.234823, 38.897925000111101 ], [ 23.235005, 38.898387000111171 ], [ 23.234998, 38.899041000111268 ], [ 23.2349, 38.899428000111328 ], [ 23.234524, 38.899789000111376 ], [ 23.234243, 38.900005000111406 ], [ 23.234238, 38.900466000111486 ], [ 23.234266, 38.900708000111507 ], [ 23.234419, 38.900928000111534 ], [ 23.234912, 38.901222000111588 ], [ 23.235188, 38.901490000111629 ], [ 23.235806, 38.901736000111661 ], [ 23.236363, 38.901837000111669 ], [ 23.236704, 38.90188800011169 ], [ 23.237106, 38.901987000111696 ], [ 23.237414, 38.902183000111727 ], [ 23.237441, 38.902547000111774 ], [ 23.237407, 38.902862000111831 ], [ 23.237342, 38.903104000111853 ], [ 23.237061, 38.903271000111879 ], [ 23.236658, 38.903293000111887 ], [ 23.236162, 38.903241000111883 ], [ 23.23579, 38.903215000111864 ], [ 23.235357, 38.90311500011186 ], [ 23.234862, 38.902990000111842 ], [ 23.234676, 38.902965000111848 ], [ 23.234273, 38.902938000111824 ], [ 23.233466, 38.903030000111833 ], [ 23.233069, 38.903321000111887 ], [ 23.23283, 38.903788000111945 ], [ 23.232491, 38.904066000112003 ], [ 23.231926, 38.904211000112021 ], [ 23.231623, 38.904509000112064 ], [ 23.23149, 38.904981000112116 ], [ 23.231389, 38.905643000112214 ], [ 23.231332183013151, 38.905931271954636 ], [ 23.250289865397807, 38.905931271954636 ], [ 23.250289865397807, 38.905031518118655 ], [ 23.250203, 38.905050000112141 ], [ 23.249876, 38.905048000112146 ], [ 23.249297, 38.904874000112109 ], [ 23.248666, 38.904249000112024 ], [ 23.248548, 38.903707000111943 ], [ 23.24848, 38.903196000111862 ], [ 23.248695, 38.902908000111815 ], [ 23.249358, 38.902578000111781 ], [ 23.250289865397807, 38.902337425655119 ], [ 23.250289865397807, 38.896938844403088 ], [ 23.249729, 38.897103000110995 ] ] ] ] } },
{ "type": "Feature", "properties": { "osm_id": 136246476, "name": null, "label": "natural:wood", "natural": "wood" }, "geometry": { "type": "MultiPolygon", "coordinates": [ [ [ [ 23.242278, 38.883828000109069 ], [ 23.241934, 38.884527000109159 ], [ 23.241704, 38.885007000109226 ], [ 23.241643, 38.885445000109279 ], [ 23.241631, 38.886629000109458 ], [ 23.241679, 38.887331000109576 ], [ 23.241732, 38.887638000109611 ], [ 23.242062, 38.888298000109714 ], [ 23.242117, 38.888342000109716 ], [ 23.242395, 38.888607000109765 ], [ 23.242954, 38.888830000109792 ], [ 23.243683, 38.888834000109796 ], [ 23.244468, 38.888883000109793 ], [ 23.245533, 38.888934000109799 ], [ 23.245756, 38.889067000109826 ], [ 23.245867, 38.889155000109838 ], [ 23.246259, 38.88920200010984 ], [ 23.246597, 38.889116000109816 ], [ 23.246824, 38.888855000109785 ], [ 23.246884, 38.888504000109741 ], [ 23.246885, 38.888329000109721 ], [ 23.246608, 38.888064000109665 ], [ 23.246217, 38.887842000109643 ], [ 23.245939, 38.887621000109604 ], [ 23.245662, 38.887313000109565 ], [ 23.244879, 38.887132000109538 ], [ 23.244484, 38.887349000109573 ], [ 23.24409, 38.887434000109586 ], [ 23.243699, 38.887344000109572 ], [ 23.243534, 38.887036000109518 ], [ 23.243537, 38.88672900010949 ], [ 23.243541, 38.886335000109426 ], [ 23.243493, 38.885545000109317 ], [ 23.243673, 38.88449400010915 ], [ 23.244015, 38.883926000109071 ], [ 23.244353, 38.88379700010907 ], [ 23.244522, 38.883711000109045 ], [ 23.244636, 38.883580000109021 ], [ 23.244680969538738, 38.883444316193454 ], [ 23.242281684851172, 38.883444316193454 ], [ 23.242278, 38.883828000109069 ] ] ], [ [ [ 23.235255, 38.883523000109008 ], [ 23.236025, 38.883523000109008 ], [ 23.236553, 38.883838000109058 ], [ 23.236862, 38.883944000109068 ], [ 23.237038, 38.884049000109094 ], [ 23.237389, 38.884328000109136 ], [ 23.237429, 38.884779000109198 ], [ 23.237205, 38.884985000109225 ], [ 23.237026, 38.885157000109245 ], [ 23.236845, 38.885502000109305 ], [ 23.236842, 38.885778000109354 ], [ 23.236973, 38.885952000109377 ], [ 23.237416, 38.885990000109381 ], [ 23.237858, 38.885993000109373 ], [ 23.23826, 38.885718000109343 ], [ 23.238308, 38.885338000109286 ], [ 23.23829, 38.884957000109232 ], [ 23.238403, 38.884785000109204 ], [ 23.238538, 38.884544000109173 ], [ 23.238763, 38.884199000109128 ], [ 23.238766, 38.883957000109078 ], [ 23.23868, 38.883714000109038 ], [ 23.238372, 38.883539000109032 ], [ 23.238164501138684, 38.883444316193454 ], [ 23.235247318909945, 38.883444316193454 ], [ 23.235255, 38.883523000109008 ] ] ] ] } },
{ "type": "Feature", "properties": { "osm_id": 8840928806, "name": "Δενδράκια", "label": "natural:peak", "natural": "peak" }, "geometry": { "type": "Point", "coordinates": [ 23.2283199, 38.888970000109801 ] } }
]
}
