{
"type": "FeatureCollection",
"name": "patch_88893_features",
"crs": { "type": "name", "properties": { "name": "urn:ogc:def:crs:OGC:1.3:CRS84" } },
"features": [
{ "type": "Feature", "properties": { "@type": "way", "@id": 809391392, "access": null, "admin_level": null, "alt_name": null, "amenity": null, "barrier": null, "boundary": null, "building": null, "denomination": null, "ele": null, "foot": null, "ford": null, "free_flying:site": null, "generator:method": null, "generator:output:electricity": null, "generator:source": null, "generator:type": null, "height": null, "height:hub": null, "highway": null, "intermittent": "yes", "lanes": null, "leisure": null, "man_made": null, "manufacturer": null, "name": null, "name:de": null, "name:el": null, "name:en": null, "name:es": null, "name:fr": null, "name:it": null, "name:la": null, "name:pt": null, "natural": null, "noname": null, "oneway": null, "operator": null, "power": null, "prominence": null, "religion": null, "rotor:diameter": null, "site": null, "smoothness": null, "sport": null, "surface": null, "tourism": null, "tower:type": null, "tracktype": null, "waterway": "stream", "wheelchair": null, "wikidata": null, "wikipedia": null, "label": "waterway:stream" }, "geometry": { "type": "LineString", "coordinates": [ [ 23.2647607, 38.1731879 ], [ 23.2645891, 38.1731373 ], [ 23.2639883, 38.1730446 ], [ 23.2631621, 38.1730446 ], [ 23.2623897, 38.1731373 ], [ 23.2621, 38.173053 ], [ 23.2619176, 38.1726987 ], [ 23.261585, 38.17253 ], [ 23.2607911, 38.1721421 ], [ 23.2605979, 38.1716444 ], [ 23.2602224, 38.1713576 ] ] } },
{ "type": "Feature", "properties": { "@type": "way", "@id": 809391393, "access": null, "admin_level": null, "alt_name": null, "amenity": null, "barrier": null, "boundary": null, "building": null, "denomination": null, "ele": null, "foot": null, "ford": null, "free_flying:site": null, "generator:method": null, "generator:output:electricity": null, "generator:source": null, "generator:type": null, "height": null, "height:hub": null, "highway": null, "intermittent": "yes", "lanes": null, "leisure": null, "man_made": null, "manufacturer": null, "name": null, "name:de": null, "name:el": null, "name:en": null, "name:es": null, "name:fr": null, "name:it": null, "name:la": null, "name:pt": null, "natural": null, "noname": null, "oneway": null, "operator": null, "power": null, "prominence": null, "religion": null, "rotor:diameter": null, "site": null, "smoothness": null, "sport": null, "surface": null, "tourism": null, "tower:type": null, "tracktype": null, "waterway": "stream", "wheelchair": null, "wikidata": null, "wikipedia": null, "label": "waterway:stream" }, "geometry": { "type": "LineString", "coordinates": [ [ 23.2610822, 38.1830562 ], [ 23.2610448, 38.1821311 ], [ 23.2609701, 38.1816613 ], [ 23.2606338, 38.181441 ], [ 23.260335, 38.1810299 ], [ 23.2601668, 38.1806481 ], [ 23.2601108, 38.1800901 ], [ 23.2598119, 38.1795762 ], [ 23.2595878, 38.1792238 ], [ 23.2594196, 38.178842 ], [ 23.2590087, 38.1786217 ], [ 23.2579066, 38.1781225 ], [ 23.2574769, 38.1775645 ], [ 23.2571407, 38.1773295 ], [ 23.2571033, 38.1770211 ], [ 23.2570099, 38.1763016 ], [ 23.2571033, 38.1757142 ], [ 23.2574396, 38.1755233 ], [ 23.2574956, 38.1752884 ], [ 23.2573275, 38.1749506 ], [ 23.2571594, 38.1745394 ], [ 23.2574209, 38.1739373 ], [ 23.2574582, 38.1733646 ], [ 23.2577758, 38.1725276 ], [ 23.2582428, 38.171808 ], [ 23.258934, 38.1711765 ], [ 23.2591394, 38.17078 ], [ 23.2592461, 38.1704804 ], [ 23.2585487, 38.1696454 ], [ 23.25842, 38.1691393 ], [ 23.258302, 38.1687935 ], [ 23.2580016, 38.1685404 ], [ 23.2578192, 38.1681946 ], [ 23.2578943, 38.1676547 ], [ 23.2577548, 38.1673595 ], [ 23.257726941884041, 38.167206215455153 ] ] } },
{ "type": "Feature", "properties": { "@type": "way", "@id": 809391394, "access": null, "admin_level": null, "alt_name": null, "amenity": null, "barrier": null, "boundary": null, "building": null, "denomination": null, "ele": null, "foot": null, "ford": null, "free_flying:site": null, "generator:method": null, "generator:output:electricity": null, "generator:source": null, "generator:type": null, "height": null, "height:hub": null, "highway": null, "intermittent": "yes", "lanes": null, "leisure": null, "man_made": null, "manufacturer": null, "name": null, "name:de": null, "name:el": null, "name:en": null, "name:es": null, "name:fr": null, "name:it": null, "name:la": null, "name:pt": null, "natural": null, "noname": null, "oneway": null, "operator": null, "power": null, "prominence": null, "religion": null, "rotor:diameter": null, "site": null, "smoothness": null, "sport": null, "surface": null, "tourism": null, "tower:type": null, "tracktype": null, "waterway": "stream", "wheelchair": null, "wikidata": null, "wikipedia": null, "label": "waterway:stream" }, "geometry": { "type": "LineString", "coordinates": [ [ 23.2666061, 38.1821701 ], [ 23.2667348, 38.1818749 ], [ 23.2666812, 38.1814448 ], [ 23.266295, 38.1810821 ], [ 23.2662199, 38.1807279 ], [ 23.2661877, 38.1802472 ], [ 23.266252, 38.1796484 ], [ 23.2660804, 38.1793617 ], [ 23.2658122, 38.1791508 ], [ 23.2654796, 38.1788641 ], [ 23.2651041, 38.1783581 ], [ 23.265029, 38.1776327 ], [ 23.2649217, 38.1774472 ], [ 23.2646427, 38.1774219 ], [ 23.2641063, 38.1774725 ], [ 23.2638273, 38.1773713 ], [ 23.263248, 38.1770677 ], [ 23.262733, 38.1767809 ], [ 23.2625828, 38.1765785 ], [ 23.2621858, 38.1765448 ], [ 23.2618961, 38.1764014 ], [ 23.2616923, 38.1761737 ], [ 23.2612417, 38.1758953 ], [ 23.2610378, 38.1753809 ], [ 23.2606838, 38.175111 ], [ 23.2605336, 38.1745712 ], [ 23.2605979, 38.1729265 ], [ 23.2605014, 38.1724541 ], [ 23.2603726, 38.1718722 ], [ 23.2602224, 38.1713576 ], [ 23.259922, 38.1710118 ], [ 23.2595143, 38.1707841 ], [ 23.2592461, 38.1704804 ] ] } },
{ "type": "Feature", "properties": { "@type": "way", "@id": 809391395, "access": null, "admin_level": null, "alt_name": null, "amenity": null, "barrier": null, "boundary": null, "building": null, "denomination": null, "ele": null, "foot": null, "ford": null, "free_flying:site": null, "generator:method": null, "generator:output:electricity": null, "generator:source": null, "generator:type": null, "height": null, "height:hub": null, "highway": null, "intermittent": "yes", "lanes": null, "leisure": null, "man_made": null, "manufacturer": null, "name": null, "name:de": null, "name:el": null, "name:en": null, "name:es": null, "name:fr": null, "name:it": null, "name:la": null, "name:pt": null, "natural": null, "noname": null, "oneway": null, "operator": null, "power": null, "prominence": null, "religion": null, "rotor:diameter": null, "site": null, "smoothness": null, "sport": null, "surface": null, "tourism": null, "tower:type": null, "tracktype": null, "waterway": "stream", "wheelchair": null, "wikidata": null, "wikipedia": null, "label": "waterway:stream" }, "geometry": { "type": "LineString", "coordinates": [ [ 23.2474011, 38.1738208 ], [ 23.2466286, 38.1729267 ], [ 23.2461565, 38.1722351 ], [ 23.2454913, 38.1717796 ], [ 23.2446545, 38.1709868 ], [ 23.244118, 38.1707675 ], [ 23.2436245, 38.1700421 ], [ 23.2425945, 38.1689287 ], [ 23.2418221, 38.1681021 ], [ 23.2403844, 38.1679333 ], [ 23.2395261, 38.1672923 ], [ 23.239241413766624, 38.167206215455153 ] ] } },
{ "type": "Feature", "properties": { "@type": "way", "@id": 809391396, "access": null, "admin_level": null, "alt_name": null, "amenity": null, "barrier": null, "boundary": null, "building": null, "denomination": null, "ele": null, "foot": null, "ford": null, "free_flying:site": null, "generator:method": null, "generator:output:electricity": null, "generator:source": null, "generator:type": null, "height": null, "height:hub": null, "highway": null, "intermittent": "yes", "lanes": null, "leisure": null, "man_made": null, "manufacturer": null, "name": null, "name:de": null, "name:el": null, "name:en": null, "name:es": null, "name:fr": null, "name:it": null, "name:la": null, "name:pt": null, "natural": null, "noname": null, "oneway": null, "operator": null, "power": null, "prominence": null, "religion": null, "rotor:diameter": null, "site": null, "smoothness": null, "sport": null, "surface": null, "tourism": null, "tower:type": null, "tracktype": null, "waterway": "stream", "wheelchair": null, "wikidata": null, "wikipedia": null, "label": "waterway:stream" }, "geometry": { "type": "LineString", "coordinates": [ [ 23.2446545, 38.1709868 ], [ 23.2447808, 38.1705835 ], [ 23.2450898, 38.1699699 ], [ 23.2453175, 38.1692156 ], [ 23.2451386, 38.1686658 ], [ 23.2449272, 38.168295 ], [ 23.244496360782836, 38.167206215455153 ] ] } },
{ "type": "Feature", "properties": { "@type": "way", "@id": 809391407, "access": null, "admin_level": null, "alt_name": null, "amenity": null, "barrier": null, "boundary": null, "building": null, "denomination": null, "ele": null, "foot": null, "ford": null, "free_flying:site": null, "generator:method": null, "generator:output:electricity": null, "generator:source": null, "generator:type": null, "height": null, "height:hub": null, "highway": null, "intermittent": "yes", "lanes": null, "leisure": null, "man_made": null, "manufacturer": null, "name": null, "name:de": null, "name:el": null, "name:en": null, "name:es": null, "name:fr": null, "name:it": null, "name:la": null, "name:pt": null, "natural": null, "noname": null, "oneway": null, "operator": null, "power": null, "prominence": null, "religion": null, "rotor:diameter": null, "site": null, "smoothness": null, "sport": null, "surface": null, "tourism": null, "tower:type": null, "tracktype": null, "waterway": "stream", "wheelchair": null, "wikidata": null, "wikipedia": null, "label": "waterway:stream" }, "geometry": { "type": "LineString", "coordinates": [ [ 23.2388246, 38.1890907 ], [ 23.238452637419144, 38.189255168222836 ] ] } },
{ "type": "Feature", "properties": { "@type": "way", "@id": 809391409, "access": null, "admin_level": null, "alt_name": null, "amenity": null, "barrier": null, "boundary": null, "building": null, "denomination": null, "ele": null, "foot": null, "ford": null, "free_flying:site": null, "generator:method": null, "generator:output:electricity": null, "generator:source": null, "generator:type": null, "height": null, "height:hub": null, "highway": null, "intermittent": "yes", "lanes": null, "leisure": null, "man_made": null, "manufacturer": null, "name": null, "name:de": null, "name:el": null, "name:en": null, "name:es": null, "name:fr": null, "name:it": null, "name:la": null, "name:pt": null, "natural": null, "noname": null, "oneway": null, "operator": null, "power": null, "prominence": null, "religion": null, "rotor:diameter": null, "site": null, "smoothness": null, "sport": null, "surface": null, "tourism": null, "tower:type": null, "tracktype": null, "waterway": "stream", "wheelchair": null, "wikidata": null, "wikipedia": null, "label": "waterway:stream" }, "geometry": { "type": "LineString", "coordinates": [ [ 23.2617233, 38.1848585 ], [ 23.2622463, 38.1856513 ], [ 23.2633858, 38.1861505 ], [ 23.2637407, 38.1866497 ], [ 23.2638341, 38.1875747 ], [ 23.2640956, 38.1882061 ], [ 23.2642077, 38.1889989 ], [ 23.263879101787218, 38.189699903936464 ] ] } },
{ "type": "Feature", "properties": { "@type": "way", "@id": 809391411, "access": null, "admin_level": null, "alt_name": null, "amenity": null, "barrier": null, "boundary": null, "building": null, "denomination": null, "ele": null, "foot": null, "ford": null, "free_flying:site": null, "generator:method": null, "generator:output:electricity": null, "generator:source": null, "generator:type": null, "height": null, "height:hub": null, "highway": null, "intermittent": "yes", "lanes": null, "leisure": null, "man_made": null, "manufacturer": null, "name": null, "name:de": null, "name:el": null, "name:en": null, "name:es": null, "name:fr": null, "name:it": null, "name:la": null, "name:pt": null, "natural": null, "noname": null, "oneway": null, "operator": null, "power": null, "prominence": null, "religion": null, "rotor:diameter": null, "site": null, "smoothness": null, "sport": null, "surface": null, "tourism": null, "tower:type": null, "tracktype": null, "waterway": "stream", "wheelchair": null, "wikidata": null, "wikipedia": null, "label": "waterway:stream" }, "geometry": { "type": "LineString", "coordinates": [ [ 23.2675656, 38.1893699 ], [ 23.268245714151583, 38.189699903936464 ] ] } },
{ "type": "Feature", "properties": { "@type": "node", "@id": 8733492157, "access": null, "admin_level": null, "alt_name": "Kithairón Óros", "amenity": null, "barrier": null, "boundary": null, "building": null, "denomination": null, "ele": "1409", "foot": null, "ford": null, "free_flying:site": null, "generator:method": null, "generator:output:electricity": null, "generator:source": null, "generator:type": null, "height": null, "height:hub": null, "highway": null, "intermittent": null, "lanes": null, "leisure": null, "man_made": "survey_point", "manufacturer": null, "name": "Ελατιάς", "name:de": null, "name:el": null, "name:en": null, "name:es": null, "name:fr": null, "name:it": null, "name:la": null, "name:pt": null, "natural": "peak", "noname": null, "oneway": null, "operator": null, "power": null, "prominence": "827", "religion": null, "rotor:diameter": null, "site": null, "smoothness": null, "sport": null, "surface": null, "tourism": null, "tower:type": null, "tracktype": null, "waterway": null, "wheelchair": null, "wikidata": null, "wikipedia": null, "label": "natural:peak" }, "geometry": { "type": "Point", "coordinates": [ 23.2497497, 38.1842004 ] } },
{ "type": "Feature", "properties": { "@type": "way", "@id": 535757225, "access": null, "admin_level": null, "alt_name": null, "amenity": null, "barrier": null, "boundary": null, "building": "yes", "denomination": null, "ele": null, "foot": null, "ford": null, "free_flying:site": null, "generator:method": null, "generator:output:electricity": null, "generator:source": null, "generator:type": null, "height": "30", "height:hub": null, "highway": null, "intermittent": null, "lanes": null, "leisure": null, "man_made": "tower", "manufacturer": null, "name": null, "name:de": null, "name:el": null, "name:en": null, "name:es": null, "name:fr": null, "name:it": null, "name:la": null, "name:pt": null, "natural": null, "noname": null, "oneway": null, "operator": null, "power": null, "prominence": null, "religion": null, "rotor:diameter": null, "site": null, "smoothness": null, "sport": null, "surface": null, "tourism": null, "tower:type": "communication", "tracktype": null, "waterway": null, "wheelchair": null, "wikidata": null, "wikipedia": null, "label": "building:yes" }, "geometry": { "type": "Polygon", "coordinates": [ [ [ 23.2516235, 38.1844212 ], [ 23.2516253, 38.1843316 ], [ 23.2514546, 38.1843295 ], [ 23.2514529, 38.1844191 ], [ 23.2516235, 38.1844212 ] ] ] } },
{ "type": "Feature", "properties": { "@type": "way", "@id": 669080192, "access": null, "admin_level": null, "alt_name": null, "amenity": "place_of_worship", "barrier": null, "boundary": null, "building": "yes", "denomination": "greek_orthodox", "ele": null, "foot": null, "ford": null, "free_flying:site": null, "generator:method": null, "generator:output:electricity": null, "generator:source": null, "generator:type": null, "height": null, "height:hub": null, "highway": null, "intermittent": null, "lanes": null, "leisure": null, "man_made": null, "manufacturer": null, "name": "Πρ.Ηλίας", "name:de": null, "name:el": null, "name:en": null, "name:es": null, "name:fr": null, "name:it": null, "name:la": null, "name:pt": null, "natural": null, "noname": null, "oneway": null, "operator": null, "power": null, "prominence": null, "religion": "christian", "rotor:diameter": null, "site": null, "smoothness": null, "sport": null, "surface": null, "tourism": null, "tower:type": null, "tracktype": null, "waterway": null, "wheelchair": "no", "wikidata": null, "wikipedia": null, "label": "amenity:place_of_worship;building:yes" }, "geometry": { "type": "Polygon", "coordinates": [ [ [ 23.2509749, 38.1842679 ], [ 23.2509767, 38.1842237 ], [ 23.2508991, 38.1842218 ], [ 23.2508973, 38.1842659 ], [ 23.2509749, 38.1842679 ] ] ] } },
{ "type": "Feature", "properties": { "@type": "way", "@id": 735330657, "access": null, "admin_level": null, "alt_name": null, "amenity": null, "barrier": null, "boundary": null, "building": null, "denomination": null, "ele": null, "foot": null, "ford": null, "free_flying:site": null, "generator:method": null, "generator:output:electricity": null, "generator:source": null, "generator:type": null, "height": null, "height:hub": null, "highway": null, "intermittent": null, "lanes": null, "leisure": null, "man_made": null, "manufacturer": null, "name": null, "name:de": null, "name:el": null, "name:en": null, "name:es": null, "name:fr": null, "name:it": null, "name:la": null, "name:pt": null, "natural": "wood", "noname": null, "oneway": null, "operator": null, "power": null, "prominence": null, "religion": null, "rotor:diameter": null, "site": null, "smoothness": null, "sport": null, "surface": null, "tourism": null, "tower:type": null, "tracktype": null, "waterway": null, "wheelchair": null, "wikidata": null, "wikipedia": null, "label": "natural:wood" }, "geometry": { "type": "Polygon", "coordinates": [ [ [ 23.2667732, 38.1703555 ], [ 23.2669427, 38.1703313 ], [ 23.2669797, 38.1701472 ], [ 23.2670474, 38.1699438 ], [ 23.2671152, 38.1697839 ], [ 23.2671152, 38.1696943 ], [ 23.2670084, 38.1696832 ], [ 23.2669211, 38.1697088 ], [ 23.2669119, 38.1697912 ], [ 23.2669119, 38.1699002 ], [ 23.2668657, 38.1699704 ], [ 23.2668256, 38.1700649 ], [ 23.2667393, 38.1702005 ], [ 23.2667024, 38.1703434 ], [ 23.2667732, 38.1703555 ] ] ] } },
{ "type": "Feature", "properties": { "@type": "way", "@id": 802091751, "access": null, "admin_level": null, "alt_name": null, "amenity": null, "barrier": null, "boundary": null, "building": "yes", "denomination": null, "ele": "1400", "foot": null, "ford": null, "free_flying:site": null, "generator:method": null, "generator:output:electricity": null, "generator:source": null, "generator:type": null, "height": null, "height:hub": null, "highway": null, "intermittent": null, "lanes": null, "leisure": null, "man_made": null, "manufacturer": null, "name": "Καταφύγιο Κορυφής", "name:de": null, "name:el": null, "name:en": null, "name:es": null, "name:fr": null, "name:it": null, "name:la": null, "name:pt": null, "natural": null, "noname": null, "oneway": null, "operator": "ΕΟΣ Ελευσίνας", "power": null, "prominence": null, "religion": null, "rotor:diameter": null, "site": null, "smoothness": null, "sport": null, "surface": null, "tourism": "alpine_hut", "tower:type": null, "tracktype": null, "waterway": null, "wheelchair": null, "wikidata": null, "wikipedia": null, "label": "tourism:alpine_hut;building:yes" }, "geometry": { "type": "Polygon", "coordinates": [ [ [ 23.2499961, 38.1841161 ], [ 23.2500137, 38.1840443 ], [ 23.2499198, 38.1840301 ], [ 23.2499022, 38.1841018 ], [ 23.2499961, 38.1841161 ] ] ] } },
{ "type": "Feature", "properties": { "@type": "way", "@id": 1230518226, "access": null, "admin_level": null, "alt_name": null, "amenity": null, "barrier": null, "boundary": null, "building": "yes", "denomination": null, "ele": null, "foot": null, "ford": null, "free_flying:site": null, "generator:method": null, "generator:output:electricity": null, "generator:source": null, "generator:type": null, "height": null, "height:hub": null, "highway": null, "intermittent": null, "lanes": null, "leisure": null, "man_made": "tower", "manufacturer": null, "name": null, "name:de": null, "name:el": null, "name:en": null, "name:es": null, "name:fr": null, "name:it": null, "name:la": null, "name:pt": null, "natural": null, "noname": null, "oneway": null, "operator": null, "power": null, "prominence": null, "religion": null, "rotor:diameter": null, "site": null, "smoothness": null, "sport": null, "surface": null, "tourism": null, "tower:type": "communication", "tracktype": null, "waterway": null, "wheelchair": null, "wikidata": null, "wikipedia": null, "label": "building:yes" }, "geometry": { "type": "Polygon", "coordinates": [ [ [ 23.2479736, 38.1841695 ], [ 23.2480017, 38.1840463 ], [ 23.2478919, 38.1840309 ], [ 23.2478638, 38.1841541 ], [ 23.2479736, 38.1841695 ] ] ] } },
{ "type": "Feature", "properties": { "@type": "way", "@id": 1230518227, "access": null, "admin_level": null, "alt_name": null, "amenity": null, "barrier": null, "boundary": null, "building": "yes", "denomination": null, "ele": null, "foot": null, "ford": null, "free_flying:site": null, "generator:method": null, "generator:output:electricity": null, "generator:source": null, "generator:type": null, "height": null, "height:hub": null, "highway": null, "intermittent": null, "lanes": null, "leisure": null, "man_made": null, "manufacturer": null, "name": null, "name:de": null, "name:el": null, "name:en": null, "name:es": null, "name:fr": null, "name:it": null, "name:la": null, "name:pt": null, "natural": null, "noname": null, "oneway": null, "operator": null, "power": null, "prominence": null, "religion": null, "rotor:diameter": null, "site": null, "smoothness": null, "sport": null, "surface": null, "tourism": null, "tower:type": null, "tracktype": null, "waterway": null, "wheelchair": null, "wikidata": null, "wikipedia": null, "label": "building:yes" }, "geometry": { "type": "Polygon", "coordinates": [ [ [ 23.2489004, 38.1844973 ], [ 23.2489171, 38.1844471 ], [ 23.2488297, 38.1844291 ], [ 23.248813, 38.1844793 ], [ 23.2489004, 38.1844973 ] ] ] } },
{ "type": "Feature", "properties": { "@type": "way", "@id": 1230518228, "access": null, "admin_level": null, "alt_name": null, "amenity": null, "barrier": null, "boundary": null, "building": "yes", "denomination": null, "ele": null, "foot": null, "ford": null, "free_flying:site": null, "generator:method": null, "generator:output:electricity": null, "generator:source": null, "generator:type": null, "height": null, "height:hub": null, "highway": null, "intermittent": null, "lanes": null, "leisure": null, "man_made": null, "manufacturer": null, "name": null, "name:de": null, "name:el": null, "name:en": null, "name:es": null, "name:fr": null, "name:it": null, "name:la": null, "name:pt": null, "natural": null, "noname": null, "oneway": null, "operator": null, "power": null, "prominence": null, "religion": null, "rotor:diameter": null, "site": null, "smoothness": null, "sport": null, "surface": null, "tourism": null, "tower:type": null, "tracktype": null, "waterway": null, "wheelchair": null, "wikidata": null, "wikipedia": null, "label": "building:yes" }, "geometry": { "type": "Polygon", "coordinates": [ [ [ 23.2483478, 38.1842918 ], [ 23.2484196, 38.1842789 ], [ 23.2484272, 38.1843051 ], [ 23.2485157, 38.1842891 ], [ 23.2484761, 38.184153 ], [ 23.2483158, 38.1841818 ], [ 23.2483478, 38.1842918 ] ] ] } },
{ "type": "Feature", "properties": { "@type": "way", "@id": 1230518229, "access": null, "admin_level": null, "alt_name": null, "amenity": null, "barrier": null, "boundary": null, "building": "yes", "denomination": null, "ele": null, "foot": null, "ford": null, "free_flying:site": null, "generator:method": null, "generator:output:electricity": null, "generator:source": null, "generator:type": null, "height": null, "height:hub": null, "highway": null, "intermittent": null, "lanes": null, "leisure": null, "man_made": null, "manufacturer": null, "name": null, "name:de": null, "name:el": null, "name:en": null, "name:es": null, "name:fr": null, "name:it": null, "name:la": null, "name:pt": null, "natural": null, "noname": null, "oneway": null, "operator": null, "power": null, "prominence": null, "religion": null, "rotor:diameter": null, "site": null, "smoothness": null, "sport": null, "surface": null, "tourism": null, "tower:type": null, "tracktype": null, "waterway": null, "wheelchair": null, "wikidata": null, "wikipedia": null, "label": "building:yes" }, "geometry": { "type": "Polygon", "coordinates": [ [ [ 23.2484611, 38.1841186 ], [ 23.2484689, 38.1840783 ], [ 23.2485565, 38.1840888 ], [ 23.248578, 38.1839777 ], [ 23.2484321, 38.1839603 ], [ 23.2484029, 38.1841116 ], [ 23.2484611, 38.1841186 ] ] ] } },
{ "type": "Feature", "properties": { "@type": "way", "@id": 1230518230, "access": null, "admin_level": null, "alt_name": null, "amenity": null, "barrier": null, "boundary": null, "building": "yes", "denomination": null, "ele": null, "foot": null, "ford": null, "free_flying:site": null, "generator:method": null, "generator:output:electricity": null, "generator:source": null, "generator:type": null, "height": null, "height:hub": null, "highway": null, "intermittent": null, "lanes": null, "leisure": null, "man_made": null, "manufacturer": null, "name": null, "name:de": null, "name:el": null, "name:en": null, "name:es": null, "name:fr": null, "name:it": null, "name:la": null, "name:pt": null, "natural": null, "noname": null, "oneway": null, "operator": null, "power": null, "prominence": null, "religion": null, "rotor:diameter": null, "site": null, "smoothness": null, "sport": null, "surface": null, "tourism": null, "tower:type": null, "tracktype": null, "waterway": null, "wheelchair": null, "wikidata": null, "wikipedia": null, "label": "building:yes" }, "geometry": { "type": "Polygon", "coordinates": [ [ [ 23.2490575, 38.183818 ], [ 23.2490672, 38.1837609 ], [ 23.2489998, 38.1837539 ], [ 23.2489902, 38.1838109 ], [ 23.2490575, 38.183818 ] ] ] } },
{ "type": "Feature", "properties": { "@type": "way", "@id": 1230518231, "access": null, "admin_level": null, "alt_name": null, "amenity": null, "barrier": null, "boundary": null, "building": "yes", "denomination": null, "ele": null, "foot": null, "ford": null, "free_flying:site": null, "generator:method": null, "generator:output:electricity": null, "generator:source": null, "generator:type": null, "height": null, "height:hub": null, "highway": null, "intermittent": null, "lanes": null, "leisure": null, "man_made": null, "manufacturer": null, "name": null, "name:de": null, "name:el": null, "name:en": null, "name:es": null, "name:fr": null, "name:it": null, "name:la": null, "name:pt": null, "natural": null, "noname": null, "oneway": null, "operator": null, "power": null, "prominence": null, "religion": null, "rotor:diameter": null, "site": null, "smoothness": null, "sport": null, "surface": null, "tourism": null, "tower:type": null, "tracktype": null, "waterway": null, "wheelchair": null, "wikidata": null, "wikipedia": null, "label": "building:yes" }, "geometry": { "type": "Polygon", "coordinates": [ [ [ 23.2465639, 38.1836111 ], [ 23.2466852, 38.1834967 ], [ 23.2467617, 38.1835469 ], [ 23.2468297, 38.1834828 ], [ 23.2467614, 38.183438 ], [ 23.2468595, 38.1833456 ], [ 23.2467872, 38.1832982 ], [ 23.2464997, 38.1835691 ], [ 23.2465639, 38.1836111 ] ] ] } },
{ "type": "Feature", "properties": { "@type": "way", "@id": 1230518232, "access": null, "admin_level": null, "alt_name": null, "amenity": null, "barrier": null, "boundary": null, "building": "yes", "denomination": null, "ele": null, "foot": null, "ford": null, "free_flying:site": null, "generator:method": null, "generator:output:electricity": null, "generator:source": null, "generator:type": null, "height": null, "height:hub": null, "highway": null, "intermittent": null, "lanes": null, "leisure": null, "man_made": null, "manufacturer": null, "name": null, "name:de": null, "name:el": null, "name:en": null, "name:es": null, "name:fr": null, "name:it": null, "name:la": null, "name:pt": null, "natural": null, "noname": null, "oneway": null, "operator": null, "power": null, "prominence": null, "religion": null, "rotor:diameter": null, "site": null, "smoothness": null, "sport": null, "surface": null, "tourism": null, "tower:type": null, "tracktype": null, "waterway": null, "wheelchair": null, "wikidata": null, "wikipedia": null, "label": "building:yes" }, "geometry": { "type": "Polygon", "coordinates": [ [ [ 23.2469167, 38.1833085 ], [ 23.2470781, 38.1832208 ], [ 23.247017, 38.1831513 ], [ 23.2468556, 38.183239 ], [ 23.2469167, 38.1833085 ] ] ] } },
{ "type": "Feature", "properties": { "@type": "way", "@id": 1230518233, "access": null, "admin_level": null, "alt_name": null, "amenity": null, "barrier": null, "boundary": null, "building": "yes", "denomination": null, "ele": null, "foot": null, "ford": null, "free_flying:site": null, "generator:method": null, "generator:output:electricity": null, "generator:source": null, "generator:type": null, "height": null, "height:hub": null, "highway": null, "intermittent": null, "lanes": null, "leisure": null, "man_made": null, "manufacturer": null, "name": null, "name:de": null, "name:el": null, "name:en": null, "name:es": null, "name:fr": null, "name:it": null, "name:la": null, "name:pt": null, "natural": null, "noname": null, "oneway": null, "operator": null, "power": null, "prominence": null, "religion": null, "rotor:diameter": null, "site": null, "smoothness": null, "sport": null, "surface": null, "tourism": null, "tower:type": null, "tracktype": null, "waterway": null, "wheelchair": null, "wikidata": null, "wikipedia": null, "label": "building:yes" }, "geometry": { "type": "Polygon", "coordinates": [ [ [ 23.2462503, 38.1836056 ], [ 23.2462889, 38.183562 ], [ 23.2462118, 38.1835199 ], [ 23.2461732, 38.1835634 ], [ 23.2462503, 38.1836056 ] ] ] } },
{ "type": "Feature", "properties": { "@type": "way", "@id": 1230518234, "access": "yes", "admin_level": null, "alt_name": null, "amenity": null, "barrier": null, "boundary": null, "building": null, "denomination": null, "ele": null, "foot": null, "ford": null, "free_flying:site": "takeoff", "generator:method": null, "generator:output:electricity": null, "generator:source": null, "generator:type": null, "height": null, "height:hub": null, "highway": null, "intermittent": null, "lanes": null, "leisure": "pitch", "man_made": null, "manufacturer": null, "name": "Κιθαιρώνας Κορυφή - Απογείωση Αλεξιπτώτου Πλαγιάς", "name:de": null, "name:el": "Κιθαιρώνας Κορυφή - Απογείωση Αλεξιπτώτου Πλαγιάς", "name:en": "Kithaironas Peak - Paragliding Takeoff", "name:es": null, "name:fr": null, "name:it": null, "name:la": null, "name:pt": null, "natural": null, "noname": null, "oneway": null, "operator": null, "power": null, "prominence": null, "religion": null, "rotor:diameter": null, "site": null, "smoothness": null, "sport": "paragliding", "surface": "ground", "tourism": null, "tower:type": null, "tracktype": null, "waterway": null, "wheelchair": null, "wikidata": null, "wikipedia": null, "label": "leisure:pitch" }, "geometry": { "type": "Polygon", "coordinates": [ [ [ 23.2493412, 38.1845515 ], [ 23.2497732, 38.1844469 ], [ 23.2497055, 38.1842523 ], [ 23.249493, 38.184289 ], [ 23.2492525, 38.1843239 ], [ 23.2493412, 38.1845515 ] ] ] } }
]
}
