{
"type": "FeatureCollection",
"name": "patch_49272_features",
"crs": { "type": "name", "properties": { "name": "urn:ogc:def:crs:OGC:1.3:CRS84" } },
"features": [
{ "type": "Feature", "properties": { "element": "node", "id": 8779369824, "ele": "309", "man_made": "survey_point", "natural": "peak", "source": null, "leaf_type": null, "landuse": null, "type": null, "label": "natural:peak" }, "geometry": { "type": "Point", "coordinates": [ 23.7048, 38.7584301 ] } },
{ "type": "Feature", "properties": { "element": "relation", "id": 1835493, "ele": null, "man_made": null, "natural": "wood", "source": "http://geodata.gov.gr/", "leaf_type": "needleleaved", "landuse": null, "type": "multipolygon", "label": "natural:wood" }, "geometry": { "type": "Polygon", "coordinates": [ [ [ 23.709895, 38.739514 ], [ 23.709847, 38.740782 ], [ 23.710267, 38.741503 ], [ 23.710392, 38.742149 ], [ 23.709873, 38.74254 ], [ 23.709329, 38.742645 ], [ 23.708751, 38.742564 ], [ 23.708278, 38.74203 ], [ 23.707843, 38.740245 ], [ 23.707357, 38.739259 ], [ 23.70666, 38.739059 ], [ 23.706214, 38.739604 ], [ 23.705765, 38.740796 ], [ 23.706266, 38.742288 ], [ 23.706832, 38.743681 ], [ 23.707144, 38.744924 ], [ 23.707202, 38.746167 ], [ 23.707392, 38.746515 ], [ 23.707985, 38.747009 ], [ 23.708494, 38.74741 ], [ 23.708917, 38.747717 ], [ 23.70929, 38.748064 ], [ 23.709731, 38.748305 ], [ 23.710054, 38.748465 ], [ 23.710614, 38.748527 ], [ 23.710853, 38.748261 ], [ 23.710491, 38.747822 ], [ 23.709532, 38.747172 ], [ 23.708735, 38.746665 ], [ 23.708669, 38.746132 ], [ 23.708807, 38.745679 ], [ 23.709354, 38.744935 ], [ 23.709253, 38.744669 ], [ 23.708914, 38.744428 ], [ 23.708609, 38.744134 ], [ 23.708747, 38.743682 ], [ 23.709121, 38.74363 ], [ 23.709732, 38.743791 ], [ 23.710139, 38.744192 ], [ 23.710545, 38.744592 ], [ 23.710986, 38.744966 ], [ 23.711665, 38.745101 ], [ 23.711363, 38.744141 ], [ 23.711231, 38.743182 ], [ 23.711217, 38.742151 ], [ 23.711472, 38.741705 ], [ 23.712866, 38.742354 ], [ 23.714131, 38.743401 ], [ 23.715394, 38.744945 ], [ 23.715459232495494, 38.745023496436247 ], [ 23.715459232495494, 38.743320682485944 ], [ 23.714451, 38.742557 ], [ 23.713339, 38.741429 ], [ 23.713784, 38.740915 ], [ 23.714039, 38.740493 ], [ 23.714357, 38.740221 ], [ 23.714836, 38.739501 ], [ 23.714681, 38.738606 ], [ 23.714685873470678, 38.738527737794406 ], [ 23.709378288823682, 38.738527737794406 ], [ 23.709895, 38.739514 ] ] ] } },
{ "type": "Feature", "properties": { "element": "way", "id": 8886291, "ele": null, "man_made": null, "natural": "coastline", "source": "PGS", "leaf_type": null, "landuse": null, "type": null, "label": "natural:coastline" }, "geometry": { "type": "MultiLineString", "coordinates": [ [ [ 23.715459232495494, 38.760497658449815 ], [ 23.7152879, 38.7605304 ], [ 23.715375450338936, 38.760891825758165 ] ], [ [ 23.691451230602787, 38.760891825758165 ], [ 23.6912563, 38.7602359 ], [ 23.691279, 38.7600855 ], [ 23.69133, 38.7598821 ], [ 23.6911429, 38.75986 ], [ 23.6910238, 38.7595726 ], [ 23.6910238, 38.7594444 ], [ 23.6912109, 38.759356 ], [ 23.6912449, 38.7593029 ], [ 23.6910408, 38.7591791 ], [ 23.6907913, 38.7589669 ], [ 23.6906836, 38.7587104 ], [ 23.6905306, 38.7575617 ], [ 23.688854, 38.7565732 ], [ 23.6888174, 38.756397 ], [ 23.6888259, 38.7561624 ], [ 23.6884911, 38.7560199 ], [ 23.6884312, 38.7558565 ], [ 23.6885291, 38.7557089 ], [ 23.6881597, 38.7556343 ], [ 23.6879199, 38.755425 ], [ 23.687608, 38.7554474 ], [ 23.6875554, 38.7554839 ], [ 23.6875116, 38.755483 ], [ 23.6874827, 38.7554333 ], [ 23.6874818, 38.7553836 ], [ 23.6875895, 38.7552896 ], [ 23.6875951, 38.7551255 ], [ 23.6876087, 38.7549415 ], [ 23.6874292, 38.754883 ], [ 23.6873061, 38.7548665 ], [ 23.6872103, 38.7549422 ], [ 23.6871151, 38.7550601 ], [ 23.6870213, 38.7552374 ], [ 23.6868488, 38.7553424 ], [ 23.686349, 38.755347 ], [ 23.6860866, 38.7552237 ], [ 23.6860387, 38.7551423 ], [ 23.6861898, 38.7550797 ], [ 23.6863203, 38.7549714 ], [ 23.6863452, 38.7545959 ], [ 23.6862749, 38.7543392 ], [ 23.6861551, 38.7543024 ], [ 23.6861465, 38.7542874 ], [ 23.6862663, 38.7541892 ], [ 23.6862536, 38.7540609 ], [ 23.6862153, 38.753956 ], [ 23.6860215, 38.7539378 ], [ 23.6859974, 38.753879 ], [ 23.6860401, 38.7536693 ], [ 23.6859587, 38.753569 ], [ 23.6858057, 38.7534906 ], [ 23.685591, 38.7534408 ], [ 23.685279, 38.7535006 ], [ 23.6851662, 38.7531988 ], [ 23.6851718, 38.7531644 ], [ 23.6852643, 38.7531395 ], [ 23.6852159, 38.7530075 ], [ 23.685162778824772, 38.752977353485754 ] ] ] } },
{ "type": "Feature", "properties": { "element": "way", "id": 136245298, "ele": null, "man_made": null, "natural": "wood", "source": "http://geodata.gov.gr/", "leaf_type": "broadleaved", "landuse": null, "type": null, "label": "natural:wood" }, "geometry": { "type": "MultiPolygon", "coordinates": [ [ [ [ 23.685362, 38.747628 ], [ 23.685365, 38.74699 ], [ 23.685162778824772, 38.74699780081685 ], [ 23.685162778824772, 38.747693027683304 ], [ 23.685362, 38.747628 ] ] ], [ [ [ 23.685553, 38.742131 ], [ 23.685452, 38.74179 ], [ 23.685162778824772, 38.741553977538352 ], [ 23.685162778824772, 38.742468803405423 ], [ 23.685553, 38.742131 ] ] ] ] } },
{ "type": "Feature", "properties": { "element": "way", "id": 136245320, "ele": null, "man_made": null, "natural": "wood", "source": "http://geodata.gov.gr/", "leaf_type": "needleleaved", "landuse": null, "type": null, "label": "natural:wood" }, "geometry": { "type": "Polygon", "coordinates": [ [ [ 23.686353, 38.74003 ], [ 23.686685, 38.739771 ], [ 23.686908, 38.73934 ], [ 23.687131, 38.738735 ], [ 23.687211601968841, 38.738527737794406 ], [ 23.685162778824772, 38.738527737794406 ], [ 23.685162778824772, 38.739883924013562 ], [ 23.686353, 38.74003 ] ] ] } },
{ "type": "Feature", "properties": { "element": "way", "id": 136246832, "ele": null, "man_made": null, "natural": "wood", "source": "http://geodata.gov.gr/", "leaf_type": "needleleaved", "landuse": null, "type": null, "label": "natural:wood" }, "geometry": { "type": "Polygon", "coordinates": [ [ [ 23.687717, 38.740046 ], [ 23.686567, 38.741608 ], [ 23.6860528, 38.7434556 ], [ 23.685338, 38.744316 ], [ 23.685162778824772, 38.744493340786221 ], [ 23.685162778824772, 38.74699780081685 ], [ 23.685365, 38.74699 ], [ 23.685362, 38.747628 ], [ 23.685162778824772, 38.747693027683304 ], [ 23.685162778824772, 38.749116072563993 ], [ 23.685748, 38.748517 ], [ 23.686391, 38.747353 ], [ 23.68689, 38.746633 ], [ 23.687248, 38.745968 ], [ 23.687639, 38.745719 ], [ 23.688456, 38.745305 ], [ 23.688705, 38.745001 ], [ 23.688743, 38.744501 ], [ 23.688887, 38.743974 ], [ 23.689064, 38.743808 ], [ 23.689383, 38.743809 ], [ 23.689525, 38.743837 ], [ 23.689737, 38.743976 ], [ 23.689913, 38.744199 ], [ 23.689912, 38.74456 ], [ 23.689697, 38.744976 ], [ 23.689234, 38.745557 ], [ 23.688735, 38.746194 ], [ 23.688094, 38.746997 ], [ 23.686652, 38.74881 ], [ 23.685313, 38.750446 ], [ 23.685162778824772, 38.750726293459586 ], [ 23.685162778824772, 38.752405127797211 ], [ 23.685268, 38.752548 ], [ 23.6858488, 38.7528191 ], [ 23.686627, 38.752898 ], [ 23.686765, 38.752473 ], [ 23.686495, 38.751993 ], [ 23.68626, 38.751273 ], [ 23.686398, 38.750634 ], [ 23.686911, 38.750183 ], [ 23.687456, 38.749892 ], [ 23.687935, 38.749174 ], [ 23.688717, 38.749176 ], [ 23.689055, 38.749709 ], [ 23.689018, 38.750428 ], [ 23.689014, 38.751307 ], [ 23.689079, 38.752053 ], [ 23.68928, 38.752746 ], [ 23.689856, 38.753093 ], [ 23.690229, 38.753494 ], [ 23.690463, 38.754293 ], [ 23.690937, 38.75488 ], [ 23.6914115, 38.7551845 ], [ 23.691893, 38.755694 ], [ 23.6923251, 38.7558763 ], [ 23.69342, 38.756213 ], [ 23.69415, 38.756363 ], [ 23.694692, 38.756328 ], [ 23.695258, 38.756255 ], [ 23.695966, 38.756257 ], [ 23.697356, 38.756427 ], [ 23.697779, 38.756852 ], [ 23.698831, 38.757775 ], [ 23.699092, 38.758051 ], [ 23.699498, 38.758463 ], [ 23.699682, 38.75889 ], [ 23.699836, 38.759363 ], [ 23.700558, 38.759544 ], [ 23.701007, 38.759524 ], [ 23.701299, 38.759582 ], [ 23.701764, 38.759992 ], [ 23.7019249, 38.7606394 ], [ 23.70249771644993, 38.760891825758165 ], [ 23.707794476415462, 38.760891825758165 ], [ 23.707751, 38.760822 ], [ 23.707549, 38.760433 ], [ 23.707086, 38.759859 ], [ 23.706651, 38.759375 ], [ 23.706478, 38.759054 ], [ 23.707175, 38.758877 ], [ 23.707385, 38.758444 ], [ 23.707419, 38.758374 ], [ 23.707304, 38.758148 ], [ 23.707259, 38.758058 ], [ 23.70662, 38.756986 ], [ 23.706141, 38.755977 ], [ 23.705259, 38.755218 ], [ 23.704618, 38.754587 ], [ 23.70372, 38.75453 ], [ 23.703572, 38.754521 ], [ 23.703572, 38.754675 ], [ 23.70357, 38.755034 ], [ 23.70357, 38.755151 ], [ 23.70386, 38.755785 ], [ 23.703964, 38.756316 ], [ 23.703459, 38.75631 ], [ 23.70288, 38.756567 ], [ 23.701978, 38.756752 ], [ 23.701089, 38.756949 ], [ 23.700519, 38.756649 ], [ 23.700331, 38.756002 ], [ 23.700331, 38.755903 ], [ 23.6997, 38.755156 ], [ 23.699385, 38.754608 ], [ 23.69907, 38.753912 ], [ 23.698945, 38.753514 ], [ 23.698601, 38.752858 ], [ 23.698476, 38.75262 ], [ 23.69764, 38.752721 ], [ 23.6966, 38.752762 ], [ 23.696624, 38.753078 ], [ 23.696554, 38.75357 ], [ 23.696075, 38.754048 ], [ 23.695344, 38.7541 ], [ 23.694205, 38.754163 ], [ 23.69332, 38.754347 ], [ 23.692776, 38.754186 ], [ 23.69283, 38.753587 ], [ 23.693225, 38.75259 ], [ 23.693296, 38.751964 ], [ 23.692803, 38.751883 ], [ 23.692325, 38.752334 ], [ 23.691559, 38.752585 ], [ 23.691545, 38.751959 ], [ 23.69175, 38.75168 ], [ 23.692127, 38.751002 ], [ 23.692044, 38.750416 ], [ 23.691469, 38.749722 ], [ 23.690775, 38.749055 ], [ 23.690371, 38.748188 ], [ 23.690493, 38.747496 ], [ 23.691056, 38.747045 ], [ 23.690634, 38.746292 ], [ 23.690738, 38.74576 ], [ 23.691455, 38.745202 ], [ 23.692271, 38.745071 ], [ 23.693463, 38.744755 ], [ 23.694281, 38.744171 ], [ 23.694554, 38.744065 ], [ 23.694996, 38.743987 ], [ 23.695336, 38.744041 ], [ 23.695401, 38.744787 ], [ 23.694888, 38.745504 ], [ 23.694477, 38.746169 ], [ 23.693827, 38.746966 ], [ 23.693179, 38.747523 ], [ 23.692531, 38.747835 ], [ 23.692155, 38.74838 ], [ 23.692254, 38.749072 ], [ 23.692611, 38.749166 ], [ 23.693121, 38.749061 ], [ 23.693495, 38.749142 ], [ 23.693494, 38.749408 ], [ 23.693016, 38.7499 ], [ 23.693336, 38.750513 ], [ 23.69376, 38.750807 ], [ 23.694285, 38.751301 ], [ 23.694575, 38.751049 ], [ 23.694866, 38.75057 ], [ 23.695174, 38.750092 ], [ 23.695599, 38.750146 ], [ 23.696432, 38.750735 ], [ 23.697189, 38.751273 ], [ 23.69811, 38.751512 ], [ 23.699075, 38.751331 ], [ 23.699145, 38.751081 ], [ 23.699187, 38.750935 ], [ 23.699627, 38.750926 ], [ 23.699844, 38.751333 ], [ 23.700262, 38.751403 ], [ 23.701253, 38.750906 ], [ 23.701869, 38.750146 ], [ 23.701538, 38.749879 ], [ 23.701081, 38.749856 ], [ 23.699805, 38.750197 ], [ 23.698881, 38.750401 ], [ 23.698177, 38.75064 ], [ 23.697232, 38.750534 ], [ 23.696839, 38.750236 ], [ 23.697119, 38.749931 ], [ 23.697629, 38.749485 ], [ 23.698205, 38.748343 ], [ 23.699807, 38.747386 ], [ 23.700681, 38.746961 ], [ 23.700902, 38.746406 ], [ 23.700794, 38.74615 ], [ 23.700358, 38.745935 ], [ 23.699869, 38.745721 ], [ 23.699707, 38.745165 ], [ 23.699874, 38.744483 ], [ 23.700367, 38.743929 ], [ 23.700586, 38.743673 ], [ 23.700914, 38.743461 ], [ 23.701079, 38.742991 ], [ 23.700918, 38.742351 ], [ 23.700649, 38.741581 ], [ 23.700489, 38.740727 ], [ 23.700328, 38.740214 ], [ 23.700547, 38.739959 ], [ 23.701146, 38.740003 ], [ 23.701418, 38.740132 ], [ 23.701744, 38.740432 ], [ 23.702398, 38.740433 ], [ 23.702726, 38.740263 ], [ 23.703055, 38.73988 ], [ 23.703549, 38.739027 ], [ 23.703551, 38.738558 ], [ 23.703547423864222, 38.738527737794406 ], [ 23.699014974980042, 38.738527737794406 ], [ 23.698972, 38.738589 ], [ 23.698642, 38.739143 ], [ 23.698094, 38.739867 ], [ 23.697341, 38.740706 ], [ 23.697197, 38.740978 ], [ 23.696811, 38.741708 ], [ 23.696262, 38.741617 ], [ 23.696333, 38.740734 ], [ 23.697168, 38.739737 ], [ 23.697321696820083, 38.738527737794406 ], [ 23.687863349901658, 38.738527737794406 ], [ 23.687717, 38.740046 ] ] ] } },
{ "type": "Feature", "properties": { "element": "way", "id": 345465387, "ele": null, "man_made": null, "natural": null, "source": null, "leaf_type": null, "landuse": "residential", "type": null, "label": "landuse:residential" }, "geometry": { "type": "Polygon", "coordinates": [ [ [ 23.6988668, 38.7606742 ], [ 23.6991425, 38.7604936 ], [ 23.6994624, 38.7602356 ], [ 23.6997161, 38.7599173 ], [ 23.7001573, 38.7599001 ], [ 23.7004221, 38.7595819 ], [ 23.7002897, 38.7593668 ], [ 23.6997823, 38.7595303 ], [ 23.6993962, 38.759298 ], [ 23.6987896, 38.759169 ], [ 23.6981498, 38.7588938 ], [ 23.697499, 38.7584723 ], [ 23.6969033, 38.7583261 ], [ 23.6968813, 38.7588422 ], [ 23.697521, 38.7593152 ], [ 23.6975541, 38.7596593 ], [ 23.6972784, 38.7598055 ], [ 23.6975321, 38.7603044 ], [ 23.6976093, 38.7606828 ], [ 23.697827917028803, 38.760891825758165 ], [ 23.698737254405472, 38.760891825758165 ], [ 23.6988668, 38.7606742 ] ] ] } },
{ "type": "Feature", "properties": { "element": "way", "id": 640158201, "ele": null, "man_made": null, "natural": "bare_rock", "source": null, "leaf_type": null, "landuse": null, "type": null, "label": "natural:bare_rock" }, "geometry": { "type": "Polygon", "coordinates": [ [ [ 23.6877307, 38.7556304 ], [ 23.6876959, 38.7556178 ], [ 23.6876449, 38.755599 ], [ 23.68761, 38.7556178 ], [ 23.6876073, 38.7556408 ], [ 23.687661, 38.7556576 ], [ 23.68772, 38.7556576 ], [ 23.6877978, 38.7556534 ], [ 23.6878219, 38.7556304 ], [ 23.6877817, 38.7556199 ], [ 23.6877307, 38.7556304 ] ] ] } },
{ "type": "Feature", "properties": { "element": "way", "id": 1003526445, "ele": null, "man_made": null, "natural": "coastline", "source": null, "leaf_type": null, "landuse": null, "type": null, "label": "natural:coastline" }, "geometry": { "type": "LineString", "coordinates": [ [ 23.687661, 38.7556576 ], [ 23.6876073, 38.7556408 ], [ 23.68761, 38.7556178 ], [ 23.6876449, 38.755599 ], [ 23.6876959, 38.7556178 ], [ 23.6877307, 38.7556304 ], [ 23.6877817, 38.7556199 ], [ 23.6878219, 38.7556304 ], [ 23.6877978, 38.7556534 ], [ 23.68772, 38.7556576 ], [ 23.687661, 38.7556576 ] ] } },
{ "type": "Feature", "properties": { "element": "way", "id": 1003526446, "ele": null, "man_made": null, "natural": "coastline", "source": null, "leaf_type": null, "landuse": null, "type": null, "label": "natural:coastline" }, "geometry": { "type": "LineString", "coordinates": [ [ 23.686035, 38.7540896 ], [ 23.6860049, 38.7540875 ], [ 23.6859885, 38.7540939 ], [ 23.6859803, 38.7540854 ], [ 23.6859954, 38.7540683 ], [ 23.6860072, 38.7540609 ], [ 23.6860159, 38.7540555 ], [ 23.6860268, 38.7540406 ], [ 23.6860348, 38.7540302 ], [ 23.6860391, 38.7540245 ], [ 23.6860665, 38.7540224 ], [ 23.6860816, 38.7540448 ], [ 23.6860816, 38.7540619 ], [ 23.6860706, 38.7540822 ], [ 23.6860597, 38.7540886 ], [ 23.686035, 38.7540896 ] ] } },
{ "type": "Feature", "properties": { "element": "way", "id": 1003526447, "ele": null, "man_made": null, "natural": "bare_rock", "source": null, "leaf_type": null, "landuse": null, "type": null, "label": "natural:bare_rock" }, "geometry": { "type": "Polygon", "coordinates": [ [ [ 23.6860049, 38.7540875 ], [ 23.686035, 38.7540896 ], [ 23.6860597, 38.7540886 ], [ 23.6860706, 38.7540822 ], [ 23.6860816, 38.7540619 ], [ 23.6860816, 38.7540448 ], [ 23.6860665, 38.7540224 ], [ 23.6860348, 38.7540302 ], [ 23.6860268, 38.7540406 ], [ 23.6860072, 38.7540609 ], [ 23.6859954, 38.7540683 ], [ 23.6859803, 38.7540854 ], [ 23.6859885, 38.7540939 ], [ 23.6860049, 38.7540875 ] ] ] } },
{ "type": "Feature", "properties": { "element": "way", "id": 1160687892, "ele": null, "man_made": null, "natural": "wood", "source": "Maxar Premium", "leaf_type": null, "landuse": null, "type": null, "label": "natural:wood" }, "geometry": { "type": "Polygon", "coordinates": [ [ [ 23.6882559, 38.7534873 ], [ 23.6881942, 38.7533346 ], [ 23.6881003, 38.7532112 ], [ 23.6879421, 38.7531003 ], [ 23.6877599, 38.7530367 ], [ 23.6875317, 38.7530187 ], [ 23.6872769, 38.7530334 ], [ 23.6869901, 38.7531078 ], [ 23.6865824, 38.7532626 ], [ 23.6866897, 38.7534153 ], [ 23.686719, 38.753596 ], [ 23.6866871, 38.7537709 ], [ 23.6867139, 38.7539717 ], [ 23.6867326, 38.7541307 ], [ 23.6869389, 38.754324 ], [ 23.687143, 38.7544193 ], [ 23.6874595, 38.7545344 ], [ 23.6876041, 38.7543951 ], [ 23.6877007, 38.7542466 ], [ 23.6878538, 38.7540617 ], [ 23.6879877, 38.7538763 ], [ 23.6881435, 38.7537709 ], [ 23.6883176, 38.7536128 ], [ 23.6882559, 38.7534873 ] ] ] } }
]
}
