{
"type": "FeatureCollection",
"name": "patch_27928_linestring",
"crs": { "type": "name", "properties": { "name": "urn:ogc:def:crs:OGC:1.3:CRS84" } },
"features": [
{ "type": "Feature", "properties": { "osm_id": 28139992, "name": "Agroktimatos rema", "label": "waterway:stream", "waterway": "stream" }, "geometry": { "type": "LineString", "coordinates": [ [ 24.465406919974839, 41.475791961093989 ], [ 24.4651354, 41.475317300441553 ], [ 24.4646204, 41.474802800441502 ], [ 24.4637621, 41.473902500441419 ], [ 24.4640176, 41.473136000441336 ], [ 24.4640492, 41.472247500441263 ], [ 24.4641645, 41.471710300441202 ], [ 24.4640455, 41.471545500441195 ], [ 24.4636061, 41.471478400441178 ], [ 24.4631568, 41.471490500441192 ], [ 24.4628428, 41.471336500441176 ], [ 24.4626807, 41.470997300441134 ], [ 24.4625605, 41.470043800441054 ], [ 24.4620455, 41.469272100440961 ], [ 24.4618739, 41.468500300440894 ], [ 24.4625605, 41.467471300440792 ], [ 24.4622172, 41.466699500440726 ], [ 24.4615305, 41.465927700440652 ], [ 24.4605006, 41.465155800440584 ], [ 24.4605006, 41.464126800440482 ], [ 24.4596423, 41.463483600440412 ], [ 24.4590253, 41.462428300440308 ], [ 24.4584728, 41.461811200440252 ], [ 24.4585954, 41.461164000440185 ], [ 24.4586646, 41.460950700440172 ], [ 24.4587869, 41.460827900440165 ], [ 24.4585034, 41.460036000440091 ] ] } },
{ "type": "Feature", "properties": { "osm_id": 28139987, "name": "Ρέμα Θερμιών", "label": "waterway:stream", "waterway": "stream" }, "geometry": { "type": "LineString", "coordinates": [ [ 24.445100233358591, 41.468652630636264 ], [ 24.4453587, 41.468508600440892 ], [ 24.4465968, 41.467822100440827 ], [ 24.4474543, 41.467471300440792 ], [ 24.4477895, 41.467190000440773 ], [ 24.4484143, 41.46666560044072 ], [ 24.4494212, 41.465795300440632 ], [ 24.4499426, 41.465460900440611 ], [ 24.4506255, 41.465126400440575 ], [ 24.4513347, 41.464772800440542 ], [ 24.4514168, 41.464669700440538 ], [ 24.4512966, 41.464144300440481 ], [ 24.450802, 41.463680800440436 ], [ 24.451192, 41.463450100440426 ], [ 24.4522075, 41.463450100440426 ], [ 24.4526393, 41.463361200440396 ], [ 24.453371, 41.463386200440404 ], [ 24.4533785, 41.462596600440335 ], [ 24.4537015, 41.462533100440318 ], [ 24.4539439, 41.462716000440338 ], [ 24.4540791, 41.463230600440397 ], [ 24.4542787, 41.463482700440423 ], [ 24.4546268, 41.463428400440421 ], [ 24.4548363, 41.463265400440392 ], [ 24.4551428, 41.462890400440358 ], [ 24.4550861, 41.462346200440301 ], [ 24.4549028, 41.462021500440265 ], [ 24.454873, 41.461789200440251 ], [ 24.4550426, 41.461483500440224 ], [ 24.455447, 41.461288100440207 ], [ 24.4561101, 41.461065800440181 ], [ 24.4568574, 41.461000700440181 ], [ 24.4571417, 41.460870200440162 ], [ 24.4579256, 41.460910700440159 ], [ 24.4579339, 41.460698500440152 ], [ 24.4575823, 41.460367400440113 ], [ 24.4572125, 41.45985970044007 ], [ 24.4574508, 41.459647100440058 ], [ 24.4577924, 41.459664200440052 ], [ 24.4582268, 41.459901100440085 ], [ 24.4585034, 41.460036000440091 ], [ 24.458932, 41.459907000440076 ], [ 24.4594253, 41.459416100440023 ], [ 24.4594195, 41.458972400439983 ], [ 24.4593115, 41.458737400439958 ], [ 24.4594984, 41.458519300439931 ], [ 24.459405, 41.458034100439896 ], [ 24.4601036, 41.457582600439856 ], [ 24.460682, 41.456750000439776 ], [ 24.4603553, 41.456122900439702 ], [ 24.4605417, 41.455876500439686 ], [ 24.4604429, 41.455551600439655 ], [ 24.4600245, 41.45492520043959 ], [ 24.4606082, 41.454868900439578 ], [ 24.4618892, 41.455126200439615 ], [ 24.4629567, 41.455112500439604 ], [ 24.4636852, 41.454818200439583 ], [ 24.4645016, 41.454289100439517 ], [ 24.4645102, 41.453686000439475 ], [ 24.4646701, 41.453094200439423 ], [ 24.4654029, 41.452933400439406 ], [ 24.4658631, 41.452534500439363 ], [ 24.4664092, 41.452799100439385 ], [ 24.466832, 41.452898800439392 ], [ 24.4672627, 41.452824400439383 ], [ 24.4670374, 41.452433600439349 ], [ 24.466982669146997, 41.452078768198341 ] ] } }
]
}
