{
"type": "FeatureCollection",
"name": "patch_64914_linestring",
"crs": { "type": "name", "properties": { "name": "urn:ogc:def:crs:OGC:1.3:CRS84" } },
"features": [
{ "type": "Feature", "properties": { "osm_id": 1409170725, "name": null, "label": "waterway:stream", "waterway": "stream", "natural": null }, "geometry": { "type": "LineString", "coordinates": [ [ 25.944382059858626, 35.154807762255857 ], [ 25.9443214, 35.154839099662517 ], [ 25.9439204, 35.155083099662541 ], [ 25.9437622, 35.155275099662553 ], [ 25.9437265, 35.155475399662578 ], [ 25.9437826, 35.1559217996626 ], [ 25.9438694, 35.156218099662624 ], [ 25.9440174, 35.156635299662653 ], [ 25.9439868, 35.156960799662677 ], [ 25.9438541, 35.157448999662719 ], [ 25.9435734, 35.157782799662741 ], [ 25.9432213, 35.158120799662768 ], [ 25.9429916, 35.158433699662787 ], [ 25.9429508, 35.158754999662804 ], [ 25.9429661, 35.159201399662841 ], [ 25.942864, 35.159393299662852 ], [ 25.9426037, 35.159556099662872 ], [ 25.9424966, 35.159906499662895 ], [ 25.9424914, 35.160181899662916 ], [ 25.9424966, 35.160498999662941 ], [ 25.9425833, 35.160640899662944 ], [ 25.942619, 35.160887099662965 ], [ 25.9426037, 35.161245899662987 ], [ 25.9424455, 35.161575499663002 ], [ 25.9423996, 35.161854999663035 ], [ 25.9423792, 35.162155399663064 ], [ 25.9422924, 35.162322299663067 ], [ 25.942124, 35.162363999663064 ], [ 25.9413278, 35.162376599663077 ], [ 25.94094, 35.162372399663077 ], [ 25.9407511, 35.162464199663077 ], [ 25.9406082, 35.16273949966309 ], [ 25.9406797, 35.162939799663107 ], [ 25.9407358, 35.163411299663153 ], [ 25.9408481, 35.163707499663168 ], [ 25.9410012, 35.164020399663187 ], [ 25.9409859, 35.164174799663201 ], [ 25.9408022, 35.164596199663229 ], [ 25.9405419, 35.165050899663271 ], [ 25.9403276, 35.165705899663322 ], [ 25.9402765, 35.166002199663339 ], [ 25.9400622, 35.166331799663368 ], [ 25.9398223, 35.166494499663379 ], [ 25.9395977, 35.166573699663381 ], [ 25.9395059, 35.166690499663389 ], [ 25.9394702, 35.167061899663409 ], [ 25.939363, 35.167383099663446 ], [ 25.9391742, 35.16760839966345 ], [ 25.9389139, 35.167750199663466 ], [ 25.9385566, 35.167879599663479 ], [ 25.9384086, 35.16801309966349 ], [ 25.9383933, 35.168146599663487 ], [ 25.9385209, 35.168463599663518 ], [ 25.9384495, 35.168789099663542 ], [ 25.9383423, 35.169164499663566 ], [ 25.9383627, 35.16934809966358 ], [ 25.938423, 35.169405699663592 ] ] } },
{ "type": "Feature", "properties": { "osm_id": 1409170756, "name": null, "label": "waterway:stream", "waterway": "stream", "natural": null }, "geometry": { "type": "LineString", "coordinates": [ [ 25.933680370905911, 35.154807762255857 ], [ 25.9334841, 35.155333899662565 ], [ 25.9332566, 35.155488199662571 ], [ 25.9329777, 35.155793499662593 ], [ 25.9329261, 35.155957799662602 ] ] } },
{ "type": "Feature", "properties": { "osm_id": 1409170755, "name": null, "label": "waterway:stream", "waterway": "stream", "natural": null }, "geometry": { "type": "LineString", "coordinates": [ [ 25.9329261, 35.155957799662602 ], [ 25.9328911, 35.156037999662615 ] ] } },
{ "type": "Feature", "properties": { "osm_id": 835041304, "name": null, "label": "natural:cliff", "waterway": null, "natural": "cliff" }, "geometry": { "type": "LineString", "coordinates": [ [ 25.9402801, 35.157534899662728 ], [ 25.9401621, 35.157534899662728 ], [ 25.9400709, 35.157508599662719 ], [ 25.9399663, 35.157451599662714 ], [ 25.9398402, 35.157330999662712 ], [ 25.9397812, 35.157254199662702 ], [ 25.9397597, 35.157197199662704 ] ] } },
{ "type": "Feature", "properties": { "osm_id": 835041305, "name": null, "label": "natural:cliff", "waterway": null, "natural": "cliff" }, "geometry": { "type": "LineString", "coordinates": [ [ 25.9397517, 35.157462599662722 ], [ 25.9398563, 35.157548099662726 ], [ 25.9399341, 35.157598499662726 ], [ 25.9400521, 35.157646799662729 ], [ 25.940154, 35.157659899662725 ], [ 25.9402801, 35.157659899662725 ] ] } },
{ "type": "Feature", "properties": { "osm_id": 1409170733, "name": null, "label": "waterway:stream", "waterway": "stream", "natural": null }, "geometry": { "type": "LineString", "coordinates": [ [ 25.9384847, 35.16945839966359 ], [ 25.9386077, 35.169539999663598 ], [ 25.9391129, 35.169548299663603 ], [ 25.9392405, 35.169598399663599 ], [ 25.9392711, 35.169894599663621 ], [ 25.9393834, 35.17026589966364 ], [ 25.9394957, 35.170787399663695 ], [ 25.9394702, 35.171066899663714 ], [ 25.9395161, 35.171200399663725 ], [ 25.9398478, 35.171759399663749 ], [ 25.939858, 35.172293399663793 ], [ 25.9397253, 35.172677199663823 ], [ 25.9396182, 35.173357199663876 ], [ 25.939511, 35.173711799663891 ], [ 25.9392915, 35.173966199663923 ], [ 25.9389139, 35.174187299663942 ], [ 25.9385107, 35.174416799663966 ], [ 25.9377656, 35.174858999663982 ], [ 25.9372144, 35.17555559966403 ], [ 25.936801, 35.175797599664058 ], [ 25.9364693, 35.176285599664084 ], [ 25.9360508, 35.17700729966414 ], [ 25.9357177, 35.177363399664166 ] ] } },
{ "type": "Feature", "properties": { "osm_id": 1409170732, "name": null, "label": "waterway:stream", "waterway": "stream", "natural": null }, "geometry": { "type": "LineString", "coordinates": [ [ 25.9357177, 35.177363399664166 ], [ 25.9356354, 35.177479099664176 ] ] } },
{ "type": "Feature", "properties": { "osm_id": 1409170730, "name": null, "label": "waterway:stream", "waterway": "stream", "natural": null }, "geometry": { "type": "LineString", "coordinates": [ [ 25.9356354, 35.177479099664176 ], [ 25.9353465, 35.177908399664211 ], [ 25.935182203970033, 35.178132914979066 ] ] } },
{ "type": "Feature", "properties": { "osm_id": 1409170757, "name": null, "label": "waterway:stream", "waterway": "stream", "natural": null }, "geometry": { "type": "LineString", "coordinates": [ [ 25.9328911, 35.156037999662615 ], [ 25.9328361, 35.15610929966261 ], [ 25.9325657, 35.156547899662641 ], [ 25.9324112, 35.156835599662671 ], [ 25.9321194, 35.157270699662696 ], [ 25.9319091, 35.157547799662723 ], [ 25.9318276, 35.157702199662729 ], [ 25.9318276, 35.158088199662757 ], [ 25.9321237, 35.158645999662802 ], [ 25.9322996, 35.159182799662837 ], [ 25.9322481, 35.15927759966285 ], [ 25.9320979, 35.159656499662866 ], [ 25.9320936, 35.160014399662899 ], [ 25.9320164, 35.16027399966292 ], [ 25.931922, 35.160386299662918 ], [ 25.9318919, 35.160694999662944 ], [ 25.9318104, 35.161108999662986 ], [ 25.9317417, 35.161505499663008 ], [ 25.9316087, 35.161870399663037 ], [ 25.9315229, 35.162270299663071 ], [ 25.9314113, 35.162515899663084 ], [ 25.931377, 35.162673799663096 ], [ 25.9313297, 35.16299659966311 ], [ 25.9313641, 35.163291299663136 ], [ 25.9313598, 35.163396499663143 ], [ 25.9312525, 35.163459699663143 ], [ 25.930789, 35.163652599663166 ], [ 25.9306603, 35.163852599663187 ], [ 25.9305101, 35.164424499663227 ], [ 25.9303255, 35.164736699663244 ], [ 25.9299822, 35.165231399663284 ], [ 25.92991159376156, 35.16541809217015 ] ] } },
{ "type": "Feature", "properties": { "osm_id": 1409170734, "name": null, "label": "waterway:stream", "waterway": "stream", "natural": null }, "geometry": { "type": "LineString", "coordinates": [ [ 25.938423, 35.169405699663592 ], [ 25.9384847, 35.16945839966359 ] ] } }
]
}
