{
"type": "FeatureCollection",
"name": "patch_37104_linestring",
"crs": { "type": "name", "properties": { "name": "urn:ogc:def:crs:OGC:1.3:CRS84" } },
"features": [
{ "type": "Feature", "properties": { "element": "way", "id": 27785441, "ele": null, "natural": null, "waterway": "stream", "width": "1", "leaf_type": null, "source": null, "boundary": null, "leisure": null, "name": null, "name:de": null, "name:el": null, "name:en": null, "wikidata": null, "wikipedia": null, "intermittent": null, "label": "waterway:stream" }, "geometry": { "type": "LineString", "coordinates": [ [ 20.9497624, 39.7119951 ], [ 20.9507871, 39.7119229 ], [ 20.9512702, 39.712136 ], [ 20.9521214, 39.7121857 ], [ 20.952217306751404, 39.712218398271958 ] ] } },
{ "type": "Feature", "properties": { "element": "way", "id": 867307215, "ele": null, "natural": null, "waterway": "stream", "width": null, "leaf_type": null, "source": null, "boundary": null, "leisure": null, "name": null, "name:de": null, "name:el": null, "name:en": null, "wikidata": null, "wikipedia": null, "intermittent": "yes", "label": "waterway:stream" }, "geometry": { "type": "LineString", "coordinates": [ [ 20.9301226, 39.7190354 ], [ 20.9303545, 39.7190407 ], [ 20.9306138, 39.7191299 ], [ 20.9309003, 39.7194028 ], [ 20.9311118, 39.7197176 ], [ 20.9312619, 39.7203106 ], [ 20.9313778, 39.7205677 ], [ 20.9315552, 39.7207618 ], [ 20.9317053, 39.7209665 ], [ 20.9319714, 39.7211711 ], [ 20.9324216, 39.721339 ], [ 20.932715, 39.7214965 ], [ 20.9329128, 39.7217326 ], [ 20.9329732, 39.721919 ], [ 20.9328446, 39.7222101 ], [ 20.9328446, 39.7223203 ], [ 20.9329401, 39.7225144 ], [ 20.9329469, 39.7227873 ], [ 20.9330083, 39.7229919 ], [ 20.9331652, 39.7232123 ], [ 20.9331789, 39.723354 ], [ 20.9331789, 39.7234956 ], [ 20.9332607, 39.7236111 ], [ 20.9334176, 39.7236583 ], [ 20.9337792, 39.7236845 ], [ 20.9340453, 39.7238052 ], [ 20.9342295, 39.7239626 ], [ 20.9344137, 39.7241043 ], [ 20.9346115, 39.7242813 ], [ 20.9348571, 39.7244086 ], [ 20.935246, 39.724566 ], [ 20.9354916, 39.7247025 ], [ 20.9356212, 39.7248284 ], [ 20.9356485, 39.7249281 ], [ 20.9355802, 39.7251065 ], [ 20.9355802, 39.7252272 ], [ 20.9358395, 39.7254895 ], [ 20.935854764782942, 39.725524732164054 ] ] } }
]
}
