{
"type": "FeatureCollection",
"name": "patch_33638_polygon",
"crs": { "type": "name", "properties": { "name": "urn:ogc:def:crs:OGC:1.3:CRS84" } },
"features": [
{ "type": "Feature", "properties": { "@type": "way", "@id": 134397798, "ford": null, "highway": null, "landuse": "residential", "natural": null, "source": null, "water": null, "waterway": null, "label": "landuse:residential" }, "geometry": { "type": "Polygon", "coordinates": [ [ [ 22.3361003, 39.8080356 ], [ 22.3363342, 39.8091227 ], [ 22.3382663, 39.808954 ], [ 22.338146558230129, 39.807993478827498 ], [ 22.335989895552768, 39.807993478827498 ], [ 22.3361003, 39.8080356 ] ] ] } },
{ "type": "Feature", "properties": { "@type": "way", "@id": 1023951714, "ford": null, "highway": null, "landuse": null, "natural": "wood", "source": null, "water": null, "waterway": null, "label": "natural:wood" }, "geometry": { "type": "Polygon", "coordinates": [ [ [ 22.332894, 39.8262786 ], [ 22.3331582, 39.8262878 ], [ 22.3334824, 39.8262878 ], [ 22.3338547, 39.8262509 ], [ 22.3341189, 39.8261218 ], [ 22.334359, 39.8260757 ], [ 22.3345872, 39.8261218 ], [ 22.3348874, 39.8259281 ], [ 22.3351996, 39.825799 ], [ 22.3355959, 39.8255961 ], [ 22.3353197, 39.82555 ], [ 22.3350555, 39.8255592 ], [ 22.3347073, 39.8255961 ], [ 22.334335, 39.8256515 ], [ 22.3340708, 39.8256146 ], [ 22.3337706, 39.8256146 ], [ 22.3334944, 39.8256053 ], [ 22.3332062, 39.8257806 ], [ 22.33299, 39.8259005 ], [ 22.3328699, 39.8260019 ], [ 22.3327138, 39.8261679 ], [ 22.3325697, 39.8263063 ], [ 22.332894, 39.8262786 ] ] ] } },
{ "type": "Feature", "properties": { "@type": "way", "@id": 1023951716, "ford": null, "highway": null, "landuse": null, "natural": "wood", "source": null, "water": null, "waterway": null, "label": "natural:wood" }, "geometry": { "type": "Polygon", "coordinates": [ [ [ 22.338767, 39.8305618 ], [ 22.3385389, 39.8306264 ], [ 22.3382386, 39.8306264 ], [ 22.3379745, 39.8306264 ], [ 22.3377103, 39.8306264 ], [ 22.3374461, 39.8305434 ], [ 22.3371699, 39.8304419 ], [ 22.3368937, 39.8304512 ], [ 22.3365814, 39.8303405 ], [ 22.3363052, 39.830109 ], [ 22.3362211, 39.8299245 ], [ 22.3362091, 39.8296202 ], [ 22.3362091, 39.8293343 ], [ 22.3363532, 39.8292329 ], [ 22.3362211, 39.8290669 ], [ 22.3359209, 39.8290577 ], [ 22.3358728, 39.8289101 ], [ 22.3360169, 39.8287441 ], [ 22.3358128, 39.8285136 ], [ 22.3357648, 39.8282738 ], [ 22.3355366, 39.8281078 ], [ 22.3352484, 39.8281078 ], [ 22.3349962, 39.8280893 ], [ 22.334744, 39.8281447 ], [ 22.3345399, 39.8282092 ], [ 22.3344918, 39.8283844 ], [ 22.334684, 39.8285228 ], [ 22.3349001, 39.8286427 ], [ 22.3349962, 39.8288363 ], [ 22.3350923, 39.8290577 ], [ 22.3352124, 39.8291776 ], [ 22.3354165, 39.829196 ], [ 22.3356807, 39.8293067 ], [ 22.3357888, 39.8294819 ], [ 22.3357888, 39.8297217 ], [ 22.3356927, 39.8298969 ], [ 22.3356927, 39.8302197 ], [ 22.3354165, 39.8300444 ], [ 22.3352604, 39.8298877 ], [ 22.3350923, 39.8297124 ], [ 22.3349602, 39.8295372 ], [ 22.334684, 39.8294542 ], [ 22.3346119, 39.829362 ], [ 22.3344318, 39.8291683 ], [ 22.3340715, 39.8291038 ], [ 22.3337833, 39.8290761 ], [ 22.3335071, 39.8289747 ], [ 22.3334231, 39.8287994 ], [ 22.3332069, 39.8286703 ], [ 22.3329667, 39.828615 ], [ 22.3327025, 39.8284674 ], [ 22.3324383, 39.8283752 ], [ 22.3321501, 39.8284121 ], [ 22.3318619, 39.8284121 ], [ 22.331721870709899, 39.8284035172587 ], [ 22.331721870709899, 39.830207517732276 ], [ 22.331826, 39.8302022 ], [ 22.3320902, 39.8302759 ], [ 22.3323424, 39.8302298 ], [ 22.3325105, 39.8300731 ], [ 22.3327987, 39.8302944 ], [ 22.3330749, 39.8303958 ], [ 22.3334352, 39.8305065 ], [ 22.3338194, 39.8305526 ], [ 22.3342518, 39.8305526 ], [ 22.334636, 39.8305618 ], [ 22.334896257737082, 39.830705713338958 ], [ 22.338644511624349, 39.830705713338958 ], [ 22.338767, 39.8305618 ] ] ] } },
{ "type": "Feature", "properties": { "@type": "way", "@id": 1023951717, "ford": null, "highway": null, "landuse": null, "natural": "wood", "source": null, "water": null, "waterway": null, "label": "natural:wood" }, "geometry": { "type": "Polygon", "coordinates": [ [ [ 22.3336985, 39.8268596 ], [ 22.3339507, 39.8268227 ], [ 22.3341669, 39.8267305 ], [ 22.334287, 39.8266198 ], [ 22.3345752, 39.8263063 ], [ 22.334335, 39.8263063 ], [ 22.3340828, 39.8263524 ], [ 22.3338667, 39.8264723 ], [ 22.3336865, 39.8265737 ], [ 22.3335064, 39.8267766 ], [ 22.3333743, 39.8269334 ], [ 22.3336985, 39.8268596 ] ] ] } },
{ "type": "Feature", "properties": { "@type": "way", "@id": 1034028102, "ford": null, "highway": null, "landuse": null, "natural": "water", "source": null, "water": "lake", "waterway": null, "label": "natural:water;water:lake" }, "geometry": { "type": "Polygon", "coordinates": [ [ [ 22.3613588, 39.8304015 ], [ 22.3613844, 39.8304154 ], [ 22.3614296, 39.8304165 ], [ 22.3614702, 39.8304015 ], [ 22.3615003, 39.8303749 ], [ 22.361538, 39.8303495 ], [ 22.3615741, 39.8303217 ], [ 22.3615922, 39.8302928 ], [ 22.3615907, 39.8302616 ], [ 22.3615636, 39.830228 ], [ 22.3615365, 39.8302095 ], [ 22.3615003, 39.830191 ], [ 22.3614446, 39.8301818 ], [ 22.3614235, 39.8302015 ], [ 22.361404, 39.8302385 ], [ 22.3613844, 39.830272 ], [ 22.3613678, 39.8303067 ], [ 22.3613482, 39.8303437 ], [ 22.3613467, 39.8303714 ], [ 22.3613588, 39.8304015 ] ] ] } }
]
}
