{
"type": "FeatureCollection",
"name": "patch_37478_features",
"crs": { "type": "name", "properties": { "name": "urn:ogc:def:crs:OGC:1.3:CRS84" } },
"features": [
{ "type": "Feature", "properties": { "osm_id": 331256854, "name": null, "label": "sport:soccer;leisure:pitch", "sport": "soccer", "leisure": "pitch", "natural": null, "amenity": null, "building": null, "landuse": null, "waterway": null }, "geometry": { "type": "Polygon", "coordinates": [ [ [ 23.8055122, 38.59418830006706 ], [ 23.8060092, 38.593390900066943 ], [ 23.8054234, 38.593201400066889 ], [ 23.8049577, 38.594004400067035 ], [ 23.8055122, 38.59418830006706 ] ] ] } },
{ "type": "Feature", "properties": { "osm_id": 136247652, "name": null, "label": "natural:wood", "sport": null, "leisure": null, "natural": "wood", "amenity": null, "building": null, "landuse": null, "waterway": null }, "geometry": { "type": "Polygon", "coordinates": [ [ [ 23.803899, 38.606346000068825 ], [ 23.802335, 38.605098000068629 ], [ 23.80357, 38.60504700006863 ], [ 23.804807, 38.604919000068605 ], [ 23.805241, 38.604710000068565 ], [ 23.805076, 38.604133000068487 ], [ 23.804242, 38.603686000068421 ], [ 23.803608, 38.603423000068375 ], [ 23.802941, 38.60313300006834 ], [ 23.80224, 38.602870000068314 ], [ 23.801006, 38.602475000068239 ], [ 23.799704, 38.602158000068201 ], [ 23.79907, 38.601947000068186 ], [ 23.798904, 38.601501000068104 ], [ 23.799406, 38.601371000068092 ], [ 23.800843, 38.601085000068046 ], [ 23.802379, 38.60093100006803 ], [ 23.803682, 38.601064000068035 ], [ 23.804317, 38.60090800006801 ], [ 23.803784, 38.600356000067933 ], [ 23.803017, 38.599621000067842 ], [ 23.802415, 38.599147000067767 ], [ 23.801571, 38.598834000067725 ], [ 23.800988, 38.598680000067702 ], [ 23.800404, 38.598527000067683 ], [ 23.799229, 38.598471000067683 ], [ 23.797844, 38.599011000067748 ], [ 23.796598, 38.599606000067837 ], [ 23.796249, 38.600691000067982 ], [ 23.79673, 38.601669000068128 ], [ 23.797281, 38.602484000068252 ], [ 23.796243, 38.602591000068266 ], [ 23.795138, 38.602263000068227 ], [ 23.795139, 38.60161200006813 ], [ 23.795212, 38.60047200006796 ], [ 23.795006830576206, 38.600148421933916 ], [ 23.795006830576206, 38.606015772270226 ], [ 23.795827, 38.606017000068761 ], [ 23.796764, 38.605337000068658 ], [ 23.797969, 38.604553000068556 ], [ 23.798837, 38.604502000068543 ], [ 23.79897, 38.604869000068597 ], [ 23.797229, 38.606229000068794 ], [ 23.796425947112375, 38.606928734800746 ], [ 23.800191034472835, 38.606928734800746 ], [ 23.799424, 38.606718000068859 ], [ 23.79889, 38.606638000068841 ], [ 23.799125, 38.606141000068781 ], [ 23.800396, 38.605514000068688 ], [ 23.801967, 38.606788000068867 ], [ 23.80214578880004, 38.606928734800746 ], [ 23.804453738494342, 38.606928734800746 ], [ 23.803899, 38.606346000068825 ] ] ] } },
{ "type": "Feature", "properties": { "osm_id": 493680952, "name": "Αγία Παρασκευή", "label": "amenity:place_of_worship;building:yes", "sport": null, "leisure": null, "natural": null, "amenity": "place_of_worship", "building": "yes", "landuse": null, "waterway": null }, "geometry": { "type": "Polygon", "coordinates": [ [ [ 23.7993636, 38.588963600066286 ], [ 23.7993889, 38.588922200066278 ], [ 23.7993085, 38.588893500066284 ], [ 23.7992878, 38.588936600066283 ], [ 23.7993636, 38.588963600066286 ] ] ] } },
{ "type": "Feature", "properties": { "osm_id": 331259511, "name": null, "label": "landuse:residential", "sport": null, "leisure": null, "natural": null, "amenity": null, "building": null, "landuse": "residential", "waterway": null }, "geometry": { "type": "Polygon", "coordinates": [ [ [ 23.8018699, 38.58495080006572 ], [ 23.8023956, 38.585588200065807 ], [ 23.8026531, 38.586200400065898 ], [ 23.8022562, 38.586502300065938 ], [ 23.80143, 38.587198400066036 ], [ 23.8015266, 38.587575700066083 ], [ 23.8023098, 38.587860900066154 ], [ 23.8026531, 38.587978300066148 ], [ 23.8033934, 38.587961500066143 ], [ 23.8038655, 38.588037000066151 ], [ 23.8047131, 38.588078900066172 ], [ 23.8053139, 38.588447900066221 ], [ 23.8069232, 38.589437500066367 ], [ 23.8074382, 38.589731000066401 ], [ 23.8079424, 38.589840000066424 ], [ 23.8083609, 38.58922780006634 ], [ 23.8080814, 38.588790000066275 ], [ 23.8071955, 38.587776800066123 ], [ 23.8070066, 38.586707700065958 ], [ 23.8065377, 38.585974500065859 ], [ 23.805945, 38.585373700065773 ], [ 23.8052924, 38.585043100065704 ], [ 23.8048311, 38.584632100065669 ], [ 23.804694929318288, 38.584591463505014 ], [ 23.8018699, 38.584591463505014 ], [ 23.8018699, 38.58495080006572 ] ] ] } },
{ "type": "Feature", "properties": { "osm_id": 331261168, "name": null, "label": "landuse:cemetery", "sport": null, "leisure": null, "natural": null, "amenity": null, "building": null, "landuse": "cemetery", "waterway": null }, "geometry": { "type": "Polygon", "coordinates": [ [ [ 23.8028001, 38.586420800065923 ], [ 23.8028577, 38.586539000065947 ], [ 23.8029345, 38.586644100065961 ], [ 23.8030041, 38.58669290006597 ], [ 23.8031146, 38.586606500065955 ], [ 23.803165, 38.586557700065946 ], [ 23.8030713, 38.586484600065937 ], [ 23.8029849, 38.586432000065933 ], [ 23.8027953, 38.586370100065928 ], [ 23.8028001, 38.586420800065923 ] ] ] } },
{ "type": "Feature", "properties": { "osm_id": 539398672, "name": null, "label": "waterway:stream", "sport": null, "leisure": null, "natural": null, "amenity": null, "building": null, "landuse": null, "waterway": "stream" }, "geometry": { "type": "LineString", "coordinates": [ [ 23.825267957022252, 38.602079655553318 ], [ 23.8249882, 38.601977000068175 ], [ 23.8246997, 38.601885900068169 ], [ 23.8243266, 38.601787900068146 ], [ 23.8240001, 38.601801600068157 ], [ 23.8237523, 38.601844900068158 ], [ 23.82342, 38.601865400068164 ], [ 23.8230411, 38.601885900068169 ], [ 23.8228575, 38.601872200068172 ], [ 23.822598, 38.601858500068161 ], [ 23.8222337, 38.601838000068156 ], [ 23.8220617, 38.601869900068166 ], [ 23.8219131, 38.601901800068177 ], [ 23.8218344, 38.60194280006818 ], [ 23.8218078, 38.602018400068189 ], [ 23.8217294, 38.602131900068201 ], [ 23.8216565, 38.602273100068224 ], [ 23.821572, 38.60240520006824 ], [ 23.8215137, 38.602564700068264 ], [ 23.8214175, 38.602758300068295 ], [ 23.8213213, 38.602917800068319 ], [ 23.8212018, 38.603015700068333 ], [ 23.8210124, 38.603093200068344 ], [ 23.8207879, 38.603136500068359 ], [ 23.8206364, 38.603131900068348 ], [ 23.8204527, 38.603090900068338 ], [ 23.8202807, 38.603018000068325 ], [ 23.8201437, 38.60290180006831 ], [ 23.8200417, 38.602776500068288 ], [ 23.8199863, 38.602671800068272 ], [ 23.8199652, 38.602520100068261 ], [ 23.819963, 38.602389300068218 ], [ 23.8199455, 38.602298200068226 ], [ 23.8197797, 38.602175100068202 ], [ 23.8195492, 38.60208510006818 ], [ 23.81929, 38.602002500068181 ], [ 23.8190643, 38.601998800068174 ], [ 23.8188963, 38.601995000068179 ], [ 23.8188098, 38.602017600068201 ], [ 23.8186994, 38.60213760006819 ], [ 23.8185218, 38.602344000068236 ], [ 23.8183057, 38.602569100068251 ], [ 23.8180752, 38.602858000068309 ], [ 23.817888, 38.603094400068343 ], [ 23.8176191, 38.603394600068377 ], [ 23.8173791, 38.603537200068388 ], [ 23.8172494, 38.603555900068407 ], [ 23.8171006, 38.603548400068412 ], [ 23.8168797, 38.603499700068404 ], [ 23.8166397, 38.603458400068391 ], [ 23.816438, 38.603484700068385 ], [ 23.8162075, 38.603525900068412 ], [ 23.8160443, 38.603563400068403 ], [ 23.8158619, 38.603552200068407 ], [ 23.8157226, 38.6035109000684 ], [ 23.8155354, 38.6035109000684 ], [ 23.8154057, 38.603555900068407 ], [ 23.8153049, 38.603555900068407 ], [ 23.8151993, 38.6035109000684 ], [ 23.8150264, 38.603458400068391 ], [ 23.8148248, 38.603465900068393 ], [ 23.8146135, 38.603492200068395 ], [ 23.8143975, 38.603525900068412 ], [ 23.8142534, 38.603540900068417 ], [ 23.8141046, 38.603480900068398 ], [ 23.8139221, 38.603345800068382 ], [ 23.8137301, 38.603259500068368 ], [ 23.8136148, 38.603237000068368 ], [ 23.8134756, 38.603304500068369 ], [ 23.8132259, 38.603360800068373 ], [ 23.8129859, 38.603417100068384 ], [ 23.8125394, 38.603525900068412 ], [ 23.8124145, 38.603544700068412 ], [ 23.8122753, 38.603492200068395 ], [ 23.8121553, 38.603394600068377 ], [ 23.8119344, 38.603270800068358 ], [ 23.8116559, 38.603177000068349 ], [ 23.8113198, 38.603147000068347 ], [ 23.8109405, 38.60318070006835 ], [ 23.8107005, 38.603214500068361 ], [ 23.8104652, 38.60326330006837 ], [ 23.8103068, 38.603289500068378 ], [ 23.8101387, 38.60324080006837 ], [ 23.8099707, 38.603248300068344 ], [ 23.8097114, 38.603297000068359 ], [ 23.8095049, 38.603312100068372 ], [ 23.8093417, 38.603293300068366 ], [ 23.8092265, 38.603233300068368 ], [ 23.80914, 38.603041900068327 ], [ 23.8091545, 38.602854300068302 ], [ 23.8092361, 38.602677900068279 ], [ 23.8092553, 38.602467800068247 ], [ 23.8091256, 38.60227270006822 ], [ 23.8089288, 38.602193900068222 ], [ 23.8086983, 38.602208900068213 ], [ 23.8084871, 38.602265200068217 ], [ 23.808319, 38.602351500068231 ], [ 23.8081798, 38.602366500068236 ], [ 23.8079781, 38.602347700068236 ], [ 23.8076612, 38.602227700068219 ], [ 23.8072339, 38.60216010006819 ], [ 23.8068834, 38.60218640006822 ], [ 23.8065954, 38.602276500068221 ], [ 23.8063025, 38.60235530006824 ], [ 23.806096, 38.60237780006824 ], [ 23.8058608, 38.60234020006822 ], [ 23.8053998, 38.602265200068217 ], [ 23.8051742, 38.602171400068201 ], [ 23.8050397, 38.602043800068174 ], [ 23.8049629, 38.601867500068153 ], [ 23.8049629, 38.601762400068147 ], [ 23.8050397, 38.601679900068127 ], [ 23.8051982, 38.601522300068112 ], [ 23.8052846, 38.601413400068076 ], [ 23.8053086, 38.601289600068078 ], [ 23.8052654, 38.601169600068062 ], [ 23.8051214, 38.601027000068044 ], [ 23.8049149, 38.600951900068033 ], [ 23.804646, 38.600891900068021 ], [ 23.8043868, 38.600888100068012 ], [ 23.8041707, 38.600858100068024 ], [ 23.8041179, 38.600809300068008 ], [ 23.8040363, 38.600670500067999 ], [ 23.8039403, 38.600475400067964 ], [ 23.8038634, 38.600336500067939 ], [ 23.8037674, 38.600250200067926 ], [ 23.8034169, 38.600141400067905 ], [ 23.8032681, 38.6000814000679 ], [ 23.8031096, 38.599953800067887 ], [ 23.80298, 38.599773700067857 ], [ 23.8027639, 38.599672400067846 ], [ 23.8025815, 38.599488500067821 ], [ 23.8024278, 38.599315900067786 ], [ 23.8023174, 38.59922210006777 ], [ 23.802183, 38.599150800067768 ], [ 23.8020485, 38.599072000067757 ], [ 23.8019621, 38.598910700067734 ], [ 23.8018997, 38.598861900067725 ], [ 23.8017317, 38.598854400067722 ], [ 23.8014292, 38.598899400067737 ], [ 23.8012131, 38.598921900067744 ], [ 23.8010998, 38.598920800067731 ], [ 23.8009269, 38.59874450006771 ], [ 23.8008405, 38.59870320006771 ], [ 23.8006676, 38.598729400067718 ], [ 23.8003556, 38.598733200067706 ], [ 23.8000339, 38.598733200067706 ], [ 23.7997986, 38.59874450006771 ], [ 23.7994673, 38.598736900067706 ], [ 23.7992609, 38.598669400067699 ], [ 23.7991024, 38.598583100067678 ], [ 23.7989632, 38.598496800067672 ], [ 23.798872, 38.59849300006767 ], [ 23.7987999, 38.598571800067688 ], [ 23.7986847, 38.598609400067701 ], [ 23.7985311, 38.598613100067695 ], [ 23.7983294, 38.598568100067681 ], [ 23.7980846, 38.598504300067681 ], [ 23.7978781, 38.598485500067682 ], [ 23.7977197, 38.598526800067674 ], [ 23.7974604, 38.598669400067699 ], [ 23.7972539, 38.598733200067706 ], [ 23.7971243, 38.598733200067706 ], [ 23.7969899, 38.598654400067694 ], [ 23.7969274, 38.598519300067679 ], [ 23.7968362, 38.598388000067658 ], [ 23.7967162, 38.598342900067664 ], [ 23.7965193, 38.598331700067646 ], [ 23.7961784, 38.598361700067656 ], [ 23.7958856, 38.598369200067651 ], [ 23.7955591, 38.598376700067661 ], [ 23.7952758, 38.59839550006766 ], [ 23.7950549, 38.598361700067656 ], [ 23.795006830576206, 38.598347256136307 ] ] } },
{ "type": "Feature", "properties": { "osm_id": 8777439928, "name": "Βράχος Ζαχαρούς", "label": "natural:peak", "sport": null, "leisure": null, "natural": "peak", "amenity": null, "building": null, "landuse": null, "waterway": null }, "geometry": { "type": "Point", "coordinates": [ 23.81529, 38.600690100067986 ] } }
]
}
