{
"type": "FeatureCollection",
"name": "patch_77810_polygon",
"crs": { "type": "name", "properties": { "name": "urn:ogc:def:crs:OGC:1.3:CRS84" } },
"features": [
{ "type": "Feature", "properties": { "osm_id": -2806576, "name": "Τεχνητή Λίμνη Μόρνου", "label": "water:reservoir;natural:water", "water": "reservoir", "natural": "water", "amenity": null, "building": null }, "geometry": { "type": "Polygon", "coordinates": [ [ [ 22.1928336, 38.583703700065541 ], [ 22.1928819, 38.58358210006552 ], [ 22.1929138, 38.583448700065482 ], [ 22.192946, 38.583306100065478 ], [ 22.1929836, 38.58318030006545 ], [ 22.1930321, 38.583074700065438 ], [ 22.1930643, 38.583011800065435 ], [ 22.1930855, 38.58292450006541 ], [ 22.1931231, 38.582832300065412 ], [ 22.1932035, 38.58271490006539 ], [ 22.1932464, 38.582572300065365 ], [ 22.1932735, 38.582324000065327 ], [ 22.1933108, 38.582018800065292 ], [ 22.1933218, 38.581766300065254 ], [ 22.1933323, 38.581477800065215 ], [ 22.1933323, 38.581347800065188 ], [ 22.1933537, 38.581213600065169 ], [ 22.1934235, 38.581154900065172 ], [ 22.1934613, 38.581061800065157 ], [ 22.1934986, 38.580995600065144 ], [ 22.1935522, 38.580949400065137 ], [ 22.1936555, 38.580928900065132 ], [ 22.1936396, 38.580899500065115 ], [ 22.1936544, 38.580847900065116 ], [ 22.1936219, 38.580848800065112 ], [ 22.1935844, 38.580777500065103 ], [ 22.1936053, 38.580736000065116 ], [ 22.1936705, 38.580688600065088 ], [ 22.1936219, 38.580676800065092 ], [ 22.1935525, 38.580642500065096 ], [ 22.1934827, 38.580629900065084 ], [ 22.1934127, 38.580559400065077 ], [ 22.1933701, 38.580445400065059 ], [ 22.1933698, 38.580353900065042 ], [ 22.1933862, 38.580290200065036 ], [ 22.1934506, 38.58026500006504 ], [ 22.1934342, 38.580161000065011 ], [ 22.1933859, 38.580085600065004 ], [ 22.1933647, 38.579992500064996 ], [ 22.1933591, 38.579867500064978 ], [ 22.1933325, 38.579669600064939 ], [ 22.1932894, 38.579590700064941 ], [ 22.1932199, 38.579510200064924 ], [ 22.1932092, 38.579455700064905 ], [ 22.1931821, 38.579297200064886 ], [ 22.1931341, 38.579191500064873 ], [ 22.1930533, 38.579083300064859 ], [ 22.1929463, 38.578939900064839 ], [ 22.1928605, 38.578780500064823 ], [ 22.192839, 38.578696600064816 ], [ 22.1928015, 38.578629500064814 ], [ 22.192769, 38.578529700064777 ], [ 22.1927317, 38.578457600064773 ], [ 22.1927583, 38.578370400064763 ], [ 22.1927154, 38.578278100064743 ], [ 22.1927154, 38.57821520006474 ], [ 22.192769, 38.578181600064724 ], [ 22.1927261, 38.578110400064723 ], [ 22.1927639, 38.578063400064707 ], [ 22.1927639, 38.577987900064706 ], [ 22.1928012, 38.577883900064698 ], [ 22.1928441, 38.577791600064671 ], [ 22.1928817, 38.57771610006467 ], [ 22.1929299, 38.577678400064663 ], [ 22.1929678, 38.577618900064657 ], [ 22.1929675, 38.577565200064647 ], [ 22.1930319, 38.57751900006464 ], [ 22.1931231, 38.577451900064624 ], [ 22.1931499, 38.5773052000646 ], [ 22.1931874, 38.57719610006459 ], [ 22.1932467, 38.577090400064591 ], [ 22.193284, 38.577020000064564 ], [ 22.1933698, 38.57689840006455 ], [ 22.1934345, 38.576792700064516 ], [ 22.1935039, 38.576810300064537 ], [ 22.1935576, 38.576780900064534 ], [ 22.1935951, 38.576718000064524 ], [ 22.193638, 38.576638400064503 ], [ 22.1937453, 38.576479000064488 ], [ 22.1938151, 38.576361600064473 ], [ 22.1938526, 38.576286100064458 ], [ 22.1938633, 38.576172900064442 ], [ 22.1938851, 38.576046200064425 ], [ 22.1939384, 38.575929600064406 ], [ 22.1939599, 38.575837300064393 ], [ 22.1939655, 38.575773600064387 ], [ 22.1940031, 38.575568100064352 ], [ 22.1940189, 38.57542640006433 ], [ 22.1940085, 38.575295500064328 ], [ 22.1939599, 38.575195700064299 ], [ 22.1939334, 38.575085800064279 ], [ 22.1938526, 38.574965000064267 ], [ 22.1937939, 38.574863500064239 ], [ 22.1937349, 38.574830000064246 ], [ 22.1937346, 38.574776300064229 ], [ 22.1937078, 38.574700800064235 ], [ 22.1936541, 38.574608500064215 ], [ 22.1936434, 38.574512100064197 ], [ 22.1936112, 38.574436600064182 ], [ 22.19352, 38.574273000064167 ], [ 22.1934825, 38.574193400064161 ], [ 22.1934774, 38.574142200064145 ], [ 22.1934559, 38.574087700064133 ], [ 22.1934291, 38.574020600064124 ], [ 22.1934503, 38.573954300064116 ], [ 22.1934396, 38.573874600064116 ], [ 22.1934666, 38.573810900064096 ], [ 22.1934717, 38.573719400064093 ], [ 22.1935096, 38.573672500064085 ], [ 22.1935147, 38.573602000064078 ], [ 22.1934935, 38.573487900064066 ], [ 22.1934023, 38.573391500064041 ], [ 22.193284, 38.573342000064024 ], [ 22.1930587, 38.573308400064029 ], [ 22.1929624, 38.573290800064022 ], [ 22.1929195, 38.573227900064012 ], [ 22.1928336, 38.573123100064002 ], [ 22.1927264, 38.573085300063994 ], [ 22.1926513, 38.573039200063995 ], [ 22.1926083, 38.572955300063981 ], [ 22.1926081, 38.572884800063967 ], [ 22.1925812, 38.572771600063952 ], [ 22.1925652, 38.572704500063942 ], [ 22.1925544, 38.572637400063925 ], [ 22.1925061, 38.572603800063924 ], [ 22.1924903, 38.572527500063913 ], [ 22.192474, 38.5724571000639 ], [ 22.1924957, 38.572326200063884 ], [ 22.1924313, 38.572196200063857 ], [ 22.1922755, 38.572134100063856 ], [ 22.1922167, 38.57208290006384 ], [ 22.1922328, 38.57202840006385 ], [ 22.1921846, 38.571986500063829 ], [ 22.1921416, 38.571944500063829 ], [ 22.1921738, 38.571894200063831 ], [ 22.1921306, 38.571811200063806 ], [ 22.192088, 38.571755800063805 ], [ 22.1921145, 38.571689500063798 ], [ 22.1921899, 38.571604800063788 ], [ 22.1921846, 38.571529300063766 ], [ 22.1921416, 38.571428700063755 ], [ 22.1921416, 38.571357400063732 ], [ 22.1921092, 38.571307900063736 ], [ 22.1920558, 38.571198000063731 ], [ 22.1920129, 38.571118300063716 ], [ 22.1919646, 38.571101500063698 ], [ 22.1919646, 38.571042800063708 ], [ 22.1919646, 38.570938000063684 ], [ 22.1919163, 38.570841500063672 ], [ 22.1918305, 38.570732500063656 ], [ 22.19175, 38.570631800063644 ], [ 22.1916532, 38.570582300063634 ], [ 22.1915623, 38.570539500063632 ], [ 22.1914815, 38.570448100063615 ], [ 22.1913903, 38.570313900063596 ], [ 22.1913692, 38.570250100063582 ], [ 22.1913316, 38.570149500063572 ], [ 22.1912401, 38.570070600063559 ], [ 22.1910846, 38.569986700063545 ], [ 22.1909505, 38.56993640006354 ], [ 22.1909239, 38.569709100063506 ], [ 22.1909236, 38.569538000063474 ], [ 22.19087, 38.56943310006347 ], [ 22.1907091, 38.569328300063447 ], [ 22.1906554, 38.569282100063454 ], [ 22.190602, 38.569193200063438 ], [ 22.1905803, 38.569139500063422 ], [ 22.1905106, 38.569106000063421 ], [ 22.1904465, 38.56910510006341 ], [ 22.1903818, 38.569135300063429 ], [ 22.1903499, 38.56907160006341 ], [ 22.1902627, 38.56898470006341 ], [ 22.1902373, 38.568874400063393 ], [ 22.1901941, 38.56880820006338 ], [ 22.1902263, 38.568694900063349 ], [ 22.1902802, 38.568538900063338 ], [ 22.1902802, 38.568484400063326 ], [ 22.1902155, 38.568514600063338 ], [ 22.1901622, 38.568425700063315 ], [ 22.1901673, 38.5683216000633 ], [ 22.1901458, 38.568204200063271 ], [ 22.1900924, 38.568111100063284 ], [ 22.1899956, 38.567973500063253 ], [ 22.1898293, 38.56782250006323 ], [ 22.1897062, 38.567754600063225 ], [ 22.1895879, 38.567675700063219 ], [ 22.1895238, 38.567628700063196 ], [ 22.1895131, 38.567578400063205 ], [ 22.1894323, 38.567419900063179 ], [ 22.1893736, 38.567293200063155 ], [ 22.1892714, 38.56719340006314 ], [ 22.1892288, 38.567083500063127 ], [ 22.1892553, 38.56703400006311 ], [ 22.1893143, 38.566979500063113 ], [ 22.1894162, 38.567000400063108 ], [ 22.1894913, 38.566979500063113 ], [ 22.1895986, 38.566908200063097 ], [ 22.1896791, 38.566811700063091 ], [ 22.1897223, 38.566722800063076 ], [ 22.1897223, 38.566664100063072 ], [ 22.1895721, 38.566529800063044 ], [ 22.189497, 38.566458500063057 ], [ 22.1895235, 38.566371300063018 ], [ 22.1895772, 38.56629580006301 ], [ 22.1896469, 38.566270600062992 ], [ 22.1897488, 38.566178300063001 ], [ 22.1897974, 38.566089400062985 ], [ 22.1898135, 38.565930000062956 ], [ 22.1897918, 38.565876300062946 ], [ 22.1896898, 38.565855400062958 ], [ 22.1895986, 38.565880500062946 ], [ 22.1894272, 38.565955200062952 ], [ 22.1893414, 38.565988800062968 ], [ 22.1892448, 38.565988800062968 ], [ 22.1890783, 38.565947700062956 ], [ 22.1889874, 38.565963600062958 ], [ 22.188864, 38.565913300062952 ], [ 22.1887671, 38.565842800062939 ], [ 22.1887567, 38.565779000062939 ], [ 22.1886438, 38.565712800062926 ], [ 22.1886169, 38.565649900062922 ], [ 22.1885582, 38.565598700062914 ], [ 22.1884938, 38.565544200062917 ], [ 22.1884077, 38.565364600062878 ], [ 22.1883704, 38.565305100062872 ], [ 22.1883112, 38.565230400062859 ], [ 22.1882417, 38.565191800062856 ], [ 22.1881344, 38.565149900062835 ], [ 22.188102, 38.565096200062847 ], [ 22.188059, 38.565041700062835 ], [ 22.1879949, 38.565003100062825 ], [ 22.1879467, 38.564940200062821 ], [ 22.1879306, 38.564856300062807 ], [ 22.1879198, 38.564701100062784 ], [ 22.1879249, 38.564630600062777 ], [ 22.1880269, 38.56463480006277 ], [ 22.1880859, 38.564613800062759 ], [ 22.188161, 38.564550900062763 ], [ 22.1882471, 38.56441580006274 ], [ 22.188338, 38.564257300062728 ], [ 22.188408, 38.564122200062698 ], [ 22.1884831, 38.564017400062681 ], [ 22.188526, 38.563933500062674 ], [ 22.1885904, 38.563912500062671 ], [ 22.1886169, 38.563846200062656 ], [ 22.1887242, 38.563854600062662 ], [ 22.1888208, 38.563833600062651 ], [ 22.1889495, 38.563812700062648 ], [ 22.1890729, 38.563795900062651 ], [ 22.1891588, 38.563741400062653 ], [ 22.1892499, 38.563653300062633 ], [ 22.1893894, 38.563565200062612 ], [ 22.1894913, 38.563489700062611 ], [ 22.1895664, 38.563393200062592 ], [ 22.1896472, 38.563333700062586 ], [ 22.1895774, 38.563312700062561 ], [ 22.1894862, 38.563262400062577 ], [ 22.1894165, 38.563262400062577 ], [ 22.1893036, 38.563246400062567 ], [ 22.189218, 38.563195200062566 ], [ 22.1891644, 38.563157500062559 ], [ 22.1891161, 38.563144900062554 ], [ 22.1891105, 38.562990500062533 ], [ 22.1890571, 38.562943600062532 ], [ 22.1891212, 38.562868900062512 ], [ 22.1891319, 38.562772400062492 ], [ 22.1891641, 38.562692700062499 ], [ 22.1891588, 38.562613000062477 ], [ 22.1892124, 38.562541700062454 ], [ 22.1892717, 38.562486400062461 ], [ 22.1893304, 38.562390700062444 ], [ 22.189379, 38.562280800062439 ], [ 22.1894111, 38.562163400062417 ], [ 22.1894377, 38.562076100062399 ], [ 22.189486, 38.562034200062385 ], [ 22.1895879, 38.562017400062395 ], [ 22.1895289, 38.562000600062383 ], [ 22.1894431, 38.561996400062391 ], [ 22.189368, 38.562017400062395 ], [ 22.1892824, 38.562066900062398 ], [ 22.1892288, 38.562121400062409 ], [ 22.1891588, 38.562109700062422 ], [ 22.1890678, 38.562075300062403 ], [ 22.1889174, 38.562059300062401 ], [ 22.1888211, 38.562087900062402 ], [ 22.1887189, 38.562151600062407 ], [ 22.188633, 38.562235500062428 ], [ 22.1885848, 38.562277500062429 ], [ 22.1885472, 38.562277500062429 ], [ 22.1884885, 38.562188500062419 ], [ 22.1884402, 38.562146600062405 ], [ 22.1883702, 38.562164200062405 ], [ 22.1882575, 38.562290100062434 ], [ 22.1881395, 38.562394900062436 ], [ 22.1880376, 38.562445300062457 ], [ 22.1878552, 38.562495600062455 ], [ 22.1877535, 38.562503100062465 ], [ 22.1875926, 38.562494700062473 ], [ 22.1874475, 38.562441100062465 ], [ 22.1873509, 38.562357200062429 ], [ 22.1872544, 38.562248100062426 ], [ 22.1872115, 38.562139000062416 ], [ 22.1871688, 38.562033300062396 ], [ 22.187142, 38.561932700062371 ], [ 22.1870827, 38.561870600062377 ], [ 22.1870884, 38.56179010006236 ], [ 22.1870615, 38.561706200062346 ], [ 22.1870291, 38.561585400062334 ], [ 22.1870023, 38.561488900062315 ], [ 22.1869111, 38.561426000062298 ], [ 22.1867772, 38.561379000062303 ], [ 22.1867075, 38.561379000062303 ], [ 22.1866214, 38.561346300062283 ], [ 22.1865355, 38.561350500062304 ], [ 22.18645, 38.561282500062283 ], [ 22.1863642, 38.561244700062275 ], [ 22.1861549, 38.561173400062273 ], [ 22.1860581, 38.561132300062269 ], [ 22.1859779, 38.561118900062255 ], [ 22.1858489, 38.561157500062265 ], [ 22.1857687, 38.561173400062273 ], [ 22.1856772, 38.561220400062282 ], [ 22.1855917, 38.561228000062286 ], [ 22.1854522, 38.561232200062264 ], [ 22.1852591, 38.561190200062271 ], [ 22.1850231, 38.561106300062256 ], [ 22.1848082, 38.560985500062237 ], [ 22.184780439296706, 38.560958192886183 ], [ 22.1784087, 38.560958192886183 ], [ 22.1784087, 38.560984700062235 ], [ 22.1783334, 38.56108200006225 ], [ 22.1782314, 38.561098800062247 ], [ 22.1781563, 38.561111400062259 ], [ 22.1781673, 38.561165000062282 ], [ 22.1782424, 38.561207000062275 ], [ 22.1784138, 38.561270800062289 ], [ 22.1785214, 38.561299300062288 ], [ 22.1786126, 38.561328600062303 ], [ 22.1786662, 38.561391600062308 ], [ 22.1787252, 38.561509000062323 ], [ 22.1786981, 38.561606300062337 ], [ 22.1786662, 38.561693600062334 ], [ 22.1786609, 38.56181520006237 ], [ 22.1785911, 38.561983000062391 ], [ 22.1785428, 38.562079500062403 ], [ 22.1784621, 38.562139000062416 ], [ 22.1785265, 38.562143200062415 ], [ 22.1786767, 38.562084500062397 ], [ 22.1787357, 38.5620300000624 ], [ 22.1788001, 38.561996400062391 ], [ 22.1788862, 38.561945300062391 ], [ 22.1789342, 38.561891600062367 ], [ 22.179031, 38.561848800062371 ], [ 22.1791702, 38.561811900062374 ], [ 22.1792399, 38.561803500062361 ], [ 22.1794277, 38.561736400062365 ], [ 22.1795511, 38.561732200062359 ], [ 22.1797388, 38.561707000062349 ], [ 22.1798086, 38.561748900062348 ], [ 22.1799108, 38.56179010006236 ], [ 22.1800073, 38.561886500062371 ], [ 22.1800661, 38.561971300062382 ], [ 22.18012, 38.562083700062416 ], [ 22.180238, 38.562188500062419 ], [ 22.1803665, 38.562298400062431 ], [ 22.1804687, 38.562431800062448 ], [ 22.1805113, 38.562545900062467 ], [ 22.180581, 38.562701100062483 ], [ 22.1806511, 38.562851300062505 ], [ 22.180683, 38.562978000062536 ], [ 22.1806403, 38.563073600062552 ], [ 22.1807101, 38.56312390006255 ], [ 22.1807473, 38.563233800062562 ], [ 22.1807798, 38.563354600062588 ], [ 22.180812, 38.563425900062605 ], [ 22.1808066, 38.56354760006262 ], [ 22.1808493, 38.563586200062616 ], [ 22.1809354, 38.563618900062622 ], [ 22.1809619, 38.563556800062621 ], [ 22.181037, 38.563460300062594 ], [ 22.1811711, 38.563330300062574 ], [ 22.1812731, 38.563242200062561 ], [ 22.181375, 38.563187700062564 ], [ 22.1814501, 38.563158300062554 ], [ 22.181504, 38.563040000062543 ], [ 22.1815842, 38.562919200062524 ], [ 22.1816647, 38.562818600062506 ], [ 22.1817669, 38.562771600062497 ], [ 22.1818739, 38.562709500062489 ], [ 22.1819651, 38.562684300062479 ], [ 22.1820834, 38.562679300062491 ], [ 22.1821799, 38.5627506000625 ], [ 22.1822655, 38.56279760006251 ], [ 22.1823623, 38.562897400062504 ], [ 22.1824318, 38.562998900062532 ], [ 22.1824374, 38.563153300062567 ], [ 22.1824267, 38.563274900062574 ], [ 22.1824693, 38.563351300062592 ], [ 22.1825876, 38.563480500062596 ], [ 22.1826734, 38.563589500062612 ], [ 22.1827161, 38.563699400062639 ], [ 22.1826785, 38.563846200062656 ], [ 22.1826678, 38.56390920006266 ], [ 22.1825873, 38.564005600062671 ], [ 22.1825125, 38.564147400062716 ], [ 22.1824803, 38.564399100062744 ], [ 22.182475, 38.564537500062762 ], [ 22.1824696, 38.564713700062782 ], [ 22.1824535, 38.564847900062794 ], [ 22.1823945, 38.565066000062842 ], [ 22.182362, 38.565213600062854 ], [ 22.1823352, 38.565394000062881 ], [ 22.182314, 38.565586100062902 ], [ 22.1822872, 38.56577480006294 ], [ 22.1822977, 38.565922500062968 ], [ 22.1822818, 38.566227800062997 ], [ 22.1822762, 38.566526500063041 ], [ 22.1822279, 38.56670260006306 ], [ 22.1821796, 38.566832700063088 ], [ 22.1821155, 38.566907300063107 ], [ 22.1820133, 38.566966900063107 ], [ 22.1819546, 38.567029000063116 ], [ 22.1819114, 38.567138900063135 ], [ 22.1818634, 38.567221900063146 ], [ 22.1817988, 38.567264700063149 ], [ 22.1817129, 38.567277300063161 ], [ 22.1816271, 38.567260500063156 ], [ 22.1816542, 38.567326800063157 ], [ 22.1817025, 38.567406400063163 ], [ 22.1817829, 38.567473600063188 ], [ 22.1819385, 38.567540700063198 ], [ 22.1820994, 38.567612000063207 ], [ 22.182126, 38.567709300063221 ], [ 22.1820941, 38.567796500063231 ], [ 22.1820455, 38.567851900063239 ], [ 22.1819919, 38.567914800063242 ], [ 22.1819707, 38.567972700063251 ], [ 22.1818739, 38.568032200063257 ], [ 22.1818202, 38.568095100063275 ], [ 22.1817666, 38.568153900063272 ], [ 22.1818044, 38.568186600063285 ], [ 22.1819117, 38.568169800063295 ], [ 22.1820512, 38.568165600063281 ], [ 22.1822282, 38.568182400063293 ], [ 22.1825283, 38.568258700063282 ], [ 22.182593, 38.568337600063302 ], [ 22.1826252, 38.568421500063309 ], [ 22.1827322, 38.568472600063323 ], [ 22.1828234, 38.568564900063343 ], [ 22.1828824, 38.568665600063348 ], [ 22.1829414, 38.568766200063379 ], [ 22.1829631, 38.568853500063391 ], [ 22.1829307, 38.568967600063402 ], [ 22.1829148, 38.569092500063412 ], [ 22.1829202, 38.569151300063417 ], [ 22.1828824, 38.569298900063444 ], [ 22.1828558, 38.569402900063459 ], [ 22.1828344, 38.569486800063473 ], [ 22.1828558, 38.569642000063496 ], [ 22.1828341, 38.56973930006351 ], [ 22.1826678, 38.569890300063527 ], [ 22.182582, 38.569965800063535 ], [ 22.182582, 38.570016100063555 ], [ 22.1825015, 38.57002870006356 ], [ 22.1824052, 38.570078200063556 ], [ 22.1825393, 38.57006980006355 ], [ 22.1825927, 38.570095800063555 ], [ 22.1826842, 38.570145300063558 ], [ 22.1828719, 38.570195600063578 ], [ 22.1830272, 38.570276100063587 ], [ 22.1830865, 38.570350800063601 ], [ 22.1830755, 38.570452300063607 ], [ 22.1829789, 38.570582300063634 ], [ 22.1827858, 38.570745900063649 ], [ 22.1825766, 38.570880100063683 ], [ 22.1823996, 38.57100170006369 ], [ 22.1823298, 38.571156900063713 ], [ 22.1823406, 38.571240800063727 ], [ 22.1824159, 38.57128610006373 ], [ 22.1824213, 38.571411900063758 ], [ 22.1823942, 38.571639200063792 ], [ 22.1824374, 38.5717894000638 ], [ 22.1824589, 38.571927800063811 ], [ 22.1824267, 38.572032600063842 ], [ 22.1824696, 38.57211230006385 ], [ 22.1824841, 38.572172500063857 ], [ 22.1824157, 38.572205400063872 ], [ 22.1824589, 38.572229700063865 ], [ 22.1825176, 38.572226400063869 ], [ 22.1825125, 38.572267500063873 ], [ 22.1823355, 38.572288500063884 ], [ 22.1824586, 38.572314500063875 ], [ 22.1825232, 38.572384900063902 ], [ 22.1826359, 38.572468800063902 ], [ 22.1827324, 38.572548500063924 ], [ 22.182888, 38.572624000063925 ], [ 22.1829789, 38.572662600063936 ], [ 22.1830865, 38.572754000063952 ], [ 22.1831294, 38.572921700063972 ], [ 22.1831884, 38.573144000063998 ], [ 22.1832743, 38.573337000064029 ], [ 22.1833547, 38.573513100064062 ], [ 22.1833654, 38.573617900064079 ], [ 22.1833652, 38.57369850006409 ], [ 22.1832582, 38.573815100064088 ], [ 22.1831774, 38.573866200064117 ], [ 22.1831345, 38.573924900064114 ], [ 22.1831348, 38.574012200064111 ], [ 22.1830755, 38.574080100064144 ], [ 22.1829843, 38.574138800064141 ], [ 22.1830379, 38.574151400064146 ], [ 22.1831992, 38.57409190006414 ], [ 22.1832957, 38.57410020006413 ], [ 22.1834617, 38.574092700064149 ], [ 22.1835264, 38.574066700064144 ], [ 22.1836066, 38.574071700064124 ], [ 22.1836978, 38.574008800064128 ], [ 22.1837839, 38.573978600064116 ], [ 22.183848, 38.573958500064137 ], [ 22.1839875, 38.573874600064116 ], [ 22.1840575, 38.573890600064097 ], [ 22.1841162, 38.57393330006412 ], [ 22.1841591, 38.574025600064132 ], [ 22.1842023, 38.574159000064149 ], [ 22.1844222, 38.574410600064191 ], [ 22.1845778, 38.574595100064208 ], [ 22.1846422, 38.574746100064239 ], [ 22.1846314, 38.57486770006426 ], [ 22.1845883, 38.574960800064254 ], [ 22.1845456, 38.575081600064287 ], [ 22.1845239, 38.575178900064294 ], [ 22.184551, 38.575266100064312 ], [ 22.1845936, 38.575296300064309 ], [ 22.1846154, 38.5752578000643 ], [ 22.1846205, 38.5751915000643 ], [ 22.1847009, 38.575141200064287 ], [ 22.1848085, 38.57510680006429 ], [ 22.185055, 38.575015400064267 ], [ 22.1851786, 38.57498100006427 ], [ 22.1853396, 38.57498100006427 ], [ 22.1854949, 38.575023700064271 ], [ 22.1856236, 38.575074100064285 ], [ 22.1857041, 38.575128600064282 ], [ 22.1857687, 38.575140300064298 ], [ 22.1859079, 38.575099200064287 ], [ 22.1859991, 38.575027900064278 ], [ 22.1860903, 38.574944100064272 ], [ 22.1861815, 38.574809900064245 ], [ 22.1862834, 38.574679800064231 ], [ 22.1864285, 38.574549000064195 ], [ 22.1865463, 38.574486900064194 ], [ 22.1866538, 38.574427400064188 ], [ 22.1867018, 38.574369500064186 ], [ 22.1867716, 38.574348500064183 ], [ 22.186895, 38.574352700064175 ], [ 22.1869864, 38.574347700064173 ], [ 22.1870881, 38.574432400064183 ], [ 22.1871739, 38.574478500064195 ], [ 22.1872544, 38.574499500064199 ], [ 22.1873244, 38.574574200064212 ], [ 22.1874049, 38.574632900064216 ], [ 22.187496, 38.574708400064232 ], [ 22.1875441, 38.574797300064247 ], [ 22.1875816, 38.574994400064277 ], [ 22.1875872, 38.575085800064279 ], [ 22.1875819, 38.575161300064295 ], [ 22.1876299, 38.575250200064325 ], [ 22.1877106, 38.575333200064321 ], [ 22.1877482, 38.575438100064325 ], [ 22.1878069, 38.575564700064362 ], [ 22.1879252, 38.575677100064368 ], [ 22.1880483, 38.575833200064395 ], [ 22.1880808, 38.575916200064405 ], [ 22.1881398, 38.576012600064416 ], [ 22.1881878, 38.576227400064447 ], [ 22.1882202, 38.576415300064475 ], [ 22.1882202, 38.576574600064497 ], [ 22.1881985, 38.576768400064523 ], [ 22.1881559, 38.576956200064551 ], [ 22.1880966, 38.577020000064564 ], [ 22.1879947, 38.577087100064574 ], [ 22.187941, 38.577150000064599 ], [ 22.1878927, 38.577280000064597 ], [ 22.187882, 38.577477100064634 ], [ 22.1878445, 38.577657400064652 ], [ 22.1878284, 38.577774900064682 ], [ 22.187823, 38.578005500064712 ], [ 22.1878069, 38.578102000064725 ], [ 22.1878176, 38.57821520006474 ], [ 22.1878176, 38.578382900064753 ], [ 22.1878394, 38.578524700064797 ], [ 22.1878445, 38.578622000064804 ], [ 22.1878233, 38.5786757000648 ], [ 22.1878391, 38.578844200064829 ], [ 22.1878447, 38.578965000064848 ], [ 22.1878286, 38.579120200064864 ], [ 22.187882, 38.579263600064884 ], [ 22.1879303, 38.579460700064921 ], [ 22.187941, 38.579657800064936 ], [ 22.1879249, 38.579792000064963 ], [ 22.1879037, 38.579900200064976 ], [ 22.1879359, 38.579929600064979 ], [ 22.1879896, 38.579891800064978 ], [ 22.1880539, 38.579908600064982 ], [ 22.1881291, 38.579971500064993 ], [ 22.1881878, 38.580056200064995 ], [ 22.1882685, 38.58011830006501 ], [ 22.1883541, 38.580161000065011 ], [ 22.1884295, 38.58022310006502 ], [ 22.1884989, 38.580282700065041 ], [ 22.188585, 38.580386700065041 ], [ 22.1886655, 38.580491500065065 ], [ 22.1887352, 38.580583700065084 ], [ 22.1887511, 38.580681000065091 ], [ 22.1887511, 38.58078170006511 ], [ 22.1888586, 38.580818600065108 ], [ 22.1889603, 38.580903300065131 ], [ 22.1890246, 38.581024900065145 ], [ 22.1890732, 38.581141500065158 ], [ 22.1890839, 38.581284100065176 ], [ 22.1891107, 38.581372100065202 ], [ 22.1891751, 38.5814266000652 ], [ 22.1892714, 38.581456800065212 ], [ 22.1893092, 38.581518900065213 ], [ 22.1893411, 38.581662300065233 ], [ 22.1893519, 38.581813300065271 ], [ 22.189379, 38.581900500065281 ], [ 22.1893629, 38.582005300065276 ], [ 22.1893468, 38.582164700065299 ], [ 22.1893629, 38.58228630006532 ], [ 22.1894111, 38.582454000065347 ], [ 22.1894645, 38.582614200065372 ], [ 22.189486, 38.582761000065396 ], [ 22.1895023, 38.582865000065404 ], [ 22.1895664, 38.582949700065413 ], [ 22.1895986, 38.583058700065436 ], [ 22.1896686, 38.583133400065456 ], [ 22.1897223, 38.583246600065465 ], [ 22.1897545, 38.583385000065498 ], [ 22.1898239, 38.583574500065517 ], [ 22.1898615, 38.583629000065521 ], [ 22.1898348, 38.583718900065541 ], [ 22.189834332765276, 38.583724541314389 ], [ 22.192825138143821, 38.583724541314389 ], [ 22.1928336, 38.583703700065541 ] ] ] } },
{ "type": "Feature", "properties": { "osm_id": 547004146, "name": "Υπαπαντή", "label": "amenity:place_of_worship;building:yes", "water": null, "natural": null, "amenity": "place_of_worship", "building": "yes" }, "geometry": { "type": "Polygon", "coordinates": [ [ [ 22.197501, 38.580598300065091 ], [ 22.1976411, 38.580538000065076 ], [ 22.197585, 38.580465000065061 ], [ 22.1974473, 38.580530700065069 ], [ 22.197501, 38.580598300065091 ] ] ] } },
{ "type": "Feature", "properties": { "osm_id": 135877921, "name": null, "label": "natural:wood", "water": null, "natural": "wood", "amenity": null, "building": null }, "geometry": { "type": "Polygon", "coordinates": [ [ [ 22.2037196, 38.561209300062288 ], [ 22.2040285, 38.561603500062333 ], [ 22.204679, 38.561883300062377 ], [ 22.2053132, 38.561832400062372 ], [ 22.2058011, 38.56194680006238 ], [ 22.2065166, 38.56194680006238 ], [ 22.2067931, 38.561730700062348 ], [ 22.2071996, 38.561628900062338 ], [ 22.2073134, 38.561349200062295 ], [ 22.207543795621586, 38.561256548080912 ], [ 22.207543795621586, 38.560958192886183 ], [ 22.203912255139031, 38.560958192886183 ], [ 22.2037196, 38.561209300062288 ] ] ] } }
]
}
