{
"type": "FeatureCollection",
"name": "patch_53466_linestring",
"crs": { "type": "name", "properties": { "name": "urn:ogc:def:crs:OGC:1.3:CRS84" } },
"features": [
{ "type": "Feature", "properties": { "osm_id": 547734261, "name": null, "label": "waterway:stream", "waterway": "stream" }, "geometry": { "type": "MultiLineString", "coordinates": [ [ [ 25.0005038, 35.374975399679336 ], [ 25.0016438, 35.375672999679395 ], [ 25.0026335, 35.376066699679441 ], [ 25.0033738, 35.376173899679429 ], [ 25.0053613, 35.375994499679422 ], [ 25.0060453, 35.375906999679422 ], [ 25.0065388, 35.376020799679424 ], [ 25.0067775, 35.37624379967945 ], [ 25.0071691, 35.37593329967941 ], [ 25.0075634, 35.376097299679429 ], [ 25.0083225, 35.375889499679417 ], [ 25.0090091, 35.37605359967943 ], [ 25.0096555, 35.375826099679408 ], [ 25.0101705, 35.376193499679431 ], [ 25.010648, 35.376171699679439 ], [ 25.010859471201872, 35.376397437933797 ] ], [ [ 25.010896945850966, 35.376397437933797 ], [ 25.0114687, 35.376040499679426 ], [ 25.011812, 35.376337899679449 ], [ 25.0122787, 35.376280999679452 ], [ 25.012373245049631, 35.376397437933797 ] ], [ [ 25.012823411023675, 35.376397437933797 ], [ 25.0129922, 35.376285399679446 ], [ 25.013072118070319, 35.376397437933797 ] ], [ [ 25.024283890486473, 35.376397437933797 ], [ 25.0250487, 35.376159699679441 ], [ 25.025546660635811, 35.37581534956724 ] ] ] } },
{ "type": "Feature", "properties": { "osm_id": 547734260, "name": null, "label": "waterway:stream", "waterway": "stream" }, "geometry": { "type": "LineString", "coordinates": [ [ 24.99927, 35.370498399678993 ], [ 25.0003536, 35.370898699679024 ], [ 25.0013273, 35.37132079967904 ], [ 25.0022768, 35.371532999679076 ], [ 25.0027864, 35.371920099679095 ], [ 25.0033175, 35.372877999679169 ], [ 25.0036474, 35.373232299679202 ], [ 25.0040148, 35.373717899679249 ], [ 25.0042589, 35.37411369967927 ], [ 25.0046023, 35.374413299679297 ], [ 25.005415, 35.3744110996793 ], [ 25.0056376, 35.375229099679359 ], [ 25.0061633, 35.375557099679398 ], [ 25.0060453, 35.375906999679422 ] ] } },
{ "type": "Feature", "properties": { "osm_id": 547734263, "name": null, "label": "waterway:stream", "waterway": "stream" }, "geometry": { "type": "LineString", "coordinates": [ [ 25.0089735, 35.367875899678765 ], [ 25.0094858, 35.368053099678782 ], [ 25.0096217, 35.368067699678789 ], [ 25.0098023, 35.36809689967879 ], [ 25.0101859, 35.368063999678796 ], [ 25.010403, 35.368207599678797 ], [ 25.0105292, 35.368236799678812 ], [ 25.0108404, 35.368348399678815 ], [ 25.0109683, 35.368434799678816 ], [ 25.011358, 35.36856489967883 ], [ 25.0116906, 35.36873989967885 ], [ 25.0125194, 35.368842699678851 ], [ 25.0131873, 35.36882739967885 ], [ 25.0138418, 35.368532099678831 ], [ 25.014338, 35.368667699678845 ], [ 25.0145472, 35.36866329967885 ], [ 25.0146868, 35.368759599678846 ], [ 25.0147725, 35.368847099678845 ], [ 25.0155423, 35.369076699678871 ], [ 25.016186, 35.369398199678898 ], [ 25.0172374, 35.369459499678904 ], [ 25.018085, 35.370163699678962 ], [ 25.0183345, 35.37046559967898 ], [ 25.0189004, 35.370876699679009 ], [ 25.0191874, 35.371031999679026 ], [ 25.0195227, 35.370996999679029 ], [ 25.0199518, 35.371042999679034 ], [ 25.0205848, 35.371084499679043 ], [ 25.0212929, 35.371279199679044 ], [ 25.0222175, 35.371681999679076 ] ] } },
{ "type": "Feature", "properties": { "osm_id": 277822999, "name": null, "label": "waterway:stream", "waterway": "stream" }, "geometry": { "type": "LineString", "coordinates": [ [ 24.997949676865431, 35.367559972967285 ], [ 24.9979892, 35.367540499678746 ], [ 24.9986185, 35.367053599678705 ], [ 24.9995221, 35.366382599678651 ], [ 25.0004741, 35.365790399678616 ], [ 25.0011195, 35.36510619967855 ], [ 25.0015875, 35.364527199678506 ], [ 25.0021709, 35.364052299678463 ], [ 25.002268, 35.363914899678463 ], [ 25.0025692, 35.363494399678416 ], [ 25.0029163, 35.363227899678392 ], [ 25.0030746, 35.362840699678372 ], [ 25.0036566, 35.362445199678348 ], [ 25.0042693, 35.361937199678295 ], [ 25.004448, 35.361523099678266 ], [ 25.0043612, 35.360946299678218 ], [ 25.0043203, 35.360375899678182 ], [ 25.0044276, 35.360034499678143 ], [ 25.004545, 35.359651399678121 ], [ 25.0049177, 35.359276699678091 ], [ 25.0051729, 35.358939399678057 ], [ 25.0051576, 35.358656299678046 ], [ 25.0049789, 35.358414799678023 ], [ 25.0047798, 35.358198299678008 ], [ 25.0047747, 35.35801919967799 ], [ 25.0049585, 35.357694499677962 ], [ 25.0053976, 35.357519599677957 ], [ 25.0054691, 35.357211499677923 ], [ 25.0052291, 35.357007399677912 ], [ 25.0048105, 35.356894999677905 ], [ 25.0047645, 35.35674929967788 ], [ 25.0050607, 35.356550699677875 ], [ 25.0061628, 35.356118499677841 ], [ 25.0072224, 35.355323399677779 ], [ 25.0079854, 35.354355499677688 ], [ 25.0083669, 35.353439299677618 ], [ 25.008354952787393, 35.352864595251404 ] ] } },
{ "type": "Feature", "properties": { "osm_id": 1352927258, "name": null, "label": "waterway:stream", "waterway": "stream" }, "geometry": { "type": "LineString", "coordinates": [ [ 25.0222175, 35.371681999679076 ], [ 25.0230095, 35.371591899679075 ], [ 25.0241227, 35.371550399679066 ], [ 25.024753, 35.371434499679054 ], [ 25.0254128, 35.371158899679024 ], [ 25.025546660635811, 35.371200307676006 ] ] } }
]
}
