{
"type": "FeatureCollection",
"name": "patch_53466_features",
"crs": { "type": "name", "properties": { "name": "urn:ogc:def:crs:OGC:1.3:CRS84" } },
"features": [
{ "type": "Feature", "properties": { "osm_id": 750026252, "name": null, "label": "amenity:school;building:yes", "amenity": "school", "building": "yes", "landuse": null, "sport": null, "leisure": null, "waterway": null, "natural": null, "historic": null }, "geometry": { "type": "Polygon", "coordinates": [ [ [ 25.0219384, 35.362586999678349 ], [ 25.0221584, 35.362451399678335 ], [ 25.0220329, 35.362316099678331 ], [ 25.0218129, 35.362451699678353 ], [ 25.0219384, 35.362586999678349 ] ] ] } },
{ "type": "Feature", "properties": { "osm_id": 100875747, "name": null, "label": "landuse:residential", "amenity": null, "building": null, "landuse": "residential", "sport": null, "leisure": null, "waterway": null, "natural": null, "historic": null }, "geometry": { "type": "Polygon", "coordinates": [ [ [ 25.019613, 35.367075299678717 ], [ 25.0200602, 35.367558299678755 ], [ 25.0204349, 35.367252699678723 ], [ 25.0207371, 35.36632619967866 ], [ 25.0215228, 35.366365599678666 ], [ 25.0215712, 35.366109299678634 ], [ 25.0215591, 35.365517899678586 ], [ 25.0215107, 35.364975699678538 ], [ 25.0214019, 35.364354699678508 ], [ 25.0214745, 35.363615399678437 ], [ 25.0222239, 35.363280299678401 ], [ 25.0227799, 35.36367459967844 ], [ 25.023336, 35.363526699678438 ], [ 25.023614, 35.363161999678404 ], [ 25.0236382, 35.362787399678368 ], [ 25.0230459, 35.362363499678338 ], [ 25.0223085, 35.362304399678322 ], [ 25.0217887, 35.362146599678326 ], [ 25.0204591, 35.362570499678355 ], [ 25.0205316, 35.362974699678396 ], [ 25.0200239, 35.363043699678386 ], [ 25.0200844, 35.363299999678418 ], [ 25.0201206, 35.363625299678439 ], [ 25.0202536, 35.364413899678503 ], [ 25.0200481, 35.36470959967852 ], [ 25.0195646, 35.364768699678535 ], [ 25.019202, 35.366089599678638 ], [ 25.0188273, 35.366542999678671 ], [ 25.018791, 35.36699639967869 ], [ 25.019613, 35.367075299678717 ] ] ] } },
{ "type": "Feature", "properties": { "osm_id": 277822996, "name": null, "label": "sport:soccer;leisure:pitch", "amenity": null, "building": null, "landuse": null, "sport": "soccer", "leisure": "pitch", "waterway": null, "natural": null, "historic": null }, "geometry": { "type": "Polygon", "coordinates": [ [ [ 25.0218579, 35.364486499678499 ], [ 25.0219684, 35.364518599678505 ], [ 25.0221714, 35.364053899678481 ], [ 25.021901, 35.363975299678465 ], [ 25.021698, 35.364439999678495 ], [ 25.0218579, 35.364486499678499 ] ] ] } },
{ "type": "Feature", "properties": { "osm_id": 217317603, "name": "Μονή Σαββαθιανών", "label": "amenity:place_of_worship", "amenity": "place_of_worship", "building": null, "landuse": null, "sport": null, "leisure": null, "waterway": null, "natural": null, "historic": null }, "geometry": { "type": "Polygon", "coordinates": [ [ [ 25.0045714, 35.374207999679285 ], [ 25.0048203, 35.374288599679282 ], [ 25.0050081, 35.374194999679283 ], [ 25.0047657, 35.37375379967925 ], [ 25.0050547, 35.373660899679237 ], [ 25.0054285, 35.373814299679253 ], [ 25.0056883, 35.373602499679237 ], [ 25.0052085, 35.373196099679198 ], [ 25.0043018, 35.37339069967922 ], [ 25.004294, 35.373896799679258 ], [ 25.0045714, 35.374207999679285 ] ] ] } },
{ "type": "Feature", "properties": { "osm_id": 217317599, "name": null, "label": "building:yes", "amenity": null, "building": "yes", "landuse": null, "sport": null, "leisure": null, "waterway": null, "natural": null, "historic": null }, "geometry": { "type": "Polygon", "coordinates": [ [ [ 25.0046226, 35.374093299679267 ], [ 25.0046611, 35.374189099679292 ], [ 25.004761, 35.374162299679277 ], [ 25.00475, 35.374134999679285 ], [ 25.0048844, 35.374098999679276 ], [ 25.0048507, 35.37401519967927 ], [ 25.0046355, 35.374072699679274 ], [ 25.0046164, 35.37407779967927 ], [ 25.0046226, 35.374093299679267 ] ] ] } },
{ "type": "Feature", "properties": { "osm_id": 217317597, "name": null, "label": "building:yes", "amenity": null, "building": "yes", "landuse": null, "sport": null, "leisure": null, "waterway": null, "natural": null, "historic": null }, "geometry": { "type": "Polygon", "coordinates": [ [ [ 25.0047128, 35.373921699679258 ], [ 25.0047144, 35.373915099679259 ], [ 25.0047241, 35.373874799679264 ], [ 25.0045801, 35.373851899679245 ], [ 25.0045689, 35.373898799679253 ], [ 25.0047128, 35.373921699679258 ] ] ] } },
{ "type": "Feature", "properties": { "osm_id": 292095782, "name": null, "label": "building:yes", "amenity": null, "building": "yes", "landuse": null, "sport": null, "leisure": null, "waterway": null, "natural": null, "historic": null }, "geometry": { "type": "Polygon", "coordinates": [ [ [ 25.0047147, 35.373962099679261 ], [ 25.0047233, 35.373926199679261 ], [ 25.004615, 35.373908999679244 ], [ 25.0046064, 35.373944899679259 ], [ 25.0047147, 35.373962099679261 ] ] ] } },
{ "type": "Feature", "properties": { "osm_id": 217317602, "name": null, "label": "building:yes", "amenity": null, "building": "yes", "landuse": null, "sport": null, "leisure": null, "waterway": null, "natural": null, "historic": null }, "geometry": { "type": "Polygon", "coordinates": [ [ [ 25.004587, 35.374108299679285 ], [ 25.0046226, 35.374093299679267 ], [ 25.0046164, 35.37407779967927 ], [ 25.0046355, 35.374072699679274 ], [ 25.0046182, 35.374048799679272 ], [ 25.0046951, 35.374019699679266 ], [ 25.0046932, 35.373966199679259 ], [ 25.0045864, 35.373969299679253 ], [ 25.0045068, 35.374020899679266 ], [ 25.004587, 35.374108299679285 ] ] ] } },
{ "type": "Feature", "properties": { "osm_id": 217317596, "name": null, "label": "building:yes", "amenity": null, "building": "yes", "landuse": null, "sport": null, "leisure": null, "waterway": null, "natural": null, "historic": null }, "geometry": { "type": "Polygon", "coordinates": [ [ [ 25.0045068, 35.374020899679266 ], [ 25.0045864, 35.373969299679253 ], [ 25.0044477, 35.373827199679241 ], [ 25.0043681, 35.373878799679254 ], [ 25.0045068, 35.374020899679266 ] ] ] } },
{ "type": "Feature", "properties": { "osm_id": 217317600, "name": null, "label": "building:yes", "amenity": null, "building": "yes", "landuse": null, "sport": null, "leisure": null, "waterway": null, "natural": null, "historic": null }, "geometry": { "type": "Polygon", "coordinates": [ [ [ 25.0044349, 35.373618699679241 ], [ 25.004501, 35.373546299679234 ], [ 25.0044131, 35.373492899679228 ], [ 25.0044386, 35.373464999679229 ], [ 25.004391, 35.373435999679216 ], [ 25.0042993, 35.373536299679223 ], [ 25.0044349, 35.373618699679241 ] ] ] } },
{ "type": "Feature", "properties": { "osm_id": 217317601, "name": null, "label": "building:yes", "amenity": null, "building": "yes", "landuse": null, "sport": null, "leisure": null, "waterway": null, "natural": null, "historic": null }, "geometry": { "type": "Polygon", "coordinates": [ [ [ 25.0046368, 35.373791699679245 ], [ 25.0047696, 35.373656399679241 ], [ 25.0047221, 35.373625399679234 ], [ 25.0048025, 35.37354359967923 ], [ 25.0047259, 35.373493599679222 ], [ 25.0046466, 35.373574299679234 ], [ 25.0045742, 35.373526999679228 ], [ 25.0044402, 35.373663499679239 ], [ 25.0046368, 35.373791699679245 ] ] ] } },
{ "type": "Feature", "properties": { "osm_id": 292095783, "name": null, "label": "building:yes", "amenity": null, "building": "yes", "landuse": null, "sport": null, "leisure": null, "waterway": null, "natural": null, "historic": null }, "geometry": { "type": "Polygon", "coordinates": [ [ [ 25.0048025, 35.37354359967923 ], [ 25.0048776, 35.373467099679218 ], [ 25.004801, 35.373417099679216 ], [ 25.0047259, 35.373493599679222 ], [ 25.0048025, 35.37354359967923 ] ] ] } },
{ "type": "Feature", "properties": { "osm_id": 217317598, "name": null, "label": "building:church", "amenity": null, "building": "church", "landuse": null, "sport": null, "leisure": null, "waterway": null, "natural": null, "historic": null }, "geometry": { "type": "Polygon", "coordinates": [ [ [ 25.0049931, 35.373579499679224 ], [ 25.0052106, 35.373542899679229 ], [ 25.0051803, 35.373423299679224 ], [ 25.0049628, 35.37345999967922 ], [ 25.0049931, 35.373579499679224 ] ] ] } },
{ "type": "Feature", "properties": { "osm_id": 217317595, "name": null, "label": "building:yes", "amenity": null, "building": "yes", "landuse": null, "sport": null, "leisure": null, "waterway": null, "natural": null, "historic": null }, "geometry": { "type": "Polygon", "coordinates": [ [ [ 25.005585, 35.373671099679235 ], [ 25.0056712, 35.373603799679223 ], [ 25.0054556, 35.373420399679212 ], [ 25.0053695, 35.37348769967921 ], [ 25.005585, 35.373671099679235 ] ] ] } },
{ "type": "Feature", "properties": { "osm_id": 547734264, "name": null, "label": "landuse:cemetery", "amenity": null, "building": null, "landuse": "cemetery", "sport": null, "leisure": null, "waterway": null, "natural": null, "historic": null }, "geometry": { "type": "Polygon", "coordinates": [ [ [ 25.0182325, 35.368492699678825 ], [ 25.0185222, 35.368396499678816 ], [ 25.0186644, 35.368499299678831 ], [ 25.0191686, 35.368387699678813 ], [ 25.0192062, 35.368289299678814 ], [ 25.0186268, 35.368081499678787 ], [ 25.0185383, 35.368007199678786 ], [ 25.0183666, 35.367707499678758 ], [ 25.0182674, 35.367749099678754 ], [ 25.018254, 35.367812499678763 ], [ 25.0181601, 35.367961199678774 ], [ 25.0183827, 35.368120899678786 ], [ 25.0184927, 35.3681974996788 ], [ 25.018423, 35.368260899678802 ], [ 25.0182969, 35.368252099678813 ], [ 25.0181226, 35.368302399678804 ], [ 25.0182325, 35.368492699678825 ] ] ] } },
{ "type": "Feature", "properties": { "osm_id": 547734268, "name": null, "label": "amenity:place_of_worship;building:church", "amenity": "place_of_worship", "building": "church", "landuse": null, "sport": null, "leisure": null, "waterway": null, "natural": null, "historic": null }, "geometry": { "type": "Polygon", "coordinates": [ [ [ 25.0197999, 35.3655652996786 ], [ 25.0198128, 35.365464199678577 ], [ 25.0196015, 35.365446299678581 ], [ 25.0195886, 35.365547299678589 ], [ 25.0197999, 35.3655652996786 ] ] ] } },
{ "type": "Feature", "properties": { "osm_id": 547734261, "name": null, "label": "waterway:stream", "amenity": null, "building": null, "landuse": null, "sport": null, "leisure": null, "waterway": "stream", "natural": null, "historic": null }, "geometry": { "type": "MultiLineString", "coordinates": [ [ [ 25.0005038, 35.374975399679336 ], [ 25.0016438, 35.375672999679395 ], [ 25.0026335, 35.376066699679441 ], [ 25.0033738, 35.376173899679429 ], [ 25.0053613, 35.375994499679422 ], [ 25.0060453, 35.375906999679422 ], [ 25.0065388, 35.376020799679424 ], [ 25.0067775, 35.37624379967945 ], [ 25.0071691, 35.37593329967941 ], [ 25.0075634, 35.376097299679429 ], [ 25.0083225, 35.375889499679417 ], [ 25.0090091, 35.37605359967943 ], [ 25.0096555, 35.375826099679408 ], [ 25.0101705, 35.376193499679431 ], [ 25.010648, 35.376171699679439 ], [ 25.010859471201872, 35.376397437933797 ] ], [ [ 25.010896945850966, 35.376397437933797 ], [ 25.0114687, 35.376040499679426 ], [ 25.011812, 35.376337899679449 ], [ 25.0122787, 35.376280999679452 ], [ 25.012373245049631, 35.376397437933797 ] ], [ [ 25.012823411023675, 35.376397437933797 ], [ 25.0129922, 35.376285399679446 ], [ 25.013072118070319, 35.376397437933797 ] ], [ [ 25.024283890486473, 35.376397437933797 ], [ 25.0250487, 35.376159699679441 ], [ 25.025546660635811, 35.37581534956724 ] ] ] } },
{ "type": "Feature", "properties": { "osm_id": 547734260, "name": null, "label": "waterway:stream", "amenity": null, "building": null, "landuse": null, "sport": null, "leisure": null, "waterway": "stream", "natural": null, "historic": null }, "geometry": { "type": "LineString", "coordinates": [ [ 24.99927, 35.370498399678993 ], [ 25.0003536, 35.370898699679024 ], [ 25.0013273, 35.37132079967904 ], [ 25.0022768, 35.371532999679076 ], [ 25.0027864, 35.371920099679095 ], [ 25.0033175, 35.372877999679169 ], [ 25.0036474, 35.373232299679202 ], [ 25.0040148, 35.373717899679249 ], [ 25.0042589, 35.37411369967927 ], [ 25.0046023, 35.374413299679297 ], [ 25.005415, 35.3744110996793 ], [ 25.0056376, 35.375229099679359 ], [ 25.0061633, 35.375557099679398 ], [ 25.0060453, 35.375906999679422 ] ] } },
{ "type": "Feature", "properties": { "osm_id": 547734263, "name": null, "label": "waterway:stream", "amenity": null, "building": null, "landuse": null, "sport": null, "leisure": null, "waterway": "stream", "natural": null, "historic": null }, "geometry": { "type": "LineString", "coordinates": [ [ 25.0089735, 35.367875899678765 ], [ 25.0094858, 35.368053099678782 ], [ 25.0096217, 35.368067699678789 ], [ 25.0098023, 35.36809689967879 ], [ 25.0101859, 35.368063999678796 ], [ 25.010403, 35.368207599678797 ], [ 25.0105292, 35.368236799678812 ], [ 25.0108404, 35.368348399678815 ], [ 25.0109683, 35.368434799678816 ], [ 25.011358, 35.36856489967883 ], [ 25.0116906, 35.36873989967885 ], [ 25.0125194, 35.368842699678851 ], [ 25.0131873, 35.36882739967885 ], [ 25.0138418, 35.368532099678831 ], [ 25.014338, 35.368667699678845 ], [ 25.0145472, 35.36866329967885 ], [ 25.0146868, 35.368759599678846 ], [ 25.0147725, 35.368847099678845 ], [ 25.0155423, 35.369076699678871 ], [ 25.016186, 35.369398199678898 ], [ 25.0172374, 35.369459499678904 ], [ 25.018085, 35.370163699678962 ], [ 25.0183345, 35.37046559967898 ], [ 25.0189004, 35.370876699679009 ], [ 25.0191874, 35.371031999679026 ], [ 25.0195227, 35.370996999679029 ], [ 25.0199518, 35.371042999679034 ], [ 25.0205848, 35.371084499679043 ], [ 25.0212929, 35.371279199679044 ], [ 25.0222175, 35.371681999679076 ] ] } },
{ "type": "Feature", "properties": { "osm_id": 277822999, "name": null, "label": "waterway:stream", "amenity": null, "building": null, "landuse": null, "sport": null, "leisure": null, "waterway": "stream", "natural": null, "historic": null }, "geometry": { "type": "LineString", "coordinates": [ [ 24.997949676865431, 35.367559972967285 ], [ 24.9979892, 35.367540499678746 ], [ 24.9986185, 35.367053599678705 ], [ 24.9995221, 35.366382599678651 ], [ 25.0004741, 35.365790399678616 ], [ 25.0011195, 35.36510619967855 ], [ 25.0015875, 35.364527199678506 ], [ 25.0021709, 35.364052299678463 ], [ 25.002268, 35.363914899678463 ], [ 25.0025692, 35.363494399678416 ], [ 25.0029163, 35.363227899678392 ], [ 25.0030746, 35.362840699678372 ], [ 25.0036566, 35.362445199678348 ], [ 25.0042693, 35.361937199678295 ], [ 25.004448, 35.361523099678266 ], [ 25.0043612, 35.360946299678218 ], [ 25.0043203, 35.360375899678182 ], [ 25.0044276, 35.360034499678143 ], [ 25.004545, 35.359651399678121 ], [ 25.0049177, 35.359276699678091 ], [ 25.0051729, 35.358939399678057 ], [ 25.0051576, 35.358656299678046 ], [ 25.0049789, 35.358414799678023 ], [ 25.0047798, 35.358198299678008 ], [ 25.0047747, 35.35801919967799 ], [ 25.0049585, 35.357694499677962 ], [ 25.0053976, 35.357519599677957 ], [ 25.0054691, 35.357211499677923 ], [ 25.0052291, 35.357007399677912 ], [ 25.0048105, 35.356894999677905 ], [ 25.0047645, 35.35674929967788 ], [ 25.0050607, 35.356550699677875 ], [ 25.0061628, 35.356118499677841 ], [ 25.0072224, 35.355323399677779 ], [ 25.0079854, 35.354355499677688 ], [ 25.0083669, 35.353439299677618 ], [ 25.008354952787393, 35.352864595251404 ] ] } },
{ "type": "Feature", "properties": { "osm_id": 1352927258, "name": null, "label": "waterway:stream", "amenity": null, "building": null, "landuse": null, "sport": null, "leisure": null, "waterway": "stream", "natural": null, "historic": null }, "geometry": { "type": "LineString", "coordinates": [ [ 25.0222175, 35.371681999679076 ], [ 25.0230095, 35.371591899679075 ], [ 25.0241227, 35.371550399679066 ], [ 25.024753, 35.371434499679054 ], [ 25.0254128, 35.371158899679024 ], [ 25.025546660635811, 35.371200307676006 ] ] } },
{ "type": "Feature", "properties": { "osm_id": 8283231679, "name": null, "label": "natural:peak", "amenity": null, "building": null, "landuse": null, "sport": null, "leisure": null, "waterway": null, "natural": "peak", "historic": null }, "geometry": { "type": "Point", "coordinates": [ 25.0072308, 35.369120699678874 ] } },
{ "type": "Feature", "properties": { "osm_id": 8283231678, "name": null, "label": "natural:peak", "amenity": null, "building": null, "landuse": null, "sport": null, "leisure": null, "waterway": null, "natural": "peak", "historic": null }, "geometry": { "type": "Point", "coordinates": [ 25.0131277, 35.362466099678343 ] } },
{ "type": "Feature", "properties": { "osm_id": 5292221273, "name": null, "label": "amenity:place_of_worship;building:chapel", "amenity": "place_of_worship", "building": "chapel", "landuse": null, "sport": null, "leisure": null, "waterway": null, "natural": null, "historic": null }, "geometry": { "type": "Point", "coordinates": [ 25.0150119, 35.369389499678896 ] } },
{ "type": "Feature", "properties": { "osm_id": 7013476277, "name": null, "label": "leisure:picnic_table", "amenity": null, "building": null, "landuse": null, "sport": null, "leisure": "picnic_table", "waterway": null, "natural": null, "historic": null }, "geometry": { "type": "Point", "coordinates": [ 25.0179934, 35.370537899678986 ] } },
{ "type": "Feature", "properties": { "osm_id": 3741483481, "name": "Taverna Kegos", "label": "amenity:restaurant", "amenity": "restaurant", "building": null, "landuse": null, "sport": null, "leisure": null, "waterway": null, "natural": null, "historic": null }, "geometry": { "type": "Point", "coordinates": [ 25.0202587, 35.367002799678716 ] } },
{ "type": "Feature", "properties": { "osm_id": 5292221340, "name": "Το μέγαρο των Μοδινών", "label": "historic:castle", "amenity": null, "building": null, "landuse": null, "sport": null, "leisure": null, "waterway": null, "natural": null, "historic": "castle" }, "geometry": { "type": "Point", "coordinates": [ 25.0205265, 35.365384099678586 ] } },
{ "type": "Feature", "properties": { "osm_id": 8283231677, "name": null, "label": "natural:peak", "amenity": null, "building": null, "landuse": null, "sport": null, "leisure": null, "waterway": null, "natural": "peak", "historic": null }, "geometry": { "type": "Point", "coordinates": [ 25.012177, 35.355812499677825 ] } },
{ "type": "Feature", "properties": { "osm_id": 9826698027, "name": "ΑΠ", "label": "amenity:fuel", "amenity": "fuel", "building": null, "landuse": null, "sport": null, "leisure": null, "waterway": null, "natural": null, "historic": null }, "geometry": { "type": "Point", "coordinates": [ 25.0220683, 35.362970299678388 ] } }
]
}
