{
"type": "FeatureCollection",
"name": "patch_32721_linestring",
"crs": { "type": "name", "properties": { "name": "urn:ogc:def:crs:OGC:1.3:CRS84" } },
"features": [
{ "type": "Feature", "properties": { "osm_id": 552156674, "name": null, "label": "waterway:stream", "waterway": "stream" }, "geometry": { "type": "LineString", "coordinates": [ [ 22.016385454395717, 38.463222467103925 ], [ 22.0159202, 38.463083200048089 ], [ 22.0156654, 38.462850400048062 ], [ 22.0153398, 38.462517900048013 ], [ 22.0153257, 38.462240700047964 ], [ 22.0154531, 38.462019000047945 ], [ 22.0151416, 38.461664300047907 ], [ 22.0146178, 38.461353900047833 ], [ 22.0137967, 38.460988100047793 ], [ 22.0132021, 38.460877300047784 ], [ 22.0127916, 38.460666600047752 ], [ 22.0125651, 38.460522500047723 ], [ 22.0123244, 38.460489300047712 ], [ 22.0117865, 38.460500400047714 ], [ 22.0114325, 38.460323000047701 ], [ 22.0110362, 38.460378400047709 ], [ 22.0107389, 38.460323000047701 ], [ 22.0103425, 38.459857400047632 ], [ 22.0100735, 38.459547000047593 ], [ 22.0098753, 38.459425100047568 ], [ 22.0097054, 38.459192300047526 ], [ 22.009578, 38.459103600047527 ], [ 22.0093657, 38.459159000047528 ], [ 22.0091816, 38.458981700047509 ], [ 22.008856, 38.458626900047463 ], [ 22.0085304, 38.458394100047421 ], [ 22.0082048, 38.458372000047419 ], [ 22.0079217, 38.458294400047407 ], [ 22.007681, 38.45811700004738 ], [ 22.0073129, 38.458028300047374 ], [ 22.0071147, 38.458172400047395 ], [ 22.0068741, 38.458272200047396 ], [ 22.0066334, 38.458150200047378 ], [ 22.0065201, 38.458006100047371 ], [ 22.0063503, 38.458006100047371 ], [ 22.006237, 38.458039400047362 ], [ 22.0061096, 38.458205700047394 ], [ 22.00606, 38.458294400047407 ], [ 22.0059256, 38.458277700047397 ], [ 22.0057769, 38.45818350004739 ], [ 22.0056495, 38.458017200047372 ], [ 22.0055575, 38.457923000047352 ], [ 22.005423, 38.457917500047358 ], [ 22.0052673, 38.457945200047348 ], [ 22.0051469, 38.457834300047345 ], [ 22.0050195, 38.457717900047328 ], [ 22.0048992, 38.457673600047308 ], [ 22.0046373, 38.457640300047316 ], [ 22.0041418, 38.457479600047279 ], [ 22.0037383, 38.457307700047267 ], [ 22.0035047, 38.457235700047235 ], [ 22.0033773, 38.457152500047222 ], [ 22.0032782, 38.457030600047226 ], [ 22.0032145, 38.456814400047193 ], [ 22.003073, 38.456714600047178 ], [ 22.0029456, 38.456709100047185 ], [ 22.0027049, 38.456759000047178 ], [ 22.002443, 38.456747900047183 ], [ 22.0022023, 38.456797800047191 ], [ 22.00199, 38.456814400047193 ], [ 22.0017776, 38.456731300047196 ], [ 22.001636, 38.456614900047171 ], [ 22.0014379, 38.456492900047145 ], [ 22.0013104, 38.456415300047148 ], [ 22.0011335, 38.456354400047132 ], [ 22.0010273, 38.456393200047124 ], [ 22.0008574, 38.456476300047143 ], [ 22.0007371, 38.456598200047175 ], [ 22.0006097, 38.456631500047173 ], [ 22.0005177, 38.456681400047181 ], [ 22.0002699, 38.456858800047193 ], [ 22.0001284, 38.456842100047204 ], [ 21.9999514, 38.456864300047194 ], [ 21.999824, 38.456958500047207 ], [ 21.9997815, 38.457119300047239 ], [ 21.9996683, 38.457196900047251 ], [ 21.9994276, 38.457252300047259 ], [ 21.9991445, 38.457163600047238 ], [ 21.9989746, 38.457041700047228 ], [ 21.9988118, 38.4569530000472 ], [ 21.9986631, 38.45687540004721 ], [ 21.998288, 38.456853200047185 ] ] } },
{ "type": "Feature", "properties": { "osm_id": 552156676, "name": null, "label": "waterway:stream", "waterway": "stream" }, "geometry": { "type": "MultiLineString", "coordinates": [ [ [ 21.9979978, 38.456836600047197 ], [ 21.9976934, 38.456753400047184 ], [ 21.9976226, 38.456631500047173 ], [ 21.9974598, 38.456498500047147 ], [ 21.9972545, 38.456432000047144 ], [ 21.9968935, 38.456393200047124 ], [ 21.9966245, 38.45644300004713 ], [ 21.996391, 38.456498500047147 ], [ 21.9961503, 38.456642600047175 ], [ 21.9961574, 38.456786700047189 ], [ 21.9960937, 38.4569530000472 ], [ 21.9960087, 38.457091600047235 ], [ 21.9958884, 38.457185800047242 ], [ 21.9957397, 38.457191300047249 ], [ 21.9955557, 38.457080500047226 ], [ 21.9954, 38.457019500047217 ], [ 21.9951806, 38.456958500047207 ], [ 21.9949399, 38.456980700047211 ], [ 21.9948196, 38.457080500047226 ], [ 21.9946568, 38.457152500047222 ], [ 21.9944515, 38.457196900047251 ], [ 21.9942604, 38.457147000047229 ], [ 21.9941046, 38.456997300047206 ], [ 21.9940126, 38.456825500047188 ], [ 21.9938286, 38.456637000047159 ], [ 21.9935808, 38.456409800047133 ], [ 21.9934463, 38.456476300047143 ], [ 21.9932765, 38.456576100047165 ], [ 21.9931207, 38.456581600047151 ], [ 21.9929296, 38.456426400047128 ], [ 21.9927314, 38.456293400047116 ], [ 21.9923492, 38.456282300047114 ], [ 21.9920873, 38.456177000047091 ], [ 21.9917617, 38.456104900047094 ], [ 21.9915847, 38.456066100047096 ], [ 21.991245, 38.456043900047085 ], [ 21.9908557, 38.456282300047114 ], [ 21.9906221, 38.456376500047114 ], [ 21.9904593, 38.45643750004713 ], [ 21.9900063, 38.456260100047103 ], [ 21.9897868, 38.456193600047115 ], [ 21.9894329, 38.456193600047115 ], [ 21.9890011, 38.45625460004711 ], [ 21.9885198, 38.456276800047114 ], [ 21.9881092, 38.456332200047122 ], [ 21.9878898, 38.45629890004713 ], [ 21.9873023, 38.456132600047077 ], [ 21.9871041, 38.456032900047077 ], [ 21.9867927, 38.455783400047039 ], [ 21.986729421983554, 38.455650110904514 ] ], [ [ 21.986729421983554, 38.449194561027397 ], [ 21.9867431, 38.449164800046091 ], [ 21.9867856, 38.449037300046072 ], [ 21.986729421983554, 38.448976808297736 ] ] ] } },
{ "type": "Feature", "properties": { "osm_id": 552156675, "name": null, "label": "waterway:stream", "waterway": "stream" }, "geometry": { "type": "LineString", "coordinates": [ [ 21.998288, 38.456853200047185 ], [ 21.9979978, 38.456836600047197 ] ] } }
]
}
