{
"type": "FeatureCollection",
"name": "patch_33638_polygon",
"crs": { "type": "name", "properties": { "name": "urn:ogc:def:crs:OGC:1.3:CRS84" } },
"features": [
{ "type": "Feature", "properties": { "osm_id": 1034028102, "name": null, "label": "water:lake;natural:water", "water": "lake", "natural": "water", "landuse": null }, "geometry": { "type": "Polygon", "coordinates": [ [ [ 22.3613588, 39.830401500244086 ], [ 22.3613844, 39.8304154002441 ], [ 22.3614296, 39.830416500244112 ], [ 22.3614702, 39.830401500244086 ], [ 22.3615003, 39.830374900244109 ], [ 22.361538, 39.830349500244083 ], [ 22.3615741, 39.830321700244077 ], [ 22.3615922, 39.830292800244095 ], [ 22.3615907, 39.830261600244086 ], [ 22.3615636, 39.83022800024407 ], [ 22.3615365, 39.830209500244074 ], [ 22.3615003, 39.830191000244071 ], [ 22.3614446, 39.83018180024407 ], [ 22.3614235, 39.830201500244073 ], [ 22.361404, 39.830238500244072 ], [ 22.3613844, 39.830272000244072 ], [ 22.3613678, 39.830306700244094 ], [ 22.3613482, 39.830343700244086 ], [ 22.3613467, 39.83037140024409 ], [ 22.3613588, 39.830401500244086 ] ] ] } },
{ "type": "Feature", "properties": { "osm_id": 1023951716, "name": null, "label": "natural:wood", "water": null, "natural": "wood", "landuse": null }, "geometry": { "type": "Polygon", "coordinates": [ [ [ 22.338767, 39.830561800244119 ], [ 22.3385389, 39.830626400244135 ], [ 22.3382386, 39.830626400244135 ], [ 22.3379745, 39.830626400244135 ], [ 22.3377103, 39.830626400244135 ], [ 22.3374461, 39.830543400244117 ], [ 22.3371699, 39.830441900244097 ], [ 22.3368937, 39.830451200244113 ], [ 22.3365814, 39.830340500244091 ], [ 22.3363052, 39.830109000244057 ], [ 22.3362211, 39.829924500244026 ], [ 22.3362091, 39.829620200243994 ], [ 22.3362091, 39.829334300243957 ], [ 22.3363532, 39.829232900243944 ], [ 22.3362211, 39.829066900243916 ], [ 22.3359209, 39.829057700243908 ], [ 22.3358728, 39.828910100243903 ], [ 22.3360169, 39.828744100243874 ], [ 22.3358128, 39.828513600243838 ], [ 22.3357648, 39.828273800243807 ], [ 22.3355366, 39.828107800243778 ], [ 22.3352484, 39.828107800243778 ], [ 22.3349962, 39.828089300243782 ], [ 22.334744, 39.828144700243783 ], [ 22.3345399, 39.828209200243798 ], [ 22.3344918, 39.82838440024382 ], [ 22.334684, 39.828522800243839 ], [ 22.3349001, 39.828642700243847 ], [ 22.3349962, 39.828836300243886 ], [ 22.3350923, 39.829057700243908 ], [ 22.3352124, 39.829177600243931 ], [ 22.3354165, 39.829196000243932 ], [ 22.3356807, 39.82930670024394 ], [ 22.3357888, 39.82948190024397 ], [ 22.3357888, 39.829721700244001 ], [ 22.3356927, 39.829896900244016 ], [ 22.3356927, 39.830219700244079 ], [ 22.3354165, 39.830044400244056 ], [ 22.3352604, 39.829887700244043 ], [ 22.3350923, 39.829712400243999 ], [ 22.3349602, 39.829537200243983 ], [ 22.334684, 39.829454200243973 ], [ 22.3346119, 39.829362000243961 ], [ 22.3344318, 39.829168300243929 ], [ 22.3340715, 39.829103800243907 ], [ 22.3337833, 39.829076100243917 ], [ 22.3335071, 39.828974700243911 ], [ 22.3334231, 39.828799400243881 ], [ 22.3332069, 39.828670300243857 ], [ 22.3329667, 39.828615000243865 ], [ 22.3327025, 39.828467400243845 ], [ 22.3324383, 39.828375200243819 ], [ 22.3321501, 39.828412100243817 ], [ 22.3318619, 39.828412100243817 ], [ 22.331721870709895, 39.828403517503141 ], [ 22.331721870709895, 39.830207517976845 ], [ 22.331826, 39.830202200244074 ], [ 22.3320902, 39.830275900244075 ], [ 22.3323424, 39.830229800244069 ], [ 22.3325105, 39.830073100244057 ], [ 22.3327987, 39.830294400244085 ], [ 22.3330749, 39.830395800244098 ], [ 22.3334352, 39.830506500244105 ], [ 22.3338194, 39.830552600244125 ], [ 22.3342518, 39.830552600244125 ], [ 22.334636, 39.830561800244119 ], [ 22.334896257253718, 39.830705713338951 ], [ 22.338644511917636, 39.830705713338951 ], [ 22.338767, 39.830561800244119 ] ] ] } },
{ "type": "Feature", "properties": { "osm_id": 1023951717, "name": null, "label": "natural:wood", "water": null, "natural": "wood", "landuse": null }, "geometry": { "type": "Polygon", "coordinates": [ [ [ 22.3336985, 39.826859600243608 ], [ 22.3339507, 39.826822700243603 ], [ 22.3341669, 39.826730500243599 ], [ 22.334287, 39.826619800243584 ], [ 22.3345752, 39.82630630024353 ], [ 22.334335, 39.82630630024353 ], [ 22.3340828, 39.826352400243543 ], [ 22.3338667, 39.826472300243559 ], [ 22.3336865, 39.826573700243564 ], [ 22.3335064, 39.826776600243591 ], [ 22.3333743, 39.826933400243625 ], [ 22.3336985, 39.826859600243608 ] ] ] } },
{ "type": "Feature", "properties": { "osm_id": 1023951714, "name": null, "label": "natural:wood", "water": null, "natural": "wood", "landuse": null }, "geometry": { "type": "Polygon", "coordinates": [ [ [ 22.332894, 39.826278600243526 ], [ 22.3331582, 39.826287800243527 ], [ 22.3334824, 39.826287800243527 ], [ 22.3338547, 39.826250900243522 ], [ 22.3341189, 39.82612180024352 ], [ 22.334359, 39.826075700243507 ], [ 22.3345872, 39.82612180024352 ], [ 22.3348874, 39.825928100243488 ], [ 22.3351996, 39.825799000243464 ], [ 22.3355959, 39.825596100243438 ], [ 22.3353197, 39.825550000243425 ], [ 22.3350555, 39.825559200243433 ], [ 22.3347073, 39.825596100243438 ], [ 22.334335, 39.825651500243424 ], [ 22.3340708, 39.825614600243441 ], [ 22.3337706, 39.825614600243441 ], [ 22.3334944, 39.825605300243446 ], [ 22.3332062, 39.825780600243476 ], [ 22.33299, 39.825900500243485 ], [ 22.3328699, 39.826001900243504 ], [ 22.3327138, 39.826167900243512 ], [ 22.3325697, 39.82630630024353 ], [ 22.332894, 39.826278600243526 ] ] ] } },
{ "type": "Feature", "properties": { "osm_id": 134397798, "name": null, "label": "landuse:residential", "water": null, "natural": null, "landuse": "residential" }, "geometry": { "type": "Polygon", "coordinates": [ [ [ 22.3361003, 39.808035600241013 ], [ 22.3363342, 39.809122700241154 ], [ 22.3382663, 39.808954000241137 ], [ 22.338146558131221, 39.807993478827498 ], [ 22.335989894414897, 39.807993478827498 ], [ 22.3361003, 39.808035600241013 ] ] ] } }
]
}
