{
"type": "FeatureCollection",
"name": "patch_63740_polygon",
"crs": { "type": "name", "properties": { "name": "urn:ogc:def:crs:OGC:1.3:CRS84" } },
"features": [
{ "type": "Feature", "properties": { "osm_id": 1154719491, "name": null, "label": "natural:wood", "natural": "wood", "tourism": null, "building": null, "amenity": null, "water": null }, "geometry": { "type": "Polygon", "coordinates": [ [ [ 21.0049289, 40.813885800370819 ], [ 21.0053862, 40.813933000370831 ], [ 21.0060445, 40.813945200370839 ], [ 21.0066889, 40.81410060037085 ], [ 21.0073333, 40.814134800370844 ], [ 21.0082636, 40.81424950037087 ], [ 21.0088984, 40.814352600370874 ], [ 21.0095041, 40.814424200370887 ], [ 21.009826, 40.814538000370902 ], [ 21.010429, 40.814609000370908 ], [ 21.010901, 40.814722800370923 ], [ 21.0112183, 40.81478540037093 ], [ 21.0116285, 40.814900300370944 ], [ 21.0119904, 40.815065100370958 ], [ 21.0124254, 40.815199000370974 ], [ 21.0127049, 40.815265100370979 ], [ 21.0131909, 40.815552900371031 ], [ 21.0134872, 40.815943100371058 ], [ 21.0138977, 40.816414200371106 ], [ 21.0139442, 40.817034100371188 ], [ 21.0141327, 40.817612600371248 ], [ 21.0143576, 40.818059000371314 ], [ 21.0149316, 40.818253700371329 ], [ 21.0154733, 40.81810330037132 ], [ 21.0158206, 40.818129900371325 ], [ 21.016146, 40.818349300371345 ], [ 21.0166664, 40.81855690037137 ], [ 21.0171649, 40.818307400371353 ], [ 21.0175793, 40.818325100371361 ], [ 21.017832, 40.818472200371367 ], [ 21.0179918, 40.818587500371372 ], [ 21.0181798, 40.818685200371384 ], [ 21.0193877, 40.819367000371464 ], [ 21.019792, 40.81949300037148 ], [ 21.020976, 40.81952300037149 ], [ 21.022269, 40.81933200037146 ], [ 21.022967, 40.819199000371455 ], [ 21.023783, 40.818620000371389 ], [ 21.024777, 40.818496000371375 ], [ 21.025764, 40.818521000371369 ], [ 21.026391143640442, 40.818918772482682 ], [ 21.026391143640442, 40.813777692877515 ], [ 21.004782749949651, 40.813777692877515 ], [ 21.0049289, 40.813885800370819 ] ] ] } },
{ "type": "Feature", "properties": { "osm_id": 139321402, "name": "Όαση των Πρεσπών", "label": "tourism:hotel;building:hotel", "natural": null, "tourism": "hotel", "building": "hotel", "amenity": null, "water": null }, "geometry": { "type": "Polygon", "coordinates": [ [ [ 21.0258219, 40.828210800372496 ], [ 21.025944, 40.828100500372479 ], [ 21.025925, 40.828088500372488 ], [ 21.0259714, 40.828046600372488 ], [ 21.0259514, 40.828033900372489 ], [ 21.0260597, 40.827936100372476 ], [ 21.0260793, 40.827948500372472 ], [ 21.0261267, 40.827905700372476 ], [ 21.026155, 40.827923600372465 ], [ 21.0262702, 40.827819500372456 ], [ 21.0261159, 40.827734100372446 ], [ 21.0256752, 40.828117900372504 ], [ 21.0258219, 40.828210800372496 ] ] ] } },
{ "type": "Feature", "properties": { "osm_id": 139321403, "name": null, "label": "amenity:parking", "natural": null, "tourism": null, "building": null, "amenity": "parking", "water": null }, "geometry": { "type": "Polygon", "coordinates": [ [ [ 21.0263467, 40.827831900372459 ], [ 21.0258824, 40.82822720037251 ], [ 21.0259478, 40.828264200372509 ], [ 21.0260544, 40.828319700372532 ], [ 21.026391143640442, 40.828046589856264 ], [ 21.026391143640442, 40.827850530788275 ], [ 21.0263467, 40.827831900372459 ] ] ] } },
{ "type": "Feature", "properties": { "osm_id": -2905510, "name": "Преспанско Езеро / Λίμνες Πρέσπες / Liqeni i Prespës", "label": "water:lake;natural:water", "natural": "water", "tourism": null, "building": null, "amenity": null, "water": "lake" }, "geometry": { "type": "MultiPolygon", "coordinates": [ [ [ [ 21.0155609, 40.836833500373515 ], [ 21.0156146, 40.83678680037351 ], [ 21.0156682, 40.836726000373488 ], [ 21.0157084, 40.836659000373494 ], [ 21.0157433, 40.836608300373491 ], [ 21.0157889, 40.836529100373475 ], [ 21.015813, 40.836504800373469 ], [ 21.0158506, 40.836472300373458 ], [ 21.0159069, 40.836447900373464 ], [ 21.0159579, 40.836431700373467 ], [ 21.0160142, 40.836405300373464 ], [ 21.0160786, 40.836358700373459 ], [ 21.0161456, 40.836293700373439 ], [ 21.0161912, 40.836245000373445 ], [ 21.01621, 40.83621660037344 ], [ 21.0162207, 40.836182100373435 ], [ 21.0162207, 40.836149600373432 ], [ 21.0162073, 40.836125300373432 ], [ 21.0161751, 40.836092800373429 ], [ 21.0161349, 40.836068500373422 ], [ 21.0161027, 40.836017700373411 ], [ 21.0160893, 40.835942700373415 ], [ 21.0160732, 40.835865500373394 ], [ 21.0160544, 40.835827000373406 ], [ 21.016033, 40.835800600373396 ], [ 21.0160035, 40.835778300373377 ], [ 21.0159606, 40.835764100373382 ], [ 21.0159311, 40.835743800373386 ], [ 21.0159257, 40.835721500373388 ], [ 21.0159418, 40.835695100373371 ], [ 21.0159713, 40.83566460037337 ], [ 21.0160142, 40.83563420037337 ], [ 21.0160571, 40.835591600373363 ], [ 21.0161054, 40.835551000373357 ], [ 21.0161456, 40.835496200373363 ], [ 21.0161993, 40.835425200373351 ], [ 21.016261, 40.835323700373337 ], [ 21.0163091, 40.835242700373328 ], [ 21.0163629, 40.835153200373313 ], [ 21.0164353, 40.835061900373297 ], [ 21.016489, 40.83498280037329 ], [ 21.016548, 40.834869100373282 ], [ 21.0166097, 40.834747400373267 ], [ 21.0166365, 40.834678400373257 ], [ 21.0166526, 40.834629700373249 ], [ 21.0166606, 40.834578900373245 ], [ 21.016666, 40.834544400373247 ], [ 21.0166901, 40.834481500373244 ], [ 21.0167304, 40.834426700373221 ], [ 21.0167867, 40.834365900373221 ], [ 21.0168216, 40.834313100373215 ], [ 21.016843, 40.834268400373212 ], [ 21.0168537, 40.834238000373212 ], [ 21.0168591, 40.834185200373206 ], [ 21.0168752, 40.834138600373201 ], [ 21.0169101, 40.834079700373188 ], [ 21.0169691, 40.833984300373174 ], [ 21.0170281, 40.83389300037318 ], [ 21.0170871, 40.833793600373149 ], [ 21.0172051, 40.833533800373125 ], [ 21.0172534, 40.833401900373111 ], [ 21.0172883, 40.833320700373108 ], [ 21.017307, 40.83325170037309 ], [ 21.0173285, 40.833176600373086 ], [ 21.0173392, 40.833099500373081 ], [ 21.0173365, 40.833042700373063 ], [ 21.0173231, 40.832969600373055 ], [ 21.017299, 40.832900600373058 ], [ 21.0172534, 40.832815400373043 ], [ 21.0172239, 40.83275150037305 ], [ 21.0172038, 40.83271390037303 ], [ 21.0171649, 40.832620600373012 ], [ 21.0171193, 40.832533300373008 ], [ 21.0170603, 40.832427800372997 ], [ 21.01702, 40.832362800372991 ], [ 21.0169771, 40.832312100372995 ], [ 21.0169235, 40.832251200372987 ], [ 21.016843, 40.832182200372976 ], [ 21.0167626, 40.832133500372976 ], [ 21.0166821, 40.832090900372954 ], [ 21.0166043, 40.832054400372954 ], [ 21.0165212, 40.83200360037295 ], [ 21.0163627, 40.831898200372926 ], [ 21.0161671, 40.831782400372909 ], [ 21.0160491, 40.831707300372905 ], [ 21.0159498, 40.831638300372916 ], [ 21.0158774, 40.831591600372896 ], [ 21.015813, 40.831547000372893 ], [ 21.0157755, 40.831512500372888 ], [ 21.0157675, 40.831482100372895 ], [ 21.0157514, 40.83145770037288 ], [ 21.0157192, 40.831449600372871 ], [ 21.0156924, 40.831425200372884 ], [ 21.0156628, 40.831380600372874 ], [ 21.0156307, 40.83132980037287 ], [ 21.0156226, 40.831269000372849 ], [ 21.0156199, 40.83121010037285 ], [ 21.0156172, 40.831187800372852 ], [ 21.0156105, 40.83116750037285 ], [ 21.0155851, 40.831131000372856 ], [ 21.01551, 40.831068000372838 ], [ 21.015451, 40.831027500372812 ], [ 21.0154134, 40.831011200372828 ], [ 21.0153839, 40.830974700372835 ], [ 21.0153705, 40.83093210037282 ], [ 21.0153651, 40.830883400372805 ], [ 21.0153651, 40.830838700372794 ], [ 21.0153812, 40.830771700372786 ], [ 21.0154027, 40.830706800372802 ], [ 21.0154134, 40.830652000372787 ], [ 21.0154188, 40.830570800372769 ], [ 21.0154268, 40.830503900372761 ], [ 21.0154563, 40.830408500372762 ], [ 21.0154778, 40.830321200372744 ], [ 21.0154791, 40.830288700372741 ], [ 21.0154818, 40.830248100372742 ], [ 21.0154939, 40.830126400372727 ], [ 21.0155019, 40.830033000372708 ], [ 21.0155153, 40.829939700372698 ], [ 21.0155314, 40.829886900372692 ], [ 21.0155448, 40.829858500372701 ], [ 21.0155663, 40.829846300372701 ], [ 21.0156119, 40.829836100372695 ], [ 21.0156602, 40.829805700372695 ], [ 21.0157058, 40.829763100372688 ], [ 21.0157755, 40.829669700372676 ], [ 21.015813, 40.829608800372675 ], [ 21.0158613, 40.82955400037266 ], [ 21.0159042, 40.829501300372648 ], [ 21.0159525, 40.829440400372647 ], [ 21.0159954, 40.829385600372653 ], [ 21.016041, 40.829345000372641 ], [ 21.0160893, 40.829298300372628 ], [ 21.0161859, 40.829227300372615 ], [ 21.0162342, 40.829190800372615 ], [ 21.0163093, 40.829142100372593 ], [ 21.0163897, 40.829093300372598 ], [ 21.0164541, 40.829042600372603 ], [ 21.0165024, 40.8289980003726 ], [ 21.0165909, 40.828898500372574 ], [ 21.0166633, 40.828813300372566 ], [ 21.0167465, 40.828707700372561 ], [ 21.0167827, 40.828668200372562 ], [ 21.0167907, 40.828657000372552 ], [ 21.0167968, 40.828643800372568 ], [ 21.0168001, 40.828614400372551 ], [ 21.0167921, 40.828571800372536 ], [ 21.0167773, 40.828554500372547 ], [ 21.0167706, 40.82852100037254 ], [ 21.016784, 40.828497700372537 ], [ 21.0168189, 40.828462200372542 ], [ 21.0168457, 40.828441900372525 ], [ 21.0168457, 40.828420600372539 ], [ 21.0168323, 40.828395200372519 ], [ 21.0168001, 40.828360700372521 ], [ 21.0168108, 40.82831810037252 ], [ 21.0168403, 40.828275400372505 ], [ 21.0168672, 40.828234800372499 ], [ 21.0168913, 40.828198300372499 ], [ 21.0169101, 40.828167900372499 ], [ 21.016961, 40.828105000372496 ], [ 21.0170281, 40.828046100372489 ], [ 21.0170764, 40.828017700372484 ], [ 21.0171327, 40.827966900372473 ], [ 21.0171568, 40.827920300372469 ], [ 21.0171595, 40.82788170037248 ], [ 21.0171488, 40.82784720037246 ], [ 21.0171193, 40.827802600372451 ], [ 21.0171005, 40.827770100372454 ], [ 21.0171086, 40.827727500372454 ], [ 21.0171273, 40.827693000372442 ], [ 21.0171649, 40.827642200372438 ], [ 21.0172185, 40.827571200372418 ], [ 21.0172695, 40.827540700372431 ], [ 21.0173097, 40.827516400372417 ], [ 21.0173285, 40.827492000372416 ], [ 21.0173312, 40.827457500372418 ], [ 21.0173231, 40.827412900372408 ], [ 21.0173097, 40.827390500372417 ], [ 21.0172749, 40.827374300372405 ], [ 21.0172346, 40.82736010037241 ], [ 21.0172132, 40.827341800372409 ], [ 21.0172105, 40.827321500372392 ], [ 21.0172138, 40.827309400372386 ], [ 21.0172185, 40.827300700372398 ], [ 21.0172427, 40.827281000372388 ], [ 21.017303, 40.827271800372394 ], [ 21.0173486, 40.827263700372391 ], [ 21.0173728, 40.827252500372389 ], [ 21.0173915, 40.827231200372388 ], [ 21.017421, 40.827188600372388 ], [ 21.0174465, 40.827147000372378 ], [ 21.0174881, 40.827069900372379 ], [ 21.0175189, 40.827004900372359 ], [ 21.0175364, 40.826951100372355 ], [ 21.0175458, 40.826914600372355 ], [ 21.0175377, 40.826877100372343 ], [ 21.0175109, 40.826836500372352 ], [ 21.0174733, 40.826804000372334 ], [ 21.0174519, 40.826783700372339 ], [ 21.0174398, 40.826763400372322 ], [ 21.0174385, 40.826741100372338 ], [ 21.0174626, 40.826706600372333 ], [ 21.0174921, 40.826688300372318 ], [ 21.0175216, 40.826661900372315 ], [ 21.0175391, 40.826635500372319 ], [ 21.0175484, 40.826597000372317 ], [ 21.0175592, 40.826538100372296 ], [ 21.0175645, 40.826505600372307 ], [ 21.0175753, 40.826438700372293 ], [ 21.0175833, 40.826375800372297 ], [ 21.0175994, 40.826323000372284 ], [ 21.0176209, 40.826264100372271 ], [ 21.017637, 40.826217400372258 ], [ 21.017637, 40.826176800372266 ], [ 21.0176289, 40.826124100372262 ], [ 21.0176128, 40.826073300372251 ], [ 21.0176128, 40.826028700372248 ], [ 21.0176343, 40.825994200372236 ], [ 21.0176691, 40.825963700372242 ], [ 21.017696, 40.82593530037223 ], [ 21.0177308, 40.825896800372242 ], [ 21.0177711, 40.825825700372214 ], [ 21.0178167, 40.82575270037222 ], [ 21.0178462, 40.825716100372205 ], [ 21.0178918, 40.825683600372194 ], [ 21.0179199, 40.825662300372208 ], [ 21.0179414, 40.825643100372211 ], [ 21.0179937, 40.825568000372193 ], [ 21.0180795, 40.825442100372186 ], [ 21.0181734, 40.82530610037216 ], [ 21.0182619, 40.825178300372151 ], [ 21.018329, 40.825080800372127 ], [ 21.0183504, 40.825036200372139 ], [ 21.0183585, 40.825009800372129 ], [ 21.0183638, 40.82498750037211 ], [ 21.0183665, 40.824953000372126 ], [ 21.0183585, 40.824928600372118 ], [ 21.0183263, 40.824903200372113 ], [ 21.0183001, 40.824872300372121 ], [ 21.0182881, 40.824850000372109 ], [ 21.0182337, 40.824711400372095 ], [ 21.0182304, 40.824691900372088 ], [ 21.0182324, 40.824671900372081 ], [ 21.0182358, 40.82465260037209 ], [ 21.018251, 40.824624500372082 ], [ 21.018369, 40.82443780037206 ], [ 21.0184656, 40.824287600372045 ], [ 21.0186373, 40.824029800372017 ], [ 21.0187445, 40.823885700372003 ], [ 21.0188196, 40.823784000371973 ], [ 21.0189673, 40.823648900371978 ], [ 21.0190248, 40.823574900371966 ], [ 21.0190424, 40.82353120037196 ], [ 21.0190465, 40.823490600371947 ], [ 21.0190183, 40.82340280037193 ], [ 21.0190102, 40.823380000371948 ], [ 21.0190074, 40.823338500371946 ], [ 21.0190288, 40.823185200371924 ], [ 21.0190503, 40.823087800371908 ], [ 21.01908, 40.823024800371904 ], [ 21.0191053, 40.82297310037189 ], [ 21.0191469, 40.822903100371882 ], [ 21.0192087, 40.822810600371859 ], [ 21.0192863, 40.822679800371851 ], [ 21.0192966, 40.822661500371851 ], [ 21.0193039, 40.822635600371846 ], [ 21.0193053, 40.822614800371845 ], [ 21.0192979, 40.822578700371842 ], [ 21.0192879, 40.822559000371839 ], [ 21.0192396, 40.822519400371839 ], [ 21.0192141, 40.822485900371824 ], [ 21.0192099, 40.822457600371834 ], [ 21.0192112, 40.822371300371813 ], [ 21.0192193, 40.822249600371805 ], [ 21.0192274, 40.822170400371796 ], [ 21.0192434, 40.822131800371793 ], [ 21.0192823, 40.82208720037179 ], [ 21.0193333, 40.82203950037178 ], [ 21.0194005, 40.821974400371779 ], [ 21.0194714, 40.821881100371748 ], [ 21.0194997, 40.821827200371757 ], [ 21.0195333, 40.821744000371744 ], [ 21.0195601, 40.821678000371733 ], [ 21.0195827, 40.821578700371738 ], [ 21.0195975, 40.821285400371693 ], [ 21.0196028, 40.821076300371665 ], [ 21.0196002, 40.820883500371657 ], [ 21.019599, 40.820828600371641 ], [ 21.0195868, 40.820780000371641 ], [ 21.0194459, 40.820500900371606 ], [ 21.019434, 40.820468300371594 ], [ 21.0194246, 40.820441900371584 ], [ 21.0194177, 40.820406500371583 ], [ 21.0193938, 40.820215600371554 ], [ 21.0193616, 40.820126300371555 ], [ 21.0193185, 40.820057400371553 ], [ 21.0190584, 40.819852400371509 ], [ 21.0185729, 40.819525600371492 ], [ 21.018074, 40.819193700371457 ], [ 21.0178502, 40.819087000371439 ], [ 21.0176745, 40.818987600371422 ], [ 21.0174546, 40.8188465003714 ], [ 21.0173728, 40.818782000371414 ], [ 21.0173362, 40.818753600371402 ], [ 21.0173047, 40.818735800371385 ], [ 21.0172728, 40.818725200371404 ], [ 21.0172544, 40.818722700371389 ], [ 21.0172433, 40.818722700371389 ], [ 21.0172245, 40.818723900371396 ], [ 21.0170951, 40.818752100371405 ], [ 21.0170214, 40.818761800371412 ], [ 21.0168926, 40.818769300371393 ], [ 21.0168175, 40.818763300371401 ], [ 21.016733, 40.818752100371405 ], [ 21.0165132, 40.818691900371391 ], [ 21.0156816, 40.818398900371349 ], [ 21.0155207, 40.818366400371346 ], [ 21.015467, 40.818367400371343 ], [ 21.0154293, 40.818372600371347 ], [ 21.0152887, 40.818410100371352 ], [ 21.015223, 40.818415100371354 ], [ 21.0150819, 40.818414300371359 ], [ 21.0148285, 40.81840710037136 ], [ 21.014649, 40.818388700371344 ], [ 21.0145514, 40.818377100371343 ], [ 21.0143808, 40.818336000371353 ], [ 21.0142788, 40.818293300371359 ], [ 21.014148, 40.818210900371334 ], [ 21.0140721, 40.818140000371322 ], [ 21.0140052, 40.81805380037131 ], [ 21.0139417, 40.817904500371299 ], [ 21.0138711, 40.81767220037127 ], [ 21.0138255, 40.817584900371259 ], [ 21.0137868, 40.817537100371268 ], [ 21.0137102, 40.81746210037123 ], [ 21.013674, 40.81741950037123 ], [ 21.0136621, 40.817384200371229 ], [ 21.0136686, 40.817335200371232 ], [ 21.0136633, 40.817293600371229 ], [ 21.0136512, 40.81724290037122 ], [ 21.013625, 40.817210600371219 ], [ 21.0135747, 40.817143400371208 ], [ 21.0135452, 40.81710280037121 ], [ 21.0135318, 40.8170722003712 ], [ 21.0135157, 40.817006400371177 ], [ 21.0135184, 40.816948500371183 ], [ 21.0135224, 40.816753700371152 ], [ 21.013509, 40.816659300371136 ], [ 21.0134856, 40.816560500371146 ], [ 21.0134608, 40.816502100371146 ], [ 21.0134031, 40.816389300371114 ], [ 21.0133471, 40.816304400371102 ], [ 21.013216, 40.816203200371092 ], [ 21.0130453, 40.816102900371085 ], [ 21.0128371, 40.816004800371068 ], [ 21.0125956, 40.815924500371068 ], [ 21.0124145, 40.815863800371062 ], [ 21.0122496, 40.81580040037106 ], [ 21.0117484, 40.815618800371041 ], [ 21.0109124, 40.815390500371002 ], [ 21.0097588, 40.81505920037096 ], [ 21.0084345, 40.814805300370928 ], [ 21.0074357, 40.814641800370907 ], [ 21.0069799, 40.814534700370906 ], [ 21.0065889, 40.814430400370888 ], [ 21.0062562, 40.814364200370875 ], [ 21.0056987, 40.814277800370874 ], [ 21.0049897, 40.814168600370863 ], [ 21.0047489, 40.81411580037085 ], [ 21.0046345, 40.81406410037085 ], [ 21.0044263, 40.813899800370841 ], [ 21.004206724652985, 40.813777692877515 ], [ 20.996027878001005, 40.813777692877515 ], [ 20.996027878001005, 40.836836535760824 ], [ 21.015558446742386, 40.836836535760824 ], [ 21.0155609, 40.836833500373515 ] ] ], [ [ [ 21.0263783, 40.828896500372586 ], [ 21.0263273, 40.828957400372595 ], [ 21.0262978, 40.829010100372592 ], [ 21.0262763, 40.829077100372608 ], [ 21.0262468, 40.829131900372616 ], [ 21.0261878, 40.829209000372614 ], [ 21.0261369, 40.829261800372635 ], [ 21.0260725, 40.829304400372628 ], [ 21.0259947, 40.829355200372632 ], [ 21.0259303, 40.829395700372643 ], [ 21.0258901, 40.829428200372647 ], [ 21.0258713, 40.829468800372652 ], [ 21.0258526, 40.829535800372653 ], [ 21.0258257, 40.829564200372651 ], [ 21.0257801, 40.829606800372673 ], [ 21.0257104, 40.829679900372682 ], [ 21.0256487, 40.82975090037268 ], [ 21.0256246, 40.829793500372688 ], [ 21.0256138, 40.829858500372701 ], [ 21.0256004, 40.8299295003727 ], [ 21.0255843, 40.829984300372708 ], [ 21.0255522, 40.830029000372718 ], [ 21.0255092, 40.830079700372721 ], [ 21.0254717, 40.830114200372719 ], [ 21.025418, 40.830146700372744 ], [ 21.0253805, 40.830169000372727 ], [ 21.0253322, 40.830197400372739 ], [ 21.0253, 40.830231900372738 ], [ 21.0252866, 40.830272500372743 ], [ 21.0252839, 40.830300900372741 ], [ 21.0252786, 40.83036790037275 ], [ 21.0252598, 40.830392200372756 ], [ 21.0252276, 40.830412500372759 ], [ 21.0251901, 40.830426700372762 ], [ 21.0251552, 40.830445000372762 ], [ 21.0251337, 40.830475400372762 ], [ 21.0251176, 40.83052010037278 ], [ 21.0250989, 40.83055660037278 ], [ 21.025064, 40.830597200372772 ], [ 21.0250184, 40.830639800372786 ], [ 21.0249755, 40.830664200372787 ], [ 21.0248923, 40.830710900372807 ], [ 21.0248306, 40.830745400372791 ], [ 21.0247716, 40.830800200372799 ], [ 21.0247287, 40.8308489003728 ], [ 21.0246778, 40.830897600372815 ], [ 21.0245973, 40.830976700372823 ], [ 21.0245249, 40.831047800372836 ], [ 21.0244149, 40.831135000372861 ], [ 21.0243398, 40.831212100372852 ], [ 21.0242835, 40.831252700372865 ], [ 21.0242218, 40.831285200372847 ], [ 21.0241815, 40.831317700372864 ], [ 21.0241252, 40.831350100372866 ], [ 21.0240689, 40.831390700372872 ], [ 21.0240206, 40.83144150037289 ], [ 21.0239375, 40.831528700372893 ], [ 21.0238972, 40.831561200372889 ], [ 21.0238436, 40.831581500372891 ], [ 21.0237738, 40.831601800372901 ], [ 21.0236827, 40.831624100372899 ], [ 21.0235834, 40.831654600372907 ], [ 21.0234734, 40.831693100372917 ], [ 21.0233822, 40.831727600372915 ], [ 21.0233152, 40.831764200372923 ], [ 21.0232696, 40.831802700372918 ], [ 21.0232481, 40.831835200372915 ], [ 21.0232133, 40.831900100372927 ], [ 21.0231516, 40.83197930037295 ], [ 21.0231033, 40.832028000372944 ], [ 21.0230496, 40.832076700372951 ], [ 21.0230121, 40.832119300372966 ], [ 21.0229933, 40.832174100372981 ], [ 21.0229745, 40.832253200372968 ], [ 21.022945, 40.832291800372971 ], [ 21.0228914, 40.832320200372976 ], [ 21.0228297, 40.832348600372995 ], [ 21.02276, 40.832368900372991 ], [ 21.0226715, 40.832413600372988 ], [ 21.0225642, 40.832466300372992 ], [ 21.0224891, 40.832521100373 ], [ 21.0224435, 40.832567800373006 ], [ 21.0224113, 40.832659100373021 ], [ 21.0223952, 40.832736200373034 ], [ 21.0223898, 40.832793100373046 ], [ 21.0223898, 40.832849900373041 ], [ 21.0223979, 40.832912800373059 ], [ 21.0223952, 40.832951400373062 ], [ 21.0223684, 40.832989900373057 ], [ 21.0223469, 40.833028500373061 ], [ 21.0223255, 40.833048800373078 ], [ 21.0222906, 40.833077200373069 ], [ 21.0222745, 40.833107600373076 ], [ 21.0222745, 40.833152300373094 ], [ 21.0222664, 40.833205000373091 ], [ 21.022245, 40.833245600373083 ], [ 21.0222101, 40.833301400373102 ], [ 21.022186, 40.833328800373096 ], [ 21.0221592, 40.833356200373096 ], [ 21.0221377, 40.833375500373116 ], [ 21.0221189, 40.833387700373116 ], [ 21.0220733, 40.833406000373103 ], [ 21.0220116, 40.833422200373107 ], [ 21.0219365, 40.833442500373117 ], [ 21.0218856, 40.833460700373116 ], [ 21.0218373, 40.833487100373127 ], [ 21.0218105, 40.833513500373115 ], [ 21.021789, 40.83355610037313 ], [ 21.0217702, 40.833588600373133 ], [ 21.0217407, 40.833615000373129 ], [ 21.0217032, 40.833647500373132 ], [ 21.0216495, 40.833698200373149 ], [ 21.0216174, 40.833769200373148 ], [ 21.0215959, 40.833822000373161 ], [ 21.0215744, 40.833880800373159 ], [ 21.0215476, 40.833921400373171 ], [ 21.0215154, 40.833945800373179 ], [ 21.0214725, 40.833970100373179 ], [ 21.0214269, 40.833998500373184 ], [ 21.0214001, 40.834020900373176 ], [ 21.0213786, 40.834067500373195 ], [ 21.0213652, 40.834110200373189 ], [ 21.0213464, 40.834128400373196 ], [ 21.0213143, 40.83415280037319 ], [ 21.0212687, 40.834185200373206 ], [ 21.0212445, 40.834203500373214 ], [ 21.0212392, 40.834233900373206 ], [ 21.0212445, 40.834274500373212 ], [ 21.021266, 40.834333400373225 ], [ 21.0212901, 40.834390200373221 ], [ 21.0213035, 40.834432800373236 ], [ 21.0213035, 40.834475400373243 ], [ 21.0212982, 40.834518100373252 ], [ 21.0212874, 40.834581000373255 ], [ 21.0212606, 40.834668200373251 ], [ 21.0212445, 40.834721000373257 ], [ 21.0212177, 40.834779800373269 ], [ 21.0211802, 40.834844800373283 ], [ 21.0211319, 40.834930000373276 ], [ 21.0210782, 40.835011200373287 ], [ 21.0210434, 40.835072100373303 ], [ 21.0210219, 40.835126900373318 ], [ 21.0209978, 40.835214100373321 ], [ 21.0209843, 40.835295300373318 ], [ 21.0209736, 40.835325700373332 ], [ 21.0209522, 40.835348100373345 ], [ 21.0209066, 40.835388600373342 ], [ 21.0208663, 40.835433300373346 ], [ 21.0208181, 40.835488100373347 ], [ 21.0207966, 40.835520600373357 ], [ 21.0207939, 40.835563200373372 ], [ 21.020802, 40.83559560037336 ], [ 21.020802, 40.835648400373373 ], [ 21.0207751, 40.835713300373378 ], [ 21.020751, 40.835758000373389 ], [ 21.0207027, 40.835845200373399 ], [ 21.0206598, 40.83592640037341 ], [ 21.0205901, 40.836027900373416 ], [ 21.0205311, 40.836111100373422 ], [ 21.0204801, 40.836178100373438 ], [ 21.0204264, 40.836236900373457 ], [ 21.0203648, 40.836303900373444 ], [ 21.0202923, 40.836356600373456 ], [ 21.0202146, 40.836405300373464 ], [ 21.0201475, 40.836433700373469 ], [ 21.0200509, 40.836472300373458 ], [ 21.0200107, 40.836502700373458 ], [ 21.0199732, 40.836543300373478 ], [ 21.019949, 40.836602200373477 ], [ 21.0199222, 40.836654900373482 ], [ 21.0198873, 40.836713800373516 ], [ 21.0198659, 40.836766500373507 ], [ 21.0198364, 40.836807100373498 ], [ 21.019793390784205, 40.836836535760824 ], [ 21.024503129671132, 40.836836535760824 ], [ 21.0245059, 40.8368133003735 ], [ 21.0245381, 40.836711900373494 ], [ 21.0245624, 40.836618400373482 ], [ 21.0245812, 40.836506800373478 ], [ 21.0246053, 40.836385000373461 ], [ 21.0246187, 40.836299800373453 ], [ 21.0246268, 40.836236900373457 ], [ 21.0246322, 40.836111100373422 ], [ 21.0246375, 40.836023800373411 ], [ 21.024667, 40.835908200373403 ], [ 21.0246885, 40.83582290037338 ], [ 21.0247153, 40.835751900373381 ], [ 21.0247448, 40.835705200373383 ], [ 21.024785, 40.83565850037337 ], [ 21.0248467, 40.83561390037336 ], [ 21.0248977, 40.835587500373364 ], [ 21.0249513, 40.835549000373362 ], [ 21.0249808, 40.835516500373359 ], [ 21.0250157, 40.835482000373347 ], [ 21.0250506, 40.835429200373341 ], [ 21.0250989, 40.835380500373333 ], [ 21.0251203, 40.835354100373351 ], [ 21.0251284, 40.835331800373339 ], [ 21.0251337, 40.835295300373318 ], [ 21.0251471, 40.835260800373334 ], [ 21.0251874, 40.835214100373321 ], [ 21.0252357, 40.835189800373321 ], [ 21.0252732, 40.835167400373308 ], [ 21.0253295, 40.83514110037332 ], [ 21.0253617, 40.835112700373315 ], [ 21.0253939, 40.835086300373312 ], [ 21.0254395, 40.835031500373297 ], [ 21.0254583, 40.835001000373296 ], [ 21.025477, 40.834962500373287 ], [ 21.0255012, 40.834909700373281 ], [ 21.0255307, 40.834834600373277 ], [ 21.0255602, 40.834737200373269 ], [ 21.0255843, 40.834666200373263 ], [ 21.0255977, 40.834609400373246 ], [ 21.0256112, 40.834544400373247 ], [ 21.0256273, 40.834469300373229 ], [ 21.0256487, 40.834378000373221 ], [ 21.0256621, 40.834317100373227 ], [ 21.0256809, 40.834231900373197 ], [ 21.0256863, 40.834181200373209 ], [ 21.025697, 40.834122300373188 ], [ 21.0257131, 40.834087800373176 ], [ 21.025748, 40.83404520037319 ], [ 21.0257882, 40.833994500373187 ], [ 21.0258418, 40.833939700373165 ], [ 21.0259116, 40.833866600373156 ], [ 21.0259625, 40.833807800373165 ], [ 21.0260081, 40.833755000373138 ], [ 21.0260457, 40.833700200373151 ], [ 21.0260779, 40.833639300373129 ], [ 21.0260966, 40.833596700373135 ], [ 21.0261101, 40.833558200373126 ], [ 21.0261208, 40.833527700373118 ], [ 21.0261396, 40.833458700373114 ], [ 21.0261664, 40.833410000373128 ], [ 21.0262039, 40.833365400373104 ], [ 21.026279, 40.83328820037309 ], [ 21.026391143640442, 40.833175161176079 ], [ 21.026391143640442, 40.828880934654848 ], [ 21.0263783, 40.828896500372586 ] ] ] ] } }
]
}
