{
"type": "FeatureCollection",
"name": "patch_97125_features",
"crs": { "type": "name", "properties": { "name": "urn:ogc:def:crs:OGC:1.3:CRS84" } },
"features": [
{ "type": "Feature", "properties": { "osm_id": -1843693, "name": null, "label": "natural:wood", "natural": "wood", "landuse": null }, "geometry": { "type": "Polygon", "coordinates": [ [ [ 24.639479, 41.236949000417738 ], [ 24.639268, 41.237130000417757 ], [ 24.639056, 41.237316000417771 ], [ 24.638966, 41.237541000417814 ], [ 24.638906, 41.237771000417816 ], [ 24.638906, 41.238023000417847 ], [ 24.638967, 41.238275000417879 ], [ 24.639119, 41.238550000417895 ], [ 24.639301, 41.238801000417936 ], [ 24.639483, 41.239076000417974 ], [ 24.639664, 41.239282000417994 ], [ 24.639846, 41.239534000418018 ], [ 24.640028, 41.239763000418044 ], [ 24.64018, 41.239970000418054 ], [ 24.640423, 41.240402000418101 ], [ 24.640544, 41.240631000418119 ], [ 24.640665, 41.240883000418144 ], [ 24.640787, 41.241225000418183 ], [ 24.640848, 41.241477000418207 ], [ 24.640939, 41.241841000418255 ], [ 24.641, 41.242143000418267 ], [ 24.641062, 41.242485000418313 ], [ 24.641092, 41.24273700041833 ], [ 24.641092, 41.243008000418371 ], [ 24.641123, 41.243260000418395 ], [ 24.641184, 41.243535000418426 ], [ 24.641185, 41.243899000418459 ], [ 24.641094, 41.244269000418498 ], [ 24.641003, 41.244495000418524 ], [ 24.640853, 41.244838000418561 ], [ 24.640702, 41.245045000418578 ], [ 24.640521, 41.245316000418619 ], [ 24.640309, 41.245524000418634 ], [ 24.639945, 41.245683000418644 ], [ 24.6393, 41.245793000418658 ], [ 24.638917, 41.245795000418667 ], [ 24.638584, 41.245796000418643 ], [ 24.63819, 41.245793000418658 ], [ 24.637888, 41.245748000418651 ], [ 24.637554, 41.245587000418645 ], [ 24.637252, 41.245426000418618 ], [ 24.636948, 41.245243000418604 ], [ 24.636645, 41.245014000418557 ], [ 24.636282, 41.244808000418558 ], [ 24.635979, 41.244624000418547 ], [ 24.635706, 41.244485000418521 ], [ 24.635403, 41.2443020004185 ], [ 24.635161, 41.244140000418483 ], [ 24.634828, 41.244002000418469 ], [ 24.634495, 41.243958000418459 ], [ 24.634162, 41.243977000418461 ], [ 24.633829, 41.244091000418479 ], [ 24.633708, 41.244366000418509 ], [ 24.633648, 41.244708000418548 ], [ 24.633618, 41.24496100041857 ], [ 24.633558, 41.245281000418608 ], [ 24.633528, 41.245556000418631 ], [ 24.633498, 41.245876000418683 ], [ 24.633469, 41.246241000418706 ], [ 24.633439, 41.246470000418732 ], [ 24.633288, 41.246836000418767 ], [ 24.633197, 41.247061000418789 ], [ 24.633137, 41.247336000418819 ], [ 24.632835, 41.248207000418908 ], [ 24.632775, 41.248550000418952 ], [ 24.632684, 41.248798000418965 ], [ 24.632504, 41.249208000419017 ], [ 24.632292, 41.249551000419046 ], [ 24.63202, 41.249872000419082 ], [ 24.631808, 41.250098000419115 ], [ 24.631567, 41.250328000419124 ], [ 24.631295, 41.250532000419149 ], [ 24.631022, 41.250695000419171 ], [ 24.630659, 41.250782000419186 ], [ 24.630235, 41.250828000419176 ], [ 24.629811, 41.250758000419168 ], [ 24.629478, 41.250669000419158 ], [ 24.629175, 41.250575000419147 ], [ 24.628782, 41.250369000419127 ], [ 24.628448, 41.250140000419115 ], [ 24.628206, 41.249934000419103 ], [ 24.627903, 41.249705000419077 ], [ 24.62766, 41.24949900041905 ], [ 24.627296, 41.24926600041902 ], [ 24.627203620711203, 41.249228714830053 ], [ 24.627203620711203, 41.260528196194699 ], [ 24.646861049913412, 41.260528196194699 ], [ 24.64656, 41.259121000420038 ], [ 24.644379, 41.258125000419938 ], [ 24.643782, 41.256806000419793 ], [ 24.643767, 41.255357000419643 ], [ 24.644339, 41.254030000419519 ], [ 24.646344, 41.254208000419524 ], [ 24.647594, 41.25394900041951 ], [ 24.64867, 41.253061000419414 ], [ 24.650587, 41.252672000419381 ], [ 24.654095, 41.252904000419406 ], [ 24.656007, 41.253526000419463 ], [ 24.655699, 41.252753000419368 ], [ 24.655698, 41.252594000419371 ], [ 24.655637, 41.252180000419322 ], [ 24.655606, 41.251932000419281 ], [ 24.655545, 41.25160800041926 ], [ 24.655485, 41.251266000419228 ], [ 24.655424, 41.251036000419191 ], [ 24.655362, 41.250789000419175 ], [ 24.655211, 41.250537000419143 ], [ 24.65521, 41.250535000419141 ], [ 24.654937, 41.250078000419116 ], [ 24.654634, 41.249665000419057 ], [ 24.654391, 41.249346000419024 ], [ 24.654179, 41.249049000418999 ], [ 24.653967, 41.248820000418966 ], [ 24.653864, 41.248642000418947 ], [ 24.653755, 41.248452000418929 ], [ 24.653542, 41.248178000418903 ], [ 24.65339, 41.24794800041888 ], [ 24.653177, 41.247742000418853 ], [ 24.653026, 41.247490000418836 ], [ 24.652844, 41.247239000418809 ], [ 24.652571, 41.246848000418765 ], [ 24.652419, 41.246623000418751 ], [ 24.652176, 41.246254000418709 ], [ 24.651903, 41.245818000418652 ], [ 24.651752, 41.245589000418647 ], [ 24.651478, 41.24511200041858 ], [ 24.651356, 41.244838000418561 ], [ 24.651265, 41.244469000418526 ], [ 24.651204, 41.244194000418489 ], [ 24.651265, 41.243969000418467 ], [ 24.651415, 41.243693000418453 ], [ 24.651687, 41.243418000418423 ], [ 24.65199, 41.243236000418392 ], [ 24.652443, 41.242987000418374 ], [ 24.652746, 41.242919000418368 ], [ 24.653079, 41.242895000418343 ], [ 24.653412, 41.242826000418368 ], [ 24.653806, 41.242739000418354 ], [ 24.654169, 41.242693000418349 ], [ 24.654532, 41.242624000418324 ], [ 24.654895, 41.242533000418319 ], [ 24.655318, 41.242351000418296 ], [ 24.655621, 41.242147000418285 ], [ 24.655863, 41.241849000418249 ], [ 24.655862, 41.241552000418217 ], [ 24.655922, 41.241322000418187 ], [ 24.655952, 41.24100600041816 ], [ 24.655921, 41.240777000418149 ], [ 24.65583, 41.2404080004181 ], [ 24.655738, 41.240065000418056 ], [ 24.655647, 41.239701000418023 ], [ 24.655495, 41.239309000417997 ], [ 24.655282, 41.238855000417928 ], [ 24.65513, 41.238626000417902 ], [ 24.65501, 41.238374000417885 ], [ 24.654888, 41.238077000417853 ], [ 24.654766, 41.237825000417835 ], [ 24.654584, 41.237574000417794 ], [ 24.654371, 41.237250000417774 ], [ 24.654159, 41.236953000417742 ], [ 24.654074878595964, 41.236862133684596 ], [ 24.639608658342464, 41.236862133684596 ], [ 24.639479, 41.236949000417738 ] ] ] } },
{ "type": "Feature", "properties": { "osm_id": 1193314245, "name": null, "label": "landuse:residential", "natural": null, "landuse": "residential" }, "geometry": { "type": "Polygon", "coordinates": [ [ [ 24.6296953, 41.240581500418109 ], [ 24.6297382, 41.240702500418131 ], [ 24.6297758, 41.240823500418138 ], [ 24.6298509, 41.240972800418163 ], [ 24.6298884, 41.241065500418152 ], [ 24.6298938, 41.241146200418179 ], [ 24.6311829, 41.241368700418207 ], [ 24.6321631, 41.241774600418232 ], [ 24.6326954, 41.241961500418263 ], [ 24.6330938, 41.24062860041812 ], [ 24.6328756, 41.238931300417953 ], [ 24.6319162, 41.238943800417957 ], [ 24.6319162, 41.239048600417952 ], [ 24.631884, 41.239133300417976 ], [ 24.6318196, 41.239222100417983 ], [ 24.6316909, 41.239339100417986 ], [ 24.6315675, 41.239460100418015 ], [ 24.6315123, 41.239492200418013 ], [ 24.6314495, 41.239528700418013 ], [ 24.6313207, 41.239548800418007 ], [ 24.6311491, 41.239569000418015 ], [ 24.6310579, 41.239597200418018 ], [ 24.6309774, 41.239673900418019 ], [ 24.6307602, 41.239892900418056 ], [ 24.6305912, 41.24004100041806 ], [ 24.6304732, 41.240105500418075 ], [ 24.630323, 41.240170000418075 ], [ 24.6301567, 41.240222500418085 ], [ 24.6300333, 41.240266900418092 ], [ 24.6298723, 41.240319300418086 ], [ 24.6297865, 41.240363700418094 ], [ 24.6297275, 41.240432200418098 ], [ 24.6296846, 41.240508900418106 ], [ 24.6296953, 41.240581500418109 ] ] ] } }
]
}
