{
"type": "FeatureCollection",
"name": "patch_4699_features",
"crs": { "type": "name", "properties": { "name": "urn:ogc:def:crs:OGC:1.3:CRS84" } },
"features": [
{ "type": "Feature", "properties": { "osm_id": 843237626, "name": null, "label": "natural:wood", "natural": "wood", "waterway": null }, "geometry": { "type": "MultiPolygon", "coordinates": [ [ [ [ 25.3243979, 35.021605299653125 ], [ 25.32384, 35.022642099653204 ], [ 25.325857, 35.025506299653387 ], [ 25.3271016, 35.025365699653392 ], [ 25.3272733, 35.023538199653267 ], [ 25.3284513, 35.024153299653307 ], [ 25.3289663, 35.023186799653239 ], [ 25.3286015, 35.021394399653104 ], [ 25.3309833, 35.020972699653093 ], [ 25.331109792011663, 35.020960858932163 ], [ 25.331109792011663, 35.020440109417528 ], [ 25.324790887316855, 35.020440109417528 ], [ 25.3243979, 35.021605299653125 ] ] ], [ [ [ 25.3309189, 35.02135929965312 ], [ 25.3287088, 35.021552599653127 ], [ 25.329095, 35.023081399653243 ], [ 25.3297817, 35.022870499653223 ], [ 25.331109792011663, 35.022829059417106 ], [ 25.331109792011663, 35.021405388934831 ], [ 25.3309189, 35.02135929965312 ] ] ] ] } },
{ "type": "Feature", "properties": { "osm_id": 119024033, "name": "Αναποδιάρης", "label": "waterway:river", "natural": null, "waterway": "river" }, "geometry": { "type": "LineString", "coordinates": [ [ 25.303529725761035, 35.034251162517002 ], [ 25.3039072, 35.034273699653994 ], [ 25.3044638, 35.034107399653998 ], [ 25.3049227, 35.03392259965397 ], [ 25.305705, 35.033670099653961 ], [ 25.3061413, 35.033562299653951 ], [ 25.3065776, 35.033454499653949 ], [ 25.3073298, 35.033337499653939 ], [ 25.307879, 35.03337439965393 ], [ 25.3086237, 35.033325099653922 ], [ 25.3092555, 35.033195799653932 ], [ 25.3094887, 35.032973999653905 ], [ 25.3095263, 35.032696899653885 ], [ 25.3094963, 35.03241349965387 ], [ 25.3095865, 35.032210299653862 ], [ 25.3098122, 35.031834499653833 ], [ 25.30991, 35.031575799653808 ], [ 25.3097671, 35.031243199653794 ], [ 25.3096241, 35.030929099653768 ], [ 25.3094513, 35.030565999653746 ], [ 25.309333, 35.030368499653733 ], [ 25.3091653, 35.030085199653712 ], [ 25.309075, 35.029838799653703 ], [ 25.3089546, 35.02963559965368 ], [ 25.3089622, 35.029500099653681 ], [ 25.3090675, 35.029247499653657 ], [ 25.3093533, 35.029013399653643 ], [ 25.3096091, 35.028871799653622 ], [ 25.309925, 35.028853299653619 ], [ 25.3103989, 35.028939499653625 ], [ 25.3124602, 35.029558299653672 ], [ 25.3128865, 35.029714799653689 ], [ 25.313085, 35.029925499653693 ], [ 25.3132173, 35.030160199653707 ], [ 25.313357, 35.030473199653741 ], [ 25.3136363, 35.030762199653758 ], [ 25.31407, 35.030858499653775 ], [ 25.314614, 35.030786199653761 ], [ 25.314908, 35.030593599653756 ], [ 25.3150771, 35.030214399653715 ], [ 25.3150844, 35.029299499653661 ], [ 25.315033, 35.028805899653619 ], [ 25.31518, 35.028336399653597 ], [ 25.3153711, 35.028035399653568 ], [ 25.3156945, 35.027908999653562 ], [ 25.316312, 35.028005299653564 ], [ 25.3173632, 35.028155799653568 ], [ 25.3187525, 35.02817989965358 ], [ 25.3195096, 35.028252099653592 ], [ 25.3201785, 35.028197999653585 ], [ 25.3208768, 35.027915099653562 ], [ 25.3215825, 35.027295099653522 ], [ 25.3221265, 35.026843599653482 ], [ 25.3226337, 35.026500499653459 ], [ 25.3231335, 35.026374099653452 ], [ 25.3240891, 35.026301799653453 ], [ 25.3245712, 35.02611279965344 ], [ 25.3249401, 35.025887399653428 ], [ 25.3251231, 35.025640699653401 ], [ 25.3253461, 35.025254499653393 ], [ 25.3256254, 35.02470669965335 ], [ 25.3258754, 35.0239842996533 ], [ 25.3258754, 35.023496699653265 ], [ 25.3257689, 35.023325999653245 ], [ 25.3258607, 35.023117499653225 ], [ 25.3261841, 35.022900799653229 ], [ 25.3264046, 35.022563699653197 ], [ 25.3265443, 35.022118199653164 ], [ 25.3267575, 35.021702799653141 ], [ 25.3271029, 35.021486099653117 ], [ 25.3277351, 35.021197199653109 ], [ 25.3282864, 35.020944299653088 ], [ 25.3289406, 35.020811899653076 ], [ 25.3297786, 35.020703599653075 ], [ 25.330793, 35.020540999653051 ], [ 25.331109792011663, 35.020451977745786 ] ] } }
]
}
