{
"type": "FeatureCollection",
"name": "patch_4699_polygon",
"crs": { "type": "name", "properties": { "name": "urn:ogc:def:crs:OGC:1.3:CRS84" } },
"features": [
{ "type": "Feature", "properties": { "osm_id": 843237626, "name": null, "label": "natural:wood", "natural": "wood" }, "geometry": { "type": "MultiPolygon", "coordinates": [ [ [ [ 25.3243979, 35.021605299653125 ], [ 25.32384, 35.022642099653204 ], [ 25.325857, 35.025506299653387 ], [ 25.3271016, 35.025365699653392 ], [ 25.3272733, 35.023538199653267 ], [ 25.3284513, 35.024153299653307 ], [ 25.3289663, 35.023186799653239 ], [ 25.3286015, 35.021394399653104 ], [ 25.3309833, 35.020972699653093 ], [ 25.331109792011663, 35.020960858932163 ], [ 25.331109792011663, 35.020440109417528 ], [ 25.324790887316855, 35.020440109417528 ], [ 25.3243979, 35.021605299653125 ] ] ], [ [ [ 25.3309189, 35.02135929965312 ], [ 25.3287088, 35.021552599653127 ], [ 25.329095, 35.023081399653243 ], [ 25.3297817, 35.022870499653223 ], [ 25.331109792011663, 35.022829059417106 ], [ 25.331109792011663, 35.021405388934831 ], [ 25.3309189, 35.02135929965312 ] ] ] ] } }
]
}
