{
"type": "FeatureCollection",
"name": "patch_42693_polygon",
"crs": { "type": "name", "properties": { "name": "urn:ogc:def:crs:OGC:1.3:CRS84" } },
"features": [
{ "type": "Feature", "properties": { "@type": "way", "@id": 136906964, "access": null, "admin_level": null, "amenity": null, "barrier": null, "building": null, "denomination": null, "distance": null, "ele": null, "highway": null, "int_name": null, "int_ref": null, "intermittent": null, "lanes": null, "layer": null, "leaf_type": "broadleaved", "lit": null, "maxspeed": null, "maxspeed:forward": null, "maxspeed:type": null, "name": null, "name:de": null, "name:el": null, "name:en": null, "natural": "wood", "noexit": null, "oneway": null, "parking": null, "ref": null, "religion": null, "short_name": null, "shoulder": null, "source": "http://geodata.gov.gr/", "source:ref": null, "surface": null, "tourism": null, "tunnel": null, "waterway": null, "wikidata": null, "zone:traffic": null, "label": "natural:wood" }, "geometry": { "type": "Polygon", "coordinates": [ [ [ 24.808162, 35.398394 ], [ 24.807915, 35.398738 ], [ 24.80793, 35.399192 ], [ 24.807843, 35.39956 ], [ 24.809669, 35.399496 ], [ 24.810704, 35.399429 ], [ 24.811301, 35.39997 ], [ 24.811451, 35.400211 ], [ 24.811824, 35.400571 ], [ 24.812683, 35.401444 ], [ 24.814327, 35.401217 ], [ 24.814385, 35.400464 ], [ 24.814182, 35.399821 ], [ 24.81385, 35.399447 ], [ 24.8135854, 35.3990538 ], [ 24.813645, 35.398589 ], [ 24.813663629045099, 35.398385343490034 ], [ 24.808160145033579, 35.398385343490034 ], [ 24.808162, 35.398394 ] ] ] } },
{ "type": "Feature", "properties": { "@type": "way", "@id": 136907106, "access": null, "admin_level": null, "amenity": null, "barrier": null, "building": null, "denomination": null, "distance": null, "ele": null, "highway": null, "int_name": null, "int_ref": null, "intermittent": null, "lanes": null, "layer": null, "leaf_type": "broadleaved", "lit": null, "maxspeed": null, "maxspeed:forward": null, "maxspeed:type": null, "name": null, "name:de": null, "name:el": null, "name:en": null, "natural": "wood", "noexit": null, "oneway": null, "parking": null, "ref": null, "religion": null, "short_name": null, "shoulder": null, "source": "http://geodata.gov.gr/", "source:ref": null, "surface": null, "tourism": null, "tunnel": null, "waterway": null, "wikidata": null, "zone:traffic": null, "label": "natural:wood" }, "geometry": { "type": "Polygon", "coordinates": [ [ [ 24.821557, 35.398499 ], [ 24.820853, 35.398978 ], [ 24.819635, 35.39962 ], [ 24.818731, 35.399521 ], [ 24.81785, 35.399205 ], [ 24.817258, 35.398994 ], [ 24.816015, 35.399432 ], [ 24.8153, 35.400082 ], [ 24.815306, 35.400673 ], [ 24.815379, 35.401371 ], [ 24.815644, 35.401691 ], [ 24.815649, 35.402121 ], [ 24.815125, 35.402232 ], [ 24.813651, 35.402043 ], [ 24.81262, 35.402534 ], [ 24.812111, 35.403385 ], [ 24.811442, 35.404623 ], [ 24.811839, 35.404911 ], [ 24.812293, 35.405172 ], [ 24.812809, 35.405221 ], [ 24.813579, 35.404794 ], [ 24.813897, 35.40437 ], [ 24.814473, 35.403943 ], [ 24.815455, 35.403818 ], [ 24.816166, 35.404077 ], [ 24.817037, 35.404071 ], [ 24.817032, 35.403649 ], [ 24.817472, 35.402538 ], [ 24.817981, 35.401848 ], [ 24.818365, 35.401582 ], [ 24.819132, 35.400943 ], [ 24.819837, 35.400516 ], [ 24.820286, 35.400249 ], [ 24.820926, 35.399875 ], [ 24.822016, 35.399287 ], [ 24.822849, 35.398806 ], [ 24.823426, 35.398433 ], [ 24.823432759788648, 35.398385343490034 ], [ 24.821787415712016, 35.398385343490034 ], [ 24.821557, 35.398499 ] ] ] } },
{ "type": "Feature", "properties": { "@type": "way", "@id": 468293722, "access": null, "admin_level": null, "amenity": "place_of_worship", "barrier": null, "building": null, "denomination": "greek_orthodox", "distance": null, "ele": null, "highway": null, "int_name": null, "int_ref": null, "intermittent": null, "lanes": null, "layer": null, "leaf_type": null, "lit": null, "maxspeed": null, "maxspeed:forward": null, "maxspeed:type": null, "name": "Παναγία Χαρακιανή", "name:de": null, "name:el": "Παναγία Χαρακιανή", "name:en": "Panagia Charakiani", "natural": null, "noexit": null, "oneway": null, "parking": null, "ref": null, "religion": "christian", "short_name": null, "shoulder": null, "source": null, "source:ref": null, "surface": null, "tourism": null, "tunnel": null, "waterway": null, "wikidata": "Q134390344", "zone:traffic": null, "label": "amenity:place_of_worship" }, "geometry": { "type": "Polygon", "coordinates": [ [ [ 24.8170284, 35.4064144 ], [ 24.8173851, 35.4063904 ], [ 24.8172416, 35.4061717 ], [ 24.8169976, 35.4062002 ], [ 24.8170284, 35.4064144 ] ] ] } },
{ "type": "Feature", "properties": { "@type": "way", "@id": 487540764, "access": null, "admin_level": null, "amenity": "parking", "barrier": null, "building": null, "denomination": null, "distance": null, "ele": null, "highway": null, "int_name": null, "int_ref": null, "intermittent": null, "lanes": null, "layer": null, "leaf_type": null, "lit": null, "maxspeed": null, "maxspeed:forward": null, "maxspeed:type": null, "name": null, "name:de": null, "name:el": null, "name:en": null, "natural": null, "noexit": null, "oneway": null, "parking": "surface", "ref": null, "religion": null, "short_name": null, "shoulder": null, "source": null, "source:ref": null, "surface": null, "tourism": null, "tunnel": null, "waterway": null, "wikidata": null, "zone:traffic": null, "label": "amenity:parking" }, "geometry": { "type": "Polygon", "coordinates": [ [ [ 24.8274192, 35.4080269 ], [ 24.8277716, 35.4079015 ], [ 24.8282384, 35.4076458 ], [ 24.8282088, 35.4076042 ], [ 24.8276192, 35.4078412 ], [ 24.8273676, 35.407938 ], [ 24.8274192, 35.4080269 ] ] ] } },
{ "type": "Feature", "properties": { "@type": "way", "@id": 487540765, "access": null, "admin_level": null, "amenity": null, "barrier": null, "building": "yes", "denomination": null, "distance": null, "ele": null, "highway": null, "int_name": null, "int_ref": null, "intermittent": null, "lanes": null, "layer": null, "leaf_type": null, "lit": null, "maxspeed": null, "maxspeed:forward": null, "maxspeed:type": null, "name": null, "name:de": null, "name:el": null, "name:en": null, "natural": null, "noexit": null, "oneway": null, "parking": null, "ref": null, "religion": null, "short_name": null, "shoulder": null, "source": null, "source:ref": null, "surface": null, "tourism": null, "tunnel": null, "waterway": null, "wikidata": null, "zone:traffic": null, "label": "building:yes" }, "geometry": { "type": "Polygon", "coordinates": [ [ [ 24.8278286, 35.4105964 ], [ 24.827883, 35.41058 ], [ 24.8278719, 35.4105558 ], [ 24.8278176, 35.4105722 ], [ 24.8278286, 35.4105964 ] ] ] } },
{ "type": "Feature", "properties": { "@type": "way", "@id": 487540766, "access": null, "admin_level": null, "amenity": null, "barrier": null, "building": "yes", "denomination": null, "distance": null, "ele": null, "highway": null, "int_name": null, "int_ref": null, "intermittent": null, "lanes": null, "layer": null, "leaf_type": null, "lit": null, "maxspeed": null, "maxspeed:forward": null, "maxspeed:type": null, "name": null, "name:de": null, "name:el": null, "name:en": null, "natural": null, "noexit": null, "oneway": null, "parking": null, "ref": null, "religion": null, "short_name": null, "shoulder": null, "source": null, "source:ref": null, "surface": null, "tourism": null, "tunnel": null, "waterway": null, "wikidata": null, "zone:traffic": null, "label": "building:yes" }, "geometry": { "type": "Polygon", "coordinates": [ [ [ 24.8277978, 35.4105636 ], [ 24.8278541, 35.41055 ], [ 24.8278376, 35.4105048 ], [ 24.8277813, 35.4105185 ], [ 24.8277978, 35.4105636 ] ] ] } },
{ "type": "Feature", "properties": { "@type": "way", "@id": 487540767, "access": null, "admin_level": null, "amenity": null, "barrier": null, "building": "yes", "denomination": null, "distance": null, "ele": null, "highway": null, "int_name": null, "int_ref": null, "intermittent": null, "lanes": null, "layer": null, "leaf_type": null, "lit": null, "maxspeed": null, "maxspeed:forward": null, "maxspeed:type": null, "name": null, "name:de": null, "name:el": null, "name:en": null, "natural": null, "noexit": null, "oneway": null, "parking": null, "ref": null, "religion": null, "short_name": null, "shoulder": null, "source": null, "source:ref": null, "surface": null, "tourism": null, "tunnel": null, "waterway": null, "wikidata": null, "zone:traffic": null, "label": "building:yes" }, "geometry": { "type": "Polygon", "coordinates": [ [ [ 24.8278085, 35.4101068 ], [ 24.8278476, 35.4101008 ], [ 24.8278368, 35.4100543 ], [ 24.8277978, 35.4100603 ], [ 24.8278085, 35.4101068 ] ] ] } },
{ "type": "Feature", "properties": { "@type": "way", "@id": 487540768, "access": null, "admin_level": null, "amenity": null, "barrier": null, "building": "yes", "denomination": null, "distance": null, "ele": null, "highway": null, "int_name": null, "int_ref": null, "intermittent": null, "lanes": null, "layer": null, "leaf_type": null, "lit": null, "maxspeed": null, "maxspeed:forward": null, "maxspeed:type": null, "name": null, "name:de": null, "name:el": null, "name:en": null, "natural": null, "noexit": null, "oneway": null, "parking": null, "ref": null, "religion": null, "short_name": null, "shoulder": null, "source": null, "source:ref": null, "surface": null, "tourism": null, "tunnel": null, "waterway": null, "wikidata": null, "zone:traffic": null, "label": "building:yes" }, "geometry": { "type": "Polygon", "coordinates": [ [ [ 24.8278528, 35.4100762 ], [ 24.8279137, 35.4100645 ], [ 24.8279047, 35.4100335 ], [ 24.8278439, 35.4100452 ], [ 24.8278528, 35.4100762 ] ] ] } },
{ "type": "Feature", "properties": { "@type": "way", "@id": 487540769, "access": null, "admin_level": null, "amenity": null, "barrier": null, "building": "yes", "denomination": null, "distance": null, "ele": null, "highway": null, "int_name": null, "int_ref": null, "intermittent": null, "lanes": null, "layer": null, "leaf_type": null, "lit": null, "maxspeed": null, "maxspeed:forward": null, "maxspeed:type": null, "name": null, "name:de": null, "name:el": null, "name:en": null, "natural": null, "noexit": null, "oneway": null, "parking": null, "ref": null, "religion": null, "short_name": null, "shoulder": null, "source": null, "source:ref": null, "surface": null, "tourism": null, "tunnel": null, "waterway": null, "wikidata": null, "zone:traffic": null, "label": "building:yes" }, "geometry": { "type": "Polygon", "coordinates": [ [ [ 24.8281103, 35.4098422 ], [ 24.8281533, 35.4098078 ], [ 24.8281164, 35.4097772 ], [ 24.8280734, 35.4098116 ], [ 24.8281103, 35.4098422 ] ] ] } },
{ "type": "Feature", "properties": { "@type": "way", "@id": 487540782, "access": null, "admin_level": null, "amenity": null, "barrier": null, "building": "yes", "denomination": null, "distance": null, "ele": null, "highway": null, "int_name": null, "int_ref": null, "intermittent": null, "lanes": null, "layer": null, "leaf_type": null, "lit": null, "maxspeed": null, "maxspeed:forward": null, "maxspeed:type": null, "name": null, "name:de": null, "name:el": null, "name:en": null, "natural": null, "noexit": null, "oneway": null, "parking": null, "ref": null, "religion": null, "short_name": null, "shoulder": null, "source": null, "source:ref": null, "surface": null, "tourism": null, "tunnel": null, "waterway": null, "wikidata": null, "zone:traffic": null, "label": "building:yes" }, "geometry": { "type": "Polygon", "coordinates": [ [ [ 24.8277468, 35.4103102 ], [ 24.8277737, 35.4103099 ], [ 24.8277739, 35.4103231 ], [ 24.8278034, 35.4103228 ], [ 24.8278032, 35.4103096 ], [ 24.8278226, 35.4103094 ], [ 24.8278218, 35.4102652 ], [ 24.8277461, 35.4102661 ], [ 24.8277468, 35.4103102 ] ] ] } },
{ "type": "Feature", "properties": { "@type": "way", "@id": 487540783, "access": null, "admin_level": null, "amenity": null, "barrier": null, "building": "yes", "denomination": null, "distance": null, "ele": null, "highway": null, "int_name": null, "int_ref": null, "intermittent": null, "lanes": null, "layer": null, "leaf_type": null, "lit": null, "maxspeed": null, "maxspeed:forward": null, "maxspeed:type": null, "name": null, "name:de": null, "name:el": null, "name:en": null, "natural": null, "noexit": null, "oneway": null, "parking": null, "ref": null, "religion": null, "short_name": null, "shoulder": null, "source": null, "source:ref": null, "surface": null, "tourism": null, "tunnel": null, "waterway": null, "wikidata": null, "zone:traffic": null, "label": "building:yes" }, "geometry": { "type": "Polygon", "coordinates": [ [ [ 24.8278313, 35.410262 ], [ 24.827836, 35.4101805 ], [ 24.8277742, 35.4101782 ], [ 24.8277736, 35.4101882 ], [ 24.8277628, 35.4101877 ], [ 24.8277587, 35.4102592 ], [ 24.8278313, 35.410262 ] ] ] } },
{ "type": "Feature", "properties": { "@type": "way", "@id": 487540784, "access": null, "admin_level": null, "amenity": null, "barrier": null, "building": "yes", "denomination": null, "distance": null, "ele": null, "highway": null, "int_name": null, "int_ref": null, "intermittent": null, "lanes": null, "layer": null, "leaf_type": null, "lit": null, "maxspeed": null, "maxspeed:forward": null, "maxspeed:type": null, "name": null, "name:de": null, "name:el": null, "name:en": null, "natural": null, "noexit": null, "oneway": null, "parking": null, "ref": null, "religion": null, "short_name": null, "shoulder": null, "source": null, "source:ref": null, "surface": null, "tourism": null, "tunnel": null, "waterway": null, "wikidata": null, "zone:traffic": null, "label": "building:yes" }, "geometry": { "type": "Polygon", "coordinates": [ [ [ 24.8248911, 35.4108134 ], [ 24.824957, 35.4107836 ], [ 24.8249135, 35.4107197 ], [ 24.8248476, 35.4107494 ], [ 24.8248911, 35.4108134 ] ] ] } },
{ "type": "Feature", "properties": { "@type": "way", "@id": 487540794, "access": "yes", "admin_level": null, "amenity": "parking", "barrier": null, "building": null, "denomination": null, "distance": null, "ele": null, "highway": null, "int_name": null, "int_ref": null, "intermittent": null, "lanes": null, "layer": null, "leaf_type": null, "lit": null, "maxspeed": null, "maxspeed:forward": null, "maxspeed:type": null, "name": null, "name:de": null, "name:el": null, "name:en": null, "natural": null, "noexit": null, "oneway": null, "parking": "surface", "ref": null, "religion": null, "short_name": null, "shoulder": null, "source": null, "source:ref": null, "surface": null, "tourism": null, "tunnel": null, "waterway": null, "wikidata": null, "zone:traffic": null, "label": "amenity:parking" }, "geometry": { "type": "Polygon", "coordinates": [ [ [ 24.8069631, 35.4095728 ], [ 24.8074083, 35.4096493 ], [ 24.807993, 35.4095925 ], [ 24.8079957, 35.409505 ], [ 24.8077758, 35.4094744 ], [ 24.8073895, 35.4094176 ], [ 24.8067458, 35.4092777 ], [ 24.8067217, 35.409411 ], [ 24.8069631, 35.4095728 ] ] ] } },
{ "type": "Feature", "properties": { "@type": "way", "@id": 487540798, "access": null, "admin_level": null, "amenity": null, "barrier": null, "building": "yes", "denomination": null, "distance": null, "ele": null, "highway": null, "int_name": null, "int_ref": null, "intermittent": null, "lanes": null, "layer": null, "leaf_type": null, "lit": null, "maxspeed": null, "maxspeed:forward": null, "maxspeed:type": null, "name": null, "name:de": null, "name:el": null, "name:en": null, "natural": null, "noexit": null, "oneway": null, "parking": null, "ref": null, "religion": null, "short_name": null, "shoulder": null, "source": null, "source:ref": null, "surface": null, "tourism": null, "tunnel": null, "waterway": null, "wikidata": null, "zone:traffic": null, "label": "building:yes" }, "geometry": { "type": "Polygon", "coordinates": [ [ [ 24.8159983, 35.4045449 ], [ 24.816, 35.4045236 ], [ 24.8160665, 35.4045271 ], [ 24.8161023, 35.4040751 ], [ 24.8159797, 35.4040686 ], [ 24.8159421, 35.4045419 ], [ 24.8159983, 35.4045449 ] ] ] } },
{ "type": "Feature", "properties": { "@type": "way", "@id": 487540799, "access": null, "admin_level": null, "amenity": null, "barrier": null, "building": "yes", "denomination": null, "distance": null, "ele": null, "highway": null, "int_name": null, "int_ref": null, "intermittent": null, "lanes": null, "layer": null, "leaf_type": null, "lit": null, "maxspeed": null, "maxspeed:forward": null, "maxspeed:type": null, "name": null, "name:de": null, "name:el": null, "name:en": null, "natural": null, "noexit": null, "oneway": null, "parking": null, "ref": null, "religion": null, "short_name": null, "shoulder": null, "source": null, "source:ref": null, "surface": null, "tourism": null, "tunnel": null, "waterway": null, "wikidata": null, "zone:traffic": null, "label": "building:yes" }, "geometry": { "type": "Polygon", "coordinates": [ [ [ 24.8121602, 35.3992973 ], [ 24.8121578, 35.3993633 ], [ 24.8122339, 35.3993652 ], [ 24.8122356, 35.3993175 ], [ 24.8122935, 35.3993189 ], [ 24.8123109, 35.3988455 ], [ 24.8122038, 35.3988429 ], [ 24.8122017, 35.3989003 ], [ 24.812152, 35.3988991 ], [ 24.8121373, 35.3992967 ], [ 24.8121602, 35.3992973 ] ] ] } },
{ "type": "Feature", "properties": { "@type": "way", "@id": 487540800, "access": null, "admin_level": null, "amenity": null, "barrier": null, "building": "yes", "denomination": null, "distance": null, "ele": null, "highway": null, "int_name": null, "int_ref": null, "intermittent": null, "lanes": null, "layer": null, "leaf_type": null, "lit": null, "maxspeed": null, "maxspeed:forward": null, "maxspeed:type": null, "name": null, "name:de": null, "name:el": null, "name:en": null, "natural": null, "noexit": null, "oneway": null, "parking": null, "ref": null, "religion": null, "short_name": null, "shoulder": null, "source": null, "source:ref": null, "surface": null, "tourism": null, "tunnel": null, "waterway": null, "wikidata": null, "zone:traffic": null, "label": "building:yes" }, "geometry": { "type": "Polygon", "coordinates": [ [ [ 24.8162081, 35.4007466 ], [ 24.8162659, 35.4007379 ], [ 24.8163119, 35.4009401 ], [ 24.8163662, 35.4009318 ], [ 24.8163742, 35.4009669 ], [ 24.8164518, 35.4009551 ], [ 24.8164365, 35.4008879 ], [ 24.8165689, 35.4008679 ], [ 24.8165099, 35.4006086 ], [ 24.8161878, 35.4006573 ], [ 24.8162081, 35.4007466 ] ] ] } },
{ "type": "Feature", "properties": { "@type": "way", "@id": 487540801, "access": null, "admin_level": null, "amenity": null, "barrier": null, "building": "yes", "denomination": null, "distance": null, "ele": null, "highway": null, "int_name": null, "int_ref": null, "intermittent": null, "lanes": null, "layer": null, "leaf_type": null, "lit": null, "maxspeed": null, "maxspeed:forward": null, "maxspeed:type": null, "name": null, "name:de": null, "name:el": null, "name:en": null, "natural": null, "noexit": null, "oneway": null, "parking": null, "ref": null, "religion": null, "short_name": null, "shoulder": null, "source": null, "source:ref": null, "surface": null, "tourism": null, "tunnel": null, "waterway": null, "wikidata": null, "zone:traffic": null, "label": "building:yes" }, "geometry": { "type": "Polygon", "coordinates": [ [ [ 24.8162901, 35.4037195 ], [ 24.8165047, 35.4037015 ], [ 24.8164526, 35.4032888 ], [ 24.8162851, 35.4033028 ], [ 24.816327, 35.4036355 ], [ 24.81628, 35.4036394 ], [ 24.8162901, 35.4037195 ] ] ] } },
{ "type": "Feature", "properties": { "@type": "way", "@id": 712372803, "access": null, "admin_level": null, "amenity": null, "barrier": null, "building": null, "denomination": null, "distance": null, "ele": null, "highway": null, "int_name": null, "int_ref": null, "intermittent": null, "lanes": null, "layer": null, "leaf_type": null, "lit": null, "maxspeed": null, "maxspeed:forward": null, "maxspeed:type": null, "name": null, "name:de": null, "name:el": null, "name:en": null, "natural": "bare_rock", "noexit": null, "oneway": null, "parking": null, "ref": null, "religion": null, "short_name": null, "shoulder": null, "source": null, "source:ref": null, "surface": null, "tourism": null, "tunnel": null, "waterway": null, "wikidata": null, "zone:traffic": null, "label": "natural:bare_rock" }, "geometry": { "type": "Polygon", "coordinates": [ [ [ 24.8245949, 35.4149187 ], [ 24.8246448, 35.414916 ], [ 24.8247247, 35.4148916 ], [ 24.8247346, 35.4148645 ], [ 24.8246897, 35.4148604 ], [ 24.8246448, 35.4148686 ], [ 24.8245916, 35.4148713 ], [ 24.8245716, 35.4148984 ], [ 24.8245949, 35.4149187 ] ] ] } },
{ "type": "Feature", "properties": { "@type": "way", "@id": 1150294228, "access": null, "admin_level": null, "amenity": null, "barrier": null, "building": null, "denomination": null, "distance": null, "ele": null, "highway": null, "int_name": null, "int_ref": null, "intermittent": null, "lanes": null, "layer": null, "leaf_type": null, "lit": null, "maxspeed": null, "maxspeed:forward": null, "maxspeed:type": null, "name": null, "name:de": null, "name:el": null, "name:en": null, "natural": "scree", "noexit": null, "oneway": null, "parking": null, "ref": null, "religion": null, "short_name": null, "shoulder": null, "source": null, "source:ref": null, "surface": null, "tourism": null, "tunnel": null, "waterway": null, "wikidata": null, "zone:traffic": null, "label": "natural:scree" }, "geometry": { "type": "Polygon", "coordinates": [ [ [ 24.8029158, 35.4072053 ], [ 24.8029158, 35.4073654 ], [ 24.8029565, 35.4075311 ], [ 24.803031, 35.4076305 ], [ 24.803031, 35.4074262 ], [ 24.803031, 35.4073102 ], [ 24.8030378, 35.4071611 ], [ 24.8031191, 35.4070617 ], [ 24.8032139, 35.4070562 ], [ 24.8032207, 35.4068794 ], [ 24.8032207, 35.4067524 ], [ 24.803302, 35.4065702 ], [ 24.8033156, 35.4063769 ], [ 24.8033223, 35.4062002 ], [ 24.8032817, 35.406029 ], [ 24.8031936, 35.4058633 ], [ 24.8031801, 35.4056755 ], [ 24.8031868, 35.4055375 ], [ 24.8031055, 35.4053718 ], [ 24.8030649, 35.4052116 ], [ 24.8029903, 35.4054105 ], [ 24.8029565, 35.4055596 ], [ 24.8029361, 35.4057584 ], [ 24.8029497, 35.4058854 ], [ 24.8029903, 35.4060014 ], [ 24.8029361, 35.406167 ], [ 24.8029429, 35.4063548 ], [ 24.8029632, 35.4065039 ], [ 24.8029294, 35.4065978 ], [ 24.8029497, 35.4067303 ], [ 24.80297, 35.4068353 ], [ 24.8028887, 35.4069291 ], [ 24.8028819, 35.4070672 ], [ 24.8029158, 35.4072053 ] ] ] } },
{ "type": "Feature", "properties": { "@type": "way", "@id": 1327094207, "access": null, "admin_level": null, "amenity": null, "barrier": null, "building": null, "denomination": null, "distance": null, "ele": null, "highway": null, "int_name": null, "int_ref": null, "intermittent": null, "lanes": null, "layer": null, "leaf_type": null, "lit": null, "maxspeed": null, "maxspeed:forward": null, "maxspeed:type": null, "name": null, "name:de": null, "name:el": null, "name:en": null, "natural": "scrub", "noexit": null, "oneway": null, "parking": null, "ref": null, "religion": null, "short_name": null, "shoulder": null, "source": null, "source:ref": null, "surface": null, "tourism": null, "tunnel": null, "waterway": null, "wikidata": null, "zone:traffic": null, "label": "natural:scrub" }, "geometry": { "type": "Polygon", "coordinates": [ [ [ 24.8124024, 35.407878 ], [ 24.8124778, 35.4078433 ], [ 24.8126025, 35.407731 ], [ 24.8127238, 35.4076615 ], [ 24.8128779, 35.407584 ], [ 24.8130321, 35.4074824 ], [ 24.8131436, 35.4073488 ], [ 24.8132026, 35.4071751 ], [ 24.8133075, 35.4069986 ], [ 24.813419, 35.4068623 ], [ 24.8135436, 35.4067581 ], [ 24.8136945, 35.4066619 ], [ 24.8138224, 35.4065977 ], [ 24.8138519, 35.406416 ], [ 24.8139011, 35.4063117 ], [ 24.814006, 35.4061781 ], [ 24.8141208, 35.4060845 ], [ 24.814229, 35.405991 ], [ 24.8143274, 35.4058947 ], [ 24.814452, 35.4058306 ], [ 24.8145504, 35.4058306 ], [ 24.8146258, 35.4057905 ], [ 24.8146619, 35.4056916 ], [ 24.8144815, 35.4057557 ], [ 24.8142553, 35.4058653 ], [ 24.8140323, 35.4060204 ], [ 24.8137142, 35.406309 ], [ 24.8129665, 35.4071403 ], [ 24.8123204, 35.4078753 ], [ 24.8124024, 35.407878 ] ] ] } },
{ "type": "Feature", "properties": { "@type": "way", "@id": 1327094208, "access": null, "admin_level": null, "amenity": null, "barrier": null, "building": null, "denomination": null, "distance": null, "ele": null, "highway": null, "int_name": null, "int_ref": null, "intermittent": null, "lanes": null, "layer": null, "leaf_type": null, "lit": null, "maxspeed": null, "maxspeed:forward": null, "maxspeed:type": null, "name": null, "name:de": null, "name:el": null, "name:en": null, "natural": "scrub", "noexit": null, "oneway": null, "parking": null, "ref": null, "religion": null, "short_name": null, "shoulder": null, "source": null, "source:ref": null, "surface": null, "tourism": null, "tunnel": null, "waterway": null, "wikidata": null, "zone:traffic": null, "label": "natural:scrub" }, "geometry": { "type": "Polygon", "coordinates": [ [ [ 24.8098084, 35.4092331 ], [ 24.8102118, 35.4091022 ], [ 24.8105233, 35.4089872 ], [ 24.8106775, 35.4089177 ], [ 24.8110021, 35.4087681 ], [ 24.8112546, 35.4086531 ], [ 24.8114448, 35.4085596 ], [ 24.811658, 35.4084393 ], [ 24.8118253, 35.4083484 ], [ 24.8119761, 35.4082549 ], [ 24.8120974, 35.4081373 ], [ 24.8121958, 35.4080838 ], [ 24.8122581, 35.4080437 ], [ 24.8122712, 35.4079983 ], [ 24.8122483, 35.4079662 ], [ 24.8119728, 35.408172 ], [ 24.8117957, 35.4082896 ], [ 24.8113333, 35.4085489 ], [ 24.8105004, 35.4089231 ], [ 24.809792, 35.4091984 ], [ 24.8098084, 35.4092331 ] ] ] } }
]
}
