{
"type": "FeatureCollection",
"name": "patch_42693_linestring",
"crs": { "type": "name", "properties": { "name": "urn:ogc:def:crs:OGC:1.3:CRS84" } },
"features": [
{ "type": "Feature", "properties": { "@type": "way", "@id": 434989660, "access": null, "admin_level": "7", "amenity": null, "barrier": null, "building": null, "denomination": null, "distance": null, "ele": null, "highway": null, "int_name": null, "int_ref": null, "intermittent": null, "lanes": null, "layer": null, "leaf_type": null, "lit": null, "maxspeed": null, "maxspeed:forward": null, "maxspeed:type": null, "name": null, "name:de": null, "name:el": null, "name:en": null, "natural": "coastline", "noexit": null, "oneway": null, "parking": null, "ref": null, "religion": null, "short_name": null, "shoulder": null, "source": null, "source:ref": null, "surface": null, "tourism": null, "tunnel": null, "waterway": null, "wikidata": null, "zone:traffic": null, "label": "natural:coastline" }, "geometry": { "type": "MultiLineString", "coordinates": [ [ [ 24.828290588033834, 35.409832498301164 ], [ 24.8281785, 35.4099506 ], [ 24.8280467, 35.4101061 ], [ 24.8280085, 35.410191 ], [ 24.8279981, 35.4103324 ], [ 24.8280606, 35.4104427 ], [ 24.8282375, 35.4105954 ], [ 24.828290588033834, 35.410635002065298 ] ], [ [ 24.828290588033834, 35.413249882466182 ], [ 24.8282427, 35.4133003 ], [ 24.828290588033834, 35.413360983716473 ] ], [ [ 24.828290588033834, 35.413427124186022 ], [ 24.8282809, 35.4134587 ], [ 24.8281976, 35.4135294 ], [ 24.828156, 35.4135859 ], [ 24.8282289, 35.4136199 ], [ 24.828290588033834, 35.413655489250289 ] ], [ [ 24.828290588033834, 35.413708540967946 ], [ 24.8282462, 35.4137924 ], [ 24.8281153, 35.4138153 ], [ 24.8279443, 35.4137132 ], [ 24.827927, 35.4136312 ], [ 24.8278263, 35.4135746 ], [ 24.8276563, 35.413552 ], [ 24.8275453, 35.4134756 ], [ 24.8274794, 35.4134558 ], [ 24.8274098, 35.4135123 ], [ 24.8273579, 35.4136877 ], [ 24.8274516, 35.4137386 ], [ 24.8275071, 35.4138291 ], [ 24.8275175, 35.4138942 ], [ 24.8275384, 35.4140554 ], [ 24.8275071, 35.4142052 ], [ 24.827403, 35.414324 ], [ 24.8274655, 35.4143721 ], [ 24.8276123, 35.4144317 ], [ 24.827698, 35.4145135 ], [ 24.8276529, 35.4146011 ], [ 24.8275939, 35.4146407 ], [ 24.8274794, 35.4146633 ], [ 24.8274828, 35.4147425 ], [ 24.8274655, 35.4149433 ], [ 24.8273787, 35.4150904 ], [ 24.8272989, 35.415195 ], [ 24.8271463, 35.4152402 ], [ 24.8270665, 35.4152176 ], [ 24.8269173, 35.4151526 ], [ 24.8267646, 35.4151893 ], [ 24.8266084, 35.4152515 ], [ 24.8264731, 35.4153392 ], [ 24.8263517, 35.4153392 ], [ 24.8262823, 35.4154495 ], [ 24.826258, 35.4155683 ] ] ] } }
]
}
