{
"type": "FeatureCollection",
"name": "patch_62843_point",
"crs": { "type": "name", "properties": { "name": "urn:ogc:def:crs:OGC:1.3:CRS84" } },
"features": [
{ "type": "Feature", "properties": { "@type": "node", "@id": 1888578930, "amenity": null, "archaeological_site": null, "barrier": null, "boundary": null, "building": null, "castle_type": "defensive", "denomination": null, "description": null, "ele": null, "foot": null, "generator:method": null, "generator:output:electricity": null, "generator:source": null, "generator:type": null, "highway": null, "historic": "castle", "historic:civilization": "ancient_greek", "image": "https://www.kastra.eu/pics/armena6.jpg", "int_name": null, "landuse": null, "lanes": null, "leaf_type": null, "lit": null, "man_made": null, "material": null, "maxspeed": null, "name": "Ακρόπολη των Στύρων", "name:el": "Ακρόπολη των Στύρων", "name:en": "Acropolis of Styra - Kastro Armeno", "name:fr": null, "name:ru": null, "natural": null, "note": null, "power": null, "religion": null, "smoothness": null, "source": "https://www.kastra.eu/castlegr.php?kastro=armenon", "surface": null, "toilets": null, "tourism": null, "trail_visibility": null, "width": null, "wikidata": "Q18419527", "wikipedia": "el:Κάστρο των Αρμένων", "label": "historic:castle" }, "geometry": { "type": "Point", "coordinates": [ 24.2617647, 38.1458429 ] } },
{ "type": "Feature", "properties": { "@type": "node", "@id": 8084102917, "amenity": null, "archaeological_site": null, "barrier": null, "boundary": null, "building": null, "castle_type": null, "denomination": null, "description": null, "ele": "563", "foot": null, "generator:method": null, "generator:output:electricity": null, "generator:source": null, "generator:type": null, "highway": null, "historic": null, "historic:civilization": null, "image": null, "int_name": null, "landuse": null, "lanes": null, "leaf_type": null, "lit": null, "man_made": null, "material": null, "maxspeed": null, "name": null, "name:el": null, "name:en": null, "name:fr": "Cabane en ruines", "name:ru": null, "natural": null, "note": null, "power": null, "religion": null, "smoothness": null, "source": null, "surface": null, "toilets": null, "tourism": "wilderness_hut", "trail_visibility": null, "width": null, "wikidata": null, "wikipedia": null, "label": "tourism:wilderness_hut" }, "geometry": { "type": "Point", "coordinates": [ 24.2664733, 38.1482763 ] } },
{ "type": "Feature", "properties": { "@type": "node", "@id": 8740341248, "amenity": null, "archaeological_site": null, "barrier": null, "boundary": null, "building": null, "castle_type": null, "denomination": null, "description": null, "ele": "592", "foot": null, "generator:method": null, "generator:output:electricity": null, "generator:source": null, "generator:type": null, "highway": null, "historic": null, "historic:civilization": null, "image": null, "int_name": null, "landuse": null, "lanes": null, "leaf_type": null, "lit": null, "man_made": "survey_point", "material": null, "maxspeed": null, "name": null, "name:el": null, "name:en": null, "name:fr": null, "name:ru": null, "natural": "peak", "note": null, "power": null, "religion": null, "smoothness": null, "source": null, "surface": null, "toilets": null, "tourism": null, "trail_visibility": null, "width": null, "wikidata": null, "wikipedia": null, "label": "natural:peak" }, "geometry": { "type": "Point", "coordinates": [ 24.28322, 38.1561001 ] } },
{ "type": "Feature", "properties": { "@type": "node", "@id": 8740341251, "amenity": null, "archaeological_site": null, "barrier": null, "boundary": null, "building": null, "castle_type": null, "denomination": null, "description": null, "ele": "648", "foot": null, "generator:method": null, "generator:output:electricity": null, "generator:source": null, "generator:type": null, "highway": null, "historic": null, "historic:civilization": null, "image": null, "int_name": null, "landuse": null, "lanes": null, "leaf_type": null, "lit": null, "man_made": "survey_point", "material": null, "maxspeed": null, "name": "Άγιος Νικόλαος", "name:el": null, "name:en": null, "name:fr": null, "name:ru": null, "natural": "peak", "note": null, "power": null, "religion": null, "smoothness": null, "source": null, "surface": null, "toilets": null, "tourism": null, "trail_visibility": null, "width": null, "wikidata": null, "wikipedia": null, "label": "natural:peak" }, "geometry": { "type": "Point", "coordinates": [ 24.2620429, 38.1460759 ] } },
{ "type": "Feature", "properties": { "@type": "node", "@id": 13143959368, "amenity": null, "archaeological_site": "megalith", "barrier": null, "boundary": null, "building": null, "castle_type": null, "denomination": null, "description": "https://www.youtube.com/watch?v=ilSyrSfA_5Q&ab_channel=Wanderers", "ele": null, "foot": null, "generator:method": null, "generator:output:electricity": null, "generator:source": null, "generator:type": null, "highway": null, "historic": "archaeological_site", "historic:civilization": "prehistoric", "image": null, "int_name": "Drakospita (Dragon Houses)", "landuse": null, "lanes": null, "leaf_type": null, "lit": null, "man_made": null, "material": null, "maxspeed": null, "name": "Δρακόσπιτα", "name:el": "Δρακόσπιτα Πάλλη Λάκκα", "name:en": "Drakospita (Dragon Houses)", "name:fr": null, "name:ru": "Драгоспита (Драконовы дома)", "natural": null, "note": null, "power": null, "religion": null, "smoothness": null, "source": null, "surface": null, "toilets": null, "tourism": null, "trail_visibility": null, "width": null, "wikidata": null, "wikipedia": null, "label": "historic:archaeological_site" }, "geometry": { "type": "Point", "coordinates": [ 24.2636081, 38.1528931 ] } },
{ "type": "Feature", "properties": { "@type": "node", "@id": 13481239124, "amenity": null, "archaeological_site": null, "barrier": null, "boundary": null, "building": null, "castle_type": null, "denomination": null, "description": null, "ele": null, "foot": null, "generator:method": null, "generator:output:electricity": null, "generator:source": null, "generator:type": null, "highway": null, "historic": "city_gate", "historic:civilization": null, "image": null, "int_name": null, "landuse": null, "lanes": null, "leaf_type": null, "lit": null, "man_made": null, "material": null, "maxspeed": null, "name": null, "name:el": null, "name:en": null, "name:fr": null, "name:ru": null, "natural": null, "note": null, "power": null, "religion": null, "smoothness": null, "source": null, "surface": null, "toilets": null, "tourism": null, "trail_visibility": null, "width": null, "wikidata": null, "wikipedia": null, "label": "historic:city_gate" }, "geometry": { "type": "Point", "coordinates": [ 24.2603256, 38.1452081 ] } }
]
}
