{
"type": "FeatureCollection",
"name": "patch_46522_linestring",
"crs": { "type": "name", "properties": { "name": "urn:ogc:def:crs:OGC:1.3:CRS84" } },
"features": [
{ "type": "Feature", "properties": { "osm_id": 10135193, "name": null, "label": "natural:coastline", "natural": "coastline" }, "geometry": { "type": "LineString", "coordinates": [ [ 19.831584582988842, 39.571298357102584 ], [ 19.8317681, 39.570912500207811 ], [ 19.8319585, 39.570378800207749 ], [ 19.8317965, 39.570018700207712 ], [ 19.8316087, 39.569637400207654 ], [ 19.8317847, 39.569298600207603 ], [ 19.8323311, 39.568918900207535 ], [ 19.8323458, 39.567004500207283 ], [ 19.8325923, 39.566619700207227 ], [ 19.8329439, 39.566534700207207 ], [ 19.8335051, 39.566804900207245 ], [ 19.8337021, 39.566843200207259 ], [ 19.8339849, 39.566620900207212 ], [ 19.8343318, 39.566019500207148 ], [ 19.8343071, 39.565429800207042 ], [ 19.8340871, 39.565145900207007 ], [ 19.8341992, 39.564693100206959 ], [ 19.8340385, 39.564300000206899 ], [ 19.8337612, 39.564329200206906 ], [ 19.8334946, 39.564321100206897 ], [ 19.8334251, 39.564259400206886 ], [ 19.8336417, 39.564036000206862 ], [ 19.8340353, 39.563944800206841 ], [ 19.8336714, 39.563589200206799 ], [ 19.8337905, 39.563361900206758 ], [ 19.8339978, 39.563395300206778 ], [ 19.8341791, 39.563220500206747 ], [ 19.8342363, 39.563137300206719 ], [ 19.8342057, 39.563039100206709 ], [ 19.8340511, 39.562433400206629 ], [ 19.8338975, 39.562270700206604 ], [ 19.8339539, 39.562226000206614 ], [ 19.8340578, 39.562222400206601 ], [ 19.8341812, 39.562275300206608 ], [ 19.8340055, 39.562067600206568 ], [ 19.8340935, 39.561946400206551 ], [ 19.8342492, 39.561930800206561 ], [ 19.8343635, 39.562001800206566 ], [ 19.8344081, 39.561954800206571 ], [ 19.8344157, 39.561818400206548 ], [ 19.8344624, 39.561821300206553 ], [ 19.8346201, 39.562005200206571 ], [ 19.8347247, 39.561992900206569 ], [ 19.8347721, 39.561921000206546 ], [ 19.8346633, 39.561796300206531 ], [ 19.8345924, 39.561704600206525 ], [ 19.8343068, 39.56162000020651 ], [ 19.834278, 39.561525600206508 ], [ 19.8343447, 39.561472300206482 ], [ 19.8343319, 39.561256900206452 ], [ 19.8344059, 39.561188500206455 ], [ 19.8345686, 39.56117040020645 ], [ 19.8348322, 39.56129410020646 ], [ 19.8350041, 39.561355600206468 ], [ 19.834992, 39.561479900206493 ], [ 19.8352801, 39.561455700206501 ], [ 19.8353635, 39.561548000206507 ], [ 19.8355592, 39.561385300206481 ], [ 19.8355963, 39.561211800206458 ], [ 19.8362586, 39.5614951002065 ], [ 19.8366312, 39.561566400206495 ], [ 19.8369696, 39.561365200206467 ], [ 19.837152, 39.561276700206456 ], [ 19.8375585, 39.561206200206463 ], [ 19.8378233, 39.56099780020643 ], [ 19.838004, 39.560666900206385 ], [ 19.8382966, 39.560537000206367 ], [ 19.8389487, 39.560169500206321 ], [ 19.8394352, 39.559640700206238 ], [ 19.8395803, 39.55910990020616 ], [ 19.8395947, 39.558571800206082 ], [ 19.8400888, 39.558307200206059 ], [ 19.8407509, 39.558215400206031 ], [ 19.842048, 39.557155400205893 ], [ 19.8431906, 39.556020100205714 ], [ 19.8436058, 39.555606500205677 ], [ 19.8439822, 39.555132300205592 ], [ 19.8439682, 39.554984100205573 ], [ 19.844423762719519, 39.554412945017368 ] ] } },
{ "type": "Feature", "properties": { "osm_id": 10135299, "name": null, "label": "natural:coastline", "natural": "coastline" }, "geometry": { "type": "LineString", "coordinates": [ [ 19.8297427, 39.567667700207373 ], [ 19.8297811, 39.567678700207381 ], [ 19.8298002, 39.567722900207386 ], [ 19.829825, 39.567771300207376 ], [ 19.829831, 39.567835300207385 ], [ 19.8298344, 39.567899900207401 ], [ 19.8298442, 39.567954900207418 ], [ 19.8297919, 39.568015900207413 ], [ 19.8297081, 39.56820970020744 ], [ 19.8297128, 39.568328900207462 ], [ 19.8296691, 39.568537000207499 ], [ 19.8296748, 39.568550000207495 ], [ 19.829679, 39.568556000207494 ], [ 19.8296877, 39.568568200207501 ], [ 19.8296852, 39.568648900207506 ], [ 19.8296694, 39.568748900207524 ], [ 19.8295743, 39.568791400207523 ], [ 19.8292882, 39.568810400207525 ], [ 19.8291614, 39.568829000207529 ], [ 19.8291238, 39.568885000207544 ], [ 19.8290489, 39.568920300207544 ], [ 19.8289671, 39.56887490020754 ], [ 19.8289133, 39.568750300207512 ], [ 19.8289292, 39.568694700207509 ], [ 19.8289491, 39.568622800207507 ], [ 19.8289305, 39.568608500207503 ], [ 19.8289434, 39.568544700207489 ], [ 19.828973, 39.568458100207486 ], [ 19.8290062, 39.568367700207475 ], [ 19.8290305, 39.568326100207472 ], [ 19.8290332, 39.568288600207474 ], [ 19.8290464, 39.568245900207458 ], [ 19.8290486, 39.568229900207449 ], [ 19.8290402, 39.568219700207443 ], [ 19.8290363, 39.56820570020745 ], [ 19.8290407, 39.568185200207445 ], [ 19.8290588, 39.568161700207433 ], [ 19.8290792, 39.568149100207442 ], [ 19.8290739, 39.568135100207435 ], [ 19.8291073, 39.568055500207429 ], [ 19.8291314, 39.567998300207414 ], [ 19.829142, 39.56791410020741 ], [ 19.8292066, 39.567869800207404 ], [ 19.8292154, 39.567854400207388 ], [ 19.829242, 39.567789000207398 ], [ 19.8292455, 39.567764400207388 ], [ 19.8292376, 39.567733700207384 ], [ 19.8292345, 39.56771940020738 ], [ 19.829234, 39.567704000207378 ], [ 19.8292389, 39.567694500207381 ], [ 19.8292497, 39.567690300207374 ], [ 19.8293005, 39.567708100207376 ], [ 19.8293437, 39.56770210020737 ], [ 19.8293714, 39.567673600207378 ], [ 19.8294145, 39.567670100207366 ], [ 19.829433, 39.567652300207364 ], [ 19.8294684, 39.567643900207372 ], [ 19.8294993, 39.567608300207361 ], [ 19.8295347, 39.567610700207375 ], [ 19.8296025, 39.567642800207366 ], [ 19.8297427, 39.567667700207373 ] ] } },
{ "type": "Feature", "properties": { "osm_id": 512848985, "name": null, "label": "natural:coastline", "natural": "coastline" }, "geometry": { "type": "LineString", "coordinates": [ [ 19.8296868, 39.567605000207365 ], [ 19.8296378, 39.567605000207365 ], [ 19.8296331, 39.567572600207349 ], [ 19.8296752, 39.56754740020736 ], [ 19.8297149, 39.567552800207345 ], [ 19.8297545, 39.567570800207349 ], [ 19.8297452, 39.567599600207366 ], [ 19.8296868, 39.567605000207365 ] ] } },
{ "type": "Feature", "properties": { "osm_id": 512848880, "name": null, "label": "natural:coastline", "natural": "coastline" }, "geometry": { "type": "LineString", "coordinates": [ [ 19.8297242, 39.567524000207356 ], [ 19.8296611, 39.567509600207352 ], [ 19.8296285, 39.567471800207358 ], [ 19.8296448, 39.567428600207336 ], [ 19.8297078, 39.567399800207333 ], [ 19.8297779, 39.567414200207324 ], [ 19.8298293, 39.567426800207336 ], [ 19.829862, 39.567464600207352 ], [ 19.8298479, 39.567506000207345 ], [ 19.8298059, 39.567527600207349 ], [ 19.8297242, 39.567524000207356 ] ] } },
{ "type": "Feature", "properties": { "osm_id": 1303465391, "name": null, "label": "natural:coastline", "natural": "coastline" }, "geometry": { "type": "LineString", "coordinates": [ [ 19.8306299, 39.570921700207819 ], [ 19.8306122, 39.570909400207825 ], [ 19.8306122, 39.570884800207828 ], [ 19.8306176, 39.57086850020783 ], [ 19.8306246, 39.570850700207821 ], [ 19.8306423, 39.57085210020783 ], [ 19.83066, 39.570856200207828 ], [ 19.8306712, 39.570868700207811 ], [ 19.8306795, 39.570893000207825 ], [ 19.8306706, 39.570912100207821 ], [ 19.8306547, 39.570923000207827 ], [ 19.8306299, 39.570921700207819 ] ] } },
{ "type": "Feature", "properties": { "osm_id": 512849192, "name": null, "label": "natural:coastline", "natural": "coastline" }, "geometry": { "type": "LineString", "coordinates": [ [ 19.8327419, 39.565083000207011 ], [ 19.8326884, 39.565063400206988 ], [ 19.8326954, 39.565029200206993 ], [ 19.8327444, 39.564998600207005 ], [ 19.8328215, 39.564996800206998 ], [ 19.8328679, 39.564995400206989 ], [ 19.8328598, 39.565050100206996 ], [ 19.8328016, 39.565086600207003 ], [ 19.8327419, 39.565083000207011 ] ] } },
{ "type": "Feature", "properties": { "osm_id": 1303465388, "name": null, "label": "natural:coastline", "natural": "coastline" }, "geometry": { "type": "LineString", "coordinates": [ [ 19.8332674, 39.563896900206842 ], [ 19.8332254, 39.563877400206842 ], [ 19.8332022, 39.56383690020683 ], [ 19.8332527, 39.563832100206824 ], [ 19.8332926, 39.563848300206836 ], [ 19.8332968, 39.563877400206842 ], [ 19.8332674, 39.563896900206842 ] ] } },
{ "type": "Feature", "properties": { "osm_id": 1303465386, "name": null, "label": "natural:coastline", "natural": "coastline" }, "geometry": { "type": "LineString", "coordinates": [ [ 19.8331896, 39.564128500206877 ], [ 19.833156, 39.564139900206875 ], [ 19.8330867, 39.564128500206877 ], [ 19.8331203, 39.564107500206866 ], [ 19.8331518, 39.564070200206856 ], [ 19.8331896, 39.564078300206859 ], [ 19.8332085, 39.564101000206875 ], [ 19.8331896, 39.564128500206877 ] ] } },
{ "type": "Feature", "properties": { "osm_id": 540167046, "name": null, "label": "natural:coastline", "natural": "coastline" }, "geometry": { "type": "LineString", "coordinates": [ [ 19.8335696, 39.56298540020672 ], [ 19.8335519, 39.562963600206707 ], [ 19.8335395, 39.562937600206688 ], [ 19.8335554, 39.562924000206706 ], [ 19.8335873, 39.562919900206701 ], [ 19.833628, 39.562919900206701 ], [ 19.8336456, 39.562936300206694 ], [ 19.8336403, 39.562969000206706 ], [ 19.8336209, 39.562989500206712 ], [ 19.8336014, 39.562997700206701 ], [ 19.8335696, 39.56298540020672 ] ] } },
{ "type": "Feature", "properties": { "osm_id": 540167047, "name": null, "label": "natural:coastline", "natural": "coastline" }, "geometry": { "type": "LineString", "coordinates": [ [ 19.8393861, 39.559119800206155 ], [ 19.8393793, 39.559100200206167 ], [ 19.8393841, 39.559078400206161 ], [ 19.8394042, 39.559067600206149 ], [ 19.8394297, 39.559068600206153 ], [ 19.8394458, 39.559078400206161 ], [ 19.8394478, 39.559099100206168 ], [ 19.8394418, 39.559114600206158 ], [ 19.8394289, 39.55912480020617 ], [ 19.8394056, 39.559129100206164 ], [ 19.8393861, 39.559119800206155 ] ] } },
{ "type": "Feature", "properties": { "osm_id": 1292789557, "name": null, "label": "natural:coastline", "natural": "coastline" }, "geometry": { "type": "LineString", "coordinates": [ [ 19.8396587, 39.558428700206065 ], [ 19.8396502, 39.558421600206081 ], [ 19.8396341, 39.558406100206057 ], [ 19.8396476, 39.55838960020607 ], [ 19.839661, 39.558388500206043 ], [ 19.8396851, 39.558399900206048 ], [ 19.8396878, 39.558422600206065 ], [ 19.839665, 39.55843400020607 ], [ 19.8396587, 39.558428700206065 ] ] } },
{ "type": "Feature", "properties": { "osm_id": 1292789558, "name": null, "label": "natural:coastline", "natural": "coastline" }, "geometry": { "type": "LineString", "coordinates": [ [ 19.8395879, 39.558336100206056 ], [ 19.8395644, 39.558352700206051 ], [ 19.8395437, 39.558348400206057 ], [ 19.8395362, 39.558325900206057 ], [ 19.8395428, 39.558310700206036 ], [ 19.8395465, 39.558296200206051 ], [ 19.8395616, 39.558282400206046 ], [ 19.8395841, 39.558284600206044 ], [ 19.8396048, 39.55829550020605 ], [ 19.8396077, 39.558309200206047 ], [ 19.8396011, 39.558322300206058 ], [ 19.8395879, 39.558336100206056 ] ] } },
{ "type": "Feature", "properties": { "osm_id": 1292789555, "name": null, "label": "natural:coastline", "natural": "coastline" }, "geometry": { "type": "LineString", "coordinates": [ [ 19.8352806, 39.561369700206484 ], [ 19.8352525, 39.561361600206467 ], [ 19.8352262, 39.561349500206475 ], [ 19.8352105, 39.56134140020648 ], [ 19.835207, 39.561318400206467 ], [ 19.835228, 39.56129410020646 ], [ 19.8352718, 39.561291400206485 ], [ 19.8353279, 39.56130220020647 ], [ 19.8353174, 39.561345400206477 ], [ 19.8353016, 39.561364300206471 ], [ 19.8352806, 39.561369700206484 ] ] } },
{ "type": "Feature", "properties": { "osm_id": 1292789556, "name": null, "label": "natural:coastline", "natural": "coastline" }, "geometry": { "type": "LineString", "coordinates": [ [ 19.8352648, 39.56122110020646 ], [ 19.8352473, 39.561219700206465 ], [ 19.835221, 39.561198100206461 ], [ 19.8352052, 39.56118320020645 ], [ 19.8352105, 39.561164300206457 ], [ 19.8352333, 39.56115620020644 ], [ 19.8352666, 39.561165700206445 ], [ 19.8352841, 39.561190000206459 ], [ 19.8352858, 39.561210300206461 ], [ 19.8352648, 39.56122110020646 ] ] } }
]
}
